17     ?    N    ? P      ? 20180313 0000 14.2602 GAU 8.26e-03 ? ? ? ?
21     ?    N    ? P      ? 20180313 0000 14.2796 GAU 1.19e-02 ? ? ? ?
18     ?    N    ? P      ? 20180313 0000 14.2798 GAU 8.37e-03 ? ? ? ?
20     ?    N    ? P      ? 20180313 0000 14.2822 GAU 1.01e-02 ? ? ? ?
23     ?    N    ? P      ? 20180313 0000 14.2965 GAU 2.07e-02 ? ? ? ?
25     ?    N    ? P      ? 20180313 0000 14.2910 GAU 1.05e-02 ? ? ? ?
103    ?    N    ? P      ? 20180313 0000 14.3154 GAU 1.36e-02 ? ? ? ?
16     ?    N    ? P      ? 20180313 0000 14.3159 GAU 3.86e-03 ? ? ? ?

33     ?    N    ? P      ? 20180313 0000 17.2700 GAU 1.00e-02 ? ? ? ?
35     ?    N    ? P      ? 20180313 0000 17.2380 GAU 7.76e-03 ? ? ? ?
28     ?    N    ? P      ? 20180313 0000 17.3040 GAU 1.42e-02 ? ? ? ?
105    ?    N    ? P      ? 20180313 0000 17.3230 GAU 7.72e-03 ? ? ? ?
30     ?    N    ? P      ? 20180313 0000 17.3110 GAU 6.08e-03 ? ? ? ?
26     ?    N    ? P      ? 20180313 0000 17.4010 GAU 4.13e-03 ? ? ? ?
27     ?    N    ? P      ? 20180313 0000 17.9900 GAU 1.45e-02 ? ? ? ?

30     ?    N    ? P      ? 20180313 0000 25.1830 GAU 1.12e-02 ? ? ? ?
35     ?    N    ? P      ? 20180313 0000 25.1797 GAU 6.64e-03 ? ? ? ?
32     ?    N    ? P      ? 20180313 0000 25.1790 GAU 3.98e-03 ? ? ? ?
33     ?    N    ? P      ? 20180313 0000 25.1828 GAU 4.71e-03 ? ? ? ?
26     ?    N    ? P      ? 20180313 0000 25.1975 GAU 1.06e-02 ? ? ? ?
105    ?    N    ? P      ? 20180313 0000 25.1962 GAU 8.36e-03 ? ? ? ?
28     ?    N    ? P      ? 20180313 0000 25.1946 GAU 6.39e-03 ? ? ? ?
25     ?    N    ? P      ? 20180313 0000 25.2202 GAU 7.05e-03 ? ? ? ?
23     ?    N    ? P      ? 20180313 0000 25.2382 GAU 1.00e-02 ? ? ? ?
27     ?    N    ? P      ? 20180313 0000 25.2370 GAU 7.87e-03 ? ? ? ?
31     ?    N    ? P      ? 20180313 0000 25.2519 GAU 6.77e-03 ? ? ? ?

32     ?    N    ? P      ? 20180313 0000 29.6350 GAU 2.98e-02 ? ? ? ?
30     ?    N    ? P      ? 20180313 0000 29.6549 GAU 1.43e-02 ? ? ? ?
33     ?    N    ? P      ? 20180313 0000 29.6568 GAU 8.73e-03 ? ? ? ?
105    ?    N    ? P      ? 20180313 0000 29.6584 GAU 6.74e-03 ? ? ? ?
23     ?    N    ? P      ? 20180313 0000 29.6725 GAU 1.73e-02 ? ? ? ?
26     ?    N    ? P      ? 20180313 0000 29.6680 GAU 6.35e-03 ? ? ? ?
28     ?    N    ? P      ? 20180313 0000 29.6753 GAU 8.93e-03 ? ? ? ?

15     ?    N    ? P      ? 20180313 0000 42.3117 GAU 5.26e-03 ? ? ? ?
2      ?    N    ? P      ? 20180313 0000 42.3160 GAU 9.03e-03 ? ? ? ?
17     ?    N    ? P      ? 20180313 0000 42.3189 GAU 9.55e-03 ? ? ? ?
8      ?    N    ? P      ? 20180313 0000 42.3169 GAU 5.41e-03 ? ? ? ?
10     ?    N    ? P      ? 20180313 0000 42.3238 GAU 8.44e-03 ? ? ? ?
12     ?    N    ? P      ? 20180313 0000 42.3265 GAU 6.05e-03 ? ? ? ?
4      ?    N    ? P      ? 20180313 0000 42.3403 GAU 1.19e-02 ? ? ? ?
18     ?    N    ? P      ? 20180313 0000 42.3362 GAU 5.58e-03 ? ? ? ?
16     ?    N    ? P      ? 20180313 0000 42.3391 GAU 4.62e-03 ? ? ? ?
13     ?    N    ? P      ? 20180313 0000 42.3507 GAU 1.05e-02 ? ? ? ?
6      ?    N    ? P      ? 20180313 0000 42.3648 GAU 1.55e-02 ? ? ? ?
5      ?    N    ? P      ? 20180313 0000 42.3634 GAU 9.79e-03 ? ? ? ?
103    ?    N    ? P      ? 20180313 0000 42.3786 GAU 1.07e-02 ? ? ? ?

38     ?    N    ? P      ? 20180313 0000 42.6273 GAU 1.40e-02 ? ? ? ?
39     ?    N    ? P      ? 20180313 0000 42.6324 GAU 1.30e-02 ? ? ? ?
36     ?    N    ? P      ? 20180313 0000 42.6819 GAU 1.43e-02 ? ? ? ?
105    ?    N    ? P      ? 20180313 0000 42.8127 GAU 9.83e-03 ? ? ? ?
28     ?    N    ? P      ? 20180313 0000 42.8153 GAU 8.46e-03 ? ? ? ?
26     ?    N    ? P      ? 20180313 0000 42.8235 GAU 8.46e-03 ? ? ? ?
30     ?    N    ? P      ? 20180313 0000 42.8471 GAU 2.10e-02 ? ? ? ?
27     ?    N    ? P      ? 20180313 0000 42.8430 GAU 1.14e-02 ? ? ? ?

17     ?    N    ? P      ? 20180313 0000 48.3790 GAU 1.30e-02 ? ? ? ?
16     ?    N    ? P      ? 20180313 0000 48.3832 GAU 1.03e-02 ? ? ? ?
18     ?    N    ? P      ? 20180313 0000 48.3852 GAU 9.80e-03 ? ? ? ?
20     ?    N    ? P      ? 20180313 0000 48.3898 GAU 1.05e-02 ? ? ? ?
12     ?    N    ? P      ? 20180313 0000 48.3925 GAU 8.82e-03 ? ? ? ?
8      ?    N    ? P      ? 20180313 0000 48.3999 GAU 1.27e-02 ? ? ? ?
15     ?    N    ? P      ? 20180313 0000 48.3940 GAU 6.86e-03 ? ? ? ?
10     ?    N    ? P      ? 20180313 0000 48.4026 GAU 7.11e-03 ? ? ? ?
25     ?    N    ? P      ? 20180313 0000 48.4106 GAU 1.32e-02 ? ? ? ?
23     ?    N    ? P      ? 20180313 0000 48.4148 GAU 1.64e-02 ? ? ? ?
103    ?    N    ? P      ? 20180313 0000 48.4192 GAU 1.00e-02 ? ? ? ?
5      ?    N    ? P      ? 20180313 0000 48.4464 GAU 2.21e-02 ? ? ? ?
6      ?    N    ? P      ? 20180313 0000 48.4401 GAU 1.27e-02 ? ? ? ?
13     ?    N    ? P      ? 20180313 0000 48.4506 GAU 1.89e-02 ? ? ? ?
22     ?    N    ? P      ? 20180313 0000 48.4535 GAU 1.74e-02 ? ? ? ?

32     ?    N    ? P      ? 20180313 0000 50.3485 GAU 1.24e-02 ? ? ? ?
33     ?    N    ? P      ? 20180313 0000 50.3586 GAU 1.06e-02 ? ? ? ?
36     ?    N    ? P      ? 20180313 0000 50.3645 GAU 1.23e-02 ? ? ? ?
38     ?    N    ? P      ? 20180313 0000 50.3735 GAU 1.88e-02 ? ? ? ?
35     ?    N    ? P      ? 20180313 0000 50.3666 GAU 1.04e-02 ? ? ? ?
30     ?    N    ? P      ? 20180313 0000 50.3643 GAU 7.62e-03 ? ? ? ?
37     ?    N    ? P      ? 20180313 0000 50.3823 GAU 2.22e-02 ? ? ? ?
26     ?    N    ? P      ? 20180313 0000 50.3753 GAU 1.41e-02 ? ? ? ?
28     ?    N    ? P      ? 20180313 0000 50.3724 GAU 8.65e-03 ? ? ? ?
105    ?    N    ? P      ? 20180313 0000 50.3768 GAU 1.18e-02 ? ? ? ?
31     ?    N    ? P      ? 20180313 0000 50.3885 GAU 8.61e-03 ? ? ? ?
23     ?    N    ? P      ? 20180313 0000 50.3911 GAU 7.33e-03 ? ? ? ?
18     ?    N    ? P      ? 20180313 0000 50.4076 GAU 2.27e-02 ? ? ? ?
27     ?    N    ? P      ? 20180313 0000 50.3982 GAU 1.15e-02 ? ? ? ?
20     ?    N    ? P      ? 20180313 0000 50.4067 GAU 1.47e-02 ? ? ? ?
25     ?    N    ? P      ? 20180313 0000 50.4031 GAU 1.11e-02 ? ? ? ?
106    ?    N    ? P      ? 20180313 0000 50.4003 GAU 8.27e-03 ? ? ? ?
40     ?    N    ? P      ? 20180313 0000 50.4081 GAU 1.21e-02 ? ? ? ?
22     ?    N    ? P      ? 20180313 0000 50.4586 GAU 1.05e-02 ? ? ? ?

35     ?    N    ? P      ? 20180313 0000 56.3260 GAU 1.01e-02 ? ? ? ?
33     ?    N    ? P      ? 20180313 0000 56.3280 GAU 8.16e-03 ? ? ? ?
30     ?    N    ? P      ? 20180313 0000 56.3559 GAU 1.83e-02 ? ? ? ?
36     ?    N    ? P      ? 20180313 0000 56.3559 GAU 1.29e-02 ? ? ? ?
32     ?    N    ? P      ? 20180313 0000 56.3618 GAU 1.04e-02 ? ? ? ?
37     ?    N    ? P      ? 20180313 0000 56.4132 GAU 1.63e-02 ? ? ? ?
28     ?    N    ? P      ? 20180313 0000 56.4310 GAU 1.34e-02 ? ? ? ?
31     ?    N    ? P      ? 20180313 0000 56.4340 GAU 1.04e-02 ? ? ? ?

20     ?    N    ? P      ? 20180313 0001 06.9030 GAU 1.37e-02 ? ? ? ?
17     ?    N    ? P      ? 20180313 0001 06.9120 GAU 1.06e-02 ? ? ? ?
8      ?    N    ? P      ? 20180313 0001 06.1303 GAU 1.82e-02 ? ? ? ?
16     ?    N    ? P      ? 20180313 0001 06.1285 GAU 1.28e-02 ? ? ? ?
15     ?    N    ? P      ? 20180313 0001 06.1272 GAU 9.21e-03 ? ? ? ?
12     ?    N    ? P      ? 20180313 0001 06.1384 GAU 1.06e-02 ? ? ? ?
10     ?    N    ? P      ? 20180313 0001 06.1474 GAU 7.87e-03 ? ? ? ?
103    ?    N    ? P      ? 20180313 0001 06.1705 GAU 1.44e-02 ? ? ? ?
6      ?    N    ? P      ? 20180313 0001 06.1995 GAU 1.10e-02 ? ? ? ?
13     ?    N    ? P      ? 20180313 0001 06.2092 GAU 9.44e-03 ? ? ? ?

36     ?    N    ? P      ? 20180313 0001 18.1227 GAU 1.44e-02 ? ? ? ?
39     ?    N    ? P      ? 20180313 0001 18.1193 GAU 5.52e-03 ? ? ? ?
38     ?    N    ? P      ? 20180313 0001 18.1224 GAU 6.75e-03 ? ? ? ?
41     ?    N    ? P      ? 20180313 0001 18.1224 GAU 6.75e-03 ? ? ? ?
42     ?    N    ? P      ? 20180313 0001 18.1282 GAU 1.26e-02 ? ? ? ?
35     ?    N    ? P      ? 20180313 0001 18.1536 GAU 1.41e-02 ? ? ? ?
40     ?    N    ? P      ? 20180313 0001 18.1641 GAU 8.59e-03 ? ? ? ?
37     ?    N    ? P      ? 20180313 0001 18.1978 GAU 1.35e-02 ? ? ? ?

15     ?    N    ? P      ? 20180313 0001 25.5479 GAU 2.89e-03 ? ? ? ?
12     ?    N    ? P      ? 20180313 0001 25.5763 GAU 8.18e-03 ? ? ? ?
17     ?    N    ? P      ? 20180313 0001 25.5827 GAU 1.18e-02 ? ? ? ?
8      ?    N    ? P      ? 20180313 0001 25.5886 GAU 1.68e-02 ? ? ? ?
18     ?    N    ? P      ? 20180313 0001 25.5861 GAU 1.42e-02 ? ? ? ?
16     ?    N    ? P      ? 20180313 0001 25.5840 GAU 1.10e-02 ? ? ? ?
10     ?    N    ? P      ? 20180313 0001 25.5886 GAU 9.55e-03 ? ? ? ?
20     ?    N    ? P      ? 20180313 0001 25.6032 GAU 9.74e-03 ? ? ? ?
103    ?    N    ? P      ? 20180313 0001 25.5998 GAU 5.79e-03 ? ? ? ?
5      ?    N    ? P      ? 20180313 0001 25.6264 GAU 3.18e-02 ? ? ? ?
13     ?    N    ? P      ? 20180313 0001 25.6182 GAU 1.82e-02 ? ? ? ?
9      ?    N    ? P      ? 20180313 0001 25.6314 GAU 2.41e-02 ? ? ? ?
7      ?    N    ? P      ? 20180313 0001 25.6286 GAU 1.96e-02 ? ? ? ?
4      ?    N    ? P      ? 20180313 0001 25.6423 GAU 1.50e-02 ? ? ? ?
6      ?    N    ? P      ? 20180313 0001 25.6546 GAU 2.27e-02 ? ? ? ?
21     ?    N    ? P      ? 20180313 0001 25.6479 GAU 1.24e-02 ? ? ? ?

105    ?    N    ? P      ? 20180313 0001 29.8844 GAU 1.19e-02 ? ? ? ?
26     ?    N    ? P      ? 20180313 0001 29.8988 GAU 1.42e-02 ? ? ? ?
25     ?    N    ? P      ? 20180313 0001 29.9257 GAU 1.77e-02 ? ? ? ?
23     ?    N    ? P      ? 20180313 0001 29.9290 GAU 1.65e-02 ? ? ? ?
27     ?    N    ? P      ? 20180313 0001 29.9482 GAU 1.24e-02 ? ? ? ?

42     ?    N    ? P      ? 20180313 0001 35.3707 GAU 1.09e-02 ? ? ? ?
35     ?    N    ? P      ? 20180313 0001 35.3848 GAU 2.44e-02 ? ? ? ?
39     ?    N    ? P      ? 20180313 0001 35.3722 GAU 9.47e-03 ? ? ? ?
41     ?    N    ? P      ? 20180313 0001 35.3742 GAU 1.03e-02 ? ? ? ?
33     ?    N    ? P      ? 20180313 0001 35.3769 GAU 1.17e-02 ? ? ? ?
38     ?    N    ? P      ? 20180313 0001 35.3733 GAU 6.02e-03 ? ? ? ?
36     ?    N    ? P      ? 20180313 0001 35.3860 GAU 1.35e-02 ? ? ? ?
30     ?    N    ? P      ? 20180313 0001 35.4397 GAU 3.53e-02 ? ? ? ?
40     ?    N    ? P      ? 20180313 0001 35.4158 GAU 8.90e-03 ? ? ? ?
32     ?    N    ? P      ? 20180313 0001 35.4361 GAU 2.79e-02 ? ? ? ?
34     ?    N    ? P      ? 20180313 0001 35.4468 GAU 3.07e-02 ? ? ? ?
37     ?    N    ? P      ? 20180313 0001 35.4543 GAU 3.01e-02 ? ? ? ?

13     ?    N    ? P      ? 20180313 0001 47.4463 GAU 1.08e-02 ? ? ? ?
17     ?    N    ? P      ? 20180313 0001 47.5812 GAU 9.71e-03 ? ? ? ?
18     ?    N    ? P      ? 20180313 0001 47.5784 GAU 6.94e-03 ? ? ? ?
10     ?    N    ? P      ? 20180313 0001 47.5829 GAU 1.08e-02 ? ? ? ?
12     ?    N    ? P      ? 20180313 0001 47.5809 GAU 8.33e-03 ? ? ? ?
15     ?    N    ? P      ? 20180313 0001 47.5820 GAU 9.44e-03 ? ? ? ?
16     ?    N    ? P      ? 20180313 0001 47.5948 GAU 6.66e-03 ? ? ? ?
103    ?    N    ? P      ? 20180313 0001 47.5981 GAU 9.44e-03 ? ? ? ?
6      ?    N    ? P      ? 20180313 0001 47.6127 GAU 1.27e-02 ? ? ? ?
20     ?    N    ? P      ? 20180313 0001 47.6117 GAU 7.50e-03 ? ? ? ?

12     ?    N    ? P      ? 20180313 0001 49.5864 GAU 1.85e-02 ? ? ? ?
20     ?    N    ? P      ? 20180313 0001 49.5985 GAU 3.00e-02 ? ? ? ?
8      ?    N    ? P      ? 20180313 0001 49.5867 GAU 1.58e-02 ? ? ? ?
15     ?    N    ? P      ? 20180313 0001 49.5805 GAU 8.61e-03 ? ? ? ?
21     ?    N    ? P      ? 20180313 0001 49.6044 GAU 2.85e-02 ? ? ? ?
18     ?    N    ? P      ? 20180313 0001 49.5913 GAU 8.13e-03 ? ? ? ?
16     ?    N    ? P      ? 20180313 0001 49.5940 GAU 9.36e-03 ? ? ? ?
10     ?    N    ? P      ? 20180313 0001 49.5982 GAU 9.60e-03 ? ? ? ?
17     ?    N    ? P      ? 20180313 0001 49.6002 GAU 8.61e-03 ? ? ? ?
103    ?    N    ? P      ? 20180313 0001 49.6186 GAU 1.38e-02 ? ? ? ?
23     ?    N    ? P      ? 20180313 0001 49.6305 GAU 1.92e-02 ? ? ? ?
6      ?    N    ? P      ? 20180313 0001 49.6565 GAU 2.46e-02 ? ? ? ?
13     ?    N    ? P      ? 20180313 0001 49.6565 GAU 1.23e-02 ? ? ? ?
22     ?    N    ? P      ? 20180313 0001 49.6745 GAU 2.63e-02 ? ? ? ?
26     ?    N    ? P      ? 20180313 0001 49.6991 GAU 1.50e-02 ? ? ? ?

30     ?    N    ? P      ? 20180313 0001 53.8440 GAU 1.75e-02 ? ? ? ?
33     ?    N    ? P      ? 20180313 0001 53.1094 GAU 2.50e-02 ? ? ? ?
28     ?    N    ? P      ? 20180313 0001 53.1022 GAU 1.44e-02 ? ? ? ?
105    ?    N    ? P      ? 20180313 0001 53.1054 GAU 1.72e-02 ? ? ? ?
26     ?    N    ? P      ? 20180313 0001 53.1190 GAU 1.51e-02 ? ? ? ?
25     ?    N    ? P      ? 20180313 0001 53.1218 GAU 1.37e-02 ? ? ? ?
23     ?    N    ? P      ? 20180313 0001 53.1341 GAU 1.09e-02 ? ? ? ?
27     ?    N    ? P      ? 20180313 0001 53.1761 GAU 8.40e-03 ? ? ? ?

31     ?    N    ? P      ? 20180313 0002 17.7050 GAU 4.79e-02 ? ? ? ?
33     ?    N    ? P      ? 20180313 0002 17.7120 GAU 2.42e-02 ? ? ? ?
32     ?    N    ? P      ? 20180313 0002 17.7263 GAU 1.40e-02 ? ? ? ?
30     ?    N    ? P      ? 20180313 0002 17.7324 GAU 8.47e-03 ? ? ? ?
35     ?    N    ? P      ? 20180313 0002 17.7388 GAU 1.47e-02 ? ? ? ?
26     ?    N    ? P      ? 20180313 0002 17.7403 GAU 8.03e-03 ? ? ? ?
28     ?    N    ? P      ? 20180313 0002 17.7428 GAU 9.67e-03 ? ? ? ?
105    ?    N    ? P      ? 20180313 0002 17.7581 GAU 9.92e-03 ? ? ? ?
25     ?    N    ? P      ? 20180313 0002 17.7686 GAU 8.03e-03 ? ? ? ?
23     ?    N    ? P      ? 20180313 0002 17.7841 GAU 8.08e-03 ? ? ? ?
27     ?    N    ? P      ? 20180313 0002 17.7921 GAU 8.67e-03 ? ? ? ?
34     ?    N    ? P      ? 20180313 0002 17.8145 GAU 2.24e-02 ? ? ? ?

17     ?    N    ? P      ? 20180313 0002 20.1991 GAU 5.05e-02 ? ? ? ?
18     ?    N    ? P      ? 20180313 0002 20.1815 GAU 2.90e-02 ? ? ? ?
10     ?    N    ? P      ? 20180313 0002 20.1808 GAU 1.80e-02 ? ? ? ?
12     ?    N    ? P      ? 20180313 0002 20.1823 GAU 1.88e-02 ? ? ? ?
16     ?    N    ? P      ? 20180313 0002 20.1937 GAU 2.94e-02 ? ? ? ?
15     ?    N    ? P      ? 20180313 0002 20.1819 GAU 1.45e-02 ? ? ? ?
8      ?    N    ? P      ? 20180313 0002 20.1901 GAU 1.72e-02 ? ? ? ?
20     ?    N    ? P      ? 20180313 0002 20.2058 GAU 1.88e-02 ? ? ? ?
6      ?    N    ? P      ? 20180313 0002 20.2297 GAU 3.95e-02 ? ? ? ?
13     ?    N    ? P      ? 20180313 0002 20.2336 GAU 2.47e-02 ? ? ? ?

36     ?    N    ? P      ? 20180313 0002 26.8310 GAU 3.12e-02 ? ? ? ?
42     ?    N    ? P      ? 20180313 0002 26.6660 GAU 1.42e-02 ? ? ? ?
41     ?    N    ? P      ? 20180313 0002 26.7620 GAU 1.23e-02 ? ? ? ?
38     ?    N    ? P      ? 20180313 0002 26.8230 GAU 1.43e-02 ? ? ? ?
39     ?    N    ? P      ? 20180313 0002 26.7790 GAU 6.24e-03 ? ? ? ?
40     ?    N    ? P      ? 20180313 0002 26.1043 GAU 1.59e-02 ? ? ? ?
33     ?    N    ? P      ? 20180313 0002 26.2766 GAU 1.96e-02 ? ? ? ?
35     ?    N    ? P      ? 20180313 0002 26.2862 GAU 1.03e-02 ? ? ? ?
32     ?    N    ? P      ? 20180313 0002 26.3042 GAU 2.01e-02 ? ? ? ?
30     ?    N    ? P      ? 20180313 0002 26.3240 GAU 1.15e-02 ? ? ? ?
105    ?    N    ? P      ? 20180313 0002 26.3383 GAU 1.79e-02 ? ? ? ?
26     ?    N    ? P      ? 20180313 0002 26.3642 GAU 2.79e-02 ? ? ? ?
28     ?    N    ? P      ? 20180313 0002 26.3541 GAU 1.44e-02 ? ? ? ?
31     ?    N    ? P      ? 20180313 0002 26.3949 GAU 2.64e-02 ? ? ? ?

4      ?    N    ? P      ? 20180313 0002 49.8478 GAU 4.46e-02 ? ? ? ?
15     ?    N    ? P      ? 20180313 0002 49.8357 GAU 7.68e-03 ? ? ? ?
8      ?    N    ? P      ? 20180313 0002 49.8454 GAU 1.12e-02 ? ? ? ?
2      ?    N    ? P      ? 20180313 0002 49.8518 GAU 1.30e-02 ? ? ? ?
10     ?    N    ? P      ? 20180313 0002 49.8556 GAU 8.26e-03 ? ? ? ?
12     ?    N    ? P      ? 20180313 0002 49.8593 GAU 7.41e-03 ? ? ? ?
18     ?    N    ? P      ? 20180313 0002 49.8621 GAU 1.03e-02 ? ? ? ?
13     ?    N    ? P      ? 20180313 0002 49.8637 GAU 1.04e-02 ? ? ? ?
16     ?    N    ? P      ? 20180313 0002 49.8684 GAU 1.03e-02 ? ? ? ?
17     ?    N    ? P      ? 20180313 0002 49.8673 GAU 8.54e-03 ? ? ? ?
21     ?    N    ? P      ? 20180313 0002 49.8852 GAU 2.48e-02 ? ? ? ?
23     ?    N    ? P      ? 20180313 0002 49.8903 GAU 2.65e-02 ? ? ? ?
5      ?    N    ? P      ? 20180313 0002 49.8783 GAU 1.25e-02 ? ? ? ?
103    ?    N    ? P      ? 20180313 0002 49.8821 GAU 9.68e-03 ? ? ? ?
20     ?    N    ? P      ? 20180313 0002 49.8918 GAU 1.94e-02 ? ? ? ?
6      ?    N    ? P      ? 20180313 0002 49.8940 GAU 1.83e-02 ? ? ? ?
9      ?    N    ? P      ? 20180313 0002 49.8924 GAU 1.20e-02 ? ? ? ?
7      ?    N    ? P      ? 20180313 0002 49.8912 GAU 9.96e-03 ? ? ? ?
1      ?    N    ? P      ? 20180313 0002 49.9132 GAU 3.17e-02 ? ? ? ?
26     ?    N    ? P      ? 20180313 0002 49.9066 GAU 1.82e-02 ? ? ? ?
27     ?    N    ? P      ? 20180313 0002 49.9191 GAU 2.45e-02 ? ? ? ?
25     ?    N    ? P      ? 20180313 0002 49.9199 GAU 2.42e-02 ? ? ? ?
3      ?    N    ? P      ? 20180313 0002 49.9230 GAU 2.18e-02 ? ? ? ?
105    ?    N    ? P      ? 20180313 0002 49.9214 GAU 1.88e-02 ? ? ? ?
28     ?    N    ? P      ? 20180313 0002 49.9425 GAU 1.99e-02 ? ? ? ?
22     ?    N    ? P      ? 20180313 0002 49.9444 GAU 1.34e-02 ? ? ? ?
30     ?    N    ? P      ? 20180313 0002 49.9691 GAU 3.68e-02 ? ? ? ?

8      ?    N    ? P      ? 20180313 0003 02.6106 GAU 1.00e-02 ? ? ? ?
15     ?    N    ? P      ? 20180313 0003 02.6109 GAU 9.12e-03 ? ? ? ?
12     ?    N    ? P      ? 20180313 0003 02.6233 GAU 1.68e-02 ? ? ? ?
4      ?    N    ? P      ? 20180313 0003 02.6236 GAU 1.24e-02 ? ? ? ?
7      ?    N    ? P      ? 20180313 0003 02.6227 GAU 1.15e-02 ? ? ? ?
5      ?    N    ? P      ? 20180313 0003 02.6268 GAU 1.50e-02 ? ? ? ?
6      ?    N    ? P      ? 20180313 0003 02.6283 GAU 1.65e-02 ? ? ? ?
13     ?    N    ? P      ? 20180313 0003 02.6227 GAU 1.09e-02 ? ? ? ?
10     ?    N    ? P      ? 20180313 0003 02.6289 GAU 1.65e-02 ? ? ? ?
3      ?    N    ? P      ? 20180313 0003 02.6439 GAU 2.32e-02 ? ? ? ?
2      ?    N    ? P      ? 20180313 0003 02.6539 GAU 2.56e-02 ? ? ? ?
16     ?    N    ? P      ? 20180313 0003 02.6548 GAU 1.65e-02 ? ? ? ?
9      ?    N    ? P      ? 20180313 0003 02.6606 GAU 1.00e-02 ? ? ? ?
1      ?    N    ? P      ? 20180313 0003 02.7127 GAU 1.62e-02 ? ? ? ?

32     ?    N    ? P      ? 20180313 0003 03.4645 GAU 1.19e-02 ? ? ? ?
30     ?    N    ? P      ? 20180313 0003 03.4765 GAU 1.64e-02 ? ? ? ?
33     ?    N    ? P      ? 20180313 0003 03.4780 GAU 1.57e-02 ? ? ? ?
35     ?    N    ? P      ? 20180313 0003 03.4854 GAU 2.09e-02 ? ? ? ?
26     ?    N    ? P      ? 20180313 0003 03.4929 GAU 1.94e-02 ? ? ? ?
27     ?    N    ? P      ? 20180313 0003 03.5208 GAU 3.84e-02 ? ? ? ?
105    ?    N    ? P      ? 20180313 0003 03.4966 GAU 1.27e-02 ? ? ? ?
28     ?    N    ? P      ? 20180313 0003 03.4962 GAU 1.23e-02 ? ? ? ?
36     ?    N    ? P      ? 20180313 0003 03.4985 GAU 1.45e-02 ? ? ? ?
34     ?    N    ? P      ? 20180313 0003 03.5440 GAU 1.98e-02 ? ? ? ?
106    ?    N    ? P      ? 20180313 0003 03.5600 GAU 2.98e-02 ? ? ? ?
31     ?    N    ? P      ? 20180313 0003 03.5719 GAU 1.72e-02 ? ? ? ?

16     ?    N    ? P      ? 20180313 0003 08.6585 GAU 1.00e-02 ? ? ? ?
17     ?    N    ? P      ? 20180313 0003 08.6549 GAU 5.17e-03 ? ? ? ?
18     ?    N    ? P      ? 20180313 0003 08.6613 GAU 1.10e-02 ? ? ? ?
8      ?    N    ? P      ? 20180313 0003 08.6619 GAU 9.74e-03 ? ? ? ?
12     ?    N    ? P      ? 20180313 0003 08.6637 GAU 5.47e-03 ? ? ? ?
15     ?    N    ? P      ? 20180313 0003 08.6674 GAU 9.13e-03 ? ? ? ?
10     ?    N    ? P      ? 20180313 0003 08.6695 GAU 1.00e-02 ? ? ? ?
20     ?    N    ? P      ? 20180313 0003 08.6664 GAU 7.00e-03 ? ? ? ?
21     ?    N    ? P      ? 20180313 0003 08.6707 GAU 7.00e-03 ? ? ? ?
103    ?    N    ? P      ? 20180313 0003 08.6838 GAU 1.28e-02 ? ? ? ?
23     ?    N    ? P      ? 20180313 0003 08.6829 GAU 1.06e-02 ? ? ? ?
4      ?    N    ? P      ? 20180313 0003 08.6881 GAU 1.52e-02 ? ? ? ?
