NLLOC "./loc/RR.20180313.003602.grid0" "REJECTED" "WARNING: max prob location on grid boundary 31, rejecting location."
PUBLIC_ID None
SIGNATURE "   obs:./obs/nll_picks.obs   NLLoc:v7.00.10(30Aug2020)   run:29Apr2022 23h19m21"
COMMENT "Rattlesnake Ridge Slidequake Locations"
GRID  150 250 75  694.15 5155.4 0  0.002 0.002 0.002 PROB_DENSITY
SEARCH OCTREE nInitial 1000 nEvaluated 15648 smallestNodeSide 0.001863/0.003112/0.000925 oct_tree_integral 7.416243e-05 scatter_volume 7.416243e-05
HYPOCENTER  x 694.349 y 5155.65 z 0.147075  OT 2.097  ix -1 iy -1 iz -1 MAXIMUM_LIKELIHOOD
GEOGRAPHIC  OT 2018 03 13  00 36 2.096998  Lat 5155.652112 Long 694.349287 Depth 0.147075
QUALITY  Pmax 2.63352e+62 MFmin 110.488 MFmax 110.503 RMS 0.011379 Nphs 16 Gap 146.645 Dist 0.0291439 Mamp  0.56 16 Mdur -9.90 0
VPVSRATIO  VpVsRatio -1  Npair 0  Diff -2e+30
STATISTICS  ExpectX 694.239464 Y 5155.641964 Z 0.102968  CovXX 0.00538118 XY 0.000184462 XZ 0.00117964 YY 0.000140136 YZ 0.000328408 ZZ 0.00141211 EllAz1  181.356 Dip1  14.7396 Len1  0.0143184 Az2  312.853 Dip2  68.3442 Len2  0.0639196 Len3  1.420714e-01
STAT_GEOG  ExpectLat 5155.641964 Long 694.239464 Depth 0.102968
TRANSFORM  NONE
QML_OriginQuality  assocPhCt 16  usedPhCt 16  assocStaCt -1  usedStaCt 16  depthPhCt -1  stdErr 0.011379  azGap 146.645  secAzGap 218.346  gtLevel -  minDist 0.0291439 maxDist 0.129438 medDist 0.0546767
QML_OriginUncertainty  horUnc -1  minHorUnc 0.0175328  maxHorUnc 0.111318  azMaxHorUnc 87.9868
QML_ConfidenceEllipsoid  semiMajorAxisLength 0.142071  semiMinorAxisLength 0.0143184  semiIntermediateAxisLength 0.0639196  majorAxisPlunge 15.5038  majorAxisAzimuth 87.1706  majorAxisRotation 17.7129
FOCALMECH  Hyp  5155.652112 694.349287 0.147075 Mech  0 0 0 mf  0 nObs -1
PHASE ID Ins Cmp On Pha  FM Date     HrMn   Sec     Err  ErrMag    Coda      Amp       Per       PriorWt  >   TTpred    Res       Weight    StaLoc(X  Y         Z)        SDist    SAzim  RAz  RDip RQual    Tcorr       TTerr
32           ?    N    ? P      ? 20180313 0036    2.3206 GAU  1.24e-02 -1.00e+00  6.76e+00  1.60e-02    6.7600 >    0.2236   -0.0000    0.8133  694.3777 5155.6456   -0.4297    0.0291 102.97  -1.0  -1.0  0     0.0000    0.0002
30           ?    N    ? P      ? 20180313 0036    2.3498 GAU  1.88e-02 -1.00e+00  7.21e+00  1.20e-02    7.2100 >    0.2291    0.0237    0.5787  694.3775 5155.6619   -0.4333    0.0298  70.82  -1.0  -1.0  0     0.0000    0.0002
28           ?    N    ? P      ? 20180313 0036    2.3209 GAU  1.31e-02 -1.00e+00  7.90e+00  1.20e-02    7.9000 >    0.2347   -0.0108    0.7841  694.3767 5155.6745   -0.4362    0.0354  50.80  -1.0  -1.0  0     0.0000    0.0002
33           ?    N    ? P      ? 20180313 0036    2.3399 GAU  1.24e-02 -1.00e+00  6.49e+00  1.20e-02    6.4900 >    0.2195    0.0234    0.5101  694.3775 5155.6293   -0.4252    0.0363 128.91  -1.0  -1.0  0     0.0000    0.0002
105          ?    N    ? P      ? 20180313 0036    2.3332 GAU  7.17e-03 -1.00e+00  8.09e+00  4.80e-02    8.0900 >    0.2394   -0.0032    1.2688  694.3764 5155.6832   -0.4382    0.0413  41.06  -1.0  -1.0  0     0.0000    0.0002
106          ?    N    ? P      ? 20180313 0036    2.3449 GAU  1.09e-02 -1.00e+00  7.07e+00  1.20e-02    7.0700 >    0.2385    0.0094    1.6671  694.3120 5155.6801   -0.4360    0.0466 306.86  -1.0  -1.0  0     0.0000    0.0002
26           ?    N    ? P      ? 20180313 0036    2.3350 GAU  1.83e-02 -1.00e+00  7.48e+00  1.20e-02    7.4800 >    0.2452   -0.0072    0.8960  694.3783 5155.6910   -0.4400    0.0485  36.75  -1.0  -1.0  0     0.0000    0.0002
35           ?    N    ? P      ? 20180313 0036    2.4297 GAU  3.54e-02 -1.00e+00  7.60e+00  1.20e-02    7.6000 >    0.2198    0.1129    0.0161  694.3818 5155.6141   -0.4216    0.0500 139.48  -1.0  -1.0  0     0.0000    0.0002
31           ?    N    ? P      ? 20180313 0036    2.3820 GAU  2.43e-02 -1.00e+00  5.46e+00  2.00e-02    5.4600 >    0.2411    0.0439    0.2697  694.4086 5155.6503   -0.4335    0.0594  91.70  -1.0  -1.0  0     0.0000    0.0002
25           ?    N    ? P      ? 20180313 0036    2.3592 GAU  1.73e-02 -1.00e+00  6.66e+00  2.00e-02    6.6600 >    0.2563    0.0059    1.2360  694.3684 5155.7091   -0.4438    0.0601  18.56  -1.0  -1.0  0     0.0000    0.0003
27           ?    N    ? P      ? 20180313 0036    2.3671 GAU  1.53e-02 -1.00e+00  5.59e+00  8.00e-03    5.5900 >    0.2548    0.0153    0.9627  694.4008 5155.6912   -0.4412    0.0647  52.77  -1.0  -1.0  0     0.0000    0.0003
36           ?    N    ? P      ? 20180313 0036    2.3468 GAU  1.24e-02 -1.00e+00  7.22e+00  1.20e-02    7.2200 >    0.2269    0.0229    0.7485  694.3865 5155.5904   -0.4164    0.0721 148.91  -1.0  -1.0  0     0.0000    0.0002
38           ?    N    ? P      ? 20180313 0036    2.3419 GAU  9.89e-03 -1.00e+00  6.46e+00  1.20e-02    6.4600 >    0.2386    0.0063    1.4062  694.3902 5155.5681   -0.4123    0.0934 154.06  -1.0  -1.0  0     0.0000    0.0002
39           ?    N    ? P      ? 20180313 0036    2.3436 GAU  7.67e-03 -1.00e+00  8.05e+00  2.40e-02    8.0500 >    0.2469   -0.0003    1.9369  694.3890 5155.5532   -0.4086    0.1066 158.12  -1.0  -1.0  0     0.0000    0.0002
41           ?    N    ? P      ? 20180313 0036    2.3439 GAU  1.07e-02 -1.00e+00  6.86e+00  1.20e-02    6.8600 >    0.2573   -0.0104    1.4956  694.3901 5155.5386   -0.4053    0.1206 160.22  -1.0  -1.0  0     0.0000    0.0003
40           ?    N    ? P      ? 20180313 0036    2.3911 GAU  1.64e-02 -1.00e+00  6.75e+00  1.20e-02    6.7500 >    0.2743    0.0198    1.4102  694.4169 5155.5417   -0.4131    0.1294 148.52  -1.0  -1.0  0     0.0000    0.0003
END_PHASE
END_NLLOC

