NLLOC "./loc/RR.20180313.011459.grid0" "LOCATED" "Location completed."
PUBLIC_ID None
SIGNATURE "   obs:./obs/nll_picks.obs   NLLoc:v7.00.10(30Aug2020)   run:29Apr2022 23h19m54"
COMMENT "Rattlesnake Ridge Slidequake Locations"
GRID  150 250 75  694.15 5155.4 0  0.002 0.002 0.002 PROB_DENSITY
SEARCH OCTREE nInitial 1000 nEvaluated 8392 smallestNodeSide 0.001863/0.003112/0.000925 oct_tree_integral 3.996691e-05 scatter_volume 3.962475e-05
HYPOCENTER  x 694.293 y 5155.76 z 0.045325  OT 59.6968  ix -1 iy -1 iz -1 MAXIMUM_LIKELIHOOD
GEOGRAPHIC  OT 2018 03 13  01 14 59.696784  Lat 5155.764163 Long 694.293412 Depth 0.045325
QUALITY  Pmax 1.99438e+79 MFmin 162.925 MFmax 162.934 RMS 0.00666606 Nphs 19 Gap 229.131 Dist 0.0538696 Mamp  0.34 19 Mdur -9.90 0
VPVSRATIO  VpVsRatio -1  Npair 0  Diff -2e+30
STATISTICS  ExpectX 694.239840 Y 5155.745435 Z 0.048437  CovXX 0.00155264 XY 0.000568227 XZ 0.000748473 YY 0.000272686 YZ 0.000390559 ZZ 0.00104658 EllAz1  163.794 Dip1  9.37642 Len1  0.0119388 Az2  267.414 Dip2  54.9598 Len2  0.0424252 Len3  9.052847e-02
STAT_GEOG  ExpectLat 5155.745435 Long 694.239840 Depth 0.048437
TRANSFORM  NONE
QML_OriginQuality  assocPhCt 19  usedPhCt 19  assocStaCt -1  usedStaCt 19  depthPhCt -1  stdErr 0.00666606  azGap 229.131  secAzGap 232.578  gtLevel -  minDist 0.0538696 maxDist 0.161951 medDist 0.07926
QML_OriginUncertainty  horUnc -1  minHorUnc 0.0114327  maxHorUnc 0.0637773  azMaxHorUnc 69.1993
QML_ConfidenceEllipsoid  semiMajorAxisLength 0.0905285  semiMinorAxisLength 0.0119388  semiIntermediateAxisLength 0.0424252  majorAxisPlunge 33.4048  majorAxisAzimuth 67.5422  majorAxisRotation 26.8081
FOCALMECH  Hyp  5155.764163 694.293412 0.045325 Mech  0 0 0 mf  0 nObs -1
PHASE ID Ins Cmp On Pha  FM Date     HrMn   Sec     Err  ErrMag    Coda      Amp       Per       PriorWt  >   TTpred    Res       Weight    StaLoc(X  Y         Z)        SDist    SAzim  RAz  RDip RQual    Tcorr       TTerr
15           ?    N    ? P      ? 20180313 0114   59.8245 GAU  6.20e-03 -1.00e+00  9.19e+00  1.60e-02    9.1900 >    0.1260    0.0017    1.2739  694.3206 5155.8107   -0.4609    0.0539  30.27  -1.0  -1.0  0     0.0000    0.0001
17           ?    N    ? P      ? 20180313 0114   59.8286 GAU  3.22e-03 -1.00e+00  9.06e+00  1.20e-02    9.0600 >    0.1293    0.0025    0.9466  694.3461 5155.7815   -0.4621    0.0555  71.82  -1.0  -1.0  0     0.0000    0.0001
16           ?    N    ? P      ? 20180313 0114   59.8328 GAU  6.26e-03 -1.00e+00  9.46e+00  1.60e-02    9.4600 >    0.1354    0.0006    0.9115  694.3452 5155.7921   -0.4642    0.0588  61.63  -1.0  -1.0  0     0.0000    0.0001
18           ?    N    ? P      ? 20180313 0114   59.8280 GAU  3.42e-03 -1.00e+00  7.33e+00  5.20e-02    7.3300 >    0.1324   -0.0012    0.9660  694.3549 5155.7674   -0.4586    0.0616  86.98  -1.0  -1.0  0     0.0000    0.0001
20           ?    N    ? P      ? 20180313 0114   59.8324 GAU  3.22e-03 -1.00e+00  7.62e+00  1.60e-02    7.6200 >    0.1373   -0.0017    1.2443  694.3609 5155.7515   -0.4553    0.0686 100.66  -1.0  -1.0  0     0.0000    0.0001
12           ?    N    ? P      ? 20180313 0114   59.8483 GAU  5.17e-03 -1.00e+00  8.21e+00  1.60e-02    8.2100 >    0.1505    0.0010    1.2506  694.3356 5155.8197   -0.4663    0.0698  37.22  -1.0  -1.0  0     0.0000    0.0002
21           ?    N    ? P      ? 20180313 0114   59.8448 GAU  9.99e-03 -1.00e+00  7.11e+00  8.00e-03    7.1100 >    0.1427    0.0053    0.9683  694.3642 5155.7391   -0.4517    0.0751 109.49  -1.0  -1.0  0     0.0000    0.0001
13           ?    N    ? P      ? 20180313 0114   59.9154 GAU  7.58e-03 -1.00e+00  8.19e+00  2.00e-02    8.1900 >    0.1488    0.0698    0.0632  694.3062 5155.8390   -0.4568    0.0760   9.71  -1.0  -1.0  0     0.0000    0.0001
103          ?    N    ? P      ? 20180313 0114   59.8606 GAU  7.47e-03 -1.00e+00  7.41e+00  8.00e-03    7.4100 >    0.1594    0.0044    0.7975  694.3644 5155.7952   -0.4662    0.0774  66.38  -1.0  -1.0  0     0.0000    0.0002
10           ?    N    ? P      ? 20180313 0114   59.8579 GAU  5.85e-03 -1.00e+00  7.47e+00  1.60e-02    7.4700 >    0.1632   -0.0021    1.4048  694.3329 5155.8329   -0.4673    0.0793  29.88  -1.0  -1.0  0     0.0000    0.0002
23           ?    N    ? P      ? 20180313 0114   59.8386 GAU  1.27e-02 -1.00e+00  7.50e+00  5.20e-02    7.5000 >    0.1531   -0.0113    0.9828  694.3677 5155.7226   -0.4473    0.0851 119.26  -1.0  -1.0  0     0.0000    0.0002
8            ?    N    ? P      ? 20180313 0114   59.8445 GAU  8.26e-03 -1.00e+00  6.88e+00  1.60e-02    6.8800 >    0.1695   -0.0218    0.4911  694.3223 5155.8450   -0.4648    0.0858  19.67  -1.0  -1.0  0     0.0000    0.0002
4            ?    N    ? P      ? 20180313 0114   59.8620 GAU  1.55e-02 -1.00e+00  7.22e+00  1.60e-02    7.2200 >    0.1681   -0.0029    1.2938  694.3090 5155.8520   -0.4586    0.0892  10.08  -1.0  -1.0  0     0.0000    0.0002
6            ?    N    ? P      ? 20180313 0114   59.8937 GAU  9.99e-03 -1.00e+00  7.16e+00  1.20e-02    7.1600 >    0.1952    0.0017    1.4296  694.3446 5155.8502   -0.4728    0.1001  30.78  -1.0  -1.0  0     0.0000    0.0002
22           ?    N    ? P      ? 20180313 0114   59.8910 GAU  1.07e-02 -1.00e+00  6.70e+00  1.60e-02    6.7000 >    0.1924    0.0018    1.4803  694.3985 5155.7265   -0.4488    0.1116 109.69  -1.0  -1.0  0     0.0000    0.0002
26           ?    N    ? P      ? 20180313 0114   59.8720 GAU  2.92e-02 -1.00e+00  6.53e+00  2.40e-02    6.5300 >    0.1888   -0.0136    0.8426  694.3783 5155.6910   -0.4400    0.1121 130.77  -1.0  -1.0  0     0.0000    0.0002
28           ?    N    ? P      ? 20180313 0114   59.9328 GAU  4.34e-02 -1.00e+00  6.81e+00  1.60e-02    6.8100 >    0.2029    0.0331    0.6132  694.3767 5155.6745   -0.4362    0.1224 137.13  -1.0  -1.0  0     0.0000    0.0002
30           ?    N    ? P      ? 20180313 0114   59.9174 GAU  1.48e-02 -1.00e+00  6.41e+00  2.00e-02    6.4100 >    0.2174    0.0033    1.9763  694.3775 5155.6619   -0.4333    0.1324 140.58  -1.0  -1.0  0     0.0000    0.0002
31           ?    N    ? P      ? 20180313 0114   59.9095 GAU  1.18e-02 -1.00e+00  6.68e+00  1.60e-02    6.6800 >    0.2634   -0.0507    0.0636  694.4086 5155.6503   -0.4335    0.1620 134.65  -1.0  -1.0  0     0.0000    0.0003
END_PHASE
END_NLLOC

