NLLOC "./loc/RR.20180313.000014.grid0" "LOCATED" "Location completed."
PUBLIC_ID None
SIGNATURE "   obs:./obs/nll_picks.obs   NLLoc:v7.00.10(30Aug2020)   run:29Apr2022 23h15m49"
COMMENT "Rattlesnake Ridge Slidequake Locations"
GRID  150 250 75  694.15 5155.4 0  0.002 0.002 0.002 PROB_DENSITY
SEARCH OCTREE nInitial 1000 nEvaluated 20008 smallestNodeSide 0.003725/0.006225/0.001850 oct_tree_integral 1.176629e-04 scatter_volume 1.167553e-04
HYPOCENTER  x 694.37 y 5155.75 z 0.05365  OT 14.1936  ix -1 iy -1 iz -1 MAXIMUM_LIKELIHOOD
GEOGRAPHIC  OT 2018 03 13  00 00 14.193586  Lat 5155.754825 Long 694.369775 Depth 0.053650
QUALITY  Pmax 1.29546e+24 MFmin 38.2992 MFmax 38.3421 RMS 0.00403992 Nphs 8 Gap 189.325 Dist 0.00953242 Mamp  0.15 8 Mdur -9.90 0
VPVSRATIO  VpVsRatio -1  Npair 0  Diff -2e+30
STATISTICS  ExpectX 694.325290 Y 5155.749738 Z 0.078354  CovXX 0.00667065 XY 0.00078431 XZ 0.000403406 YY 0.000490493 YZ 0.000106068 ZZ 0.00155975 EllAz1  173.059 Dip1  2.7667 Len1  0.0370964 Az2  294.491 Dip2  84.7056 Len2  0.0734861 Len3  1.549464e-01
STAT_GEOG  ExpectLat 5155.749738 Long 694.325290 Depth 0.078354
TRANSFORM  NONE
QML_OriginQuality  assocPhCt 8  usedPhCt 8  assocStaCt -1  usedStaCt 8  depthPhCt -1  stdErr 0.00403992  azGap 189.325  secAzGap 215.075  gtLevel -  minDist 0.00953242 maxDist 0.0457268 medDist 0.0339791
QML_OriginUncertainty  horUnc -1  minHorUnc 0.0300462  maxHorUnc 0.124771  azMaxHorUnc 82.8791
QML_ConfidenceEllipsoid  semiMajorAxisLength 0.154946  semiMinorAxisLength 0.0370964  semiIntermediateAxisLength 0.0734861  majorAxisPlunge 4.51049  majorAxisAzimuth 82.8401  majorAxisRotation 2.81001
FOCALMECH  Hyp  5155.754825 694.369775 0.053650 Mech  0 0 0 mf  0 nObs -1
PHASE ID Ins Cmp On Pha  FM Date     HrMn   Sec     Err  ErrMag    Coda      Amp       Per       PriorWt  >   TTpred    Res       Weight    StaLoc(X  Y         Z)        SDist    SAzim  RAz  RDip RQual    Tcorr       TTerr
20           ?    N    ? P      ? 20180313 0000   14.2822 GAU  1.01e-02 -1.00e+00  8.22e+00  8.00e-03    8.2200 >    0.0863    0.0024    0.7166  694.3609 5155.7515   -0.4553    0.0095 249.42  -1.0  -1.0  0     0.0000    0.0001
21           ?    N    ? P      ? 20180313 0000   14.2796 GAU  1.19e-02 -1.00e+00  7.92e+00  8.00e-03    7.9200 >    0.0840    0.0020    0.8175  694.3642 5155.7391   -0.4517    0.0167 199.66  -1.0  -1.0  0     0.0000    0.0001
18           ?    N    ? P      ? 20180313 0000   14.2798 GAU  8.37e-03 -1.00e+00  8.02e+00  8.00e-03    8.0200 >    0.0957   -0.0094    0.6277  694.3549 5155.7674   -0.4586    0.0195 310.21  -1.0  -1.0  0     0.0000    0.0001
23           ?    N    ? P      ? 20180313 0000   14.2965 GAU  2.07e-02 -1.00e+00  7.29e+00  8.00e-03    7.2900 >    0.0889    0.0140    0.6892  694.3677 5155.7226   -0.4473    0.0323 183.69  -1.0  -1.0  0     0.0000    0.0001
17           ?    N    ? P      ? 20180313 0000   14.2602 GAU  8.26e-03 -1.00e+00  7.96e+00  1.20e-02    7.9600 >    0.1115   -0.0449    0.0129  694.3461 5155.7815   -0.4621    0.0356 318.44  -1.0  -1.0  0     0.0000    0.0001
103          ?    N    ? P      ? 20180313 0000   14.3154 GAU  1.36e-02 -1.00e+00  7.16e+00  1.20e-02    7.1600 >    0.1213    0.0005    1.2664  694.3644 5155.7952   -0.4662    0.0407 352.36  -1.0  -1.0  0     0.0000    0.0001
16           ?    N    ? P      ? 20180313 0000   14.3159 GAU  3.86e-03 -1.00e+00  8.75e+00  8.00e-03    8.7500 >    0.1222    0.0001    1.9158  694.3452 5155.7921   -0.4642    0.0447 326.61  -1.0  -1.0  0     0.0000    0.0001
25           ?    N    ? P      ? 20180313 0000   14.2910 GAU  1.05e-02 -1.00e+00  7.00e+00  8.00e-03    7.0000 >    0.0991   -0.0016    1.9539  694.3684 5155.7091   -0.4438    0.0457 181.69  -1.0  -1.0  0     0.0000    0.0001
END_PHASE
END_NLLOC

