NLLOC "./loc/RR.20180313.000810.grid0" "LOCATED" "Location completed."
PUBLIC_ID None
SIGNATURE "   obs:./obs/nll_picks.obs   NLLoc:v7.00.10(30Aug2020)   run:29Apr2022 23h17m51"
COMMENT "Rattlesnake Ridge Slidequake Locations"
GRID  150 250 75  694.15 5155.4 0  0.002 0.002 0.002 PROB_DENSITY
SEARCH OCTREE nInitial 1000 nEvaluated 3184 smallestNodeSide 0.001863/0.003112/0.000925 oct_tree_integral 8.198894e-06 scatter_volume 8.198894e-06
HYPOCENTER  x 694.4 y 5155.66 z 0.02775  OT 10.4775  ix -1 iy -1 iz -1 MAXIMUM_LIKELIHOOD
GEOGRAPHIC  OT 2018 03 13  00 08 10.477516  Lat 5155.655225 Long 694.399575 Depth 0.027750
QUALITY  Pmax 1.0982e+56 MFmin 94.7754 MFmax 94.7847 RMS 0.00957982 Nphs 15 Gap 116.395 Dist 0.0102818 Mamp  0.05 15 Mdur -9.90 0
VPVSRATIO  VpVsRatio -1  Npair 0  Diff -2e+30
STATISTICS  ExpectX 694.394538 Y 5155.656697 Z 0.038671  CovXX 0.000549257 XY 1.03385e-05 XZ -0.000205121 YY 4.6853e-05 YZ 7.03861e-05 ZZ 0.000478207 EllAz1  354.25 Dip1  -11.4622 Len1  0.0105395 Az2  251.581 Dip2  -47.2465 Len2  0.033549 Len3  5.055415e-02
STAT_GEOG  ExpectLat 5155.656697 Long 694.394538 Depth 0.038671
TRANSFORM  NONE
QML_OriginQuality  assocPhCt 15  usedPhCt 15  assocStaCt -1  usedStaCt 15  depthPhCt -1  stdErr 0.00957982  azGap 116.395  secAzGap 157.57  gtLevel -  minDist 0.0102818 maxDist 0.102596 medDist 0.0426486
QML_OriginUncertainty  horUnc -1  minHorUnc 0.0103573  maxHorUnc 0.0355497  azMaxHorUnc 88.8216
QML_ConfidenceEllipsoid  semiMajorAxisLength 0.0505542  semiMinorAxisLength 0.0105395  semiIntermediateAxisLength 0.033549  majorAxisPlunge -40.4744  majorAxisAzimuth 94.2134  majorAxisRotation 239.831
FOCALMECH  Hyp  5155.655225 694.399575 0.027750 Mech  0 0 0 mf  0 nObs -1
PHASE ID Ins Cmp On Pha  FM Date     HrMn   Sec     Err  ErrMag    Coda      Amp       Per       PriorWt  >   TTpred    Res       Weight    StaLoc(X  Y         Z)        SDist    SAzim  RAz  RDip RQual    Tcorr       TTerr
31           ?    N    ? P      ? 20180313 0008   10.6218 GAU  3.10e-02 -1.00e+00  7.09e+00  1.20e-02    7.0900 >    0.0480    0.0963    0.0404  694.4086 5155.6503   -0.4335    0.0103 118.32  -1.0  -1.0  0     0.0000    0.0001
32           ?    N    ? P      ? 20180313 0008   10.5390 GAU  1.01e-02 -1.00e+00  8.64e+00  1.20e-02    8.6400 >    0.0554    0.0061    0.8844  694.3777 5155.6456   -0.4297    0.0239 246.20  -1.0  -1.0  0     0.0000    0.0001
28           ?    N    ? P      ? 20180313 0008   10.5532 GAU  6.64e-03 -1.00e+00  8.02e+00  1.20e-02    8.0200 >    0.0696    0.0060    0.9025  694.3767 5155.6745   -0.4362    0.0299 310.04  -1.0  -1.0  0     0.0000    0.0001
33           ?    N    ? P      ? 20180313 0008   10.5388 GAU  7.03e-03 -1.00e+00  7.50e+00  8.00e-03    7.5000 >    0.0642   -0.0029    1.0769  694.3775 5155.6293   -0.4252    0.0340 220.42  -1.0  -1.0  0     0.0000    0.0001
27           ?    N    ? P      ? 20180313 0008   10.5796 GAU  7.64e-03 -1.00e+00  6.29e+00  1.20e-02    6.2900 >    0.0823    0.0198    0.7758  694.4008 5155.6912   -0.4412    0.0360   1.93  -1.0  -1.0  0     0.0000    0.0001
105          ?    N    ? P      ? 20180313 0008   10.5597 GAU  8.24e-03 -1.00e+00  9.10e+00  8.00e-03    9.1000 >    0.0794    0.0027    1.0550  694.3764 5155.6832   -0.4382    0.0364 320.40  -1.0  -1.0  0     0.0000    0.0001
26           ?    N    ? P      ? 20180313 0008   10.5639 GAU  4.43e-03 -1.00e+00  7.80e+00  1.20e-02    7.8000 >    0.0879   -0.0016    1.1650  694.3783 5155.6910   -0.4400    0.0416 329.24  -1.0  -1.0  0     0.0000    0.0001
34           ?    N    ? P      ? 20180313 0008   10.6351 GAU  6.43e-03 -1.00e+00  6.63e+00  2.80e-02    6.6300 >    0.0772    0.0804    0.0211  694.4145 5155.6153   -0.4263    0.0426 159.50  -1.0  -1.0  0     0.0000    0.0001
35           ?    N    ? P      ? 20180313 0008   10.5514 GAU  1.61e-02 -1.00e+00  7.95e+00  8.00e-03    7.9500 >    0.0774   -0.0035    1.0630  694.3818 5155.6141   -0.4216    0.0448 203.42  -1.0  -1.0  0     0.0000    0.0001
25           ?    N    ? P      ? 20180313 0008   10.5860 GAU  1.81e-02 -1.00e+00  6.89e+00  1.20e-02    6.8900 >    0.1190   -0.0105    0.9352  694.3684 5155.7091   -0.4438    0.0622 329.98  -1.0  -1.0  0     0.0000    0.0001
36           ?    N    ? P      ? 20180313 0008   10.6045 GAU  1.21e-02 -1.00e+00  6.39e+00  1.20e-02    6.3900 >    0.1093    0.0176    1.2629  694.3865 5155.5904   -0.4164    0.0662 191.38  -1.0  -1.0  0     0.0000    0.0001
37           ?    N    ? P      ? 20180313 0008   10.5959 GAU  1.51e-02 -1.00e+00  5.83e+00  1.20e-02    5.8300 >    0.1192   -0.0008    1.7448  694.4219 5155.5876   -0.4220    0.0712 161.71  -1.0  -1.0  0     0.0000    0.0001
23           ?    N    ? P      ? 20180313 0008   10.6186 GAU  1.41e-02 -1.00e+00  6.64e+00  8.00e-03    6.6400 >    0.1391    0.0020    1.4927  694.3677 5155.7226   -0.4473    0.0745 334.66  -1.0  -1.0  0     0.0000    0.0001
106          ?    N    ? P      ? 20180313 0008   10.6498 GAU  2.23e-02 -1.00e+00  6.93e+00  1.20e-02    6.9300 >    0.1565    0.0158    1.2161  694.3120 5155.6801   -0.4360    0.0910 285.83  -1.0  -1.0  0     0.0000    0.0002
39           ?    N    ? P      ? 20180313 0008   10.6329 GAU  2.88e-02 -1.00e+00  6.05e+00  8.00e-03    6.0500 >    0.1676   -0.0122    1.3644  694.3890 5155.5532   -0.4086    0.1026 185.90  -1.0  -1.0  0     0.0000    0.0002
END_PHASE
END_NLLOC

