NLLOC "./loc/RR.20180313.000314.grid0" "LOCATED" "Location completed."
PUBLIC_ID None
SIGNATURE "   obs:./obs/nll_picks.obs   NLLoc:v7.00.10(30Aug2020)   run:29Apr2022 23h16m22"
COMMENT "Rattlesnake Ridge Slidequake Locations"
GRID  150 250 75  694.15 5155.4 0  0.002 0.002 0.002 PROB_DENSITY
SEARCH OCTREE nInitial 1000 nEvaluated 8512 smallestNodeSide 0.001863/0.003112/0.000925 oct_tree_integral 4.217951e-05 scatter_volume 4.204920e-05
HYPOCENTER  x 694.334 y 5155.57 z 0.019425  OT 14.3971  ix -1 iy -1 iz -1 MAXIMUM_LIKELIHOOD
GEOGRAPHIC  OT 2018 03 13  00 03 14.397112  Lat 5155.571187 Long 694.334388 Depth 0.019425
QUALITY  Pmax 2.1021e+56 MFmin 89.8723 MFmax 89.8871 RMS 0.00606993 Nphs 15 Gap 244.613 Dist 0.0555479 Mamp  0.25 15 Mdur -9.90 0
VPVSRATIO  VpVsRatio -1  Npair 0  Diff -2e+30
STATISTICS  ExpectX 694.334322 Y 5155.569395 Z 0.049910  CovXX 0.00210863 XY 0.000645363 XZ 0.000302899 YY 0.000291591 YZ 5.15961e-05 ZZ 0.000944458 EllAz1  161.897 Dip1  -2.99693 Len1  0.0171641 Az2  238.075 Dip2  77.6398 Len2  0.0558029 Len3  9.164134e-02
STAT_GEOG  ExpectLat 5155.569395 Long 694.334322 Depth 0.049910
TRANSFORM  NONE
QML_OriginQuality  assocPhCt 15  usedPhCt 15  assocStaCt -1  usedStaCt 15  depthPhCt -1  stdErr 0.00606993  azGap 244.613  secAzGap 260.261  gtLevel -  minDist 0.0555479 maxDist 0.119666 medDist 0.0860697
QML_OriginUncertainty  horUnc -1  minHorUnc 0.0140399  maxHorUnc 0.0729615  azMaxHorUnc 72.306
QML_ConfidenceEllipsoid  semiMajorAxisLength 0.0916413  semiMinorAxisLength 0.0171641  semiIntermediateAxisLength 0.0558029  majorAxisPlunge 11.9802  majorAxisAzimuth 72.5335  majorAxisRotation 356.648
FOCALMECH  Hyp  5155.571187 694.334388 0.019425 Mech  0 0 0 mf  0 nObs -1
PHASE ID Ins Cmp On Pha  FM Date     HrMn   Sec     Err  ErrMag    Coda      Amp       Per       PriorWt  >   TTpred    Res       Weight    StaLoc(X  Y         Z)        SDist    SAzim  RAz  RDip RQual    Tcorr       TTerr
36           ?    N    ? P      ? 20180313 0003   14.5026 GAU  9.33e-03 -1.00e+00  8.36e+00  1.20e-02    8.3600 >    0.1037    0.0018    0.9273  694.3865 5155.5904   -0.4164    0.0555  69.82  -1.0  -1.0  0     0.0000    0.0001
38           ?    N    ? P      ? 20180313 0003   14.5030 GAU  9.75e-03 -1.00e+00  8.62e+00  2.00e-02    8.6200 >    0.1014    0.0045    1.0271  694.3902 5155.5681   -0.4123    0.0559  93.15  -1.0  -1.0  0     0.0000    0.0001
39           ?    N    ? P      ? 20180313 0003   14.4996 GAU  6.36e-03 -1.00e+00  8.96e+00  1.20e-02    8.9600 >    0.1015    0.0010    1.3931  694.3890 5155.5532   -0.4086    0.0575 108.25  -1.0  -1.0  0     0.0000    0.0001
35           ?    N    ? P      ? 20180313 0003   14.5149 GAU  1.06e-02 -1.00e+00  8.03e+00  1.20e-02    8.0300 >    0.1197   -0.0019    1.0109  694.3818 5155.6141   -0.4216    0.0639  47.82  -1.0  -1.0  0     0.0000    0.0001
41           ?    N    ? P      ? 20180313 0003   14.5064 GAU  6.36e-03 -1.00e+00  7.89e+00  2.40e-02    7.8900 >    0.1108   -0.0015    1.6427  694.3901 5155.5386   -0.4053    0.0645 120.29  -1.0  -1.0  0     0.0000    0.0001
33           ?    N    ? P      ? 20180313 0003   14.5276 GAU  1.32e-02 -1.00e+00  6.52e+00  2.40e-02    6.5200 >    0.1350   -0.0045    0.9720  694.3775 5155.6293   -0.4252    0.0724  36.57  -1.0  -1.0  0     0.0000    0.0001
42           ?    N    ? P      ? 20180313 0003   14.5217 GAU  1.65e-02 -1.00e+00  6.34e+00  4.80e-02    6.3400 >    0.1270   -0.0024    1.5980  694.3873 5155.5165   -0.3983    0.0761 135.94  -1.0  -1.0  0     0.0000    0.0001
32           ?    N    ? P      ? 20180313 0003   14.5301 GAU  1.65e-02 -1.00e+00  6.51e+00  1.60e-02    6.5100 >    0.1579   -0.0249    0.5362  694.3777 5155.6456   -0.4297    0.0861  30.20  -1.0  -1.0  0     0.0000    0.0002
40           ?    N    ? P      ? 20180313 0003   14.5450 GAU  2.54e-02 -1.00e+00  7.39e+00  1.20e-02    7.3900 >    0.1507   -0.0028    1.0782  694.4169 5155.5417   -0.4131    0.0876 109.66  -1.0  -1.0  0     0.0000    0.0002
37           ?    N    ? P      ? 20180313 0003   14.6260 GAU  1.40e-02 -1.00e+00  6.83e+00  1.20e-02    6.8300 >    0.1576    0.0713    0.0157  694.4219 5155.5876   -0.4220    0.0891  79.38  -1.0  -1.0  0     0.0000    0.0002
34           ?    N    ? P      ? 20180313 0003   14.4330 GAU  2.12e-02 -1.00e+00  6.85e+00  2.80e-02    6.8500 >    0.1638   -0.1279    0.0001  694.4145 5155.6153   -0.4263    0.0915  61.18  -1.0  -1.0  0     0.0000    0.0002
30           ?    N    ? P      ? 20180313 0003   14.5942 GAU  1.70e-02 -1.00e+00  6.80e+00  1.60e-02    6.8000 >    0.1816    0.0155    1.0385  694.3775 5155.6619   -0.4333    0.1004  25.40  -1.0  -1.0  0     0.0000    0.0002
31           ?    N    ? P      ? 20180313 0003   14.5772 GAU  2.29e-02 -1.00e+00  5.68e+00  6.00e-02    5.6800 >    0.1938   -0.0138    0.8217  694.4086 5155.6503   -0.4335    0.1085  43.16  -1.0  -1.0  0     0.0000    0.0002
28           ?    N    ? P      ? 20180313 0003   14.5988 GAU  1.82e-02 -1.00e+00  6.91e+00  2.80e-02    6.9100 >    0.2001    0.0016    1.5625  694.3767 5155.6745   -0.4362    0.1116  22.27  -1.0  -1.0  0     0.0000    0.0002
105          ?    N    ? P      ? 20180313 0003   14.6116 GAU  2.50e-02 -1.00e+00  6.85e+00  2.40e-02    6.8500 >    0.2133    0.0012    1.3761  694.3764 5155.6832   -0.4382    0.1197  20.55  -1.0  -1.0  0     0.0000    0.0002
END_PHASE
END_NLLOC

