NLLOC "./loc/RR.20180313.001303.grid0" "REJECTED" "WARNING: max prob location on grid boundary 31, rejecting location."
PUBLIC_ID None
SIGNATURE "   obs:./obs/nll_picks.obs   NLLoc:v7.00.10(30Aug2020)   run:29Apr2022 23h18m49"
COMMENT "Rattlesnake Ridge Slidequake Locations"
GRID  150 250 75  694.15 5155.4 0  0.002 0.002 0.002 PROB_DENSITY
SEARCH OCTREE nInitial 1000 nEvaluated 16216 smallestNodeSide 0.001863/0.003112/0.000925 oct_tree_integral 9.692906e-05 scatter_volume 9.692906e-05
HYPOCENTER  x 694.358 y 5155.75 z 0.147537  OT 2.88513  ix -1 iy -1 iz -1 MAXIMUM_LIKELIHOOD
GEOGRAPHIC  OT 2018 03 13  00 13 2.885130  Lat 5155.753269 Long 694.357669 Depth 0.147537
QUALITY  Pmax 2.75358e+78 MFmin 121.728 MFmax 121.736 RMS 0.118562 Nphs 21 Gap 115.185 Dist 0.00365347 Mamp  0.60 21 Mdur -9.90 0
VPVSRATIO  VpVsRatio -1  Npair 0  Diff -2e+30
STATISTICS  ExpectX 694.257059 Y 5155.725800 Z 0.114315  CovXX 0.00588486 XY 0.00126678 XZ 0.00104476 YY 0.000450513 YZ 0.000423817 ZZ 0.00105006 EllAz1  170.23 Dip1  14.5081 Len1  0.0206762 Az2  309.554 Dip2  71.1602 Len2  0.0553313 Len3  1.502715e-01
STAT_GEOG  ExpectLat 5155.725800 Long 694.257059 Depth 0.114315
TRANSFORM  NONE
QML_OriginQuality  assocPhCt 21  usedPhCt 21  assocStaCt -1  usedStaCt 21  depthPhCt -1  stdErr 0.118562  azGap 115.185  secAzGap 156.23  gtLevel -  minDist 0.00365347 maxDist 0.141225 medDist 0.0683636
QML_OriginUncertainty  horUnc -1  minHorUnc 0.0197579  maxHorUnc 0.119084  azMaxHorUnc 77.5023
QML_ConfidenceEllipsoid  semiMajorAxisLength 0.150272  semiMinorAxisLength 0.0206762  semiIntermediateAxisLength 0.0553313  majorAxisPlunge 11.7572  majorAxisAzimuth 77.1429  majorAxisRotation 16.1018
FOCALMECH  Hyp  5155.753269 694.357669 0.147537 Mech  0 0 0 mf  0 nObs -1
PHASE ID Ins Cmp On Pha  FM Date     HrMn   Sec     Err  ErrMag    Coda      Amp       Per       PriorWt  >   TTpred    Res       Weight    StaLoc(X  Y         Z)        SDist    SAzim  RAz  RDip RQual    Tcorr       TTerr
20           ?    N    ? P      ? 20180313 0013    3.9900 GAU  1.70e-02 -1.00e+00  7.53e+00  2.80e-02    7.5300 >    0.2195    0.8853    0.1029  694.3609 5155.7515   -0.4553    0.0037 119.42  -1.0  -1.0  0     0.0000    0.0002
18           ?    N    ? P      ? 20180313 0013    3.1099 GAU  1.43e-02 -1.00e+00  7.23e+00  2.40e-02    7.2300 >    0.2258   -0.0010    1.2455  694.3549 5155.7674   -0.4586    0.0144 348.88  -1.0  -1.0  0     0.0000    0.0002
21           ?    N    ? P      ? 20180313 0013    3.1020 GAU  1.02e-02 -1.00e+00  7.59e+00  2.40e-02    7.5900 >    0.2161    0.0007    1.0657  694.3642 5155.7391   -0.4517    0.0156 155.33  -1.0  -1.0  0     0.0000    0.0002
17           ?    N    ? P      ? 20180313 0013    3.1228 GAU  1.89e-02 -1.00e+00  7.93e+00  1.20e-02    7.9300 >    0.2346    0.0031    1.4103  694.3461 5155.7815   -0.4621    0.0305 337.78  -1.0  -1.0  0     0.0000    0.0002
23           ?    N    ? P      ? 20180313 0013    3.9830 GAU  2.07e-02 -1.00e+00  8.62e+00  8.00e-03    8.6200 >    0.2136    0.8842    0.0461  694.3677 5155.7226   -0.4473    0.0323 161.93  -1.0  -1.0  0     0.0000    0.0002
16           ?    N    ? P      ? 20180313 0013    3.1356 GAU  2.19e-02 -1.00e+00  7.96e+00  4.80e-02    7.9600 >    0.2410    0.0095    1.4455  694.3452 5155.7921   -0.4642    0.0408 342.20  -1.0  -1.0  0     0.0000    0.0002
103          ?    N    ? P      ? 20180313 0013    3.1164 GAU  2.07e-02 -1.00e+00  7.41e+00  8.00e-03    7.4100 >    0.2441   -0.0129    1.3888  694.3644 5155.7952   -0.4662    0.0425   9.07  -1.0  -1.0  0     0.0000    0.0002
25           ?    N    ? P      ? 20180313 0013    3.1107 GAU  2.04e-02 -1.00e+00  8.27e+00  8.00e-03    8.2700 >    0.2141    0.0114    0.8226  694.3684 5155.7091   -0.4438    0.0454 166.30  -1.0  -1.0  0     0.0000    0.0002
22           ?    N    ? P      ? 20180313 0013    3.1650 GAU  2.26e-02 -1.00e+00  6.61e+00  6.80e-02    6.6100 >    0.2224    0.0575    0.2241  694.3985 5155.7265   -0.4488    0.0488 123.20  -1.0  -1.0  0     0.0000    0.0002
26           ?    N    ? P      ? 20180313 0013    3.1213 GAU  2.49e-02 -1.00e+00  8.06e+00  8.00e-03    8.0600 >    0.2206    0.0156    0.8039  694.3783 5155.6910   -0.4400    0.0656 161.67  -1.0  -1.0  0     0.0000    0.0002
15           ?    N    ? P      ? 20180313 0013    3.1480 GAU  3.58e-02 -1.00e+00  6.93e+00  1.60e-02    6.9300 >    0.2486    0.0143    1.3287  694.3206 5155.8107   -0.4609    0.0684 327.13  -1.0  -1.0  0     0.0000    0.0002
12           ?    N    ? P      ? 20180313 0013    3.1269 GAU  1.92e-02 -1.00e+00  6.76e+00  1.20e-02    6.7600 >    0.2572   -0.0154    1.6514  694.3356 5155.8197   -0.4663    0.0700 341.66  -1.0  -1.0  0     0.0000    0.0003
105          ?    N    ? P      ? 20180313 0013    3.9830 GAU  1.40e-02 -1.00e+00  9.22e+00  8.00e-03    9.2200 >    0.2224    0.8755    0.1180  694.3764 5155.6832   -0.4382    0.0725 165.03  -1.0  -1.0  0     0.0000    0.0002
27           ?    N    ? P      ? 20180313 0013    3.1284 GAU  1.32e-02 -1.00e+00  7.10e+00  6.00e-02    7.1000 >    0.2288    0.0145    1.0438  694.4008 5155.6912   -0.4412    0.0755 145.19  -1.0  -1.0  0     0.0000    0.0002
28           ?    N    ? P      ? 20180313 0013    3.1032 GAU  1.43e-02 -1.00e+00  8.19e+00  8.00e-03    8.1900 >    0.2267   -0.0087    1.2577  694.3767 5155.6745   -0.4362    0.0811 166.44  -1.0  -1.0  0     0.0000    0.0002
106          ?    N    ? P      ? 20180313 0013    3.1231 GAU  2.00e-02 -1.00e+00  7.75e+00  1.20e-02    7.7500 >    0.2307    0.0073    1.4906  694.3120 5155.6801   -0.4360    0.0863 211.95  -1.0  -1.0  0     0.0000    0.0002
30           ?    N    ? P      ? 20180313 0013    3.1164 GAU  1.92e-02 -1.00e+00  7.74e+00  1.20e-02    7.7400 >    0.2339   -0.0027    1.2928  694.3775 5155.6619   -0.4333    0.0935 167.77  -1.0  -1.0  0     0.0000    0.0002
32           ?    N    ? P      ? 20180313 0013    3.1348 GAU  4.30e-02 -1.00e+00  7.62e+00  1.20e-02    7.6200 >    0.2450    0.0047    0.9434  694.3777 5155.6456   -0.4297    0.1095 169.47  -1.0  -1.0  0     0.0000    0.0002
31           ?    N    ? P      ? 20180313 0013    3.1333 GAU  2.79e-02 -1.00e+00  6.79e+00  6.00e-02    6.7900 >    0.2544   -0.0062    1.2658  694.4086 5155.6503   -0.4335    0.1148 153.66  -1.0  -1.0  0     0.0000    0.0003
33           ?    N    ? P      ? 20180313 0013    3.1235 GAU  3.77e-02 -1.00e+00  7.12e+00  8.00e-03    7.1200 >    0.2571   -0.0188    1.0640  694.3775 5155.6293   -0.4252    0.1255 170.90  -1.0  -1.0  0     0.0000    0.0003
35           ?    N    ? P      ? 20180313 0013    3.1209 GAU  3.66e-02 -1.00e+00  7.32e+00  1.20e-02    7.3200 >    0.2707   -0.0349    0.9883  694.3818 5155.6141   -0.4216    0.1412 170.17  -1.0  -1.0  0     0.0000    0.0003
END_PHASE
END_NLLOC

