NLLOC "./loc/RR.20180313.000619.grid0" "LOCATED" "Location completed."
PUBLIC_ID None
SIGNATURE "   obs:./obs/nll_picks.obs   NLLoc:v7.00.10(30Aug2020)   run:29Apr2022 23h17m12"
COMMENT "Rattlesnake Ridge Slidequake Locations"
GRID  150 250 75  694.15 5155.4 0  0.002 0.002 0.002 PROB_DENSITY
SEARCH OCTREE nInitial 1000 nEvaluated 20024 smallestNodeSide 0.003725/0.006225/0.001850 oct_tree_integral 3.735768e-04 scatter_volume 3.700033e-04
HYPOCENTER  x 694.325 y 5155.61 z 0.06475  OT 19.364  ix -1 iy -1 iz -1 MAXIMUM_LIKELIHOOD
GEOGRAPHIC  OT 2018 03 13  00 06 19.364026  Lat 5155.605425 Long 694.325075 Depth 0.064750
QUALITY  Pmax 2.00391e+46 MFmin 63.08 MFmax 63.0961 RMS 0.00775865 Nphs 13 Gap 261.018 Dist 0.0573561 Mamp  0.37 13 Mdur -9.90 0
VPVSRATIO  VpVsRatio -1  Npair 0  Diff -2e+30
STATISTICS  ExpectX 694.259682 Y 5155.596426 Z 0.080734  CovXX 0.00372307 XY 0.000563961 XZ 8.09809e-05 YY 0.000353318 YZ 0.000271499 ZZ 0.00165715 EllAz1  171.096 Dip1  10.0622 Len1  0.0276258 Az2  332.592 Dip2  79.4013 Len2  0.0773584 Len3  1.161546e-01
STAT_GEOG  ExpectLat 5155.596426 Long 694.259682 Depth 0.080734
TRANSFORM  NONE
QML_OriginQuality  assocPhCt 13  usedPhCt 13  assocStaCt -1  usedStaCt 13  depthPhCt -1  stdErr 0.00775865  azGap 261.018  secAzGap 267.529  gtLevel -  minDist 0.0573561 maxDist 0.111739 medDist 0.0825818
QML_OriginUncertainty  horUnc -1  minHorUnc 0.0245216  maxHorUnc 0.0936717  azMaxHorUnc 80.7468
QML_ConfidenceEllipsoid  semiMajorAxisLength 0.116155  semiMinorAxisLength 0.0276258  semiIntermediateAxisLength 0.0773584  majorAxisPlunge 3.29487  majorAxisAzimuth 80.5106  majorAxisRotation 10.1447
FOCALMECH  Hyp  5155.605425 694.325075 0.064750 Mech  0 0 0 mf  0 nObs -1
PHASE ID Ins Cmp On Pha  FM Date     HrMn   Sec     Err  ErrMag    Coda      Amp       Per       PriorWt  >   TTpred    Res       Weight    StaLoc(X  Y         Z)        SDist    SAzim  RAz  RDip RQual    Tcorr       TTerr
35           ?    N    ? P      ? 20180313 0006   19.5141 GAU  1.75e-02 -1.00e+00  9.42e+00  1.20e-02    9.4200 >    0.1419    0.0081    0.6925  694.3818 5155.6141   -0.4216    0.0574  81.29  -1.0  -1.0  0     0.0000    0.0001
33           ?    N    ? P      ? 20180313 0006   19.5078 GAU  1.12e-02 -1.00e+00  8.45e+00  1.20e-02    8.4500 >    0.1469   -0.0031    0.8950  694.3775 5155.6293   -0.4252    0.0576  65.50  -1.0  -1.0  0     0.0000    0.0001
36           ?    N    ? P      ? 20180313 0006   19.5112 GAU  1.46e-02 -1.00e+00  8.29e+00  1.20e-02    8.2900 >    0.1422    0.0049    0.7934  694.3865 5155.5904   -0.4164    0.0633 103.78  -1.0  -1.0  0     0.0000    0.0001
32           ?    N    ? P      ? 20180313 0006   19.5132 GAU  1.66e-02 -1.00e+00  8.19e+00  1.20e-02    8.1900 >    0.1608   -0.0116    0.9402  694.3777 5155.6456   -0.4297    0.0662  52.65  -1.0  -1.0  0     0.0000    0.0002
38           ?    N    ? P      ? 20180313 0006   19.5107 GAU  2.00e-02 -1.00e+00  6.73e+00  1.20e-02    6.7300 >    0.1520   -0.0054    0.8972  694.3902 5155.5681   -0.4123    0.0750 119.83  -1.0  -1.0  0     0.0000    0.0002
30           ?    N    ? P      ? 20180313 0006   19.5351 GAU  2.10e-02 -1.00e+00  7.25e+00  1.20e-02    7.2500 >    0.1763   -0.0052    1.1583  694.3775 5155.6619   -0.4333    0.0770  42.85  -1.0  -1.0  0     0.0000    0.0002
39           ?    N    ? P      ? 20180313 0006   19.5224 GAU  2.29e-02 -1.00e+00  7.86e+00  8.00e-03    7.8600 >    0.1586   -0.0002    1.2157  694.3890 5155.5532   -0.4086    0.0826 129.25  -1.0  -1.0  0     0.0000    0.0002
28           ?    N    ? P      ? 20180313 0006   19.5604 GAU  1.90e-02 -1.00e+00  6.99e+00  1.20e-02    6.9900 >    0.1898    0.0066    1.4698  694.3767 5155.6745   -0.4362    0.0862  36.78  -1.0  -1.0  0     0.0000    0.0002
34           ?    N    ? P      ? 20180313 0006   19.5600 GAU  1.85e-02 -1.00e+00  7.45e+00  1.20e-02    7.4500 >    0.1844    0.0116    0.6886  694.4145 5155.6153   -0.4263    0.0900  83.71  -1.0  -1.0  0     0.0000    0.0002
41           ?    N    ? P      ? 20180313 0006   19.5439 GAU  2.39e-02 -1.00e+00  6.47e+00  1.20e-02    6.4700 >    0.1702    0.0097    1.3184  694.3901 5155.5386   -0.4053    0.0932 135.76  -1.0  -1.0  0     0.0000    0.0002
31           ?    N    ? P      ? 20180313 0006   19.5682 GAU  1.61e-02 -1.00e+00  6.63e+00  1.20e-02    6.6300 >    0.1970    0.0072    1.0327  694.4086 5155.6503   -0.4335    0.0949  61.73  -1.0  -1.0  0     0.0000    0.0002
37           ?    N    ? P      ? 20180313 0006   19.5453 GAU  1.75e-02 -1.00e+00  7.22e+00  1.20e-02    7.2200 >    0.1911   -0.0098    0.8803  694.4219 5155.5876   -0.4220    0.0985 100.43  -1.0  -1.0  0     0.0000    0.0002
40           ?    N    ? P      ? 20180313 0006   19.5517 GAU  3.56e-02 -1.00e+00  7.03e+00  2.40e-02    7.0300 >    0.2018   -0.0142    1.0178  694.4169 5155.5417   -0.4131    0.1117 124.76  -1.0  -1.0  0     0.0000    0.0002
END_PHASE
END_NLLOC

