NLLOC "./loc/RR.20180313.000749.grid0" "REJECTED" "WARNING: max prob location on grid boundary 31, rejecting location."
PUBLIC_ID None
SIGNATURE "   obs:./obs/nll_picks.obs   NLLoc:v7.00.10(30Aug2020)   run:29Apr2022 23h17m46"
COMMENT "Rattlesnake Ridge Slidequake Locations"
GRID  150 250 75  694.15 5155.4 0  0.002 0.002 0.002 PROB_DENSITY
SEARCH OCTREE nInitial 1000 nEvaluated 20024 smallestNodeSide 0.003725/0.006225/0.001850 oct_tree_integral 5.603028e-04 scatter_volume 5.603028e-04
HYPOCENTER  x 694.372 y 5155.8 z 0.147075  OT 49.7386  ix -1 iy -1 iz -1 MAXIMUM_LIKELIHOOD
GEOGRAPHIC  OT 2018 03 13  00 07 49.738574  Lat 5155.801513 Long 694.371638 Depth 0.147075
QUALITY  Pmax 1.72287e+31 MFmin 43.1977 MFmax 43.2264 RMS 0.00630659 Nphs 10 Gap 233.856 Dist 0.00964089 Mamp  0.53 10 Mdur -9.90 0
VPVSRATIO  VpVsRatio -1  Npair 0  Diff -2e+30
STATISTICS  ExpectX 694.268039 Y 5155.762822 Z 0.096691  CovXX 0.00721557 XY 0.00222649 XZ 0.000981798 YY 0.00095556 YZ 0.000491237 ZZ 0.00147539 EllAz1  163.523 Dip1  8.71161 Len1  0.027773 Az2  295.955 Dip2  77.205 Len2  0.0683578 Len3  1.691393e-01
STAT_GEOG  ExpectLat 5155.762822 Long 694.268039 Depth 0.096691
TRANSFORM  NONE
QML_OriginQuality  assocPhCt 10  usedPhCt 10  assocStaCt -1  usedStaCt 10  depthPhCt -1  stdErr 0.00630659  azGap 233.856  secAzGap 246.017  gtLevel -  minDist 0.00964089 maxDist 0.079058 medDist 0.0451012
QML_OriginUncertainty  horUnc -1  minHorUnc 0.0237114  maxHorUnc 0.135024  azMaxHorUnc 72.2872
QML_ConfidenceEllipsoid  semiMajorAxisLength 0.169139  semiMinorAxisLength 0.027773  semiIntermediateAxisLength 0.0683578  majorAxisPlunge 9.29815  majorAxisAzimuth 72.0852  majorAxisRotation 9.30656
FOCALMECH  Hyp  5155.801513 694.371638 0.147075 Mech  0 0 0 mf  0 nObs -1
PHASE ID Ins Cmp On Pha  FM Date     HrMn   Sec     Err  ErrMag    Coda      Amp       Per       PriorWt  >   TTpred    Res       Weight    StaLoc(X  Y         Z)        SDist    SAzim  RAz  RDip RQual    Tcorr       TTerr
103          ?    N    ? P      ? 20180313 0007   49.9905 GAU  2.40e-02 -1.00e+00  6.43e+00  2.00e-02    6.4300 >    0.2207    0.0313    0.3737  694.3644 5155.7952   -0.4662    0.0096 229.00  -1.0  -1.0  0     0.0000    0.0002
16           ?    N    ? P      ? 20180313 0007   49.9626 GAU  1.18e-02 -1.00e+00  8.21e+00  1.20e-02    8.2100 >    0.2211    0.0030    0.8062  694.3452 5155.7921   -0.4642    0.0281 250.46  -1.0  -1.0  0     0.0000    0.0002
17           ?    N    ? P      ? 20180313 0007   49.9487 GAU  8.28e-03 -1.00e+00  8.07e+00  8.00e-03    8.0700 >    0.2190   -0.0089    0.7171  694.3461 5155.7815   -0.4621    0.0324 231.84  -1.0  -1.0  0     0.0000    0.0002
18           ?    N    ? P      ? 20180313 0007   49.9604 GAU  1.05e-02 -1.00e+00  7.07e+00  1.20e-02    7.0700 >    0.2165    0.0053    0.8957  694.3549 5155.7674   -0.4586    0.0380 206.16  -1.0  -1.0  0     0.0000    0.0002
12           ?    N    ? P      ? 20180313 0007   49.9661 GAU  1.00e-02 -1.00e+00  6.77e+00  1.20e-02    6.7700 >    0.2278   -0.0002    1.4158  694.3356 5155.8197   -0.4663    0.0404 296.84  -1.0  -1.0  0     0.0000    0.0002
10           ?    N    ? P      ? 20180313 0007   49.9687 GAU  2.57e-02 -1.00e+00  5.76e+00  3.60e-02    5.7600 >    0.2328   -0.0026    1.1022  694.3329 5155.8329   -0.4673    0.0498 309.00  -1.0  -1.0  0     0.0000    0.0002
20           ?    N    ? P      ? 20180313 0007   50.1620 GAU  1.13e-02 -1.00e+00  7.38e+00  8.00e-03    7.3800 >    0.2175    0.2059    0.0000  694.3609 5155.7515   -0.4553    0.0512 192.16  -1.0  -1.0  0     0.0000    0.0002
15           ?    N    ? P      ? 20180313 0007   49.9709 GAU  1.57e-02 -1.00e+00  6.95e+00  1.20e-02    6.9500 >    0.2250    0.0073    1.1539  694.3206 5155.8107   -0.4609    0.0519 280.19  -1.0  -1.0  0     0.0000    0.0002
21           ?    N    ? P      ? 20180313 0007   49.9583 GAU  1.26e-02 -1.00e+00  6.59e+00  8.00e-03    6.5900 >    0.2194    0.0003    1.6947  694.3642 5155.7391   -0.4517    0.0628 186.83  -1.0  -1.0  0     0.0000    0.0002
23           ?    N    ? P      ? 20180313 0007   49.9635 GAU  2.22e-02 -1.00e+00  6.76e+00  1.20e-02    6.7600 >    0.2248    0.0002    1.8406  694.3677 5155.7226   -0.4473    0.0791 182.86  -1.0  -1.0  0     0.0000    0.0002
END_PHASE
END_NLLOC

