NLLOC "./loc/RR.20180313.000654.grid0" "LOCATED" "Location completed."
PUBLIC_ID None
SIGNATURE "   obs:./obs/nll_picks.obs   NLLoc:v7.00.10(30Aug2020)   run:29Apr2022 23h17m18"
COMMENT "Rattlesnake Ridge Slidequake Locations"
GRID  150 250 75  694.15 5155.4 0  0.002 0.002 0.002 PROB_DENSITY
SEARCH OCTREE nInitial 1000 nEvaluated 20008 smallestNodeSide 0.003725/0.006225/0.001850 oct_tree_integral 1.271891e-03 scatter_volume 1.271757e-03
HYPOCENTER  x 694.156 y 5155.45 z 0.000925  OT 54.1466  ix -1 iy -1 iz -1 MAXIMUM_LIKELIHOOD
GEOGRAPHIC  OT 2018 03 13  00 06 54.146643  Lat 5155.452912 Long 694.155588 Depth 0.000925
QUALITY  Pmax 3.45048e+22 MFmin 27.9725 MFmax 28.0011 RMS 0.00975794 Nphs 8 Gap 339.874 Dist 0.24027 Mamp  0.83 8 Mdur -9.90 0
VPVSRATIO  VpVsRatio -1  Npair 0  Diff -2e+30
STATISTICS  ExpectX 694.224004 Y 5155.489156 Z 0.071130  CovXX 0.00303847 XY 0.0012176 XZ 0.000212889 YY 0.00146751 YZ 7.30824e-05 ZZ 0.00178497 EllAz1  151.242 Dip1  -2.23574 Len1  0.0532256 Az2  42.4064 Dip2  -83.105 Len2  0.0788456 Len3  1.147060e-01
STAT_GEOG  ExpectLat 5155.489156 Long 694.224004 Depth 0.071130
TRANSFORM  NONE
QML_OriginQuality  assocPhCt 8  usedPhCt 8  assocStaCt -1  usedStaCt 8  depthPhCt -1  stdErr 0.00975794  azGap 339.874  secAzGap 344.593  gtLevel -  minDist 0.24027 maxDist 0.298458 medDist 0.265036
QML_OriginUncertainty  horUnc -1  minHorUnc 0.0430027  maxHorUnc 0.0922742  azMaxHorUnc 61.4132
QML_ConfidenceEllipsoid  semiMajorAxisLength 0.114706  semiMinorAxisLength 0.0532256  semiIntermediateAxisLength 0.0788456  majorAxisPlunge 6.51912  majorAxisAzimuth 61.4976  majorAxisRotation 357.69
FOCALMECH  Hyp  5155.452912 694.155588 0.000925 Mech  0 0 0 mf  0 nObs -1
PHASE ID Ins Cmp On Pha  FM Date     HrMn   Sec     Err  ErrMag    Coda      Amp       Per       PriorWt  >   TTpred    Res       Weight    StaLoc(X  Y         Z)        SDist    SAzim  RAz  RDip RQual    Tcorr       TTerr
42           ?    N    ? P      ? 20180313 0006   54.5653 GAU  1.56e-02 -1.00e+00  8.91e+00  1.20e-02    8.9100 >    0.4181    0.0005    1.7582  694.3873 5155.5165   -0.3983    0.2403  74.65  -1.0  -1.0  0     0.0000    0.0004
41           ?    N    ? P      ? 20180313 0006   54.5698 GAU  1.56e-02 -1.00e+00  8.58e+00  1.20e-02    8.5800 >    0.4286   -0.0055    0.8655  694.3901 5155.5386   -0.4053    0.2497  69.92  -1.0  -1.0  0     0.0000    0.0004
39           ?    N    ? P      ? 20180313 0006   54.5809 GAU  1.22e-02 -1.00e+00  8.80e+00  1.20e-02    8.8000 >    0.4337    0.0006    0.7579  694.3890 5155.5532   -0.4086    0.2541  66.76  -1.0  -1.0  0     0.0000    0.0004
38           ?    N    ? P      ? 20180313 0006   54.5909 GAU  1.78e-02 -1.00e+00  7.61e+00  1.60e-02    7.6100 >    0.4443    0.0000    0.6898  694.3902 5155.5681   -0.4123    0.2613  63.84  -1.0  -1.0  0     0.0000    0.0004
36           ?    N    ? P      ? 20180313 0006   54.5926 GAU  3.28e-02 -1.00e+00  6.45e+00  1.20e-02    6.4500 >    0.4552   -0.0093    0.7468  694.3865 5155.5904   -0.4164    0.2687  59.24  -1.0  -1.0  0     0.0000    0.0005
40           ?    N    ? P      ? 20180313 0006   54.6410 GAU  3.23e-02 -1.00e+00  7.37e+00  1.60e-02    7.3700 >    0.4743    0.0201    0.7208  694.4169 5155.5417   -0.4131    0.2760  71.23  -1.0  -1.0  0     0.0000    0.0005
35           ?    N    ? P      ? 20180313 0006   54.6154 GAU  2.56e-02 -1.00e+00  6.66e+00  1.20e-02    6.6600 >    0.4690   -0.0003    1.7789  694.3818 5155.6141   -0.4216    0.2777  54.52  -1.0  -1.0  0     0.0000    0.0005
37           ?    N    ? P      ? 20180313 0006   54.6883 GAU  2.62e-02 -1.00e+00  6.76e+00  1.20e-02    6.7600 >    0.5065    0.0352    0.6821  694.4219 5155.5876   -0.4220    0.2985  63.17  -1.0  -1.0  0     0.0000    0.0005
END_PHASE
END_NLLOC

