NLLOC "./loc/RR.20180313.000309.grid0" "REJECTED" "WARNING: max prob location on grid boundary 31, rejecting location."
PUBLIC_ID None
SIGNATURE "   obs:./obs/nll_picks.obs   NLLoc:v7.00.10(30Aug2020)   run:29Apr2022 23h16m20"
COMMENT "Rattlesnake Ridge Slidequake Locations"
GRID  150 250 75  694.15 5155.4 0  0.002 0.002 0.002 PROB_DENSITY
SEARCH OCTREE nInitial 1000 nEvaluated 15064 smallestNodeSide 0.001863/0.003112/0.000925 oct_tree_integral 9.459074e-05 scatter_volume 9.386226e-05
HYPOCENTER  x 694.328 y 5155.68 z 0.147537  OT 9.47985  ix -1 iy -1 iz -1 MAXIMUM_LIKELIHOOD
GEOGRAPHIC  OT 2018 03 13  00 03 9.479855  Lat 5155.684794 Long 694.327869 Depth 0.147537
QUALITY  Pmax 8.53366e+61 MFmin 94.6799 MFmax 94.699 RMS 0.00722573 Nphs 16 Gap 235.44 Dist 0.0472957 Mamp  0.59 16 Mdur -9.90 0
VPVSRATIO  VpVsRatio -1  Npair 0  Diff -2e+30
STATISTICS  ExpectX 694.264804 Y 5155.663136 Z 0.117791  CovXX 0.00439227 XY 0.00122736 XZ 0.000611531 YY 0.000466727 YZ 0.000242948 ZZ 0.000769783 EllAz1  164.911 Dip1  6.49036 Len1  0.019452 Az2  289.883 Dip2  78.7737 Len2  0.0487063 Len3  1.308393e-01
STAT_GEOG  ExpectLat 5155.663136 Long 694.264804 Depth 0.117791
TRANSFORM  NONE
QML_OriginQuality  assocPhCt 16  usedPhCt 16  assocStaCt -1  usedStaCt 16  depthPhCt -1  stdErr 0.00722573  azGap 235.44  secAzGap 243.648  gtLevel -  minDist 0.0472957 maxDist 0.111084 medDist 0.0692712
QML_OriginUncertainty  horUnc -1  minHorUnc 0.016233  maxHorUnc 0.104461  azMaxHorUnc 73.9907
QML_ConfidenceEllipsoid  semiMajorAxisLength 0.130839  semiMinorAxisLength 0.019452  semiIntermediateAxisLength 0.0487063  majorAxisPlunge 9.12033  majorAxisAzimuth 73.8647  majorAxisRotation 6.91835
FOCALMECH  Hyp  5155.684794 694.327869 0.147537 Mech  0 0 0 mf  0 nObs -1
PHASE ID Ins Cmp On Pha  FM Date     HrMn   Sec     Err  ErrMag    Coda      Amp       Per       PriorWt  >   TTpred    Res       Weight    StaLoc(X  Y         Z)        SDist    SAzim  RAz  RDip RQual    Tcorr       TTerr
25           ?    N    ? P      ? 20180313 0003    9.7272 GAU  9.52e-03 -1.00e+00  7.85e+00  2.40e-02    7.8500 >    0.2410    0.0063    0.8755  694.3684 5155.7091   -0.4438    0.0473  59.05  -1.0  -1.0  0     0.0000    0.0002
105          ?    N    ? P      ? 20180313 0003    9.7109 GAU  8.38e-03 -1.00e+00  9.34e+00  3.60e-02    9.3400 >    0.2335   -0.0024    0.7772  694.3764 5155.6832   -0.4382    0.0486  91.84  -1.0  -1.0  0     0.0000    0.0002
28           ?    N    ? P      ? 20180313 0003    9.7116 GAU  8.38e-03 -1.00e+00  9.60e+00  1.20e-02    9.6000 >    0.2319   -0.0002    0.7897  694.3767 5155.6745   -0.4362    0.0499 101.96  -1.0  -1.0  0     0.0000    0.0002
26           ?    N    ? P      ? 20180313 0003    9.7147 GAU  9.90e-03 -1.00e+00  8.36e+00  1.20e-02    8.3600 >    0.2375   -0.0027    0.7420  694.3783 5155.6910   -0.4400    0.0508  83.02  -1.0  -1.0  0     0.0000    0.0002
30           ?    N    ? P      ? 20180313 0003    9.7086 GAU  1.07e-02 -1.00e+00  8.26e+00  1.20e-02    8.2600 >    0.2297   -0.0009    0.7764  694.3775 5155.6619   -0.4333    0.0546 114.76  -1.0  -1.0  0     0.0000    0.0002
23           ?    N    ? P      ? 20180313 0003    9.7432 GAU  8.76e-03 -1.00e+00  7.86e+00  6.00e-02    7.8600 >    0.2491    0.0142    0.7769  694.3677 5155.7226   -0.4473    0.0549  46.52  -1.0  -1.0  0     0.0000    0.0002
32           ?    N    ? P      ? 20180313 0003    9.6934 GAU  1.07e-02 -1.00e+00  7.48e+00  2.80e-02    7.4800 >    0.2301   -0.0166    0.7003  694.3777 5155.6456   -0.4297    0.0634 128.21  -1.0  -1.0  0     0.0000    0.0002
21           ?    N    ? P      ? 20180313 0003    9.7417 GAU  1.71e-02 -1.00e+00  6.42e+00  8.00e-03    6.4200 >    0.2613    0.0006    1.1728  694.3642 5155.7391   -0.4517    0.0653  33.75  -1.0  -1.0  0     0.0000    0.0003
27           ?    N    ? P      ? 20180313 0003    9.7303 GAU  1.33e-02 -1.00e+00  6.87e+00  1.20e-02    6.8700 >    0.2513   -0.0009    0.7245  694.4008 5155.6912   -0.4412    0.0732  84.94  -1.0  -1.0  0     0.0000    0.0003
20           ?    N    ? P      ? 20180313 0003    9.7482 GAU  2.67e-02 -1.00e+00  6.20e+00  2.40e-02    6.2000 >    0.2707   -0.0024    1.0489  694.3609 5155.7515   -0.4553    0.0744  26.32  -1.0  -1.0  0     0.0000    0.0003
33           ?    N    ? P      ? 20180313 0003    9.7094 GAU  1.29e-02 -1.00e+00  7.55e+00  1.20e-02    7.5500 >    0.2314   -0.0018    1.2430  694.3775 5155.6293   -0.4252    0.0744 138.17  -1.0  -1.0  0     0.0000    0.0002
22           ?    N    ? P      ? 20180313 0003    9.7398 GAU  3.20e-02 -1.00e+00  6.10e+00  8.00e-03    6.1000 >    0.2673   -0.0074    0.6090  694.3985 5155.7265   -0.4488    0.0820  59.41  -1.0  -1.0  0     0.0000    0.0003
18           ?    N    ? P      ? 20180313 0003    9.7501 GAU  1.48e-02 -1.00e+00  6.01e+00  2.00e-02    6.0100 >    0.2833   -0.0130    1.6641  694.3549 5155.7674   -0.4586    0.0869  18.11  -1.0  -1.0  0     0.0000    0.0003
31           ?    N    ? P      ? 20180313 0003    9.7330 GAU  9.14e-03 -1.00e+00  6.29e+00  4.00e-02    6.2900 >    0.2514    0.0017    1.0393  694.4086 5155.6503   -0.4335    0.0878 113.10  -1.0  -1.0  0     0.0000    0.0003
35           ?    N    ? P      ? 20180313 0003    9.7227 GAU  1.18e-02 -1.00e+00  7.99e+00  8.00e-03    7.9900 >    0.2378    0.0051    1.6985  694.3818 5155.6141   -0.4216    0.0889 142.67  -1.0  -1.0  0     0.0000    0.0002
34           ?    N    ? P      ? 20180313 0003    9.7337 GAU  1.83e-02 -1.00e+00  6.86e+00  1.20e-02    6.8600 >    0.2631   -0.0092    1.3619  694.4145 5155.6153   -0.4263    0.1111 128.74  -1.0  -1.0  0     0.0000    0.0003
END_PHASE
END_NLLOC

