NLLOC "./loc/RR.20180313.001349.grid0" "REJECTED" "WARNING: max prob location on grid boundary 31, rejecting location."
PUBLIC_ID None
SIGNATURE "   obs:./obs/nll_picks.obs   NLLoc:v7.00.10(30Aug2020)   run:29Apr2022 23h18m52"
COMMENT "Rattlesnake Ridge Slidequake Locations"
GRID  150 250 75  694.15 5155.4 0  0.002 0.002 0.002 PROB_DENSITY
SEARCH OCTREE nInitial 1000 nEvaluated 9832 smallestNodeSide 0.001863/0.003112/0.000925 oct_tree_integral 7.253146e-05 scatter_volume 7.165726e-05
HYPOCENTER  x 694.17 y 5155.67 z 0.147075  OT 48.8778  ix -1 iy -1 iz -1 MAXIMUM_LIKELIHOOD
GEOGRAPHIC  OT 2018 03 13  00 13 48.877843  Lat 5155.670787 Long 694.170487 Depth 0.147075
QUALITY  Pmax 1.97207e+116 MFmin 196.334 MFmax 196.36 RMS 0.009836 Nphs 26 Gap 294.182 Dist 0.141833 Mamp  0.86 26 Mdur -9.90 0
VPVSRATIO  VpVsRatio -1  Npair 0  Diff -2e+30
STATISTICS  ExpectX 694.181736 Y 5155.663743 Z 0.109772  CovXX 0.000577409 XY 6.34607e-05 XZ 0.000195141 YY 0.000109532 YZ 0.000215231 ZZ 0.00103936 EllAz1  177.538 Dip1  11.9301 Len1  0.0147086 Az2  271.817 Dip2  19.4522 Len2  0.0422817 Len3  6.395137e-02
STAT_GEOG  ExpectLat 5155.663743 Long 694.181736 Depth 0.109772
TRANSFORM  NONE
QML_OriginQuality  assocPhCt 26  usedPhCt 26  assocStaCt -1  usedStaCt 26  depthPhCt -1  stdErr 0.009836  azGap 294.182  secAzGap 296.93  gtLevel -  minDist 0.141833 maxDist 0.278146 medDist 0.211924
QML_OriginUncertainty  horUnc -1  minHorUnc 0.0152472  maxHorUnc 0.0367081  azMaxHorUnc 82.4113
QML_ConfidenceEllipsoid  semiMajorAxisLength 0.0639514  semiMinorAxisLength 0.0147086  semiIntermediateAxisLength 0.0422817  majorAxisPlunge 66.9234  majorAxisAzimuth 57.8086  majorAxisRotation 318.137
FOCALMECH  Hyp  5155.670787 694.170487 0.147075 Mech  0 0 0 mf  0 nObs -1
PHASE ID Ins Cmp On Pha  FM Date     HrMn   Sec     Err  ErrMag    Coda      Amp       Per       PriorWt  >   TTpred    Res       Weight    StaLoc(X  Y         Z)        SDist    SAzim  RAz  RDip RQual    Tcorr       TTerr
106          ?    N    ? P      ? 20180313 0013   49.3257 GAU  1.25e-02 -1.00e+00  9.02e+00  8.00e-03    9.0200 >    0.3763    0.0715    0.0738  694.3120 5155.6801   -0.4360    0.1418  86.25  -1.0  -1.0  0     0.0000    0.0004
25           ?    N    ? P      ? 20180313 0013   49.3140 GAU  1.17e-02 -1.00e+00  8.90e+00  5.20e-02    8.9000 >    0.4353    0.0008    0.9939  694.3684 5155.7091   -0.4438    0.2016  79.04  -1.0  -1.0  0     0.0000    0.0004
23           ?    N    ? P      ? 20180313 0013   49.3253 GAU  1.13e-02 -1.00e+00  9.88e+00  8.00e-03    9.8800 >    0.4414    0.0061    1.1396  694.3677 5155.7226   -0.4473    0.2039  75.29  -1.0  -1.0  0     0.0000    0.0004
21           ?    N    ? P      ? 20180313 0013   49.3617 GAU  3.93e-02 -1.00e+00  7.94e+00  4.40e-02    7.9400 >    0.4480    0.0359    0.5025  694.3642 5155.7391   -0.4517    0.2054  70.57  -1.0  -1.0  0     0.0000    0.0004
28           ?    N    ? P      ? 20180313 0013   49.3077 GAU  1.55e-02 -1.00e+00  9.44e+00  8.00e-03    9.4400 >    0.4314   -0.0015    0.8221  694.3767 5155.6745   -0.4362    0.2062  88.98  -1.0  -1.0  0     0.0000    0.0004
105          ?    N    ? P      ? 20180313 0013   49.3086 GAU  1.13e-02 -1.00e+00  9.82e+00  8.00e-03    9.8200 >    0.4335   -0.0027    0.9213  694.3764 5155.6832   -0.4382    0.2063  86.54  -1.0  -1.0  0     0.0000    0.0004
20           ?    N    ? P      ? 20180313 0013   49.3291 GAU  9.20e-03 -1.00e+00  7.92e+00  8.00e-03    7.9200 >    0.4530   -0.0018    1.4331  694.3609 5155.7515   -0.4553    0.2068  67.03  -1.0  -1.0  0     0.0000    0.0005
30           ?    N    ? P      ? 20180313 0013   49.3040 GAU  1.59e-02 -1.00e+00  8.96e+00  8.00e-03    8.9600 >    0.4295   -0.0033    0.8020  694.3775 5155.6619   -0.4333    0.2072  92.45  -1.0  -1.0  0     0.0000    0.0004
17           ?    N    ? P      ? 20180313 0013   49.3479 GAU  1.71e-02 -1.00e+00  7.60e+00  1.20e-02    7.6000 >    0.4630    0.0070    1.5081  694.3461 5155.7815   -0.4621    0.2076  57.78  -1.0  -1.0  0     0.0000    0.0005
18           ?    N    ? P      ? 20180313 0013   49.3316 GAU  1.09e-02 -1.00e+00  7.44e+00  8.00e-03    7.4400 >    0.4588   -0.0050    1.5185  694.3549 5155.7674   -0.4586    0.2082  62.35  -1.0  -1.0  0     0.0000    0.0005
32           ?    N    ? P      ? 20180313 0013   49.3073 GAU  1.59e-02 -1.00e+00  8.73e+00  5.60e-02    8.7300 >    0.4275    0.0020    0.8636  694.3777 5155.6456   -0.4297    0.2087  96.94  -1.0  -1.0  0     0.0000    0.0004
26           ?    N    ? P      ? 20180313 0013   49.3153 GAU  1.13e-02 -1.00e+00  9.13e+00  5.20e-02    9.1300 >    0.4381   -0.0006    0.9132  694.3783 5155.6910   -0.4400    0.2088  84.45  -1.0  -1.0  0     0.0000    0.0004
33           ?    N    ? P      ? 20180313 0013   49.3094 GAU  1.30e-02 -1.00e+00  9.25e+00  1.20e-02    9.2500 >    0.4247    0.0069    1.0383  694.3775 5155.6293   -0.4252    0.2111 101.32  -1.0  -1.0  0     0.0000    0.0004
16           ?    N    ? P      ? 20180313 0013   49.3604 GAU  1.88e-02 -1.00e+00  7.48e+00  2.80e-02    7.4800 >    0.4705    0.0120    1.4630  694.3452 5155.7921   -0.4642    0.2127  55.22  -1.0  -1.0  0     0.0000    0.0005
35           ?    N    ? P      ? 20180313 0013   49.3077 GAU  1.55e-02 -1.00e+00  8.87e+00  1.20e-02    8.8700 >    0.4288    0.0011    1.1226  694.3818 5155.6141   -0.4216    0.2188 105.02  -1.0  -1.0  0     0.0000    0.0004
103          ?    N    ? P      ? 20180313 0013   49.3341 GAU  2.34e-02 -1.00e+00  6.93e+00  2.40e-02    6.9300 >    0.4880   -0.0318    0.7619  694.3644 5155.7952   -0.4662    0.2304  57.31  -1.0  -1.0  0     0.0000    0.0005
36           ?    N    ? P      ? 20180313 0013   49.3286 GAU  2.55e-02 -1.00e+00  7.28e+00  8.00e-03    7.2800 >    0.4368    0.0139    0.8745  694.3865 5155.5904   -0.4164    0.2305 110.42  -1.0  -1.0  0     0.0000    0.0004
27           ?    N    ? P      ? 20180313 0013   49.3358 GAU  1.25e-02 -1.00e+00  8.69e+00  8.00e-03    8.6900 >    0.4613   -0.0034    0.9295  694.4008 5155.6912   -0.4412    0.2312  84.92  -1.0  -1.0  0     0.0000    0.0005
22           ?    N    ? P      ? 20180313 0013   49.3721 GAU  3.14e-02 -1.00e+00  8.29e+00  1.20e-02    8.2900 >    0.4722    0.0220    0.6471  694.3985 5155.7265   -0.4488    0.2347  76.26  -1.0  -1.0  0     0.0000    0.0005
31           ?    N    ? P      ? 20180313 0013   49.3483 GAU  2.76e-02 -1.00e+00  8.21e+00  1.20e-02    8.2100 >    0.4622    0.0082    0.6643  694.4086 5155.6503   -0.4335    0.2390  94.91  -1.0  -1.0  0     0.0000    0.0005
38           ?    N    ? P      ? 20180313 0013   49.3194 GAU  1.55e-02 -1.00e+00  6.98e+00  1.20e-02    6.9800 >    0.4465   -0.0049    1.4410  694.3902 5155.5681   -0.4123    0.2425 115.05  -1.0  -1.0  0     0.0000    0.0004
39           ?    N    ? P      ? 20180313 0013   49.3429 GAU  1.63e-02 -1.00e+00  6.91e+00  6.00e-02    6.9100 >    0.4500    0.0150    1.3291  694.3890 5155.5532   -0.4086    0.2482 118.29  -1.0  -1.0  0     0.0000    0.0005
34           ?    N    ? P      ? 20180313 0013   49.3320 GAU  1.97e-02 -1.00e+00  8.37e+00  1.20e-02    8.3700 >    0.4673   -0.0131    0.9041  694.4145 5155.6153   -0.4263    0.2503 102.82  -1.0  -1.0  0     0.0000    0.0005
41           ?    N    ? P      ? 20180313 0013   49.3320 GAU  3.81e-02 -1.00e+00  6.14e+00  2.00e-02    6.1400 >    0.4569   -0.0028    0.9695  694.3901 5155.5386   -0.4053    0.2563 121.04  -1.0  -1.0  0     0.0000    0.0005
37           ?    N    ? P      ? 20180313 0013   49.3700 GAU  2.84e-02 -1.00e+00  7.28e+00  8.00e-03    7.2800 >    0.4811    0.0111    0.9426  694.4219 5155.5876   -0.4220    0.2648 108.31  -1.0  -1.0  0     0.0000    0.0005
40           ?    N    ? P      ? 20180313 0013   49.3554 GAU  2.05e-02 -1.00e+00  7.13e+00  1.20e-02    7.1300 >    0.4896   -0.0121    1.4208  694.4169 5155.5417   -0.4131    0.2781 117.65  -1.0  -1.0  0     0.0000    0.0005
END_PHASE
END_NLLOC

