NLLOC "./loc/RR.20180313.024251.grid0" "REJECTED" "WARNING: max prob location on grid boundary 10, rejecting location."
PUBLIC_ID None
SIGNATURE "   obs:./obs/nll_picks.obs   NLLoc:v7.00.10(30Aug2020)   run:29Apr2022 23h21m02"
COMMENT "Rattlesnake Ridge Slidequake Locations"
GRID  150 250 75  694.15 5155.4 0  0.002 0.002 0.002 PROB_DENSITY
SEARCH OCTREE nInitial 1000 nEvaluated 4584 smallestNodeSide 0.001863/0.003112/0.000925 oct_tree_integral 2.507112e-05 scatter_volume 2.506418e-05
HYPOCENTER  x 694.152 y 5155.67 z 0.141525  OT 51.1346  ix -1 iy -1 iz -1 MAXIMUM_LIKELIHOOD
GEOGRAPHIC  OT 2018 03 13  02 42 51.134578  Lat 5155.670787 Long 694.151862 Depth 0.141525
QUALITY  Pmax 7.19402e+95 MFmin 223.189 MFmax 223.381 RMS 0.0159226 Nphs 22 Gap 298.87 Dist 0.160422 Mamp  0.85 22 Mdur -9.90 0
VPVSRATIO  VpVsRatio -1  Npair 0  Diff -2e+30
STATISTICS  ExpectX 694.169656 Y 5155.663240 Z 0.115058  CovXX 0.000270864 XY 2.24167e-05 XZ 0.000102719 YY 8.79278e-05 YZ 0.000170861 ZZ 0.000736281 EllAz1  180.817 Dip1  14.0083 Len1  0.0126896 Az2  273.523 Dip2  10.7162 Len2  0.0297074 Len3  5.312301e-02
STAT_GEOG  ExpectLat 5155.663240 Long 694.169656 Depth 0.115058
TRANSFORM  NONE
QML_OriginQuality  assocPhCt 22  usedPhCt 22  assocStaCt -1  usedStaCt 22  depthPhCt -1  stdErr 0.0159226  azGap 298.87  secAzGap 301.509  gtLevel -  minDist 0.160422 maxDist 0.294771 medDist 0.227794
QML_OriginUncertainty  horUnc -1  minHorUnc 0.0140003  maxHorUnc 0.0250841  azMaxHorUnc 83.1148
QML_ConfidenceEllipsoid  semiMajorAxisLength 0.053123  semiMinorAxisLength 0.0126896  semiIntermediateAxisLength 0.0297074  majorAxisPlunge 72.2276  majorAxisAzimuth 39.7089  majorAxisRotation 302.006
FOCALMECH  Hyp  5155.670787 694.151862 0.141525 Mech  0 0 0 mf  0 nObs -1
PHASE ID Ins Cmp On Pha  FM Date     HrMn   Sec     Err  ErrMag    Coda      Amp       Per       PriorWt  >   TTpred    Res       Weight    StaLoc(X  Y         Z)        SDist    SAzim  RAz  RDip RQual    Tcorr       TTerr
106          ?    N    ? P      ? 20180313 0242   51.6903 GAU  5.64e-03 -1.00e+00  7.00e+00  4.80e-02    7.0000 >    0.4012    0.1546    0.0000  694.3120 5155.6801   -0.4360    0.1604  86.69  -1.0  -1.0  0     0.0000    0.0004
25           ?    N    ? P      ? 20180313 0242   51.6146 GAU  2.54e-02 -1.00e+00  7.08e+00  4.80e-02    7.0800 >    0.4612    0.0188    0.6696  694.3684 5155.7091   -0.4438    0.2199  79.96  -1.0  -1.0  0     0.0000    0.0005
23           ?    N    ? P      ? 20180313 0242   51.6025 GAU  3.22e-02 -1.00e+00  7.57e+00  8.00e-03    7.5700 >    0.4669    0.0011    0.6839  694.3677 5155.7226   -0.4473    0.2220  76.51  -1.0  -1.0  0     0.0000    0.0005
17           ?    N    ? P      ? 20180313 0242   51.6231 GAU  1.54e-02 -1.00e+00  7.69e+00  8.00e-03    7.6900 >    0.4869    0.0016    1.7806  694.3461 5155.7815   -0.4621    0.2236  60.33  -1.0  -1.0  0     0.0000    0.0005
20           ?    N    ? P      ? 20180313 0242   51.6213 GAU  9.84e-03 -1.00e+00  6.26e+00  1.20e-02    6.2600 >    0.4780    0.0087    1.5235  694.3609 5155.7515   -0.4553    0.2240  68.89  -1.0  -1.0  0     0.0000    0.0005
18           ?    N    ? P      ? 20180313 0242   51.6083 GAU  1.29e-02 -1.00e+00  6.10e+00  5.20e-02    6.1000 >    0.4832   -0.0094    1.1450  694.3549 5155.7674   -0.4586    0.2248  64.55  -1.0  -1.0  0     0.0000    0.0005
28           ?    N    ? P      ? 20180313 0242   51.6182 GAU  3.73e-03 -1.00e+00  9.13e+00  8.00e-03    9.1300 >    0.4577    0.0259    0.8464  694.3767 5155.6745   -0.4362    0.2249  89.06  -1.0  -1.0  0     0.0000    0.0005
105          ?    N    ? P      ? 20180313 0242   51.6192 GAU  5.75e-03 -1.00e+00  8.60e+00  5.60e-02    8.6000 >    0.4598    0.0248    0.7611  694.3764 5155.6832   -0.4382    0.2249  86.83  -1.0  -1.0  0     0.0000    0.0005
30           ?    N    ? P      ? 20180313 0242   51.5987 GAU  6.60e-03 -1.00e+00  8.73e+00  1.20e-02    8.7300 >    0.4559    0.0082    0.9435  694.3775 5155.6619   -0.4333    0.2258  92.25  -1.0  -1.0  0     0.0000    0.0005
32           ?    N    ? P      ? 20180313 0242   51.5837 GAU  5.41e-03 -1.00e+00  9.20e+00  1.20e-02    9.2000 >    0.4539   -0.0048    0.8896  694.3777 5155.6456   -0.4297    0.2272  96.37  -1.0  -1.0  0     0.0000    0.0005
26           ?    N    ? P      ? 20180313 0242   51.6228 GAU  8.26e-03 -1.00e+00  7.40e+00  5.20e-02    7.4000 >    0.4643    0.0239    0.6789  694.3783 5155.6910   -0.4400    0.2273  84.91  -1.0  -1.0  0     0.0000    0.0005
16           ?    N    ? P      ? 20180313 0242   51.6367 GAU  3.14e-02 -1.00e+00  7.44e+00  8.00e-03    7.4400 >    0.4939    0.0082    1.1872  694.3452 5155.7921   -0.4642    0.2283  57.89  -1.0  -1.0  0     0.0000    0.0005
33           ?    N    ? P      ? 20180313 0242   51.5850 GAU  3.11e-03 -1.00e+00  8.93e+00  1.20e-02    8.9300 >    0.4511   -0.0007    0.9680  694.3775 5155.6293   -0.4252    0.2294 100.41  -1.0  -1.0  0     0.0000    0.0005
35           ?    N    ? P      ? 20180313 0242   51.5923 GAU  4.84e-03 -1.00e+00  9.28e+00  8.00e-03    9.2800 >    0.4549    0.0028    0.9726  694.3818 5155.6141   -0.4216    0.2368 103.85  -1.0  -1.0  0     0.0000    0.0005
36           ?    N    ? P      ? 20180313 0242   51.5985 GAU  5.53e-03 -1.00e+00  7.75e+00  1.20e-02    7.7500 >    0.4628    0.0011    1.0020  694.3865 5155.5904   -0.4164    0.2481 108.92  -1.0  -1.0  0     0.0000    0.0005
27           ?    N    ? P      ? 20180313 0242   51.6529 GAU  8.30e-03 -1.00e+00  6.63e+00  8.00e-03    6.6300 >    0.4877    0.0307    0.4780  694.4008 5155.6912   -0.4412    0.2498  85.30  -1.0  -1.0  0     0.0000    0.0005
38           ?    N    ? P      ? 20180313 0242   51.6057 GAU  5.88e-03 -1.00e+00  7.08e+00  2.80e-02    7.0800 >    0.4718   -0.0007    1.1593  694.3902 5155.5681   -0.4123    0.2595 113.31  -1.0  -1.0  0     0.0000    0.0005
39           ?    N    ? P      ? 20180313 0242   51.6351 GAU  2.77e-03 -1.00e+00  7.37e+00  8.00e-03    7.3700 >    0.4749    0.0256    1.6069  694.3890 5155.5532   -0.4086    0.2647 116.38  -1.0  -1.0  0     0.0000    0.0005
34           ?    N    ? P      ? 20180313 0242   51.6372 GAU  1.11e-02 -1.00e+00  7.02e+00  4.80e-02    7.0200 >    0.4936    0.0090    0.8893  694.4145 5155.6153   -0.4263    0.2685 101.93  -1.0  -1.0  0     0.0000    0.0005
41           ?    N    ? P      ? 20180313 0242   51.6368 GAU  7.26e-03 -1.00e+00  5.98e+00  6.00e-02    5.9800 >    0.4814    0.0208    1.3661  694.3901 5155.5386   -0.4053    0.2724 119.02  -1.0  -1.0  0     0.0000    0.0005
37           ?    N    ? P      ? 20180313 0242   51.6365 GAU  5.53e-03 -1.00e+00  6.65e+00  1.60e-02    6.6500 >    0.5071   -0.0051    0.9391  694.4219 5155.5876   -0.4220    0.2826 107.12  -1.0  -1.0  0     0.0000    0.0005
40           ?    N    ? P      ? 20180313 0242   51.6534 GAU  9.33e-03 -1.00e+00  7.04e+00  1.20e-02    7.0400 >    0.5145    0.0043    1.5093  694.4169 5155.5417   -0.4131    0.2948 115.97  -1.0  -1.0  0     0.0000    0.0005
END_PHASE
END_NLLOC

