NLLOC "./loc/RR.20180313.001755.grid0" "REJECTED" "WARNING: max prob location on grid boundary 31, rejecting location."
PUBLIC_ID None
SIGNATURE "   obs:./obs/nll_picks.obs   NLLoc:v7.00.10(30Aug2020)   run:29Apr2022 23h19m02"
COMMENT "Rattlesnake Ridge Slidequake Locations"
GRID  150 250 75  694.15 5155.4 0  0.002 0.002 0.002 PROB_DENSITY
SEARCH OCTREE nInitial 1000 nEvaluated 5592 smallestNodeSide 0.001863/0.003112/0.000925 oct_tree_integral 2.541764e-05 scatter_volume 2.540981e-05
HYPOCENTER  x 694.216 y 5155.7 z 0.147537  OT 55.053  ix -1 iy -1 iz -1 MAXIMUM_LIKELIHOOD
GEOGRAPHIC  OT 2018 03 13  00 17 55.052968  Lat 5155.700356 Long 694.216119 Depth 0.147537
QUALITY  Pmax 1.13701e+147 MFmin 272.664 MFmax 272.69 RMS 0.00930606 Nphs 31 Gap 253.001 Dist 0.0980233 Mamp  0.79 31 Mdur -9.90 0
VPVSRATIO  VpVsRatio -1  Npair 0  Diff -2e+30
STATISTICS  ExpectX 694.192362 Y 5155.694060 Z 0.118465  CovXX 0.000547331 XY 6.91907e-05 XZ 0.000277365 YY 6.77794e-05 YZ 0.000148961 ZZ 0.0006063 EllAz1  180.36 Dip1  14.6377 Len1  0.0101712 Az2  282.363 Dip2  38.5275 Len2  0.0328704 Len3  5.592552e-02
STAT_GEOG  ExpectLat 5155.694060 Long 694.192362 Depth 0.118465
TRANSFORM  NONE
QML_OriginQuality  assocPhCt 31  usedPhCt 31  assocStaCt -1  usedStaCt 31  depthPhCt -1  stdErr 0.00930606  azGap 253.001  secAzGap 267.717  gtLevel -  minDist 0.0980233 maxDist 0.255868 medDist 0.170605
QML_OriginUncertainty  horUnc -1  minHorUnc 0.0115495  maxHorUnc 0.0357961  azMaxHorUnc 81.9519
QML_ConfidenceEllipsoid  semiMajorAxisLength 0.0559255  semiMinorAxisLength 0.0101712  semiIntermediateAxisLength 0.0328704  majorAxisPlunge 47.7629  majorAxisAzimuth 73.6414  majorAxisRotation 283.352
FOCALMECH  Hyp  5155.700356 694.216119 0.147537 Mech  0 0 0 mf  0 nObs -1
PHASE ID Ins Cmp On Pha  FM Date     HrMn   Sec     Err  ErrMag    Coda      Amp       Per       PriorWt  >   TTpred    Res       Weight    StaLoc(X  Y         Z)        SDist    SAzim  RAz  RDip RQual    Tcorr       TTerr
106          ?    N    ? P      ? 20180313 0017   55.4537 GAU  1.16e-02 -1.00e+00  8.07e+00  5.20e-02    8.0700 >    0.3029    0.0978    0.0584  694.3120 5155.6801   -0.4360    0.0980 101.95  -1.0  -1.0  0     0.0000    0.0003
15           ?    N    ? P      ? 20180313 0017   55.5816 GAU  1.24e-01 -1.00e+00  6.27e+00  2.00e-02    6.2700 >    0.3766    0.1521    0.1341  694.3206 5155.8107   -0.4609    0.1519  43.43  -1.0  -1.0  0     0.0000    0.0004
25           ?    N    ? P      ? 20180313 0017   55.4093 GAU  7.18e-03 -1.00e+00  9.77e+00  8.00e-03    9.7700 >    0.3550    0.0013    1.0966  694.3684 5155.7091   -0.4438    0.1526  86.71  -1.0  -1.0  0     0.0000    0.0004
21           ?    N    ? P      ? 20180313 0017   55.4077 GAU  1.69e-02 -1.00e+00  8.71e+00  1.20e-02    8.7100 >    0.3648   -0.0101    0.7760  694.3642 5155.7391   -0.4517    0.1530  75.33  -1.0  -1.0  0     0.0000    0.0004
23           ?    N    ? P      ? 20180313 0017   55.4139 GAU  1.08e-02 -1.00e+00  9.81e+00  8.00e-03    9.8100 >    0.3596    0.0013    1.0219  694.3677 5155.7226   -0.4473    0.1532  81.67  -1.0  -1.0  0     0.0000    0.0004
17           ?    N    ? P      ? 20180313 0017   55.4385 GAU  9.75e-03 -1.00e+00  8.28e+00  8.00e-03    8.2800 >    0.3780    0.0075    1.2858  694.3461 5155.7815   -0.4621    0.1533  58.04  -1.0  -1.0  0     0.0000    0.0004
20           ?    N    ? P      ? 20180313 0017   55.4241 GAU  6.67e-03 -1.00e+00  8.97e+00  8.00e-03    8.9700 >    0.3690    0.0021    1.2582  694.3609 5155.7515   -0.4553    0.1535  70.55  -1.0  -1.0  0     0.0000    0.0004
18           ?    N    ? P      ? 20180313 0017   55.4272 GAU  1.08e-02 -1.00e+00  8.05e+00  1.20e-02    8.0500 >    0.3741    0.0002    1.2037  694.3549 5155.7674   -0.4586    0.1541  64.21  -1.0  -1.0  0     0.0000    0.0004
16           ?    N    ? P      ? 20180313 0017   55.4482 GAU  1.33e-02 -1.00e+00  8.24e+00  1.20e-02    8.2400 >    0.3852    0.0100    1.2014  694.3452 5155.7921   -0.4642    0.1584  54.59  -1.0  -1.0  0     0.0000    0.0004
105          ?    N    ? P      ? 20180313 0017   55.4109 GAU  8.94e-03 -1.00e+00  1.01e+01  8.00e-03   10.1000 >    0.3571    0.0008    1.0903  694.3764 5155.6832   -0.4382    0.1612  96.10  -1.0  -1.0  0     0.0000    0.0004
26           ?    N    ? P      ? 20180313 0017   55.4097 GAU  9.19e-03 -1.00e+00  9.09e+00  1.20e-02    9.0900 >    0.3603   -0.0035    0.9867  694.3783 5155.6910   -0.4400    0.1625  93.31  -1.0  -1.0  0     0.0000    0.0004
28           ?    N    ? P      ? 20180313 0017   55.4093 GAU  1.06e-02 -1.00e+00  9.27e+00  2.80e-02    9.2700 >    0.3563   -0.0000    1.0223  694.3767 5155.6745   -0.4362    0.1626  99.16  -1.0  -1.0  0     0.0000    0.0004
30           ?    N    ? P      ? 20180313 0017   55.4030 GAU  1.01e-02 -1.00e+00  9.05e+00  2.40e-02    9.0500 >    0.3557   -0.0057    1.0256  694.3775 5155.6619   -0.4333    0.1659 103.40  -1.0  -1.0  0     0.0000    0.0004
5            ?    N    ? P      ? 20180313 0017   55.5547 GAU  1.98e-02 -1.00e+00  7.99e+00  1.20e-02    7.9900 >    0.3771    0.1247    0.0639  694.2898 5155.8520   -0.4475    0.1685  25.91  -1.0  -1.0  0     0.0000    0.0004
12           ?    N    ? P      ? 20180313 0017   55.4482 GAU  1.13e-02 -1.00e+00  6.84e+00  4.80e-02    6.8400 >    0.3977   -0.0024    1.5908  694.3356 5155.8197   -0.4663    0.1689  45.03  -1.0  -1.0  0     0.0000    0.0004
32           ?    N    ? P      ? 20180313 0017   55.4184 GAU  2.03e-02 -1.00e+00  8.63e+00  5.20e-02    8.6300 >    0.3573    0.0082    0.7808  694.3777 5155.6456   -0.4297    0.1706 108.73  -1.0  -1.0  0     0.0000    0.0004
103          ?    N    ? P      ? 20180313 0017   55.4452 GAU  1.33e-02 -1.00e+00  7.73e+00  2.80e-02    7.7300 >    0.4023   -0.0101    1.1377  694.3644 5155.7952   -0.4662    0.1760  57.39  -1.0  -1.0  0     0.0000    0.0004
33           ?    N    ? P      ? 20180313 0017   55.4271 GAU  1.93e-02 -1.00e+00  8.07e+00  1.20e-02    8.0700 >    0.3582    0.0159    0.7314  694.3775 5155.6293   -0.4252    0.1763 113.75  -1.0  -1.0  0     0.0000    0.0004
10           ?    N    ? P      ? 20180313 0017   55.4590 GAU  2.00e-02 -1.00e+00  6.74e+00  1.20e-02    6.7400 >    0.4063   -0.0003    1.2776  694.3329 5155.8329   -0.4673    0.1766  41.39  -1.0  -1.0  0     0.0000    0.0004
22           ?    N    ? P      ? 20180313 0017   55.4411 GAU  9.24e-03 -1.00e+00  8.48e+00  1.20e-02    8.4800 >    0.3905   -0.0023    1.0827  694.3985 5155.7265   -0.4488    0.1843  81.83  -1.0  -1.0  0     0.0000    0.0004
27           ?    N    ? P      ? 20180313 0017   55.4479 GAU  1.59e-02 -1.00e+00  7.95e+00  1.20e-02    7.9500 >    0.3833    0.0116    0.7212  694.4008 5155.6912   -0.4412    0.1849  92.82  -1.0  -1.0  0     0.0000    0.0004
35           ?    N    ? P      ? 20180313 0017   55.4991 GAU  7.97e-02 -1.00e+00  8.25e+00  1.20e-02    8.2500 >    0.3650    0.0811    0.2253  694.3818 5155.6141   -0.4216    0.1868 117.50  -1.0  -1.0  0     0.0000    0.0004
6            ?    N    ? P      ? 20180313 0017   55.4795 GAU  1.69e-02 -1.00e+00  7.29e+00  1.20e-02    7.2900 >    0.4319   -0.0054    1.5367  694.3446 5155.8502   -0.4728    0.1974  40.62  -1.0  -1.0  0     0.0000    0.0004
31           ?    N    ? P      ? 20180313 0017   55.4477 GAU  2.10e-02 -1.00e+00  8.48e+00  1.20e-02    8.4800 >    0.3901    0.0046    0.8165  694.4086 5155.6503   -0.4335    0.1989 104.56  -1.0  -1.0  0     0.0000    0.0004
36           ?    N    ? P      ? 20180313 0017   55.4414 GAU  1.57e-02 -1.00e+00  7.02e+00  1.20e-02    7.0200 >    0.3781    0.0103    1.1006  694.3865 5155.5904   -0.4164    0.2028 122.84  -1.0  -1.0  0     0.0000    0.0004
34           ?    N    ? P      ? 20180313 0017   55.4470 GAU  7.73e-03 -1.00e+00  7.86e+00  1.20e-02    7.8600 >    0.4022   -0.0082    1.3349  694.4145 5155.6153   -0.4263    0.2159 113.21  -1.0  -1.0  0     0.0000    0.0004
38           ?    N    ? P      ? 20180313 0017   55.4455 GAU  1.50e-02 -1.00e+00  6.62e+00  1.60e-02    6.6200 >    0.3936   -0.0011    1.4206  694.3902 5155.5681   -0.4123    0.2186 127.23  -1.0  -1.0  0     0.0000    0.0004
39           ?    N    ? P      ? 20180313 0017   55.4332 GAU  3.94e-02 -1.00e+00  6.41e+00  1.60e-02    6.4100 >    0.4006   -0.0203    0.6588  694.3890 5155.5532   -0.4086    0.2271 130.41  -1.0  -1.0  0     0.0000    0.0004
37           ?    N    ? P      ? 20180313 0017   55.4764 GAU  1.35e-02 -1.00e+00  7.30e+00  1.20e-02    7.3000 >    0.4207    0.0028    1.4626  694.4219 5155.5876   -0.4220    0.2347 118.72  -1.0  -1.0  0     0.0000    0.0004
41           ?    N    ? P      ? 20180313 0017   55.4769 GAU  2.51e-02 -1.00e+00  6.08e+00  1.20e-02    6.0800 >    0.4108    0.0131    1.0274  694.3901 5155.5386   -0.4053    0.2375 132.91  -1.0  -1.0  0     0.0000    0.0004
40           ?    N    ? P      ? 20180313 0017   55.4919 GAU  1.26e-02 -1.00e+00  6.97e+00  8.00e-03    6.9700 >    0.4402   -0.0013    1.8696  694.4169 5155.5417   -0.4131    0.2559 128.32  -1.0  -1.0  0     0.0000    0.0004
END_PHASE
END_NLLOC

