NLLOC "./loc/RR.20180313.024821.grid0" "LOCATED" "Location completed."
PUBLIC_ID None
SIGNATURE "   obs:./obs/nll_picks.obs   NLLoc:v7.00.10(30Aug2020)   run:29Apr2022 23h21m09"
COMMENT "Rattlesnake Ridge Slidequake Locations"
GRID  150 250 75  694.15 5155.4 0  0.002 0.002 0.002 PROB_DENSITY
SEARCH OCTREE nInitial 1000 nEvaluated 4104 smallestNodeSide 0.001863/0.003112/0.000925 oct_tree_integral 1.240319e-05 scatter_volume 1.240319e-05
HYPOCENTER  x 694.412 y 5155.8 z 0.122563  OT 21.4788  ix -1 iy -1 iz -1 MAXIMUM_LIKELIHOOD
GEOGRAPHIC  OT 2018 03 13  02 48 21.478840  Lat 5155.799956 Long 694.411681 Depth 0.122563
QUALITY  Pmax 7.7897e+92 MFmin 211.245 MFmax 211.275 RMS 0.00781756 Nphs 21 Gap 238.895 Dist 0.0475599 Mamp  0.61 21 Mdur -9.90 0
VPVSRATIO  VpVsRatio -1  Npair 0  Diff -2e+30
STATISTICS  ExpectX 694.371179 Y 5155.790276 Z 0.120528  CovXX 0.00545374 XY 0.00126983 XZ 0.000482981 YY 0.0003325 YZ 0.000154536 ZZ 0.000245701 EllAz1  167.973 Dip1  12.9277 Len1  0.00952276 Az2  325.303 Dip2  76.0307 Len2  0.0271564 Len3  1.430546e-01
STAT_GEOG  ExpectLat 5155.790276 Long 694.371179 Depth 0.120528
TRANSFORM  NONE
QML_OriginQuality  assocPhCt 21  usedPhCt 21  assocStaCt -1  usedStaCt 21  depthPhCt -1  stdErr 0.00781756  azGap 238.895  secAzGap 248.827  gtLevel -  minDist 0.0475599 maxDist 0.14828 medDist 0.0890299
QML_OriginUncertainty  horUnc -1  minHorUnc 0.00896366  maxHorUnc 0.115013  azMaxHorUnc 76.8115
QML_ConfidenceEllipsoid  semiMajorAxisLength 0.143055  semiMinorAxisLength 0.00952276  semiIntermediateAxisLength 0.0271564  majorAxisPlunge 5.20294  majorAxisAzimuth 76.775  majorAxisRotation 13.1916
FOCALMECH  Hyp  5155.799956 694.411681 0.122563 Mech  0 0 0 mf  0 nObs -1
PHASE ID Ins Cmp On Pha  FM Date     HrMn   Sec     Err  ErrMag    Coda      Amp       Per       PriorWt  >   TTpred    Res       Weight    StaLoc(X  Y         Z)        SDist    SAzim  RAz  RDip RQual    Tcorr       TTerr
103          ?    N    ? P      ? 20180313 0248   21.7052 GAU  3.86e-03 -1.00e+00  8.85e+00  1.20e-02    8.8500 >    0.2009    0.0255    0.2067  694.3644 5155.7952   -0.4662    0.0476 264.25  -1.0  -1.0  0     0.0000    0.0002
18           ?    N    ? P      ? 20180313 0248   21.6771 GAU  5.98e-03 -1.00e+00  8.78e+00  1.20e-02    8.7800 >    0.2016   -0.0033    0.8849  694.3549 5155.7674   -0.4586    0.0655 240.18  -1.0  -1.0  0     0.0000    0.0002
16           ?    N    ? P      ? 20180313 0248   21.6897 GAU  4.57e-03 -1.00e+00  9.16e+00  1.20e-02    9.1600 >    0.2105    0.0003    1.1429  694.3452 5155.7921   -0.4642    0.0670 263.28  -1.0  -1.0  0     0.0000    0.0002
17           ?    N    ? P      ? 20180313 0248   21.6848 GAU  4.56e-03 -1.00e+00  9.32e+00  8.00e-03    9.3200 >    0.2083   -0.0024    1.0454  694.3461 5155.7815   -0.4621    0.0681 254.25  -1.0  -1.0  0     0.0000    0.0002
20           ?    N    ? P      ? 20180313 0248   21.6848 GAU  5.27e-03 -1.00e+00  9.53e+00  1.20e-02    9.5300 >    0.2006    0.0054    0.8713  694.3609 5155.7515   -0.4553    0.0702 226.35  -1.0  -1.0  0     0.0000    0.0002
22           ?    N    ? P      ? 20180313 0248   21.7249 GAU  5.27e-03 -1.00e+00  8.44e+00  1.20e-02    8.4400 >    0.1971    0.0489    0.1129  694.3985 5155.7265   -0.4488    0.0746 190.18  -1.0  -1.0  0     0.0000    0.0002
21           ?    N    ? P      ? 20180313 0248   21.6873 GAU  5.62e-03 -1.00e+00  9.72e+00  8.00e-03    9.7200 >    0.2025    0.0060    0.9117  694.3642 5155.7391   -0.4517    0.0772 217.99  -1.0  -1.0  0     0.0000    0.0002
12           ?    N    ? P      ? 20180313 0248   21.6919 GAU  3.86e-03 -1.00e+00  7.79e+00  2.40e-02    7.7900 >    0.2213   -0.0083    0.9712  694.3356 5155.8197   -0.4663    0.0786 284.58  -1.0  -1.0  0     0.0000    0.0002
6            ?    N    ? P      ? 20180313 0248   21.7158 GAU  1.23e-02 -1.00e+00  7.50e+00  2.80e-02    7.5000 >    0.2335    0.0035    1.2167  694.3446 5155.8502   -0.4728    0.0838 306.83  -1.0  -1.0  0     0.0000    0.0002
10           ?    N    ? P      ? 20180313 0248   21.7080 GAU  3.86e-03 -1.00e+00  7.63e+00  8.00e-03    7.6300 >    0.2278    0.0014    1.6695  694.3329 5155.8329   -0.4673    0.0854 292.68  -1.0  -1.0  0     0.0000    0.0002
23           ?    N    ? P      ? 20180313 0248   21.6862 GAU  5.27e-03 -1.00e+00  9.00e+00  1.20e-02    9.0000 >    0.2080   -0.0006    1.2403  694.3677 5155.7226   -0.4473    0.0890 209.61  -1.0  -1.0  0     0.0000    0.0002
8            ?    N    ? P      ? 20180313 0248   21.6947 GAU  1.58e-02 -1.00e+00  6.57e+00  1.20e-02    6.5700 >    0.2377   -0.0219    0.4609  694.3223 5155.8450   -0.4648    0.1001 296.75  -1.0  -1.0  0     0.0000    0.0002
25           ?    N    ? P      ? 20180313 0248   21.6936 GAU  6.47e-03 -1.00e+00  8.98e+00  8.00e-03    8.9800 >    0.2162   -0.0014    1.3455  694.3684 5155.7091   -0.4438    0.1006 205.46  -1.0  -1.0  0     0.0000    0.0002
27           ?    N    ? P      ? 20180313 0248   21.7259 GAU  2.03e-02 -1.00e+00  7.51e+00  1.20e-02    7.5100 >    0.2236    0.0235    0.6828  694.4008 5155.6912   -0.4412    0.1093 185.72  -1.0  -1.0  0     0.0000    0.0002
13           ?    N    ? P      ? 20180313 0248   21.7642 GAU  2.00e-02 -1.00e+00  6.81e+00  1.60e-02    6.8100 >    0.2407    0.0447    0.2533  694.3062 5155.8390   -0.4568    0.1125 290.33  -1.0  -1.0  0     0.0000    0.0002
26           ?    N    ? P      ? 20180313 0248   21.7019 GAU  5.54e-03 -1.00e+00  8.90e+00  1.20e-02    8.9000 >    0.2272   -0.0042    1.6634  694.3783 5155.6910   -0.4400    0.1140 197.03  -1.0  -1.0  0     0.0000    0.0002
4            ?    N    ? P      ? 20180313 0248   21.7323 GAU  1.83e-02 -1.00e+00  7.18e+00  1.20e-02    7.1800 >    0.2451    0.0083    0.9370  694.3090 5155.8520   -0.4586    0.1151 296.90  -1.0  -1.0  0     0.0000    0.0002
105          ?    N    ? P      ? 20180313 0248   21.7167 GAU  7.39e-03 -1.00e+00  8.76e+00  8.00e-03    8.7600 >    0.2347    0.0031    1.6434  694.3764 5155.6832   -0.4382    0.1219 196.82  -1.0  -1.0  0     0.0000    0.0002
28           ?    N    ? P      ? 20180313 0248   21.7107 GAU  1.25e-02 -1.00e+00  8.02e+00  8.00e-03    8.0200 >    0.2430   -0.0112    1.0903  694.3767 5155.6745   -0.4362    0.1303 195.58  -1.0  -1.0  0     0.0000    0.0002
5            ?    N    ? P      ? 20180313 0248   21.7403 GAU  1.44e-02 -1.00e+00  7.28e+00  1.20e-02    7.2800 >    0.2523    0.0092    1.1672  694.2898 5155.8520   -0.4475    0.1325 293.10  -1.0  -1.0  0     0.0000    0.0003
7            ?    N    ? P      ? 20180313 0248   21.7414 GAU  1.34e-02 -1.00e+00  6.79e+00  1.20e-02    6.7900 >    0.2614    0.0012    1.4826  694.2704 5155.8450   -0.4359    0.1483 287.69  -1.0  -1.0  0     0.0000    0.0003
END_PHASE
END_NLLOC

