NLLOC "./loc/RR.20180313.001102.grid0" "REJECTED" "WARNING: max prob location on grid boundary 31, rejecting location."
PUBLIC_ID None
SIGNATURE "   obs:./obs/nll_picks.obs   NLLoc:v7.00.10(30Aug2020)   run:29Apr2022 23h18m21"
COMMENT "Rattlesnake Ridge Slidequake Locations"
GRID  150 250 75  694.15 5155.4 0  0.002 0.002 0.002 PROB_DENSITY
SEARCH OCTREE nInitial 1000 nEvaluated 7952 smallestNodeSide 0.001863/0.003112/0.000925 oct_tree_integral 4.529318e-05 scatter_volume 4.504458e-05
HYPOCENTER  x 694.334 y 5155.71 z 0.147075  OT 1.90125  ix -1 iy -1 iz -1 MAXIMUM_LIKELIHOOD
GEOGRAPHIC  OT 2018 03 13  00 11 1.901251  Lat 5155.714362 Long 694.334388 Depth 0.147075
QUALITY  Pmax 3.76947e+51 MFmin 74.0088 MFmax 74.0213 RMS 0.0071498 Nphs 14 Gap 168.022 Dist 0.0342969 Mamp  0.61 14 Mdur -9.90 0
VPVSRATIO  VpVsRatio -1  Npair 0  Diff -2e+30
STATISTICS  ExpectX 694.295092 Y 5155.705021 Z 0.118968  CovXX 0.00383855 XY 0.000522225 XZ 0.000626666 YY 0.000196204 YZ 0.000195661 ZZ 0.000760139 EllAz1  173.894 Dip1  10.9981 Len1  0.0189838 Az2  307.324 Dip2  74.2146 Len2  0.0480039 Len3  1.194204e-01
STAT_GEOG  ExpectLat 5155.705021 Long 694.295092 Depth 0.118968
TRANSFORM  NONE
QML_OriginQuality  assocPhCt 14  usedPhCt 14  assocStaCt -1  usedStaCt 14  depthPhCt -1  stdErr 0.0071498  azGap 168.022  secAzGap 228.025  gtLevel -  minDist 0.0342969 maxDist 0.0980272 medDist 0.0575105
QML_OriginUncertainty  horUnc -1  minHorUnc 0.0168065  maxHorUnc 0.094855  azMaxHorUnc 81.9998
QML_ConfidenceEllipsoid  semiMajorAxisLength 0.11942  semiMinorAxisLength 0.0189838  semiIntermediateAxisLength 0.0480039  majorAxisPlunge 11.182  majorAxisAzimuth 81.6918  majorAxisRotation 12.0998
FOCALMECH  Hyp  5155.714362 694.334388 0.147075 Mech  0 0 0 mf  0 nObs -1
PHASE ID Ins Cmp On Pha  FM Date     HrMn   Sec     Err  ErrMag    Coda      Amp       Per       PriorWt  >   TTpred    Res       Weight    StaLoc(X  Y         Z)        SDist    SAzim  RAz  RDip RQual    Tcorr       TTerr
23           ?    N    ? P      ? 20180313 0011    2.1399 GAU  1.59e-02 -1.00e+00  8.70e+00  8.00e-03    8.7000 >    0.2311    0.0076    0.8677  694.3677 5155.7226   -0.4473    0.0343  76.18  -1.0  -1.0  0     0.0000    0.0002
25           ?    N    ? P      ? 20180313 0011    2.1366 GAU  2.75e-02 -1.00e+00  7.85e+00  2.80e-02    7.8500 >    0.2259    0.0094    0.4868  694.3684 5155.7091   -0.4438    0.0344  98.76  -1.0  -1.0  0     0.0000    0.0002
106          ?    N    ? P      ? 20180313 0011    2.1264 GAU  1.54e-02 -1.00e+00  8.25e+00  1.20e-02    8.2500 >    0.2175    0.0077    1.5887  694.3120 5155.6801   -0.4360    0.0410 213.11  -1.0  -1.0  0     0.0000    0.0002
20           ?    N    ? P      ? 20180313 0011    2.1460 GAU  1.45e-02 -1.00e+00  7.80e+00  8.00e-03    7.8000 >    0.2460   -0.0013    1.6308  694.3609 5155.7515   -0.4553    0.0456  35.49  -1.0  -1.0  0     0.0000    0.0002
26           ?    N    ? P      ? 20180313 0011    2.1283 GAU  1.73e-02 -1.00e+00  8.36e+00  1.20e-02    8.3600 >    0.2269    0.0002    0.5994  694.3783 5155.6910   -0.4400    0.0498 118.04  -1.0  -1.0  0     0.0000    0.0002
105          ?    N    ? P      ? 20180313 0011    2.1283 GAU  8.87e-03 -1.00e+00  8.93e+00  4.80e-02    8.9300 >    0.2253    0.0018    0.7761  694.3764 5155.6832   -0.4382    0.0523 126.53  -1.0  -1.0  0     0.0000    0.0002
18           ?    N    ? P      ? 20180313 0011    2.1437 GAU  1.68e-02 -1.00e+00  6.92e+00  2.40e-02    6.9200 >    0.2561   -0.0137    1.5888  694.3549 5155.7674   -0.4586    0.0569  21.13  -1.0  -1.0  0     0.0000    0.0003
28           ?    N    ? P      ? 20180313 0011    2.1203 GAU  2.24e-02 -1.00e+00  8.39e+00  1.20e-02    8.3900 >    0.2261   -0.0070    0.5625  694.3767 5155.6745   -0.4362    0.0581 133.33  -1.0  -1.0  0     0.0000    0.0002
22           ?    N    ? P      ? 20180313 0011    2.1647 GAU  1.91e-02 -1.00e+00  7.40e+00  1.60e-02    7.4000 >    0.2472    0.0163    0.7904  694.3985 5155.7265   -0.4488    0.0653  79.24  -1.0  -1.0  0     0.0000    0.0002
30           ?    N    ? P      ? 20180313 0011    2.1432 GAU  2.75e-02 -1.00e+00  7.95e+00  1.20e-02    7.9500 >    0.2283    0.0136    0.5519  694.3775 5155.6619   -0.4333    0.0679 140.60  -1.0  -1.0  0     0.0000    0.0002
27           ?    N    ? P      ? 20180313 0011    2.1422 GAU  8.87e-03 -1.00e+00  7.82e+00  8.00e-03    7.8200 >    0.2399    0.0010    0.9526  694.4008 5155.6912   -0.4412    0.0703 109.19  -1.0  -1.0  0     0.0000    0.0002
32           ?    N    ? P      ? 20180313 0011    2.1287 GAU  1.49e-02 -1.00e+00  8.28e+00  8.00e-03    8.2800 >    0.2334   -0.0059    1.1154  694.3777 5155.6456   -0.4297    0.0813 147.81  -1.0  -1.0  0     0.0000    0.0002
33           ?    N    ? P      ? 20180313 0011    2.1362 GAU  1.21e-02 -1.00e+00  8.43e+00  1.20e-02    8.4300 >    0.2396   -0.0047    1.6718  694.3775 5155.6293   -0.4252    0.0953 153.11  -1.0  -1.0  0     0.0000    0.0002
31           ?    N    ? P      ? 20180313 0011    2.1544 GAU  3.03e-02 -1.00e+00  6.79e+00  8.00e-03    6.7900 >    0.2513    0.0018    0.8172  694.4086 5155.6503   -0.4335    0.0980 130.77  -1.0  -1.0  0     0.0000    0.0003
END_PHASE
END_NLLOC

