NLLOC "./loc/RR.20180313.005927.grid0" "REJECTED" "WARNING: max prob location on grid boundary 31, rejecting location."
PUBLIC_ID None
SIGNATURE "   obs:./obs/nll_picks.obs   NLLoc:v7.00.10(30Aug2020)   run:29Apr2022 23h19m45"
COMMENT "Rattlesnake Ridge Slidequake Locations"
GRID  150 250 75  694.15 5155.4 0  0.002 0.002 0.002 PROB_DENSITY
SEARCH OCTREE nInitial 1000 nEvaluated 4880 smallestNodeSide 0.001863/0.003112/0.000925 oct_tree_integral 2.079250e-05 scatter_volume 2.079250e-05
HYPOCENTER  x 694.231 y 5155.63 z 0.147537  OT 27.568  ix -1 iy -1 iz -1 MAXIMUM_LIKELIHOOD
GEOGRAPHIC  OT 2018 03 13  00 59 27.567977  Lat 5155.634994 Long 694.231019 Depth 0.147537
QUALITY  Pmax 3.08689e+119 MFmin 295.404 MFmax 295.495 RMS 0.0113558 Nphs 26 Gap 268.835 Dist 0.0926894 Mamp  0.76 26 Mdur -9.90 0
VPVSRATIO  VpVsRatio -1  Npair 0  Diff -2e+30
STATISTICS  ExpectX 694.209547 Y 5155.625783 Z 0.125710  CovXX 0.000964468 XY 0.000243299 XZ 0.000275128 YY 0.000105229 YZ 9.07631e-05 ZZ 0.000540536 EllAz1  165.951 Dip1  2.43396 Len1  0.0119376 Az2  261.166 Dip2  64.9373 Len2  0.0378985 Len3  6.407278e-02
STAT_GEOG  ExpectLat 5155.625783 Long 694.209547 Depth 0.125710
TRANSFORM  NONE
QML_OriginQuality  assocPhCt 26  usedPhCt 26  assocStaCt -1  usedStaCt 26  depthPhCt -1  stdErr 0.0113558  azGap 268.835  secAzGap 274.8  gtLevel -  minDist 0.0926894 maxDist 0.208428 medDist 0.176179
QML_OriginUncertainty  horUnc -1  minHorUnc 0.00972511  maxHorUnc 0.0486387  azMaxHorUnc 75.2383
QML_ConfidenceEllipsoid  semiMajorAxisLength 0.0640728  semiMinorAxisLength 0.0119376  semiIntermediateAxisLength 0.0378985  majorAxisPlunge 24.9277  majorAxisAzimuth 74.819  majorAxisRotation 4.15906
FOCALMECH  Hyp  5155.634994 694.231019 0.147537 Mech  0 0 0 mf  0 nObs -1
PHASE ID Ins Cmp On Pha  FM Date     HrMn   Sec     Err  ErrMag    Coda      Amp       Per       PriorWt  >   TTpred    Res       Weight    StaLoc(X  Y         Z)        SDist    SAzim  RAz  RDip RQual    Tcorr       TTerr
106          ?    N    ? P      ? 20180313 0059   27.9693 GAU  1.67e-02 -1.00e+00  7.14e+00  1.60e-02    7.1400 >    0.2960    0.1053    0.0002  694.3120 5155.6801   -0.4360    0.0927  60.91  -1.0  -1.0  0     0.0000    0.0003
33           ?    N    ? P      ? 20180313 0059   27.8859 GAU  6.71e-03 -1.00e+00  8.12e+00  7.60e-02    8.1200 >    0.3276   -0.0097    0.9867  694.3775 5155.6293   -0.4252    0.1466  92.22  -1.0  -1.0  0     0.0000    0.0003
32           ?    N    ? P      ? 20180313 0059   27.8917 GAU  1.00e-02 -1.00e+00  9.10e+00  1.20e-02    9.1000 >    0.3328   -0.0091    0.9635  694.3777 5155.6456   -0.4297    0.1471  85.87  -1.0  -1.0  0     0.0000    0.0003
30           ?    N    ? P      ? 20180313 0059   27.9131 GAU  6.86e-03 -1.00e+00  8.60e+00  2.80e-02    8.6000 >    0.3385    0.0066    0.8518  694.3775 5155.6619   -0.4333    0.1489  79.58  -1.0  -1.0  0     0.0000    0.0003
28           ?    N    ? P      ? 20180313 0059   27.9266 GAU  1.31e-02 -1.00e+00  8.36e+00  1.20e-02    8.3600 >    0.3435    0.0151    0.5183  694.3767 5155.6745   -0.4362    0.1509  74.84  -1.0  -1.0  0     0.0000    0.0003
35           ?    N    ? P      ? 20180313 0059   27.8960 GAU  8.29e-03 -1.00e+00  9.49e+00  8.00e-03    9.4900 >    0.3290   -0.0010    1.1437  694.3818 5155.6141   -0.4216    0.1522  97.89  -1.0  -1.0  0     0.0000    0.0003
105          ?    N    ? P      ? 20180313 0059   27.9594 GAU  1.14e-02 -1.00e+00  8.70e+00  8.00e-03    8.7000 >    0.3479    0.0435    0.0235  694.3764 5155.6832   -0.4382    0.1532  71.64  -1.0  -1.0  0     0.0000    0.0003
25           ?    N    ? P      ? 20180313 0059   27.9531 GAU  9.71e-03 -1.00e+00  7.94e+00  8.00e-03    7.9400 >    0.3571    0.0281    0.1619  694.3684 5155.7091   -0.4438    0.1561  61.66  -1.0  -1.0  0     0.0000    0.0004
26           ?    N    ? P      ? 20180313 0059   27.9240 GAU  8.00e-03 -1.00e+00  7.87e+00  8.00e-03    7.8700 >    0.3543    0.0017    0.9698  694.3783 5155.6910   -0.4400    0.1576  69.19  -1.0  -1.0  0     0.0000    0.0004
36           ?    N    ? P      ? 20180313 0059   27.8811 GAU  3.14e-03 -1.00e+00  8.98e+00  1.20e-02    8.9800 >    0.3336   -0.0204    0.6460  694.3865 5155.5904   -0.4164    0.1618 106.02  -1.0  -1.0  0     0.0000    0.0003
23           ?    N    ? P      ? 20180313 0059   27.9459 GAU  4.71e-03 -1.00e+00  8.22e+00  1.20e-02    8.2200 >    0.3668    0.0111    0.8698  694.3677 5155.7226   -0.4473    0.1623  57.35  -1.0  -1.0  0     0.0000    0.0004
38           ?    N    ? P      ? 20180313 0059   27.8917 GAU  4.00e-03 -1.00e+00  8.50e+00  1.20e-02    8.5000 >    0.3417   -0.0179    0.9067  694.3902 5155.5681   -0.4123    0.1726 112.80  -1.0  -1.0  0     0.0000    0.0003
20           ?    N    ? P      ? 20180313 0059   27.9617 GAU  1.03e-02 -1.00e+00  6.81e+00  1.20e-02    6.8100 >    0.3874    0.0063    1.1117  694.3609 5155.7515   -0.4553    0.1744  48.10  -1.0  -1.0  0     0.0000    0.0004
39           ?    N    ? P      ? 20180313 0059   27.9120 GAU  4.57e-03 -1.00e+00  8.81e+00  1.20e-02    8.8100 >    0.3439    0.0001    1.6824  694.3890 5155.5532   -0.4086    0.1779 117.38  -1.0  -1.0  0     0.0000    0.0003
31           ?    N    ? P      ? 20180313 0059   27.9456 GAU  5.28e-03 -1.00e+00  7.40e+00  6.00e-02    7.4000 >    0.3682    0.0095    0.7850  694.4086 5155.6503   -0.4335    0.1783  85.06  -1.0  -1.0  0     0.0000    0.0004
27           ?    N    ? P      ? 20180313 0059   27.9294 GAU  1.60e-02 -1.00e+00  6.39e+00  1.20e-02    6.3900 >    0.3763   -0.0149    0.7170  694.4008 5155.6912   -0.4412    0.1788  71.67  -1.0  -1.0  0     0.0000    0.0004
18           ?    N    ? P      ? 20180313 0059   27.9637 GAU  6.86e-03 -1.00e+00  6.56e+00  6.40e-02    6.5600 >    0.3978   -0.0020    1.4818  694.3549 5155.7674   -0.4586    0.1813  43.09  -1.0  -1.0  0     0.0000    0.0004
34           ?    N    ? P      ? 20180313 0059   27.9291 GAU  1.51e-02 -1.00e+00  8.39e+00  2.80e-02    8.3900 >    0.3685   -0.0073    0.8984  694.4145 5155.6153   -0.4263    0.1846  96.13  -1.0  -1.0  0     0.0000    0.0004
41           ?    N    ? P      ? 20180313 0059   27.9264 GAU  6.71e-03 -1.00e+00  8.15e+00  1.20e-02    8.1500 >    0.3504    0.0080    1.5246  694.3901 5155.5386   -0.4053    0.1860 121.20  -1.0  -1.0  0     0.0000    0.0004
17           ?    N    ? P      ? 20180313 0059   27.9697 GAU  8.86e-03 -1.00e+00  6.86e+00  1.20e-02    6.8600 >    0.4069   -0.0052    1.6568  694.3461 5155.7815   -0.4621    0.1863  38.17  -1.0  -1.0  0     0.0000    0.0004
22           ?    N    ? P      ? 20180313 0059   27.9540 GAU  6.58e-03 -1.00e+00  6.69e+00  8.00e-03    6.6900 >    0.3965   -0.0105    1.2323  694.3985 5155.7265   -0.4488    0.1909  61.34  -1.0  -1.0  0     0.0000    0.0004
16           ?    N    ? P      ? 20180313 0059   27.9781 GAU  1.19e-02 -1.00e+00  6.54e+00  1.20e-02    6.5400 >    0.4168   -0.0066    1.6012  694.3452 5155.7921   -0.4642    0.1942  36.00  -1.0  -1.0  0     0.0000    0.0004
42           ?    N    ? P      ? 20180313 0059   27.9341 GAU  1.02e-02 -1.00e+00  6.48e+00  4.40e-02    6.4800 >    0.3568    0.0093    1.3839  694.3873 5155.5165   -0.3983    0.1961 127.17  -1.0  -1.0  0     0.0000    0.0004
37           ?    N    ? P      ? 20180313 0059   27.9317 GAU  2.29e-03 -1.00e+00  8.30e+00  1.20e-02    8.3000 >    0.3777   -0.0140    1.1068  694.4219 5155.5876   -0.4220    0.1967 103.94  -1.0  -1.0  0     0.0000    0.0004
40           ?    N    ? P      ? 20180313 0059   27.9370 GAU  1.13e-02 -1.00e+00  8.30e+00  8.00e-03    8.3000 >    0.3834   -0.0144    1.2441  694.4169 5155.5417   -0.4131    0.2079 116.65  -1.0  -1.0  0     0.0000    0.0004
103          ?    N    ? P      ? 20180313 0059   27.9844 GAU  8.14e-03 -1.00e+00  6.73e+00  1.20e-02    6.7300 >    0.4330   -0.0166    1.5321  694.3644 5155.7952   -0.4662    0.2084  39.77  -1.0  -1.0  0     0.0000    0.0004
END_PHASE
END_NLLOC

