NLLOC "./loc/RR.20180313.000149.grid0" "LOCATED" "Location completed."
PUBLIC_ID None
SIGNATURE "   obs:./obs/nll_picks.obs   NLLoc:v7.00.10(30Aug2020)   run:29Apr2022 23h16m08"
COMMENT "Rattlesnake Ridge Slidequake Locations"
GRID  150 250 75  694.15 5155.4 0  0.002 0.002 0.002 PROB_DENSITY
SEARCH OCTREE nInitial 1000 nEvaluated 11488 smallestNodeSide 0.001863/0.003112/0.000925 oct_tree_integral 7.153945e-05 scatter_volume 7.121754e-05
HYPOCENTER  x 694.312 y 5155.8 z 0.047175  OT 49.4901  ix -1 iy -1 iz -1 MAXIMUM_LIKELIHOOD
GEOGRAPHIC  OT 2018 03 13  00 01 49.490137  Lat 5155.795288 Long 694.312038 Depth 0.047175
QUALITY  Pmax 1.56382e+55 MFmin 87.6264 MFmax 87.6402 RMS 0.0117038 Nphs 15 Gap 204.851 Dist 0.0176043 Mamp  0.22 15 Mdur -9.90 0
VPVSRATIO  VpVsRatio -1  Npair 0  Diff -2e+30
STATISTICS  ExpectX 694.290015 Y 5155.798782 Z 0.050900  CovXX 0.00212303 XY 0.000240794 XZ 0.000229419 YY 0.000348572 YZ 0.000430581 ZZ 0.000951588 EllAz1  176.397 Dip1  26.4937 Len1  0.020441 Az2  325.332 Dip2  59.805 Len2  0.0617939 Len3  8.858625e-02
STAT_GEOG  ExpectLat 5155.798782 Long 694.290015 Depth 0.050900
TRANSFORM  NONE
QML_OriginQuality  assocPhCt 15  usedPhCt 15  assocStaCt -1  usedStaCt 15  depthPhCt -1  stdErr 0.0117038  azGap 204.851  secAzGap 224.093  gtLevel -  minDist 0.0176043 maxDist 0.123583 medDist 0.0511209
QML_OriginUncertainty  horUnc -1  minHorUnc 0.0269796  maxHorUnc 0.0704044  azMaxHorUnc 82.4078
QML_ConfidenceEllipsoid  semiMajorAxisLength 0.0885863  semiMinorAxisLength 0.020441  semiIntermediateAxisLength 0.0617939  majorAxisPlunge 13.4307  majorAxisAzimuth 79.5613  majorAxisRotation 30.0516
FOCALMECH  Hyp  5155.795288 694.312038 0.047175 Mech  0 0 0 mf  0 nObs -1
PHASE ID Ins Cmp On Pha  FM Date     HrMn   Sec     Err  ErrMag    Coda      Amp       Per       PriorWt  >   TTpred    Res       Weight    StaLoc(X  Y         Z)        SDist    SAzim  RAz  RDip RQual    Tcorr       TTerr
15           ?    N    ? P      ? 20180313 0001   49.5805 GAU  8.61e-03 -1.00e+00  8.79e+00  8.00e-03    8.7900 >    0.0865    0.0039    1.2055  694.3206 5155.8107   -0.4609    0.0176  28.98  -1.0  -1.0  0     0.0000    0.0001
16           ?    N    ? P      ? 20180313 0001   49.5940 GAU  9.36e-03 -1.00e+00  9.38e+00  8.00e-03    9.3800 >    0.1026    0.0013    0.8676  694.3452 5155.7921   -0.4642    0.0333  95.45  -1.0  -1.0  0     0.0000    0.0001
12           ?    N    ? P      ? 20180313 0001   49.5864 GAU  1.85e-02 -1.00e+00  8.65e+00  8.00e-03    8.6500 >    0.1057   -0.0095    0.9756  694.3356 5155.8197   -0.4663    0.0340  43.98  -1.0  -1.0  0     0.0000    0.0001
17           ?    N    ? P      ? 20180313 0001   49.6002 GAU  8.61e-03 -1.00e+00  8.35e+00  4.80e-02    8.3500 >    0.1028    0.0073    0.7517  694.3461 5155.7815   -0.4621    0.0368 112.04  -1.0  -1.0  0     0.0000    0.0001
10           ?    N    ? P      ? 20180313 0001   49.5982 GAU  9.60e-03 -1.00e+00  7.92e+00  1.20e-02    7.9200 >    0.1151   -0.0071    1.4185  694.3329 5155.8329   -0.4673    0.0430  29.03  -1.0  -1.0  0     0.0000    0.0001
13           ?    N    ? P      ? 20180313 0001   49.6565 GAU  1.23e-02 -1.00e+00  7.96e+00  1.20e-02    7.9600 >    0.1035    0.0628    0.0484  694.3062 5155.8390   -0.4568    0.0441 352.43  -1.0  -1.0  0     0.0000    0.0001
8            ?    N    ? P      ? 20180313 0001   49.5867 GAU  1.58e-02 -1.00e+00  6.88e+00  8.00e-03    6.8800 >    0.1203   -0.0237    1.1216  694.3223 5155.8450   -0.4648    0.0508  11.67  -1.0  -1.0  0     0.0000    0.0001
18           ?    N    ? P      ? 20180313 0001   49.5913 GAU  8.13e-03 -1.00e+00  7.62e+00  8.00e-03    7.6200 >    0.1132   -0.0121    0.8242  694.3549 5155.7674   -0.4586    0.0511 123.05  -1.0  -1.0  0     0.0000    0.0001
103          ?    N    ? P      ? 20180313 0001   49.6186 GAU  1.38e-02 -1.00e+00  7.43e+00  8.00e-03    7.4300 >    0.1232    0.0052    0.7606  694.3644 5155.7952   -0.4662    0.0523  90.11  -1.0  -1.0  0     0.0000    0.0001
6            ?    N    ? P      ? 20180313 0001   49.6565 GAU  2.46e-02 -1.00e+00  7.47e+00  2.80e-02    7.4700 >    0.1437    0.0226    0.9031  694.3446 5155.8502   -0.4728    0.0638  30.71  -1.0  -1.0  0     0.0000    0.0001
20           ?    N    ? P      ? 20180313 0001   49.5985 GAU  3.00e-02 -1.00e+00  7.35e+00  8.00e-03    7.3500 >    0.1278   -0.0194    0.6135  694.3609 5155.7515   -0.4553    0.0656 131.91  -1.0  -1.0  0     0.0000    0.0001
21           ?    N    ? P      ? 20180313 0001   49.6044 GAU  2.85e-02 -1.00e+00  7.77e+00  8.00e-03    7.7700 >    0.1399   -0.0256    0.7113  694.3642 5155.7391   -0.4517    0.0766 137.13  -1.0  -1.0  0     0.0000    0.0001
23           ?    N    ? P      ? 20180313 0001   49.6305 GAU  1.92e-02 -1.00e+00  6.45e+00  8.00e-03    6.4500 >    0.1581   -0.0177    1.1471  694.3677 5155.7226   -0.4473    0.0916 142.58  -1.0  -1.0  0     0.0000    0.0002
22           ?    N    ? P      ? 20180313 0001   49.6745 GAU  2.63e-02 -1.00e+00  6.17e+00  8.00e-03    6.1700 >    0.1873   -0.0029    1.3254  694.3985 5155.7265   -0.4488    0.1105 128.49  -1.0  -1.0  0     0.0000    0.0002
26           ?    N    ? P      ? 20180313 0001   49.6991 GAU  1.50e-02 -1.00e+00  6.48e+00  1.20e-02    6.4800 >    0.2033    0.0056    2.3259  694.3783 5155.6910   -0.4400    0.1236 147.57  -1.0  -1.0  0     0.0000    0.0002
END_PHASE
END_NLLOC

