NLLOC "./loc/RR.20180313.022730.grid0" "LOCATED" "Location completed."
PUBLIC_ID None
SIGNATURE "   obs:./obs/nll_picks.obs   NLLoc:v7.00.10(30Aug2020)   run:29Apr2022 23h20m53"
COMMENT "Rattlesnake Ridge Slidequake Locations"
GRID  150 250 75  694.15 5155.4 0  0.002 0.002 0.002 PROB_DENSITY
SEARCH OCTREE nInitial 1000 nEvaluated 1464 smallestNodeSide 0.001863/0.003112/0.000925 oct_tree_integral 1.117597e-06 scatter_volume 1.117597e-06
HYPOCENTER  x 694.443 y 5155.83 z 0.0633625  OT 30.0076  ix -1 iy -1 iz -1 MAXIMUM_LIKELIHOOD
GEOGRAPHIC  OT 2018 03 13  02 27 30.007603  Lat 5155.834194 Long 694.443344 Depth 0.063363
QUALITY  Pmax 3.9926e+141 MFmin 355.107 MFmax 355.161 RMS 0.00892454 Nphs 30 Gap 267.334 Dist 0.0880893 Mamp  0.62 30 Mdur -9.90 0
VPVSRATIO  VpVsRatio -1  Npair 0  Diff -2e+30
STATISTICS  ExpectX 694.437829 Y 5155.832702 Z 0.066663  CovXX 9.77379e-05 XY 3.32037e-05 XZ -1.27631e-05 YY 3.24546e-05 YZ -2.46589e-08 ZZ 7.59889e-05 EllAz1  336.627 Dip1  -4.97708 Len1  0.00799488 Az2  230.671 Dip2  -72.4227 Len2  0.0160369 Len3  2.016727e-02
STAT_GEOG  ExpectLat 5155.832702 Long 694.437829 Depth 0.066663
TRANSFORM  NONE
QML_OriginQuality  assocPhCt 30  usedPhCt 30  assocStaCt -1  usedStaCt 30  depthPhCt -1  stdErr 0.00892454  azGap 267.334  secAzGap 273.219  gtLevel -  minDist 0.0880893 maxDist 0.215182 medDist 0.136351
QML_OriginUncertainty  horUnc -1  minHorUnc 0.00652919  maxHorUnc 0.0160254  azMaxHorUnc 67.2555
QML_ConfidenceEllipsoid  semiMajorAxisLength 0.0201673  semiMinorAxisLength 0.00799488  semiIntermediateAxisLength 0.0160369  majorAxisPlunge -16.8138  majorAxisAzimuth 68.1351  majorAxisRotation 186.237
FOCALMECH  Hyp  5155.834194 694.443344 0.063363 Mech  0 0 0 mf  0 nObs -1
PHASE ID Ins Cmp On Pha  FM Date     HrMn   Sec     Err  ErrMag    Coda      Amp       Per       PriorWt  >   TTpred    Res       Weight    StaLoc(X  Y         Z)        SDist    SAzim  RAz  RDip RQual    Tcorr       TTerr
103          ?    N    ? P      ? 20180313 0227   30.2209 GAU  5.48e-03 -1.00e+00  7.99e+00  4.00e-02    7.9900 >    0.1655    0.0478    0.0582  694.3644 5155.7952   -0.4662    0.0881 243.72  -1.0  -1.0  0     0.0000    0.0002
6            ?    N    ? P      ? 20180313 0227   30.2414 GAU  7.64e-03 -1.00e+00  8.97e+00  1.20e-02    8.9700 >    0.1862    0.0476    0.0903  694.3446 5155.8502   -0.4728    0.1000 279.19  -1.0  -1.0  0     0.0000    0.0002
16           ?    N    ? P      ? 20180313 0227   30.2037 GAU  1.96e-03 -1.00e+00  9.43e+00  4.40e-02    9.4300 >    0.1896    0.0065    1.0095  694.3452 5155.7921   -0.4642    0.1068 246.80  -1.0  -1.0  0     0.0000    0.0002
12           ?    N    ? P      ? 20180313 0227   30.2013 GAU  1.56e-03 -1.00e+00  9.45e+00  4.80e-02    9.4500 >    0.1933    0.0004    1.4923  694.3356 5155.8197   -0.4663    0.1087 262.36  -1.0  -1.0  0     0.0000    0.0002
10           ?    N    ? P      ? 20180313 0227   30.2005 GAU  2.34e-03 -1.00e+00  9.45e+00  8.00e-03    9.4500 >    0.1961   -0.0032    1.4289  694.3329 5155.8329   -0.4673    0.1104 269.32  -1.0  -1.0  0     0.0000    0.0002
17           ?    N    ? P      ? 20180313 0227   30.1988 GAU  2.54e-03 -1.00e+00  8.64e+00  1.20e-02    8.6400 >    0.1936   -0.0024    1.1897  694.3461 5155.7815   -0.4621    0.1106 241.53  -1.0  -1.0  0     0.0000    0.0002
18           ?    N    ? P      ? 20180313 0227   30.2005 GAU  3.17e-03 -1.00e+00  8.25e+00  1.20e-02    8.2500 >    0.1915    0.0014    1.1965  694.3549 5155.7674   -0.4586    0.1108 232.95  -1.0  -1.0  0     0.0000    0.0002
22           ?    N    ? P      ? 20180313 0227   30.2688 GAU  7.95e-03 -1.00e+00  8.21e+00  2.80e-02    8.2100 >    0.1946    0.0666    0.0396  694.3985 5155.7265   -0.4488    0.1166 202.62  -1.0  -1.0  0     0.0000    0.0002
20           ?    N    ? P      ? 20180313 0227   30.2116 GAU  6.89e-03 -1.00e+00  8.61e+00  2.40e-02    8.6100 >    0.1981    0.0059    0.9856  694.3609 5155.7515   -0.4553    0.1168 224.92  -1.0  -1.0  0     0.0000    0.0002
8            ?    N    ? P      ? 20180313 0227   30.1976 GAU  6.46e-03 -1.00e+00  8.78e+00  1.20e-02    8.7800 >    0.2099   -0.0199    0.5867  694.3223 5155.8450   -0.4648    0.1215 275.10  -1.0  -1.0  0     0.0000    0.0002
21           ?    N    ? P      ? 20180313 0227   30.2174 GAU  4.24e-03 -1.00e+00  8.87e+00  1.20e-02    8.8700 >    0.2068    0.0030    1.3730  694.3642 5155.7391   -0.4517    0.1237 219.79  -1.0  -1.0  0     0.0000    0.0002
15           ?    N    ? P      ? 20180313 0227   30.1841 GAU  4.30e-03 -1.00e+00  1.12e+01  1.20e-02   11.2000 >    0.2126   -0.0361    0.2547  694.3206 5155.8107   -0.4609    0.1250 259.16  -1.0  -1.0  0     0.0000    0.0002
2            ?    N    ? P      ? 20180313 0227   30.2099 GAU  4.70e-03 -1.00e+00  8.18e+00  1.20e-02    8.1800 >    0.2224   -0.0201    0.5792  694.3150 5155.8647   -0.4623    0.1319 283.36  -1.0  -1.0  0     0.0000    0.0002
23           ?    N    ? P      ? 20180313 0227   30.2248 GAU  9.54e-03 -1.00e+00  8.19e+00  1.20e-02    8.1900 >    0.2212   -0.0040    1.2601  694.3677 5155.7226   -0.4473    0.1349 214.12  -1.0  -1.0  0     0.0000    0.0002
4            ?    N    ? P      ? 20180313 0227   30.2393 GAU  5.09e-03 -1.00e+00  8.34e+00  1.60e-02    8.3400 >    0.2258    0.0059    1.3758  694.3090 5155.8520   -0.4586    0.1355 277.56  -1.0  -1.0  0     0.0000    0.0002
13           ?    N    ? P      ? 20180313 0227   30.2287 GAU  4.31e-03 -1.00e+00  9.81e+00  2.40e-02    9.8100 >    0.2273   -0.0062    1.2536  694.3062 5155.8390   -0.4568    0.1372 272.02  -1.0  -1.0  0     0.0000    0.0002
25           ?    N    ? P      ? 20180313 0227   30.2577 GAU  1.80e-02 -1.00e+00  8.32e+00  1.20e-02    8.3200 >    0.2365    0.0136    0.7362  694.3684 5155.7091   -0.4438    0.1458 210.92  -1.0  -1.0  0     0.0000    0.0002
27           ?    N    ? P      ? 20180313 0227   30.2476 GAU  1.32e-02 -1.00e+00  7.27e+00  1.20e-02    7.2700 >    0.2414   -0.0014    1.4123  694.4008 5155.6912   -0.4412    0.1491 196.58  -1.0  -1.0  0     0.0000    0.0002
5            ?    N    ? P      ? 20180313 0227   30.2530 GAU  7.05e-03 -1.00e+00  9.49e+00  1.20e-02    9.4900 >    0.2483   -0.0029    1.5909  694.2898 5155.8520   -0.4475    0.1546 276.60  -1.0  -1.0  0     0.0000    0.0002
26           ?    N    ? P      ? 20180313 0227   30.2566 GAU  1.06e-02 -1.00e+00  8.17e+00  1.20e-02    8.1700 >    0.2533   -0.0043    1.5361  694.3783 5155.6910   -0.4400    0.1573 204.42  -1.0  -1.0  0     0.0000    0.0003
105          ?    N    ? P      ? 20180313 0227   30.2736 GAU  5.30e-03 -1.00e+00  8.34e+00  1.20e-02    8.3400 >    0.2649    0.0011    2.2049  694.3764 5155.6832   -0.4382    0.1651 203.92  -1.0  -1.0  0     0.0000    0.0003
28           ?    N    ? P      ? 20180313 0227   30.2704 GAU  1.17e-02 -1.00e+00  7.85e+00  8.00e-03    7.8500 >    0.2769   -0.0141    1.2630  694.3767 5155.6745   -0.4362    0.1731 202.65  -1.0  -1.0  0     0.0000    0.0003
7            ?    N    ? P      ? 20180313 0227   30.2886 GAU  5.49e-03 -1.00e+00  9.23e+00  1.20e-02    9.2300 >    0.2726    0.0084    1.3628  694.2704 5155.8450   -0.4359    0.1733 273.58  -1.0  -1.0  0     0.0000    0.0003
1            ?    N    ? P      ? 20180313 0227   30.2714 GAU  7.44e-03 -1.00e+00  8.11e+00  4.00e-02    8.1100 >    0.2733   -0.0095    1.3308  694.2735 5155.8721   -0.4381    0.1740 282.59  -1.0  -1.0  0     0.0000    0.0003
9            ?    N    ? P      ? 20180313 0227   30.2679 GAU  1.14e-02 -1.00e+00  9.78e+00  1.20e-02    9.7800 >    0.2871   -0.0268    0.6208  694.2594 5155.8351   -0.4296    0.1840 270.28  -1.0  -1.0  0     0.0000    0.0003
30           ?    N    ? P      ? 20180313 0227   30.2800 GAU  1.38e-02 -1.00e+00  7.25e+00  8.00e-03    7.2500 >    0.2940   -0.0216    0.9723  694.3775 5155.6619   -0.4333    0.1844 200.93  -1.0  -1.0  0     0.0000    0.0003
31           ?    N    ? P      ? 20180313 0227   30.2524 GAU  3.71e-02 -1.00e+00  6.47e+00  8.00e-03    6.4700 >    0.2985   -0.0537    0.4012  694.4086 5155.6503   -0.4335    0.1871 190.69  -1.0  -1.0  0     0.0000    0.0003
3            ?    N    ? P      ? 20180313 0227   30.3248 GAU  7.24e-03 -1.00e+00  8.82e+00  1.20e-02    8.8200 >    0.3138    0.0034    2.2003  694.2426 5155.8595   -0.4214    0.2023 277.17  -1.0  -1.0  0     0.0000    0.0003
106          ?    N    ? P      ? 20180313 0227   30.2418 GAU  2.97e-02 -1.00e+00  5.96e+00  8.00e-03    5.9600 >    0.3224   -0.0882    0.0613  694.3120 5155.6801   -0.4360    0.2025 220.43  -1.0  -1.0  0     0.0000    0.0003
33           ?    N    ? P      ? 20180313 0227   30.2752 GAU  2.81e-02 -1.00e+00  6.74e+00  1.20e-02    6.7400 >    0.3404   -0.0728    0.1336  694.3775 5155.6293   -0.4252    0.2152 197.81  -1.0  -1.0  0     0.0000    0.0003
END_PHASE
END_NLLOC

