NLLOC "./loc/RR.20180313.000535.grid0" "REJECTED" "WARNING: max prob location on grid boundary 31, rejecting location."
PUBLIC_ID None
SIGNATURE "   obs:./obs/nll_picks.obs   NLLoc:v7.00.10(30Aug2020)   run:29Apr2022 23h16m58"
COMMENT "Rattlesnake Ridge Slidequake Locations"
GRID  150 250 75  694.15 5155.4 0  0.002 0.002 0.002 PROB_DENSITY
SEARCH OCTREE nInitial 1000 nEvaluated 20000 smallestNodeSide 0.003725/0.006225/0.001850 oct_tree_integral 4.426289e-04 scatter_volume 4.317485e-04
HYPOCENTER  x 694.256 y 5155.83 z 0.147075  OT 34.8566  ix -1 iy -1 iz -1 MAXIMUM_LIKELIHOOD
GEOGRAPHIC  OT 2018 03 13  00 05 34.856565  Lat 5155.832637 Long 694.256162 Depth 0.147075
QUALITY  Pmax 1.2465e+72 MFmin 93.7182 MFmax 93.7231 RMS 0.11132 Nphs 22 Gap 249.149 Dist 0.0188645 Mamp  0.63 22 Mdur -9.90 0
VPVSRATIO  VpVsRatio -1  Npair 0  Diff -2e+30
STATISTICS  ExpectX 694.227626 Y 5155.806411 Z 0.094059  CovXX 0.00275146 XY -7.62686e-05 XZ 0.000394918 YY 0.000740133 YZ 0.000820214 ZZ 0.00151822 EllAz1  187.471 Dip1  33.0851 Len1  0.0259775 Az2  329.569 Dip2  50.4536 Len2  0.08269 Len3  1.008572e-01
STAT_GEOG  ExpectLat 5155.806411 Long 694.227626 Depth 0.094059
TRANSFORM  NONE
QML_OriginQuality  assocPhCt 22  usedPhCt 22  assocStaCt -1  usedStaCt 22  depthPhCt -1  stdErr 0.11132  azGap 249.149  secAzGap 278.898  gtLevel -  minDist 0.0188645 maxDist 0.237645 medDist 0.125397
QML_OriginUncertainty  horUnc -1  minHorUnc 0.0411784  maxHorUnc 0.0795927  azMaxHorUnc 92.1685
QML_ConfidenceEllipsoid  semiMajorAxisLength 0.100857  semiMinorAxisLength 0.0259775  semiIntermediateAxisLength 0.08269  majorAxisPlunge 19.1305  majorAxisAzimuth 84.4098  majorAxisRotation 42.0372
FOCALMECH  Hyp  5155.832637 694.256162 0.147075 Mech  0 0 0 mf  0 nObs -1
PHASE ID Ins Cmp On Pha  FM Date     HrMn   Sec     Err  ErrMag    Coda      Amp       Per       PriorWt  >   TTpred    Res       Weight    StaLoc(X  Y         Z)        SDist    SAzim  RAz  RDip RQual    Tcorr       TTerr
7            ?    N    ? P      ? 20180313 0005   35.1111 GAU  8.04e-02 -1.00e+00  6.03e+00  5.60e-02    6.0300 >    0.2341    0.0204    2.0474  694.2704 5155.8450   -0.4359    0.0189  49.04  -1.0  -1.0  0     0.0000    0.0002
13           ?    N    ? P      ? 20180313 0005   35.2590 GAU  5.73e-02 -1.00e+00  6.93e+00  1.20e-02    6.9300 >    0.2733    0.1292    1.0511  694.3062 5155.8390   -0.4568    0.0505  82.72  -1.0  -1.0  0     0.0000    0.0003
8            ?    N    ? P      ? 20180313 0005   35.9570 GAU  6.67e-02 -1.00e+00  4.63e+00  7.60e-02    4.6300 >    0.2924    0.8081    0.0001  694.3223 5155.8450   -0.4648    0.0673  79.41  -1.0  -1.0  0     0.0000    0.0003
15           ?    N    ? P      ? 20180313 0005   35.1418 GAU  1.20e-02 -1.00e+00  8.24e+00  1.20e-02    8.2400 >    0.2863   -0.0011    2.8624  694.3206 5155.8107   -0.4609    0.0680 108.82  -1.0  -1.0  0     0.0000    0.0003
10           ?    N    ? P      ? 20180313 0005   35.6150 GAU  2.22e-02 -1.00e+00  5.57e+00  4.40e-02    5.5700 >    0.2996    0.4588    0.3906  694.3329 5155.8329   -0.4673    0.0767  89.82  -1.0  -1.0  0     0.0000    0.0003
12           ?    N    ? P      ? 20180313 0005   35.4780 GAU  2.39e-02 -1.00e+00  6.35e+00  8.00e-03    6.3500 >    0.3006    0.3208    0.4053  694.3356 5155.8197   -0.4663    0.0805  99.22  -1.0  -1.0  0     0.0000    0.0003
6            ?    N    ? P      ? 20180313 0005   35.1051 GAU  6.58e-02 -1.00e+00  6.09e+00  8.00e-03    6.0900 >    0.3150   -0.0665    1.4082  694.3446 5155.8502   -0.4728    0.0902  78.79  -1.0  -1.0  0     0.0000    0.0003
16           ?    N    ? P      ? 20180313 0005   35.4350 GAU  3.51e-02 -1.00e+00  6.84e+00  8.00e-03    6.8400 >    0.3081    0.2704    0.2570  694.3452 5155.7921   -0.4642    0.0978 114.47  -1.0  -1.0  0     0.0000    0.0003
17           ?    N    ? P      ? 20180313 0005   35.3330 GAU  5.56e-02 -1.00e+00  6.50e+00  8.00e-03    6.5000 >    0.3090    0.1674    0.3864  694.3461 5155.7815   -0.4621    0.1035 119.62  -1.0  -1.0  0     0.0000    0.0003
103          ?    N    ? P      ? 20180313 0005   35.2040 GAU  6.16e-02 -1.00e+00  6.50e+00  8.00e-03    6.5000 >    0.3217    0.0257    1.1739  694.3644 5155.7952   -0.4662    0.1145 109.09  -1.0  -1.0  0     0.0000    0.0003
18           ?    N    ? P      ? 20180313 0005   35.1100 GAU  5.56e-02 -1.00e+00  6.71e+00  8.00e-03    6.7100 >    0.3152   -0.0617    0.7768  694.3549 5155.7674   -0.4586    0.1183 123.45  -1.0  -1.0  0     0.0000    0.0003
20           ?    N    ? P      ? 20180313 0005   35.1700 GAU  5.99e-02 -1.00e+00  6.37e+00  8.00e-03    6.3700 >    0.3223   -0.0089    0.8763  694.3609 5155.7515   -0.4553    0.1325 127.79  -1.0  -1.0  0     0.0000    0.0003
21           ?    N    ? P      ? 20180313 0005   35.2380 GAU  4.79e-02 -1.00e+00  6.71e+00  1.20e-02    6.7100 >    0.3274    0.0540    0.7712  694.3642 5155.7391   -0.4517    0.1429 130.89  -1.0  -1.0  0     0.0000    0.0003
23           ?    N    ? P      ? 20180313 0005   35.2470 GAU  4.19e-02 -1.00e+00  7.19e+00  8.00e-03    7.1900 >    0.3352    0.0552    0.8619  694.3677 5155.7226   -0.4473    0.1567 134.63  -1.0  -1.0  0     0.0000    0.0003
106          ?    N    ? P      ? 20180313 0005   35.1870 GAU  5.30e-02 -1.00e+00  7.45e+00  8.00e-03    7.4500 >    0.3309   -0.0005    1.8338  694.3120 5155.6801   -0.4360    0.1625 159.89  -1.0  -1.0  0     0.0000    0.0003
25           ?    N    ? P      ? 20180313 0005   35.3500 GAU  1.80e-02 -1.00e+00  7.36e+00  6.40e-02    7.3600 >    0.3420    0.1515    0.5893  694.3684 5155.7091   -0.4438    0.1669 137.73  -1.0  -1.0  0     0.0000    0.0003
22           ?    N    ? P      ? 20180313 0005   35.4610 GAU  5.13e-02 -1.00e+00  6.53e+00  8.00e-03    6.5300 >    0.3578    0.2466    0.4343  694.3985 5155.7265   -0.4488    0.1775 126.70  -1.0  -1.0  0     0.0000    0.0004
26           ?    N    ? P      ? 20180313 0005   35.2130 GAU  3.68e-02 -1.00e+00  7.06e+00  8.00e-03    7.0600 >    0.3597   -0.0033    1.5924  694.3783 5155.6910   -0.4400    0.1870 139.23  -1.0  -1.0  0     0.0000    0.0004
105          ?    N    ? P      ? 20180313 0005   35.2210 GAU  1.37e-02 -1.00e+00  7.91e+00  8.00e-03    7.9100 >    0.3630    0.0014    2.5188  694.3764 5155.6832   -0.4382    0.1918 141.17  -1.0  -1.0  0     0.0000    0.0004
28           ?    N    ? P      ? 20180313 0005   35.1440 GAU  4.19e-02 -1.00e+00  7.47e+00  8.00e-03    7.4700 >    0.3692   -0.0818    0.9630  694.3767 5155.6745   -0.4362    0.1989 142.70  -1.0  -1.0  0     0.0000    0.0004
27           ?    N    ? P      ? 20180313 0005   35.7340 GAU  3.42e-02 -1.00e+00  6.19e+00  2.40e-02    6.1900 >    0.3768    0.5007    0.2825  694.4008 5155.6912   -0.4412    0.2023 134.35  -1.0  -1.0  0     0.0000    0.0004
31           ?    N    ? P      ? 20180313 0005   35.6400 GAU  4.87e-02 -1.00e+00  6.13e+00  5.20e-02    6.1300 >    0.4126    0.3708    0.5174  694.4086 5155.6503   -0.4335    0.2376 140.09  -1.0  -1.0  0     0.0000    0.0004
END_PHASE
END_NLLOC

