NLLOC "./loc/RR.20180313.005238.grid0" "REJECTED" "WARNING: max prob location on grid boundary 10, rejecting location."
PUBLIC_ID None
SIGNATURE "   obs:./obs/nll_picks.obs   NLLoc:v7.00.10(30Aug2020)   run:29Apr2022 23h19m39"
COMMENT "Rattlesnake Ridge Slidequake Locations"
GRID  150 250 75  694.15 5155.4 0  0.002 0.002 0.002 PROB_DENSITY
SEARCH OCTREE nInitial 1000 nEvaluated 19632 smallestNodeSide 0.001863/0.003112/0.000925 oct_tree_integral 1.874192e-04 scatter_volume 1.874192e-04
HYPOCENTER  x 694.151 y 5155.6 z 0.0124875  OT 38.1885  ix -1 iy -1 iz -1 MAXIMUM_LIKELIHOOD
GEOGRAPHIC  OT 2018 03 13  00 52 38.188493  Lat 5155.597644 Long 694.150931 Depth 0.012487
QUALITY  Pmax 2.04799e+66 MFmin 115.339 MFmax 115.355 RMS 0.0184795 Nphs 17 Gap 293.865 Dist 0.231425 Mamp  0.78 17 Mdur -9.90 0
VPVSRATIO  VpVsRatio -1  Npair 0  Diff -2e+30
STATISTICS  ExpectX 694.183769 Y 5155.610872 Z 0.078890  CovXX 0.000740985 XY 0.000242608 XZ 0.000153736 YY 0.00022447 YZ 0.00014145 ZZ 0.00177301 EllAz1  159.132 Dip1  2.68899 Len1  0.0209951 Az2  249.665 Dip2  11.2185 Len2  0.0530873 Len3  8.004818e-02
STAT_GEOG  ExpectLat 5155.610872 Long 694.183769 Depth 0.078890
TRANSFORM  NONE
QML_OriginQuality  assocPhCt 17  usedPhCt 17  assocStaCt -1  usedStaCt 17  depthPhCt -1  stdErr 0.0184795  azGap 293.865  secAzGap 300.687  gtLevel -  minDist 0.231425 maxDist 0.297408 medDist 0.266814
QML_OriginUncertainty  horUnc -1  minHorUnc 0.0171841  maxHorUnc 0.0438777  azMaxHorUnc 68.3948
QML_ConfidenceEllipsoid  semiMajorAxisLength 0.0800482  semiMinorAxisLength 0.0209951  semiIntermediateAxisLength 0.0530873  majorAxisPlunge 78.4556  majorAxisAzimuth 55.8386  majorAxisRotation 345.311
FOCALMECH  Hyp  5155.597644 694.150931 0.012487 Mech  0 0 0 mf  0 nObs -1
PHASE ID Ins Cmp On Pha  FM Date     HrMn   Sec     Err  ErrMag    Coda      Amp       Per       PriorWt  >   TTpred    Res       Weight    StaLoc(X  Y         Z)        SDist    SAzim  RAz  RDip RQual    Tcorr       TTerr
35           ?    N    ? P      ? 20180313 0052   38.5545 GAU  2.05e-02 -1.00e+00  7.16e+00  1.20e-02    7.1600 >    0.3925   -0.0265    1.3374  694.3818 5155.6141   -0.4216    0.2314  85.92  -1.0  -1.0  0     0.0000    0.0004
36           ?    N    ? P      ? 20180313 0052   38.5554 GAU  3.62e-02 -1.00e+00  7.41e+00  8.00e-03    7.4100 >    0.3961   -0.0292    1.2180  694.3865 5155.5904   -0.4164    0.2357  91.77  -1.0  -1.0  0     0.0000    0.0004
38           ?    N    ? P      ? 20180313 0052   38.5863 GAU  2.09e-02 -1.00e+00  6.92e+00  1.20e-02    6.9200 >    0.4027   -0.0049    1.9219  694.3902 5155.5681   -0.4123    0.2410  97.04  -1.0  -1.0  0     0.0000    0.0004
41           ?    N    ? P      ? 20180313 0052   38.5876 GAU  4.67e-02 -1.00e+00  5.71e+00  2.00e-02    5.7100 >    0.4081   -0.0090    1.2508  694.3901 5155.5386   -0.4053    0.2463 103.86  -1.0  -1.0  0     0.0000    0.0004
23           ?    N    ? P      ? 20180313 0052   38.6400 GAU  3.10e-02 -1.00e+00  6.25e+00  8.00e-03    6.2500 >    0.4365    0.0151    0.7174  694.3677 5155.7226   -0.4473    0.2502  60.05  -1.0  -1.0  0     0.0000    0.0004
20           ?    N    ? P      ? 20180313 0052   38.6805 GAU  1.05e-02 -1.00e+00  6.87e+00  8.00e-03    6.8700 >    0.4567    0.0353    0.4996  694.3609 5155.7515   -0.4553    0.2602  53.77  -1.0  -1.0  0     0.0000    0.0005
31           ?    N    ? P      ? 20180313 0052   38.6509 GAU  3.75e-02 -1.00e+00  6.05e+00  2.00e-02    6.0500 >    0.4450    0.0174    0.9062  694.4086 5155.6503   -0.4335    0.2630  78.44  -1.0  -1.0  0     0.0000    0.0004
18           ?    N    ? P      ? 20180313 0052   38.6587 GAU  9.60e-03 -1.00e+00  6.99e+00  1.20e-02    6.9900 >    0.4671    0.0032    1.0243  694.3549 5155.7674   -0.4586    0.2654  50.23  -1.0  -1.0  0     0.0000    0.0005
27           ?    N    ? P      ? 20180313 0052   38.6954 GAU  3.14e-02 -1.00e+00  5.33e+00  8.00e-03    5.3300 >    0.4553    0.0517    0.3365  694.4008 5155.6912   -0.4412    0.2668  69.46  -1.0  -1.0  0     0.0000    0.0005
17           ?    N    ? P      ? 20180313 0052   38.6487 GAU  5.68e-03 -1.00e+00  7.36e+00  1.20e-02    7.3600 >    0.4744   -0.0142    1.1090  694.3461 5155.7815   -0.4621    0.2681  46.72  -1.0  -1.0  0     0.0000    0.0005
37           ?    N    ? P      ? 20180313 0052   38.6683 GAU  3.05e-02 -1.00e+00  6.50e+00  1.20e-02    6.5000 >    0.4523    0.0276    1.1485  694.4219 5155.5876   -0.4220    0.2712  92.12  -1.0  -1.0  0     0.0000    0.0005
15           ?    N    ? P      ? 20180313 0052   38.6675 GAU  6.98e-03 -1.00e+00  7.79e+00  1.20e-02    7.7900 >    0.4816   -0.0026    1.4258  694.3206 5155.8107   -0.4609    0.2723  38.53  -1.0  -1.0  0     0.0000    0.0005
16           ?    N    ? P      ? 20180313 0052   38.6775 GAU  6.54e-03 -1.00e+00  8.31e+00  1.20e-02    8.3100 >    0.4859    0.0031    1.2125  694.3452 5155.7921   -0.4642    0.2749  44.97  -1.0  -1.0  0     0.0000    0.0005
22           ?    N    ? P      ? 20180313 0052   38.6941 GAU  2.92e-02 -1.00e+00  6.37e+00  8.00e-03    6.3700 >    0.4776    0.0280    0.6400  694.3985 5155.7265   -0.4488    0.2791  62.50  -1.0  -1.0  0     0.0000    0.0005
12           ?    N    ? P      ? 20180313 0052   38.6579 GAU  1.31e-02 -1.00e+00  7.05e+00  8.00e-03    7.0500 >    0.5081   -0.0387    0.7853  694.3356 5155.8197   -0.4663    0.2889  39.75  -1.0  -1.0  0     0.0000    0.0005
103          ?    N    ? P      ? 20180313 0052   38.6854 GAU  3.01e-02 -1.00e+00  6.84e+00  8.00e-03    6.8400 >    0.5083   -0.0114    0.9099  694.3644 5155.7952   -0.4662    0.2908  47.21  -1.0  -1.0  0     0.0000    0.0005
10           ?    N    ? P      ? 20180313 0052   38.6587 GAU  1.92e-02 -1.00e+00  6.40e+00  8.00e-03    6.4000 >    0.5215   -0.0512    0.5570  694.3329 5155.8329   -0.4673    0.2974  37.72  -1.0  -1.0  0     0.0000    0.0005
END_PHASE
END_NLLOC

