NLLOC "./loc/RR.20180313.004813.grid0" "LOCATED" "Location completed."
PUBLIC_ID None
SIGNATURE "   obs:./obs/nll_picks.obs   NLLoc:v7.00.10(30Aug2020)   run:29Apr2022 23h19m37"
COMMENT "Rattlesnake Ridge Slidequake Locations"
GRID  150 250 75  694.15 5155.4 0  0.002 0.002 0.002 PROB_DENSITY
SEARCH OCTREE nInitial 1000 nEvaluated 3304 smallestNodeSide 0.001863/0.003112/0.000925 oct_tree_integral 2.743076e-06 scatter_volume 2.741426e-06
HYPOCENTER  x 694.386 y 5155.65 z 0.119788  OT 13.4418  ix -1 iy -1 iz -1 MAXIMUM_LIKELIHOOD
GEOGRAPHIC  OT 2018 03 13  00 48 13.441787  Lat 5155.647444 Long 694.385606 Depth 0.119788
QUALITY  Pmax 2.11197e+99 MFmin 232.427 MFmax 232.44 RMS 0.0102586 Nphs 23 Gap 65.9337 Dist 0.00813647 Mamp  0.56 23 Mdur -9.90 0
VPVSRATIO  VpVsRatio -1  Npair 0  Diff -2e+30
STATISTICS  ExpectX 694.360780 Y 5155.645696 Z 0.116430  CovXX 0.00327189 XY -0.000172312 XZ -6.61365e-05 YY 5.22076e-05 YZ 3.44265e-05 ZZ 0.000175599 EllAz1  2.78691 Dip1  -12.597 Len1  0.0112913 Az2  188.648 Dip2  -77.339 Len2  0.0252778 Len3  1.076452e-01
STAT_GEOG  ExpectLat 5155.645696 Long 694.360780 Depth 0.116430
TRANSFORM  NONE
QML_OriginQuality  assocPhCt 23  usedPhCt 23  assocStaCt -1  usedStaCt 23  depthPhCt -1  stdErr 0.0102586  azGap 65.9337  secAzGap 129.632  gtLevel -  minDist 0.00813647 maxDist 0.225865 medDist 0.0700056
QML_OriginUncertainty  horUnc -1  minHorUnc 0.00994624  maxHorUnc 0.0868706  azMaxHorUnc 93.0547
QML_ConfidenceEllipsoid  semiMajorAxisLength 0.107645  semiMinorAxisLength 0.0112913  semiIntermediateAxisLength 0.0252778  majorAxisPlunge -1.25164  majorAxisAzimuth 93.0667  majorAxisRotation 192.612
FOCALMECH  Hyp  5155.647444 694.385606 0.119788 Mech  0 0 0 mf  0 nObs -1
PHASE ID Ins Cmp On Pha  FM Date     HrMn   Sec     Err  ErrMag    Coda      Amp       Per       PriorWt  >   TTpred    Res       Weight    StaLoc(X  Y         Z)        SDist    SAzim  RAz  RDip RQual    Tcorr       TTerr
32           ?    N    ? P      ? 20180313 0048   13.6188 GAU  9.16e-03 -1.00e+00  9.00e+00  1.20e-02    9.0000 >    0.1816   -0.0046    0.8792  694.3777 5155.6456   -0.4297    0.0081 256.70  -1.0  -1.0  0     0.0000    0.0002
30           ?    N    ? P      ? 20180313 0048   13.6300 GAU  1.20e-02 -1.00e+00  8.78e+00  1.20e-02    8.7800 >    0.1882   -0.0000    0.8606  694.3775 5155.6619   -0.4333    0.0166 330.65  -1.0  -1.0  0     0.0000    0.0002
33           ?    N    ? P      ? 20180313 0048   13.6185 GAU  4.71e-03 -1.00e+00  8.73e+00  1.60e-02    8.7300 >    0.1770   -0.0003    1.1873  694.3775 5155.6293   -0.4252    0.0198 204.06  -1.0  -1.0  0     0.0000    0.0002
31           ?    N    ? P      ? 20180313 0048   13.6544 GAU  1.07e-02 -1.00e+00  7.22e+00  1.20e-02    7.2200 >    0.1896    0.0230    0.3119  694.4086 5155.6503   -0.4335    0.0232  82.81  -1.0  -1.0  0     0.0000    0.0002
28           ?    N    ? P      ? 20180313 0048   13.6373 GAU  9.42e-03 -1.00e+00  8.44e+00  1.20e-02    8.4400 >    0.1957   -0.0002    1.0568  694.3767 5155.6745   -0.4362    0.0284 341.72  -1.0  -1.0  0     0.0000    0.0002
35           ?    N    ? P      ? 20180313 0048   13.6295 GAU  7.86e-03 -1.00e+00  9.11e+00  1.20e-02    9.1100 >    0.1760    0.0117    0.7880  694.3818 5155.6141   -0.4216    0.0335 186.57  -1.0  -1.0  0     0.0000    0.0002
105          ?    N    ? P      ? 20180313 0048   13.6483 GAU  6.28e-03 -1.00e+00  8.54e+00  8.00e-03    8.5400 >    0.2017    0.0049    1.2604  694.3764 5155.6832   -0.4382    0.0370 345.58  -1.0  -1.0  0     0.0000    0.0002
26           ?    N    ? P      ? 20180313 0048   13.6462 GAU  6.28e-03 -1.00e+00  7.91e+00  1.20e-02    7.9100 >    0.2078   -0.0033    1.3744  694.3783 5155.6910   -0.4400    0.0441 350.47  -1.0  -1.0  0     0.0000    0.0002
27           ?    N    ? P      ? 20180313 0048   13.6722 GAU  1.23e-02 -1.00e+00  7.02e+00  1.20e-02    7.0200 >    0.2103    0.0201    0.5398  694.4008 5155.6912   -0.4412    0.0464  19.11  -1.0  -1.0  0     0.0000    0.0002
36           ?    N    ? P      ? 20180313 0048   13.6258 GAU  6.28e-03 -1.00e+00  7.59e+00  8.00e-03    7.5900 >    0.1824    0.0016    1.4621  694.3865 5155.5904   -0.4164    0.0571 179.08  -1.0  -1.0  0     0.0000    0.0002
25           ?    N    ? P      ? 20180313 0048   13.6685 GAU  7.07e-03 -1.00e+00  7.89e+00  1.20e-02    7.8900 >    0.2242    0.0025    1.7138  694.3684 5155.7091   -0.4438    0.0640 344.44  -1.0  -1.0  0     0.0000    0.0002
37           ?    N    ? P      ? 20180313 0048   13.6114 GAU  4.53e-02 -1.00e+00  6.34e+00  1.20e-02    6.3400 >    0.1998   -0.0302    0.3839  694.4219 5155.5876   -0.4220    0.0700 148.75  -1.0  -1.0  0     0.0000    0.0002
23           ?    N    ? P      ? 20180313 0048   13.6570 GAU  7.60e-03 -1.00e+00  8.48e+00  8.00e-03    8.4800 >    0.2384   -0.0231    0.3567  694.3677 5155.7226   -0.4473    0.0772 346.59  -1.0  -1.0  0     0.0000    0.0002
38           ?    N    ? P      ? 20180313 0048   13.6342 GAU  4.71e-03 -1.00e+00  7.24e+00  5.60e-02    7.2400 >    0.1963   -0.0039    1.7884  694.3902 5155.5681   -0.4123    0.0795 176.72  -1.0  -1.0  0     0.0000    0.0002
22           ?    N    ? P      ? 20180313 0048   13.6866 GAU  1.52e-02 -1.00e+00  6.30e+00  3.60e-02    6.3000 >    0.2427    0.0021    1.3250  694.3985 5155.7265   -0.4488    0.0801   9.26  -1.0  -1.0  0     0.0000    0.0002
106          ?    N    ? P      ? 20180313 0048   13.6682 GAU  4.71e-03 -1.00e+00  7.95e+00  2.40e-02    7.9500 >    0.2264   -0.0000    2.2786  694.3120 5155.6801   -0.4360    0.0805 293.90  -1.0  -1.0  0     0.0000    0.0002
39           ?    N    ? P      ? 20180313 0048   13.6510 GAU  5.76e-03 -1.00e+00  7.06e+00  1.20e-02    7.0600 >    0.2068    0.0024    2.2002  694.3890 5155.5532   -0.4086    0.0943 177.92  -1.0  -1.0  0     0.0000    0.0002
41           ?    N    ? P      ? 20180313 0048   13.6740 GAU  1.05e-02 -1.00e+00  6.72e+00  8.00e-03    6.7200 >    0.2198    0.0124    1.4889  694.3901 5155.5386   -0.4053    0.1089 177.63  -1.0  -1.0  0     0.0000    0.0002
40           ?    N    ? P      ? 20180313 0048   13.6612 GAU  1.02e-02 -1.00e+00  7.37e+00  1.20e-02    7.3700 >    0.2292   -0.0098    1.6381  694.4169 5155.5417   -0.4131    0.1102 163.52  -1.0  -1.0  0     0.0000    0.0002
15           ?    N    ? P      ? 20180313 0048   13.5905 GAU  1.39e-02 -1.00e+00  9.16e+00  8.00e-03    9.1600 >    0.3484   -0.1997    0.0283  694.3206 5155.8107   -0.4609    0.1757 338.28  -1.0  -1.0  0     0.0000    0.0003
12           ?    N    ? P      ? 20180313 0048   13.5994 GAU  2.85e-02 -1.00e+00  6.67e+00  1.20e-02    6.6700 >    0.3586   -0.2010    0.0242  694.3356 5155.8197   -0.4663    0.1794 343.82  -1.0  -1.0  0     0.0000    0.0004
13           ?    N    ? P      ? 20180313 0048   13.6523 GAU  1.70e-02 -1.00e+00  7.68e+00  8.00e-03    7.6800 >    0.3800   -0.1695    0.0122  694.3062 5155.8390   -0.4568    0.2074 337.49  -1.0  -1.0  0     0.0000    0.0004
5            ?    N    ? P      ? 20180313 0048   13.6358 GAU  2.36e-02 -1.00e+00  7.67e+00  1.20e-02    7.6700 >    0.3931   -0.1991    0.0412  694.2898 5155.8520   -0.4475    0.2259 334.89  -1.0  -1.0  0     0.0000    0.0004
END_PHASE
END_NLLOC

