NLLOC "./loc/RR.20180313.020914.grid0" "REJECTED" "WARNING: max prob location on grid boundary 31, rejecting location."
PUBLIC_ID None
SIGNATURE "   obs:./obs/nll_picks.obs   NLLoc:v7.00.10(30Aug2020)   run:29Apr2022 23h20m49"
COMMENT "Rattlesnake Ridge Slidequake Locations"
GRID  150 250 75  694.15 5155.4 0  0.002 0.002 0.002 PROB_DENSITY
SEARCH OCTREE nInitial 1000 nEvaluated 3224 smallestNodeSide 0.001863/0.003112/0.000925 oct_tree_integral 1.213569e-05 scatter_volume 1.213569e-05
HYPOCENTER  x 694.179 y 5155.7 z 0.147537  OT 13.7245  ix -1 iy -1 iz -1 MAXIMUM_LIKELIHOOD
GEOGRAPHIC  OT 2018 03 13  02 09 13.724464  Lat 5155.697244 Long 694.178869 Depth 0.147537
QUALITY  Pmax 2.29797e+124 MFmin 330.597 MFmax 330.904 RMS 0.0104379 Nphs 27 Gap 263.384 Dist 0.134253 Mamp  0.84 27 Mdur -9.90 0
VPVSRATIO  VpVsRatio -1  Npair 0  Diff -2e+30
STATISTICS  ExpectX 694.185492 Y 5155.691765 Z 0.130047  CovXX 0.000852992 XY -3.94462e-05 XZ 2.16747e-05 YY 6.51073e-05 YZ 9.32731e-05 ZZ 0.000320945 EllAz1  183.246 Dip1  18.103 Len1  0.0106828 Az2  356.971 Dip2  71.7951 Len2  0.03521 Len3  5.495421e-02
STAT_GEOG  ExpectLat 5155.691765 Long 694.185492 Depth 0.130047
TRANSFORM  NONE
QML_OriginQuality  assocPhCt 27  usedPhCt 27  assocStaCt -1  usedStaCt 27  depthPhCt -1  stdErr 0.0104379  azGap 263.384  secAzGap 268.729  gtLevel -  minDist 0.134253 maxDist 0.284314 medDist 0.199532
QML_OriginUncertainty  horUnc -1  minHorUnc 0.0120506  maxHorUnc 0.0443443  azMaxHorUnc 92.859
QML_ConfidenceEllipsoid  semiMajorAxisLength 0.0549542  semiMinorAxisLength 0.0106828  semiIntermediateAxisLength 0.03521  majorAxisPlunge 1.85992  majorAxisAzimuth 92.6378  majorAxisRotation 18.1486
FOCALMECH  Hyp  5155.697244 694.178869 0.147537 Mech  0 0 0 mf  0 nObs -1
PHASE ID Ins Cmp On Pha  FM Date     HrMn   Sec     Err  ErrMag    Coda      Amp       Per       PriorWt  >   TTpred    Res       Weight    StaLoc(X  Y         Z)        SDist    SAzim  RAz  RDip RQual    Tcorr       TTerr
106          ?    N    ? P      ? 20180313 0209   14.1913 GAU  5.53e-03 -1.00e+00  8.01e+00  2.40e-02    8.0100 >    0.3618    0.1050    0.0067  694.3120 5155.6801   -0.4360    0.1343  97.36  -1.0  -1.0  0     0.0000    0.0004
9            ?    N    ? P      ? 20180313 0209   14.2971 GAU  2.31e-02 -1.00e+00  8.30e+00  1.20e-02    8.3000 >    0.3786    0.1940    0.0002  694.2594 5155.8351   -0.4296    0.1596  30.28  -1.0  -1.0  0     0.0000    0.0004
17           ?    N    ? P      ? 20180313 0209   14.1815 GAU  3.84e-03 -1.00e+00  8.22e+00  2.80e-02    8.2200 >    0.4366    0.0205    0.6646  694.3461 5155.7815   -0.4621    0.1873  63.27  -1.0  -1.0  0     0.0000    0.0004
18           ?    N    ? P      ? 20180313 0209   14.1662 GAU  4.42e-03 -1.00e+00  8.21e+00  1.20e-02    8.2100 >    0.4336    0.0082    1.2818  694.3549 5155.7674   -0.4586    0.1895  68.27  -1.0  -1.0  0     0.0000    0.0004
20           ?    N    ? P      ? 20180313 0209   14.1559 GAU  5.90e-03 -1.00e+00  8.95e+00  8.00e-03    8.9500 >    0.4295    0.0019    1.3205  694.3609 5155.7515   -0.4553    0.1899  73.41  -1.0  -1.0  0     0.0000    0.0004
25           ?    N    ? P      ? 20180313 0209   14.1640 GAU  1.11e-02 -1.00e+00  9.94e+00  2.40e-02    9.9400 >    0.4165    0.0231    0.6736  694.3684 5155.7091   -0.4438    0.1899  86.42  -1.0  -1.0  0     0.0000    0.0004
21           ?    N    ? P      ? 20180313 0209   14.1518 GAU  3.68e-03 -1.00e+00  8.90e+00  8.00e-03    8.9000 >    0.4256    0.0017    1.3494  694.3642 5155.7391   -0.4517    0.1900  77.26  -1.0  -1.0  0     0.0000    0.0004
5            ?    N    ? P      ? 20180313 0209   14.2778 GAU  4.81e-03 -1.00e+00  8.53e+00  1.20e-02    8.5300 >    0.4264    0.1270    0.0035  694.2898 5155.8520   -0.4475    0.1904  35.63  -1.0  -1.0  0     0.0000    0.0004
23           ?    N    ? P      ? 20180313 0209   14.1529 GAU  4.79e-03 -1.00e+00  1.02e+01  1.20e-02   10.2000 >    0.4209    0.0076    1.0932  694.3677 5155.7226   -0.4473    0.1905  82.37  -1.0  -1.0  0     0.0000    0.0004
16           ?    N    ? P      ? 20180313 0209   14.1933 GAU  4.66e-03 -1.00e+00  8.11e+00  2.80e-02    8.1100 >    0.4431    0.0258    0.6182  694.3452 5155.7921   -0.4642    0.1915  60.30  -1.0  -1.0  0     0.0000    0.0004
105          ?    N    ? P      ? 20180313 0209   14.1362 GAU  1.27e-02 -1.00e+00  1.02e+01  5.20e-02   10.2000 >    0.4182   -0.0065    0.7719  694.3764 5155.6832   -0.4382    0.1980  94.06  -1.0  -1.0  0     0.0000    0.0004
12           ?    N    ? P      ? 20180313 0209   14.1740 GAU  2.11e-02 -1.00e+00  6.95e+00  1.20e-02    6.9500 >    0.4535   -0.0040    1.0420  694.3356 5155.8197   -0.4663    0.1989  52.00  -1.0  -1.0  0     0.0000    0.0005
28           ?    N    ? P      ? 20180313 0209   14.1398 GAU  1.20e-02 -1.00e+00  9.16e+00  1.20e-02    9.1600 >    0.4174   -0.0021    0.8902  694.3767 5155.6745   -0.4362    0.1991  96.57  -1.0  -1.0  0     0.0000    0.0004
26           ?    N    ? P      ? 20180313 0209   14.1433 GAU  6.26e-03 -1.00e+00  9.39e+00  1.20e-02    9.3900 >    0.4215   -0.0027    1.0529  694.3783 5155.6910   -0.4400    0.1995  91.80  -1.0  -1.0  0     0.0000    0.0004
30           ?    N    ? P      ? 20180313 0209   14.1019 GAU  1.09e-02 -1.00e+00  8.46e+00  1.20e-02    8.4600 >    0.4164   -0.0390    0.0607  694.3775 5155.6619   -0.4333    0.2017 100.09  -1.0  -1.0  0     0.0000    0.0004
10           ?    N    ? P      ? 20180313 0209   14.1832 GAU  1.39e-02 -1.00e+00  6.70e+00  1.20e-02    6.7000 >    0.4608   -0.0021    1.4362  694.3329 5155.8329   -0.4673    0.2052  48.63  -1.0  -1.0  0     0.0000    0.0005
103          ?    N    ? P      ? 20180313 0209   14.1839 GAU  3.02e-03 -1.00e+00  7.83e+00  6.40e-02    7.8300 >    0.4608   -0.0013    1.8544  694.3644 5155.7952   -0.4662    0.2098  62.16  -1.0  -1.0  0     0.0000    0.0005
33           ?    N    ? P      ? 20180313 0209   14.1562 GAU  8.11e-03 -1.00e+00  8.10e+00  8.00e-03    8.1000 >    0.4169    0.0148    1.1644  694.3775 5155.6293   -0.4252    0.2099 108.88  -1.0  -1.0  0     0.0000    0.0004
22           ?    N    ? P      ? 20180313 0209   14.1948 GAU  1.31e-02 -1.00e+00  8.84e+00  1.20e-02    8.8400 >    0.4519    0.0184    0.7777  694.3985 5155.7265   -0.4488    0.2216  82.40  -1.0  -1.0  0     0.0000    0.0005
27           ?    N    ? P      ? 20180313 0209   14.1684 GAU  8.48e-03 -1.00e+00  7.86e+00  1.20e-02    7.8600 >    0.4447   -0.0008    0.9716  694.4008 5155.6912   -0.4412    0.2220  91.55  -1.0  -1.0  0     0.0000    0.0004
6            ?    N    ? P      ? 20180313 0209   14.2380 GAU  3.12e-02 -1.00e+00  7.83e+00  1.60e-02    7.8300 >    0.4857    0.0279    0.8436  694.3446 5155.8502   -0.4728    0.2255  47.31  -1.0  -1.0  0     0.0000    0.0005
31           ?    N    ? P      ? 20180313 0209   14.1776 GAU  8.85e-03 -1.00e+00  8.43e+00  2.00e-02    8.4300 >    0.4499    0.0032    1.2920  694.4086 5155.6503   -0.4335    0.2345 101.54  -1.0  -1.0  0     0.0000    0.0004
38           ?    N    ? P      ? 20180313 0209   14.1793 GAU  5.28e-03 -1.00e+00  6.49e+00  2.40e-02    6.4900 >    0.4460    0.0088    1.9047  694.3902 5155.5681   -0.4123    0.2476 121.43  -1.0  -1.0  0     0.0000    0.0004
34           ?    N    ? P      ? 20180313 0209   14.1841 GAU  9.13e-03 -1.00e+00  7.75e+00  1.20e-02    7.7500 >    0.4605   -0.0009    1.4576  694.4145 5155.6153   -0.4263    0.2495 109.18  -1.0  -1.0  0     0.0000    0.0005
41           ?    N    ? P      ? 20180313 0209   14.2157 GAU  5.30e-03 -1.00e+00  6.28e+00  1.60e-02    6.2800 >    0.4603    0.0309    0.7262  694.3901 5155.5386   -0.4053    0.2642 126.90  -1.0  -1.0  0     0.0000    0.0005
37           ?    N    ? P      ? 20180313 0209   14.2014 GAU  2.26e-02 -1.00e+00  6.57e+00  2.00e-02    6.5700 >    0.4763    0.0006    1.0568  694.4219 5155.5876   -0.4220    0.2666 114.28  -1.0  -1.0  0     0.0000    0.0005
40           ?    N    ? P      ? 20180313 0209   14.2145 GAU  3.50e-03 -1.00e+00  6.87e+00  1.20e-02    6.8700 >    0.4912   -0.0011    2.6854  694.4169 5155.5417   -0.4131    0.2843 123.16  -1.0  -1.0  0     0.0000    0.0005
END_PHASE
END_NLLOC

