NLLOC "./loc/RR.20180313.001530.grid0" "REJECTED" "WARNING: max prob location on grid boundary 10, rejecting location."
PUBLIC_ID None
SIGNATURE "   obs:./obs/nll_picks.obs   NLLoc:v7.00.10(30Aug2020)   run:29Apr2022 23h19m00"
COMMENT "Rattlesnake Ridge Slidequake Locations"
GRID  150 250 75  694.15 5155.4 0  0.002 0.002 0.002 PROB_DENSITY
SEARCH OCTREE nInitial 1000 nEvaluated 17264 smallestNodeSide 0.001863/0.003112/0.000925 oct_tree_integral 1.436085e-04 scatter_volume 1.432672e-04
HYPOCENTER  x 694.151 y 5155.79 z 0.147537  OT 29.9514  ix -1 iy -1 iz -1 MAXIMUM_LIKELIHOOD
GEOGRAPHIC  OT 2018 03 13  00 15 29.951449  Lat 5155.790619 Long 694.150931 Depth 0.147537
QUALITY  Pmax 1.43337e+102 MFmin 145.042 MFmax 145.058 RMS 0.0228364 Nphs 25 Gap 302.002 Dist 0.186816 Mamp  0.84 25 Mdur -9.90 0
VPVSRATIO  VpVsRatio -1  Npair 0  Diff -2e+30
STATISTICS  ExpectX 694.205880 Y 5155.767573 Z 0.121581  CovXX 0.00244587 XY -0.000123914 XZ 0.000284645 YY 0.000493092 YZ 0.000250932 ZZ 0.000656733 EllAz1  189.072 Dip1  37.6446 Len1  0.0312868 Az2  351.85 Dip2  51.0774 Len2  0.0539568 Len3  9.382215e-02
STAT_GEOG  ExpectLat 5155.767573 Long 694.205880 Depth 0.121581
TRANSFORM  NONE
QML_OriginQuality  assocPhCt 25  usedPhCt 25  assocStaCt -1  usedStaCt 25  depthPhCt -1  stdErr 0.0228364  azGap 302.002  secAzGap 306.119  gtLevel -  minDist 0.186816 maxDist 0.336257 medDist 0.249735
QML_OriginUncertainty  horUnc -1  minHorUnc 0.0334081  maxHorUnc 0.0751233  azMaxHorUnc 93.6164
QML_ConfidenceEllipsoid  semiMajorAxisLength 0.0938221  semiMinorAxisLength 0.0312868  semiIntermediateAxisLength 0.0539568  majorAxisPlunge 8.46974  majorAxisAzimuth 92.4762  majorAxisRotation 39.374
FOCALMECH  Hyp  5155.790619 694.150931 0.147537 Mech  0 0 0 mf  0 nObs -1
PHASE ID Ins Cmp On Pha  FM Date     HrMn   Sec     Err  ErrMag    Coda      Amp       Per       PriorWt  >   TTpred    Res       Weight    StaLoc(X  Y         Z)        SDist    SAzim  RAz  RDip RQual    Tcorr       TTerr
10           ?    N    ? P      ? 20180313 0015   30.3824 GAU  3.12e-02 -1.00e+00  6.01e+00  8.00e-03    6.0100 >    0.4620   -0.0311    1.5320  694.3329 5155.8329   -0.4673    0.1868  76.92  -1.0  -1.0  0     0.0000    0.0005
12           ?    N    ? P      ? 20180313 0015   30.4158 GAU  2.80e-02 -1.00e+00  6.20e+00  2.40e-02    6.2000 >    0.4608    0.0035    1.6852  694.3356 5155.8197   -0.4663    0.1870  81.04  -1.0  -1.0  0     0.0000    0.0005
16           ?    N    ? P      ? 20180313 0015   30.4270 GAU  2.85e-02 -1.00e+00  7.09e+00  8.00e-03    7.0900 >    0.4624    0.0132    1.3220  694.3452 5155.7921   -0.4642    0.1943  89.56  -1.0  -1.0  0     0.0000    0.0005
106          ?    N    ? P      ? 20180313 0015   30.4120 GAU  6.98e-03 -1.00e+00  7.97e+00  1.20e-02    7.9700 >    0.4301    0.0304    1.0599  694.3120 5155.6801   -0.4360    0.1954 124.46  -1.0  -1.0  0     0.0000    0.0004
17           ?    N    ? P      ? 20180313 0015   30.3985 GAU  3.76e-02 -1.00e+00  6.90e+00  8.00e-03    6.9000 >    0.4605   -0.0135    1.1280  694.3461 5155.7815   -0.4621    0.1954  92.68  -1.0  -1.0  0     0.0000    0.0005
18           ?    N    ? P      ? 20180313 0015   30.4217 GAU  1.56e-02 -1.00e+00  6.79e+00  8.00e-03    6.7900 >    0.4639    0.0064    1.1191  694.3549 5155.7674   -0.4586    0.2053  96.49  -1.0  -1.0  0     0.0000    0.0005
103          ?    N    ? P      ? 20180313 0015   30.4254 GAU  2.26e-02 -1.00e+00  6.73e+00  8.00e-03    6.7300 >    0.4801   -0.0061    1.4515  694.3644 5155.7952   -0.4662    0.2135  88.77  -1.0  -1.0  0     0.0000    0.0005
20           ?    N    ? P      ? 20180313 0015   30.4077 GAU  2.41e-02 -1.00e+00  6.83e+00  8.00e-03    6.8300 >    0.4660   -0.0098    0.9518  694.3609 5155.7515   -0.4553    0.2135 100.56  -1.0  -1.0  0     0.0000    0.0005
21           ?    N    ? P      ? 20180313 0015   30.4174 GAU  2.52e-02 -1.00e+00  7.07e+00  8.00e-03    7.0700 >    0.4668   -0.0009    0.8588  694.3642 5155.7391   -0.4517    0.2194 103.58  -1.0  -1.0  0     0.0000    0.0005
23           ?    N    ? P      ? 20180313 0015   30.4362 GAU  1.93e-02 -1.00e+00  8.46e+00  1.20e-02    8.4600 >    0.4693    0.0155    0.8288  694.3677 5155.7226   -0.4473    0.2272 107.43  -1.0  -1.0  0     0.0000    0.0005
25           ?    N    ? P      ? 20180313 0015   30.4437 GAU  3.22e-02 -1.00e+00  8.35e+00  8.00e-03    8.3500 >    0.4706    0.0216    0.6795  694.3684 5155.7091   -0.4438    0.2323 110.54  -1.0  -1.0  0     0.0000    0.0005
26           ?    N    ? P      ? 20180313 0015   30.4040 GAU  1.07e-02 -1.00e+00  8.18e+00  1.20e-02    8.1800 >    0.4822   -0.0297    0.7703  694.3783 5155.6910   -0.4400    0.2482 113.67  -1.0  -1.0  0     0.0000    0.0005
105          ?    N    ? P      ? 20180313 0015   30.3927 GAU  1.34e-02 -1.00e+00  8.11e+00  1.20e-02    8.1100 >    0.4818   -0.0406    0.6246  694.3764 5155.6832   -0.4382    0.2497 115.47  -1.0  -1.0  0     0.0000    0.0005
28           ?    N    ? P      ? 20180313 0015   30.4346 GAU  1.56e-02 -1.00e+00  7.98e+00  1.20e-02    7.9800 >    0.4843   -0.0011    1.0915  694.3767 5155.6745   -0.4362    0.2539 117.23  -1.0  -1.0  0     0.0000    0.0005
22           ?    N    ? P      ? 20180313 0015   30.4705 GAU  1.40e-02 -1.00e+00  6.97e+00  5.20e-02    6.9700 >    0.4977    0.0214    0.9084  694.3985 5155.7265   -0.4488    0.2557 104.51  -1.0  -1.0  0     0.0000    0.0005
30           ?    N    ? P      ? 20180313 0015   30.4555 GAU  2.79e-02 -1.00e+00  7.55e+00  1.20e-02    7.5500 >    0.4885    0.0155    0.9468  694.3775 5155.6619   -0.4333    0.2605 119.60  -1.0  -1.0  0     0.0000    0.0005
27           ?    N    ? P      ? 20180313 0015   30.4480 GAU  1.18e-02 -1.00e+00  6.48e+00  8.00e-03    6.4800 >    0.5042   -0.0076    0.9800  694.4008 5155.6912   -0.4412    0.2689 111.69  -1.0  -1.0  0     0.0000    0.0005
32           ?    N    ? P      ? 20180313 0015   30.4539 GAU  3.81e-02 -1.00e+00  7.16e+00  1.20e-02    7.1600 >    0.4946    0.0079    0.9715  694.3777 5155.6456   -0.4297    0.2692 122.61  -1.0  -1.0  0     0.0000    0.0005
33           ?    N    ? P      ? 20180313 0015   30.4592 GAU  4.13e-02 -1.00e+00  7.18e+00  1.20e-02    7.1800 >    0.5007    0.0071    1.0931  694.3775 5155.6293   -0.4252    0.2781 125.44  -1.0  -1.0  0     0.0000    0.0005
35           ?    N    ? P      ? 20180313 0015   30.4920 GAU  6.44e-02 -1.00e+00  7.45e+00  1.20e-02    7.4500 >    0.5109    0.0296    0.8595  694.3818 5155.6141   -0.4216    0.2906 127.40  -1.0  -1.0  0     0.0000    0.0005
31           ?    N    ? P      ? 20180313 0015   30.4421 GAU  1.56e-02 -1.00e+00  6.67e+00  1.20e-02    6.6700 >    0.5241   -0.0334    0.8811  694.4086 5155.6503   -0.4335    0.2934 118.56  -1.0  -1.0  0     0.0000    0.0005
36           ?    N    ? P      ? 20180313 0015   30.5054 GAU  4.35e-02 -1.00e+00  5.88e+00  1.20e-02    5.8800 >    0.5281    0.0259    1.2225  694.3865 5155.5904   -0.4164    0.3092 130.37  -1.0  -1.0  0     0.0000    0.0005
34           ?    N    ? P      ? 20180313 0015   30.4769 GAU  4.19e-02 -1.00e+00  6.80e+00  1.20e-02    6.8000 >    0.5449   -0.0195    1.2326  694.4145 5155.6153   -0.4263    0.3166 123.63  -1.0  -1.0  0     0.0000    0.0005
38           ?    N    ? P      ? 20180313 0015   30.4383 GAU  3.22e-02 -1.00e+00  5.36e+00  5.20e-02    5.3600 >    0.5465   -0.0596    0.7842  694.3902 5155.5681   -0.4123    0.3267 132.93  -1.0  -1.0  0     0.0000    0.0005
39           ?    N    ? P      ? 20180313 0015   30.3702 GAU  2.74e-02 -1.00e+00  6.64e+00  8.00e-03    6.6400 >    0.5555   -0.1368    0.0172  694.3890 5155.5532   -0.4086    0.3363 134.92  -1.0  -1.0  0     0.0000    0.0006
END_PHASE
END_NLLOC

