NLLOC "./loc/RR.20180313.021119.grid0" "LOCATED" "Location completed."
PUBLIC_ID None
SIGNATURE "   obs:./obs/nll_picks.obs   NLLoc:v7.00.10(30Aug2020)   run:29Apr2022 23h20m52"
COMMENT "Rattlesnake Ridge Slidequake Locations"
GRID  150 250 75  694.15 5155.4 0  0.002 0.002 0.002 PROB_DENSITY
SEARCH OCTREE nInitial 1000 nEvaluated 1584 smallestNodeSide 0.001863/0.003112/0.000925 oct_tree_integral 2.450029e-07 scatter_volume 2.444485e-07
HYPOCENTER  x 694.429 y 5155.68 z 0.00185  OT 19.5224  ix -1 iy -1 iz -1 MAXIMUM_LIKELIHOOD
GEOGRAPHIC  OT 2018 03 13  02 11 19.522435  Lat 5155.680125 Long 694.429375 Depth 0.001850
QUALITY  Pmax 5.58276e+135 MFmin 538.167 MFmax 538.219 RMS 0.0860116 Nphs 34 Gap 211.092 Dist 0.030676 Mamp  0.41 34 Mdur -9.90 0
VPVSRATIO  VpVsRatio -1  Npair 0  Diff -2e+30
STATISTICS  ExpectX 694.410669 Y 5155.690179 Z 0.012697  CovXX 0.00243627 XY -0.00114303 XZ -0.000534675 YY 0.000632761 YZ 0.000261642 ZZ 0.0001513 EllAz1  308.816 Dip1  -78.3368 Len1  0.0105368 Az2  206.385 Dip2  -2.54413 Len2  0.016668 Len3  1.047803e-01
STAT_GEOG  ExpectLat 5155.690179 Long 694.410669 Depth 0.012697
TRANSFORM  NONE
QML_OriginQuality  assocPhCt 34  usedPhCt 34  assocStaCt -1  usedStaCt 34  depthPhCt -1  stdErr 0.0860116  azGap 211.092  secAzGap 214.069  gtLevel -  minDist 0.030676 maxDist 0.230033 medDist 0.107111
QML_OriginUncertainty  horUnc -1  minHorUnc 0.0134459  maxHorUnc 0.0829335  azMaxHorUnc 115.865
QML_ConfidenceEllipsoid  semiMajorAxisLength 0.10478  semiMinorAxisLength 0.0105368  semiIntermediateAxisLength 0.016668  majorAxisPlunge -11.3747  majorAxisAzimuth 115.873  majorAxisRotation 267.607
FOCALMECH  Hyp  5155.680125 694.429375 0.001850 Mech  0 0 0 mf  0 nObs -1
PHASE ID Ins Cmp On Pha  FM Date     HrMn   Sec     Err  ErrMag    Coda      Amp       Per       PriorWt  >   TTpred    Res       Weight    StaLoc(X  Y         Z)        SDist    SAzim  RAz  RDip RQual    Tcorr       TTerr
27           ?    N    ? P      ? 20180313 0211   19.5740 GAU  5.61e-03 -1.00e+00  9.18e+00  8.00e-03    9.1800 >    0.0517   -0.0001    3.1560  694.4008 5155.6912   -0.4412    0.0307 291.26  -1.0  -1.0  0     0.0000    0.0001
31           ?    N    ? P      ? 20180313 0211   19.5960 GAU  9.66e-03 -1.00e+00  8.43e+00  5.20e-02    8.4300 >    0.0608    0.0127    1.6700  694.4086 5155.6503   -0.4335    0.0363 214.87  -1.0  -1.0  0     0.0000    0.0001
26           ?    N    ? P      ? 20180313 0211   19.4470 GAU  3.43e-03 -1.00e+00  1.03e+01  1.20e-02   10.3000 >    0.0872   -0.1626    0.1439  694.3783 5155.6910   -0.4400    0.0522 281.99  -1.0  -1.0  0     0.0000    0.0001
28           ?    N    ? P      ? 20180313 0211   19.3560 GAU  3.74e-03 -1.00e+00  1.11e+01  1.60e-02   11.1000 >    0.0884   -0.2548    0.0176  694.3767 5155.6745   -0.4362    0.0530 263.86  -1.0  -1.0  0     0.0000    0.0001
105          ?    N    ? P      ? 20180313 0211   19.3690 GAU  3.12e-03 -1.00e+00  1.12e+01  1.20e-02   11.2000 >    0.0885   -0.2420    0.3872  694.3764 5155.6832   -0.4382    0.0531 273.36  -1.0  -1.0  0     0.0000    0.0001
30           ?    N    ? P      ? 20180313 0211   19.3030 GAU  1.56e-03 -1.00e+00  1.08e+01  1.20e-02   10.8000 >    0.0919   -0.3114    0.0015  694.3775 5155.6619   -0.4333    0.0550 250.67  -1.0  -1.0  0     0.0000    0.0001
22           ?    N    ? P      ? 20180313 0211   19.6150 GAU  5.92e-03 -1.00e+00  8.96e+00  1.20e-02    8.9600 >    0.0950   -0.0024    2.6153  694.3985 5155.7265   -0.4488    0.0558 326.37  -1.0  -1.0  0     0.0000    0.0001
32           ?    N    ? P      ? 20180313 0211   19.2040 GAU  2.18e-03 -1.00e+00  1.02e+01  1.60e-02   10.2000 >    0.1043   -0.4227    0.0014  694.3777 5155.6456   -0.4297    0.0622 236.24  -1.0  -1.0  0     0.0000    0.0001
34           ?    N    ? P      ? 20180313 0211   19.5620 GAU  3.12e-03 -1.00e+00  8.73e+00  5.20e-02    8.7300 >    0.1123   -0.0727    0.3409  694.4145 5155.6153   -0.4263    0.0665 192.91  -1.0  -1.0  0     0.0000    0.0001
25           ?    N    ? P      ? 20180313 0211   19.5210 GAU  2.81e-03 -1.00e+00  9.70e+00  1.20e-02    9.7000 >    0.1130   -0.1144    0.2252  694.3684 5155.7091   -0.4438    0.0675 295.44  -1.0  -1.0  0     0.0000    0.0001
33           ?    N    ? P      ? 20180313 0211   19.2130 GAU  2.49e-03 -1.00e+00  1.07e+01  1.20e-02   10.7000 >    0.1223   -0.4318    0.0013  694.3775 5155.6293   -0.4252    0.0726 225.59  -1.0  -1.0  0     0.0000    0.0001
23           ?    N    ? P      ? 20180313 0211   19.5620 GAU  3.12e-03 -1.00e+00  1.00e+01  1.20e-02   10.0000 >    0.1258   -0.0862    0.9236  694.3677 5155.7226   -0.4473    0.0749 304.52  -1.0  -1.0  0     0.0000    0.0001
35           ?    N    ? P      ? 20180313 0211   19.3310 GAU  3.74e-03 -1.00e+00  1.06e+01  8.00e-03   10.6000 >    0.1378   -0.3293    0.1946  694.3818 5155.6141   -0.4216    0.0814 215.80  -1.0  -1.0  0     0.0000    0.0001
21           ?    N    ? P      ? 20180313 0211   19.5030 GAU  6.54e-03 -1.00e+00  8.26e+00  2.80e-02    8.2600 >    0.1488   -0.1683    0.1432  694.3642 5155.7391   -0.4517    0.0879 312.14  -1.0  -1.0  0     0.0000    0.0001
37           ?    N    ? P      ? 20180313 0211   19.5840 GAU  7.17e-03 -1.00e+00  8.28e+00  8.00e-03    8.2800 >    0.1568   -0.0952    1.7167  694.4219 5155.5876   -0.4220    0.0928 184.60  -1.0  -1.0  0     0.0000    0.0002
20           ?    N    ? P      ? 20180313 0211   19.5680 GAU  3.12e-03 -1.00e+00  8.67e+00  8.00e-03    8.6700 >    0.1677   -0.1221    1.0859  694.3609 5155.7515   -0.4553    0.0989 316.16  -1.0  -1.0  0     0.0000    0.0002
36           ?    N    ? P      ? 20180313 0211   19.2880 GAU  4.36e-03 -1.00e+00  8.87e+00  3.20e-02    8.8700 >    0.1688   -0.4032    0.0001  694.3865 5155.5904   -0.4164    0.0995 205.52  -1.0  -1.0  0     0.0000    0.0002
18           ?    N    ? P      ? 20180313 0211   19.6270 GAU  4.05e-03 -1.00e+00  8.06e+00  8.00e-03    8.0600 >    0.1946   -0.0900    1.1474  694.3549 5155.7674   -0.4586    0.1147 319.52  -1.0  -1.0  0     0.0000    0.0002
106          ?    N    ? P      ? 20180313 0211   19.4780 GAU  4.68e-03 -1.00e+00  9.15e+00  1.20e-02    9.1500 >    0.1954   -0.2398    0.4041  694.3120 5155.6801   -0.4360    0.1174 269.97  -1.0  -1.0  0     0.0000    0.0002
38           ?    N    ? P      ? 20180313 0211   19.3940 GAU  4.98e-03 -1.00e+00  8.00e+00  3.20e-02    8.0000 >    0.2015   -0.3299    0.1961  694.3902 5155.5681   -0.4123    0.1187 199.30  -1.0  -1.0  0     0.0000    0.0002
17           ?    N    ? P      ? 20180313 0211   19.7430 GAU  3.12e-03 -1.00e+00  8.12e+00  8.00e-03    8.1200 >    0.2223   -0.0018    3.9661  694.3461 5155.7815   -0.4621    0.1311 320.61  -1.0  -1.0  0     0.0000    0.0002
103          ?    N    ? P      ? 20180313 0211   19.7550 GAU  3.12e-03 -1.00e+00  8.29e+00  2.80e-02    8.2900 >    0.2250    0.0075    3.2457  694.3644 5155.7952   -0.4662    0.1322 330.53  -1.0  -1.0  0     0.0000    0.0002
39           ?    N    ? P      ? 20180313 0211   19.6210 GAU  3.43e-03 -1.00e+00  8.04e+00  1.60e-02    8.0400 >    0.2261   -0.1275    1.0839  694.3890 5155.5532   -0.4086    0.1332 197.63  -1.0  -1.0  0     0.0000    0.0002
40           ?    N    ? P      ? 20180313 0211   19.7580 GAU  3.43e-03 -1.00e+00  8.18e+00  2.40e-02    8.1800 >    0.2347    0.0009    5.1132  694.4169 5155.5417   -0.4131    0.1390 185.16  -1.0  -1.0  0     0.0000    0.0002
16           ?    N    ? P      ? 20180313 0211   19.9700 GAU  2.81e-03 -1.00e+00  8.48e+00  1.20e-02    8.4800 >    0.2373    0.2103    0.0000  694.3452 5155.7921   -0.4642    0.1401 323.07  -1.0  -1.0  0     0.0000    0.0002
41           ?    N    ? P      ? 20180313 0211   19.7180 GAU  4.36e-03 -1.00e+00  8.16e+00  8.00e-03    8.1600 >    0.2492   -0.0536    0.1476  694.3901 5155.5386   -0.4053    0.1468 195.51  -1.0  -1.0  0     0.0000    0.0002
12           ?    N    ? P      ? 20180313 0211   19.8860 GAU  8.73e-03 -1.00e+00  7.29e+00  4.40e-02    7.2900 >    0.2825    0.0811    0.0026  694.3356 5155.8197   -0.4663    0.1682 326.12  -1.0  -1.0  0     0.0000    0.0003
42           ?    N    ? P      ? 20180313 0211   19.8140 GAU  5.92e-03 -1.00e+00  7.44e+00  1.20e-02    7.4400 >    0.2867    0.0049    4.2650  694.3873 5155.5165   -0.3983    0.1689 194.43  -1.0  -1.0  0     0.0000    0.0003
15           ?    N    ? P      ? 20180313 0211   19.1244 GAU  4.45e-02 -1.00e+00  6.60e+00  2.00e-02    6.6000 >    0.2837   -0.6817    0.0565  694.3206 5155.8107   -0.4609    0.1700 320.19  -1.0  -1.0  0     0.0000    0.0003
10           ?    N    ? P      ? 20180313 0211   19.8890 GAU  9.66e-03 -1.00e+00  6.93e+00  1.20e-02    6.9300 >    0.3024    0.0642    0.0031  694.3329 5155.8329   -0.4673    0.1807 327.73  -1.0  -1.0  0     0.0000    0.0003
6            ?    N    ? P      ? 20180313 0211   19.1394 GAU  2.83e-02 -1.00e+00  7.54e+00  1.60e-02    7.5400 >    0.3191   -0.7021    0.1231  694.3446 5155.8502   -0.4728    0.1900 333.51  -1.0  -1.0  0     0.0000    0.0003
8            ?    N    ? P      ? 20180313 0211   19.7640 GAU  2.27e-02 -1.00e+00  6.01e+00  1.60e-02    6.0100 >    0.3267   -0.0851    1.3773  694.3223 5155.8450   -0.4648    0.1966 327.00  -1.0  -1.0  0     0.0000    0.0003
4            ?    N    ? P      ? 20180313 0211   19.1313 GAU  1.96e-02 -1.00e+00  6.60e+00  1.20e-02    6.6000 >    0.3456   -0.7367    0.0671  694.3090 5155.8520   -0.4586    0.2098 325.00  -1.0  -1.0  0     0.0000    0.0003
9            ?    N    ? P      ? 20180313 0211   19.1749 GAU  1.59e-02 -1.00e+00  8.32e+00  1.20e-02    8.3200 >    0.3730   -0.7205    0.1766  694.2594 5155.8351   -0.4296    0.2300 312.35  -1.0  -1.0  0     0.0000    0.0004
END_PHASE
END_NLLOC

