NLLOC "./loc/RR.20180313.012017.grid0" "REJECTED" "WARNING: max prob location on grid boundary 31, rejecting location."
PUBLIC_ID None
SIGNATURE "   obs:./obs/nll_picks.obs   NLLoc:v7.00.10(30Aug2020)   run:29Apr2022 23h20m02"
COMMENT "Rattlesnake Ridge Slidequake Locations"
GRID  150 250 75  694.15 5155.4 0  0.002 0.002 0.002 PROB_DENSITY
SEARCH OCTREE nInitial 1000 nEvaluated 6616 smallestNodeSide 0.001863/0.003112/0.000925 oct_tree_integral 3.703934e-05 scatter_volume 3.698079e-05
HYPOCENTER  x 694.201 y 5155.66 z 0.147537  OT 17.3641  ix -1 iy -1 iz -1 MAXIMUM_LIKELIHOOD
GEOGRAPHIC  OT 2018 03 13  01 20 17.364095  Lat 5155.656781 Long 694.201219 Depth 0.147537
QUALITY  Pmax 2.0209e+97 MFmin 209.571 MFmax 209.662 RMS 0.00662172 Nphs 22 Gap 295.365 Dist 0.113216 Mamp  0.82 22 Mdur -9.90 0
VPVSRATIO  VpVsRatio -1  Npair 0  Diff -2e+30
STATISTICS  ExpectX 694.187368 Y 5155.650494 Z 0.117660  CovXX 0.000691202 XY 0.000112479 XZ 0.000242194 YY 7.37241e-05 YZ 0.000145285 ZZ 0.000696827 EllAz1  174.032 Dip1  10.2287 Len1  0.0112112 Az2  273.903 Dip2  43.5325 Len2  0.0399841 Len3  5.861372e-02
STAT_GEOG  ExpectLat 5155.650494 Long 694.187368 Depth 0.117660
TRANSFORM  NONE
QML_OriginQuality  assocPhCt 22  usedPhCt 22  assocStaCt -1  usedStaCt 22  depthPhCt -1  stdErr 0.00662172  azGap 295.365  secAzGap 300.439  gtLevel -  minDist 0.113216 maxDist 0.244431 medDist 0.185564
QML_OriginUncertainty  horUnc -1  minHorUnc 0.0111314  maxHorUnc 0.0404403  azMaxHorUnc 79.9912
QML_ConfidenceEllipsoid  semiMajorAxisLength 0.0586137  semiMinorAxisLength 0.0112112  semiIntermediateAxisLength 0.0399841  majorAxisPlunge 44.66  majorAxisAzimuth 73.7601  majorAxisRotation 87.3647
FOCALMECH  Hyp  5155.656781 694.201219 0.147537 Mech  0 0 0 mf  0 nObs -1
PHASE ID Ins Cmp On Pha  FM Date     HrMn   Sec     Err  ErrMag    Coda      Amp       Per       PriorWt  >   TTpred    Res       Weight    StaLoc(X  Y         Z)        SDist    SAzim  RAz  RDip RQual    Tcorr       TTerr
106          ?    N    ? P      ? 20180313 0120   17.7827 GAU  1.13e-02 -1.00e+00  7.82e+00  1.20e-02    7.8200 >    0.3306    0.0880    0.0084  694.3120 5155.6801   -0.4360    0.1132  78.14  -1.0  -1.0  0     0.0000    0.0003
25           ?    N    ? P      ? 20180313 0120   17.7707 GAU  6.57e-03 -1.00e+00  8.77e+00  8.00e-03    8.7700 >    0.3907    0.0159    0.5879  694.3684 5155.7091   -0.4438    0.1752  72.62  -1.0  -1.0  0     0.0000    0.0004
30           ?    N    ? P      ? 20180313 0120   17.7415 GAU  4.53e-03 -1.00e+00  9.70e+00  2.80e-02    9.7000 >    0.3801   -0.0027    0.9329  694.3775 5155.6619   -0.4333    0.1763  88.33  -1.0  -1.0  0     0.0000    0.0004
28           ?    N    ? P      ? 20180313 0120   17.7492 GAU  5.88e-03 -1.00e+00  1.02e+01  1.20e-02   10.2000 >    0.3835    0.0016    0.9476  694.3767 5155.6745   -0.4362    0.1764  84.25  -1.0  -1.0  0     0.0000    0.0004
32           ?    N    ? P      ? 20180313 0120   17.7338 GAU  4.98e-03 -1.00e+00  9.43e+00  1.20e-02    9.4300 >    0.3771   -0.0074    0.8032  694.3777 5155.6456   -0.4297    0.1768  93.63  -1.0  -1.0  0     0.0000    0.0004
105          ?    N    ? P      ? 20180313 0120   17.7549 GAU  3.40e-03 -1.00e+00  9.94e+00  8.00e-03    9.9400 >    0.3864    0.0044    0.9932  694.3764 5155.6832   -0.4382    0.1772  81.41  -1.0  -1.0  0     0.0000    0.0004
33           ?    N    ? P      ? 20180313 0120   17.7392 GAU  7.70e-03 -1.00e+00  9.15e+00  1.60e-02    9.1500 >    0.3741    0.0010    1.1006  694.3775 5155.6293   -0.4252    0.1784  98.85  -1.0  -1.0  0     0.0000    0.0004
23           ?    N    ? P      ? 20180313 0120   17.7712 GAU  5.21e-03 -1.00e+00  8.74e+00  8.00e-03    8.7400 >    0.3984    0.0087    1.0888  694.3677 5155.7226   -0.4473    0.1790  68.44  -1.0  -1.0  0     0.0000    0.0004
26           ?    N    ? P      ? 20180313 0120   17.7519 GAU  4.53e-03 -1.00e+00  9.34e+00  1.20e-02    9.3400 >    0.3915   -0.0037    0.9656  694.3783 5155.6910   -0.4400    0.1804  79.07  -1.0  -1.0  0     0.0000    0.0004
21           ?    N    ? P      ? 20180313 0120   17.7678 GAU  1.59e-02 -1.00e+00  7.33e+00  2.80e-02    7.3300 >    0.4068   -0.0031    1.0011  694.3642 5155.7391   -0.4517    0.1826  63.19  -1.0  -1.0  0     0.0000    0.0004
35           ?    N    ? P      ? 20180313 0120   17.7469 GAU  9.51e-03 -1.00e+00  9.23e+00  8.00e-03    9.2300 >    0.3767    0.0061    1.1365  694.3818 5155.6141   -0.4216    0.1855 103.30  -1.0  -1.0  0     0.0000    0.0004
20           ?    N    ? P      ? 20180313 0120   17.7807 GAU  6.56e-03 -1.00e+00  7.35e+00  2.40e-02    7.3500 >    0.4134    0.0032    1.7325  694.3609 5155.7515   -0.4553    0.1856  59.32  -1.0  -1.0  0     0.0000    0.0004
18           ?    N    ? P      ? 20180313 0120   17.7816 GAU  5.66e-03 -1.00e+00  7.13e+00  6.00e-02    7.1300 >    0.4210   -0.0035    2.1241  694.3549 5155.7674   -0.4586    0.1894  54.25  -1.0  -1.0  0     0.0000    0.0004
36           ?    N    ? P      ? 20180313 0120   17.7691 GAU  1.90e-02 -1.00e+00  7.90e+00  1.20e-02    7.9000 >    0.3844    0.0206    0.6667  694.3865 5155.5904   -0.4164    0.1969 109.72  -1.0  -1.0  0     0.0000    0.0004
27           ?    N    ? P      ? 20180313 0120   17.7719 GAU  4.07e-03 -1.00e+00  7.89e+00  8.00e-03    7.8900 >    0.4146   -0.0068    0.8346  694.4008 5155.6912   -0.4412    0.2025  80.20  -1.0  -1.0  0     0.0000    0.0004
31           ?    N    ? P      ? 20180313 0120   17.7789 GAU  9.28e-03 -1.00e+00  7.35e+00  1.60e-02    7.3500 >    0.4120    0.0028    0.8495  694.4086 5155.6503   -0.4335    0.2075  91.78  -1.0  -1.0  0     0.0000    0.0004
38           ?    N    ? P      ? 20180313 0120   17.7614 GAU  7.24e-03 -1.00e+00  6.80e+00  2.80e-02    6.8000 >    0.3936    0.0037    1.9207  694.3902 5155.5681   -0.4123    0.2087 115.14  -1.0  -1.0  0     0.0000    0.0004
22           ?    N    ? P      ? 20180313 0120   17.8040 GAU  2.67e-02 -1.00e+00  7.32e+00  8.00e-03    7.3200 >    0.4292    0.0107    0.6185  694.3985 5155.7265   -0.4488    0.2093  70.52  -1.0  -1.0  0     0.0000    0.0004
39           ?    N    ? P      ? 20180313 0120   17.8070 GAU  1.34e-02 -1.00e+00  7.17e+00  1.60e-02    7.1700 >    0.3972    0.0458    0.1024  694.3890 5155.5532   -0.4086    0.2145 118.88  -1.0  -1.0  0     0.0000    0.0004
34           ?    N    ? P      ? 20180313 0120   17.7651 GAU  1.36e-02 -1.00e+00  7.87e+00  3.20e-02    7.8700 >    0.4159   -0.0149    0.6288  694.4145 5155.6153   -0.4263    0.2173 101.01  -1.0  -1.0  0     0.0000    0.0004
37           ?    N    ? P      ? 20180313 0120   17.7993 GAU  1.47e-02 -1.00e+00  7.41e+00  1.20e-02    7.4100 >    0.4287    0.0065    1.2220  694.4219 5155.5876   -0.4220    0.2313 107.40  -1.0  -1.0  0     0.0000    0.0004
40           ?    N    ? P      ? 20180313 0120   17.7947 GAU  1.38e-02 -1.00e+00  7.16e+00  6.00e-02    7.1600 >    0.4368   -0.0062    1.7343  694.4169 5155.5417   -0.4131    0.2444 118.08  -1.0  -1.0  0     0.0000    0.0004
END_PHASE
END_NLLOC

