NLLOC "./loc/RR.20180313.013445.grid0" "REJECTED" "WARNING: max prob location on grid boundary 31, rejecting location."
PUBLIC_ID None
SIGNATURE "   obs:./obs/nll_picks.obs   NLLoc:v7.00.10(30Aug2020)   run:29Apr2022 23h20m20"
COMMENT "Rattlesnake Ridge Slidequake Locations"
GRID  150 250 75  694.15 5155.4 0  0.002 0.002 0.002 PROB_DENSITY
SEARCH OCTREE nInitial 1000 nEvaluated 4488 smallestNodeSide 0.001863/0.003112/0.000925 oct_tree_integral 2.008222e-05 scatter_volume 2.008222e-05
HYPOCENTER  x 694.203 y 5155.67 z 0.147537  OT 45.1768  ix -1 iy -1 iz -1 MAXIMUM_LIKELIHOOD
GEOGRAPHIC  OT 2018 03 13  01 34 45.176826  Lat 5155.666119 Long 694.203081 Depth 0.147537
QUALITY  Pmax 1.39773e+133 MFmin 350.615 MFmax 350.754 RMS 0.00982004 Nphs 28 Gap 268.819 Dist 0.109824 Mamp  0.83 28 Mdur -9.90 0
VPVSRATIO  VpVsRatio -1  Npair 0  Diff -2e+30
STATISTICS  ExpectX 694.189514 Y 5155.661689 Z 0.129201  CovXX 0.000583803 XY 8.77857e-05 XZ 9.85495e-05 YY 5.0676e-05 YZ 4.69024e-05 ZZ 0.000260681 EllAz1  172.442 Dip1  8.34529 Len1  0.0106429 Az2  289.049 Dip2  71.8644 Len2  0.0288132 Len3  4.707914e-02
STAT_GEOG  ExpectLat 5155.661689 Long 694.189514 Depth 0.129201
TRANSFORM  NONE
QML_OriginQuality  assocPhCt 28  usedPhCt 28  assocStaCt -1  usedStaCt 28  depthPhCt -1  stdErr 0.00982004  azGap 268.819  secAzGap 273.62  gtLevel -  minDist 0.109824 maxDist 0.247351 medDist 0.188014
QML_OriginUncertainty  horUnc -1  minHorUnc 0.00917409  maxHorUnc 0.0370828  azMaxHorUnc 80.886
QML_ConfidenceEllipsoid  semiMajorAxisLength 0.0470791  semiMinorAxisLength 0.0106429  semiIntermediateAxisLength 0.0288132  majorAxisPlunge 15.9834  majorAxisAzimuth 80.0339  majorAxisRotation 10.2054
FOCALMECH  Hyp  5155.666119 694.203081 0.147537 Mech  0 0 0 mf  0 nObs -1
PHASE ID Ins Cmp On Pha  FM Date     HrMn   Sec     Err  ErrMag    Coda      Amp       Per       PriorWt  >   TTpred    Res       Weight    StaLoc(X  Y         Z)        SDist    SAzim  RAz  RDip RQual    Tcorr       TTerr
106          ?    N    ? P      ? 20180313 0134   45.5939 GAU  6.13e-03 -1.00e+00  8.83e+00  1.20e-02    8.8300 >    0.3259    0.0911    0.0005  694.3120 5155.6801   -0.4360    0.1098  82.71  -1.0  -1.0  0     0.0000    0.0003
25           ?    N    ? P      ? 20180313 0134   45.5787 GAU  3.67e-03 -1.00e+00  9.50e+00  1.20e-02    9.5000 >    0.3847    0.0172    0.4056  694.3684 5155.7091   -0.4438    0.1708  75.42  -1.0  -1.0  0     0.0000    0.0004
28           ?    N    ? P      ? 20180313 0134   45.5618 GAU  5.39e-03 -1.00e+00  1.09e+01  8.00e-03   10.9000 >    0.3791    0.0059    0.9116  694.3767 5155.6745   -0.4362    0.1738  87.25  -1.0  -1.0  0     0.0000    0.0004
23           ?    N    ? P      ? 20180313 0134   45.5753 GAU  5.15e-03 -1.00e+00  9.38e+00  1.20e-02    9.3800 >    0.3917    0.0068    0.9480  694.3677 5155.7226   -0.4473    0.1740  71.08  -1.0  -1.0  0     0.0000    0.0004
105          ?    N    ? P      ? 20180313 0134   45.5584 GAU  6.86e-03 -1.00e+00  1.10e+01  1.20e-02   11.0000 >    0.3816    0.0000    1.0250  694.3764 5155.6832   -0.4382    0.1742  84.36  -1.0  -1.0  0     0.0000    0.0004
30           ?    N    ? P      ? 20180313 0134   45.5496 GAU  5.39e-03 -1.00e+00  1.04e+01  1.20e-02   10.4000 >    0.3765   -0.0037    1.0235  694.3775 5155.6619   -0.4333    0.1744  91.38  -1.0  -1.0  0     0.0000    0.0004
32           ?    N    ? P      ? 20180313 0134   45.5361 GAU  4.17e-03 -1.00e+00  1.04e+01  8.00e-03   10.4000 >    0.3744   -0.0151    0.8034  694.3777 5155.6456   -0.4297    0.1758  96.71  -1.0  -1.0  0     0.0000    0.0004
21           ?    N    ? P      ? 20180313 0134   45.5937 GAU  9.32e-03 -1.00e+00  7.99e+00  8.00e-03    7.9900 >    0.3995    0.0174    0.4878  694.3642 5155.7391   -0.4517    0.1769  65.62  -1.0  -1.0  0     0.0000    0.0004
26           ?    N    ? P      ? 20180313 0134   45.5655 GAU  4.66e-03 -1.00e+00  9.91e+00  1.20e-02    9.9100 >    0.3864    0.0023    0.9927  694.3783 5155.6910   -0.4400    0.1770  81.93  -1.0  -1.0  0     0.0000    0.0004
33           ?    N    ? P      ? 20180313 0134   45.5413 GAU  6.86e-03 -1.00e+00  9.75e+00  1.20e-02    9.7500 >    0.3716   -0.0071    1.0050  694.3775 5155.6293   -0.4252    0.1783 101.91  -1.0  -1.0  0     0.0000    0.0004
20           ?    N    ? P      ? 20180313 0134   45.5773 GAU  7.11e-03 -1.00e+00  8.23e+00  8.00e-03    8.2300 >    0.4057   -0.0052    1.3603  694.3609 5155.7515   -0.4553    0.1794  61.59  -1.0  -1.0  0     0.0000    0.0004
18           ?    N    ? P      ? 20180313 0134   45.5836 GAU  8.09e-03 -1.00e+00  7.65e+00  8.00e-03    7.6500 >    0.4125   -0.0058    1.4251  694.3549 5155.7674   -0.4586    0.1825  56.29  -1.0  -1.0  0     0.0000    0.0004
17           ?    N    ? P      ? 20180313 0134   45.5954 GAU  5.64e-03 -1.00e+00  7.36e+00  1.20e-02    7.3600 >    0.4186   -0.0000    1.6083  694.3461 5155.7815   -0.4621    0.1838  51.12  -1.0  -1.0  0     0.0000    0.0004
35           ?    N    ? P      ? 20180313 0134   45.5540 GAU  5.88e-03 -1.00e+00  9.62e+00  8.00e-03    9.6200 >    0.3758    0.0014    1.2047  694.3818 5155.6141   -0.4216    0.1861 106.23  -1.0  -1.0  0     0.0000    0.0004
16           ?    N    ? P      ? 20180313 0134   45.6118 GAU  1.23e-02 -1.00e+00  7.52e+00  8.00e-03    7.5200 >    0.4267    0.0083    1.1690  694.3452 5155.7921   -0.4642    0.1899  48.44  -1.0  -1.0  0     0.0000    0.0004
36           ?    N    ? P      ? 20180313 0134   45.5540 GAU  5.88e-03 -1.00e+00  8.59e+00  8.00e-03    8.5900 >    0.3840   -0.0069    1.2201  694.3865 5155.5904   -0.4164    0.1985 112.44  -1.0  -1.0  0     0.0000    0.0004
12           ?    N    ? P      ? 20180313 0134   45.6138 GAU  1.23e-02 -1.00e+00  6.73e+00  8.00e-03    6.7300 >    0.4422   -0.0053    1.5915  694.3356 5155.8197   -0.4663    0.2029  40.79  -1.0  -1.0  0     0.0000    0.0004
22           ?    N    ? P      ? 20180313 0134   45.5817 GAU  5.64e-03 -1.00e+00  8.19e+00  8.00e-03    8.1900 >    0.4224   -0.0175    0.8615  694.3985 5155.7265   -0.4488    0.2045  72.82  -1.0  -1.0  0     0.0000    0.0004
31           ?    N    ? P      ? 20180313 0134   45.5790 GAU  7.84e-03 -1.00e+00  7.63e+00  4.40e-02    7.6300 >    0.4092   -0.0070    0.8849  694.4086 5155.6503   -0.4335    0.2061  94.39  -1.0  -1.0  0     0.0000    0.0004
103          ?    N    ? P      ? 20180313 0134   45.5934 GAU  1.25e-02 -1.00e+00  7.53e+00  6.00e-02    7.5300 >    0.4442   -0.0276    0.5518  694.3644 5155.7952   -0.4662    0.2066  51.33  -1.0  -1.0  0     0.0000    0.0004
38           ?    N    ? P      ? 20180313 0134   45.5599 GAU  6.86e-03 -1.00e+00  7.35e+00  2.40e-02    7.3500 >    0.3948   -0.0118    1.1145  694.3902 5155.5681   -0.4123    0.2112 117.65  -1.0  -1.0  0     0.0000    0.0004
10           ?    N    ? P      ? 20180313 0134   45.6079 GAU  1.47e-02 -1.00e+00  6.00e+00  8.00e-03    6.0000 >    0.4518   -0.0207    0.9593  694.3329 5155.8329   -0.4673    0.2113  37.90  -1.0  -1.0  0     0.0000    0.0005
34           ?    N    ? P      ? 20180313 0134   45.5748 GAU  6.13e-03 -1.00e+00  8.40e+00  8.00e-03    8.4000 >    0.4143   -0.0163    0.7527  694.4145 5155.6153   -0.4263    0.2175 103.52  -1.0  -1.0  0     0.0000    0.0004
39           ?    N    ? P      ? 20180313 0134   45.5829 GAU  6.86e-03 -1.00e+00  7.69e+00  2.00e-02    7.6900 >    0.3990    0.0070    1.4018  694.3890 5155.5532   -0.4086    0.2176 121.28  -1.0  -1.0  0     0.0000    0.0004
41           ?    N    ? P      ? 20180313 0134   45.5932 GAU  7.36e-03 -1.00e+00  7.60e+00  8.00e-03    7.6000 >    0.4068    0.0096    1.3415  694.3901 5155.5386   -0.4053    0.2263 124.28  -1.0  -1.0  0     0.0000    0.0004
37           ?    N    ? P      ? 20180313 0134   45.6059 GAU  1.03e-02 -1.00e+00  7.59e+00  5.60e-02    7.5900 >    0.4284    0.0007    1.2251  694.4219 5155.5876   -0.4220    0.2325 109.74  -1.0  -1.0  0     0.0000    0.0004
42           ?    N    ? P      ? 20180313 0134   45.6179 GAU  1.94e-02 -1.00e+00  6.88e+00  8.00e-03    6.8800 >    0.4147    0.0264    0.5984  694.3873 5155.5165   -0.3983    0.2373 129.08  -1.0  -1.0  0     0.0000    0.0004
40           ?    N    ? P      ? 20180313 0134   45.5991 GAU  7.35e-03 -1.00e+00  7.80e+00  1.20e-02    7.8000 >    0.4387   -0.0164    1.1265  694.4169 5155.5417   -0.4131    0.2474 120.19  -1.0  -1.0  0     0.0000    0.0004
END_PHASE
END_NLLOC

