NLLOC "./loc/RR.20180313.005837.grid0" "LOCATED" "Location completed."
PUBLIC_ID None
SIGNATURE "   obs:./obs/nll_picks.obs   NLLoc:v7.00.10(30Aug2020)   run:29Apr2022 23h19m44"
COMMENT "Rattlesnake Ridge Slidequake Locations"
GRID  150 250 75  694.15 5155.4 0  0.002 0.002 0.002 PROB_DENSITY
SEARCH OCTREE nInitial 1000 nEvaluated 8112 smallestNodeSide 0.001863/0.003112/0.000925 oct_tree_integral 3.838271e-05 scatter_volume 3.838271e-05
HYPOCENTER  x 694.23 y 5155.75 z 0.049025  OT 37.4231  ix -1 iy -1 iz -1 MAXIMUM_LIKELIHOOD
GEOGRAPHIC  OT 2018 03 13  00 58 37.423148  Lat 5155.751713 Long 694.230087 Depth 0.049025
QUALITY  Pmax 4.67372e+137 MFmin 284.943 MFmax 284.981 RMS 0.00795088 Nphs 30 Gap 243.463 Dist 0.0883622 Mamp  0.61 30 Mdur -9.90 0
VPVSRATIO  VpVsRatio -1  Npair 0  Diff -2e+30
STATISTICS  ExpectX 694.271951 Y 5155.769260 Z 0.100332  CovXX 0.00456923 XY 0.00106227 XZ 0.00117336 YY 0.000324708 YZ 0.000400787 ZZ 0.00101228 EllAz1  169.48 Dip1  10.5979 Len1  0.0134411 Az2  290.863 Dip2  70.2364 Len2  0.0486182 Len3  1.352943e-01
STAT_GEOG  ExpectLat 5155.769260 Long 694.271951 Depth 0.100332
TRANSFORM  NONE
QML_OriginQuality  assocPhCt 30  usedPhCt 30  assocStaCt -1  usedStaCt 30  depthPhCt -1  stdErr 0.00795088  azGap 243.463  secAzGap 254.875  gtLevel -  minDist 0.0883622 maxDist 0.252461 medDist 0.142944
QML_OriginUncertainty  horUnc -1  minHorUnc 0.0130196  maxHorUnc 0.105293  azMaxHorUnc 76.7052
QML_ConfidenceEllipsoid  semiMajorAxisLength 0.135294  semiMinorAxisLength 0.0134411  semiIntermediateAxisLength 0.0486182  majorAxisPlunge 16.4841  majorAxisAzimuth 76.3064  majorAxisRotation 13.1124
FOCALMECH  Hyp  5155.751713 694.230087 0.049025 Mech  0 0 0 mf  0 nObs -1
PHASE ID Ins Cmp On Pha  FM Date     HrMn   Sec     Err  ErrMag    Coda      Amp       Per       PriorWt  >   TTpred    Res       Weight    StaLoc(X  Y         Z)        SDist    SAzim  RAz  RDip RQual    Tcorr       TTerr
9            ?    N    ? P      ? 20180313 0058   37.7812 GAU  1.14e-02 -1.00e+00  7.40e+00  1.20e-02    7.4000 >    0.1748    0.1832    0.0020  694.2594 5155.8351   -0.4296    0.0884  19.35  -1.0  -1.0  0     0.0000    0.0002
15           ?    N    ? P      ? 20180313 0058   37.6957 GAU  6.41e-03 -1.00e+00  7.96e+00  1.20e-02    7.9600 >    0.2293    0.0433    0.1704  694.3206 5155.8107   -0.4609    0.1080  56.90  -1.0  -1.0  0     0.0000    0.0002
13           ?    N    ? P      ? 20180313 0058   37.7512 GAU  1.85e-02 -1.00e+00  7.35e+00  2.40e-02    7.3500 >    0.2356    0.0925    0.0355  694.3062 5155.8390   -0.4568    0.1159  41.08  -1.0  -1.0  0     0.0000    0.0002
5            ?    N    ? P      ? 20180313 0058   37.7509 GAU  2.17e-02 -1.00e+00  7.47e+00  1.60e-02    7.4700 >    0.2277    0.1001    0.0328  694.2898 5155.8520   -0.4475    0.1167  30.76  -1.0  -1.0  0     0.0000    0.0002
17           ?    N    ? P      ? 20180313 0058   37.6581 GAU  5.00e-03 -1.00e+00  9.72e+00  1.20e-02    9.7200 >    0.2439   -0.0089    1.0208  694.3461 5155.7815   -0.4621    0.1198  75.62  -1.0  -1.0  0     0.0000    0.0002
16           ?    N    ? P      ? 20180313 0058   37.6675 GAU  4.38e-03 -1.00e+00  9.86e+00  1.20e-02    9.8600 >    0.2489   -0.0046    1.4638  694.3452 5155.7921   -0.4642    0.1220  70.65  -1.0  -1.0  0     0.0000    0.0002
12           ?    N    ? P      ? 20180313 0058   37.6815 GAU  4.98e-03 -1.00e+00  8.54e+00  1.20e-02    8.5400 >    0.2560    0.0023    2.1299  694.3356 5155.8197   -0.4663    0.1256  57.20  -1.0  -1.0  0     0.0000    0.0003
18           ?    N    ? P      ? 20180313 0058   37.6725 GAU  6.88e-03 -1.00e+00  9.50e+00  8.00e-03    9.5000 >    0.2474    0.0020    1.2059  694.3549 5155.7674   -0.4586    0.1258  82.83  -1.0  -1.0  0     0.0000    0.0002
4            ?    N    ? P      ? 20180313 0058   37.7260 GAU  1.81e-02 -1.00e+00  6.48e+00  7.60e-02    6.4800 >    0.2522    0.0507    0.2115  694.3090 5155.8520   -0.4586    0.1277  38.20  -1.0  -1.0  0     0.0000    0.0003
20           ?    N    ? P      ? 20180313 0058   37.6756 GAU  6.26e-03 -1.00e+00  9.84e+00  1.20e-02    9.8400 >    0.2500    0.0025    1.1556  694.3609 5155.7515   -0.4553    0.1308  90.10  -1.0  -1.0  0     0.0000    0.0002
10           ?    N    ? P      ? 20180313 0058   37.6865 GAU  5.70e-03 -1.00e+00  8.22e+00  8.00e-03    8.2200 >    0.2641   -0.0008    2.2928  694.3329 5155.8329   -0.4673    0.1310  51.71  -1.0  -1.0  0     0.0000    0.0003
8            ?    N    ? P      ? 20180313 0058   37.6957 GAU  1.49e-02 -1.00e+00  6.55e+00  1.20e-02    6.5500 >    0.2625    0.0101    1.3812  694.3223 5155.8450   -0.4648    0.1312  44.67  -1.0  -1.0  0     0.0000    0.0003
21           ?    N    ? P      ? 20180313 0058   37.6775 GAU  4.39e-03 -1.00e+00  9.55e+00  2.80e-02    9.5500 >    0.2523    0.0020    1.2164  694.3642 5155.7391   -0.4517    0.1347  95.36  -1.0  -1.0  0     0.0000    0.0003
23           ?    N    ? P      ? 20180313 0058   37.6769 GAU  3.76e-03 -1.00e+00  9.34e+00  8.00e-03    9.3400 >    0.2561   -0.0024    1.3189  694.3677 5155.7226   -0.4473    0.1407 101.96  -1.0  -1.0  0     0.0000    0.0003
103          ?    N    ? P      ? 20180313 0058   37.6975 GAU  9.38e-03 -1.00e+00  9.06e+00  1.60e-02    9.0600 >    0.2741    0.0002    1.3551  694.3644 5155.7952   -0.4662    0.1411  72.06  -1.0  -1.0  0     0.0000    0.0003
25           ?    N    ? P      ? 20180313 0058   37.6838 GAU  4.39e-03 -1.00e+00  8.62e+00  1.60e-02    8.6200 >    0.2591    0.0015    1.3916  694.3684 5155.7091   -0.4438    0.1448 107.11  -1.0  -1.0  0     0.0000    0.0003
6            ?    N    ? P      ? 20180313 0058   37.7274 GAU  1.39e-02 -1.00e+00  7.80e+00  2.40e-02    7.8000 >    0.2945    0.0098    1.5628  694.3446 5155.8502   -0.4728    0.1510  49.32  -1.0  -1.0  0     0.0000    0.0003
26           ?    N    ? P      ? 20180313 0058   37.7007 GAU  7.51e-03 -1.00e+00  8.25e+00  4.40e-02    8.2500 >    0.2777   -0.0001    1.4382  694.3783 5155.6910   -0.4400    0.1602 112.28  -1.0  -1.0  0     0.0000    0.0003
105          ?    N    ? P      ? 20180313 0058   37.7082 GAU  6.26e-03 -1.00e+00  9.11e+00  8.00e-03    9.1100 >    0.2783    0.0067    1.3949  694.3764 5155.6832   -0.4382    0.1615 115.08  -1.0  -1.0  0     0.0000    0.0003
28           ?    N    ? P      ? 20180313 0058   37.7226 GAU  1.06e-02 -1.00e+00  8.75e+00  1.20e-02    8.7500 >    0.2833    0.0162    0.8208  694.3767 5155.6745   -0.4362    0.1657 117.79  -1.0  -1.0  0     0.0000    0.0003
22           ?    N    ? P      ? 20180313 0058   37.7176 GAU  1.06e-02 -1.00e+00  7.85e+00  1.20e-02    7.8500 >    0.2976   -0.0032    1.0542  694.3985 5155.7265   -0.4488    0.1703  98.50  -1.0  -1.0  0     0.0000    0.0003
30           ?    N    ? P      ? 20180313 0058   37.7382 GAU  2.50e-02 -1.00e+00  7.41e+00  1.20e-02    7.4100 >    0.2914    0.0236    0.6942  694.3775 5155.6619   -0.4333    0.1726 121.35  -1.0  -1.0  0     0.0000    0.0003
27           ?    N    ? P      ? 20180313 0058   37.7269 GAU  1.50e-02 -1.00e+00  7.49e+00  4.40e-02    7.4900 >    0.3080   -0.0043    1.0216  694.4008 5155.6912   -0.4412    0.1811 109.50  -1.0  -1.0  0     0.0000    0.0003
32           ?    N    ? P      ? 20180313 0058   37.7464 GAU  6.57e-02 -1.00e+00  7.39e+00  1.20e-02    7.3900 >    0.3028    0.0205    0.4788  694.3777 5155.6456   -0.4297    0.1818 125.72  -1.0  -1.0  0     0.0000    0.0003
33           ?    N    ? P      ? 20180313 0058   37.7382 GAU  1.25e-02 -1.00e+00  7.04e+00  1.20e-02    7.0400 >    0.3151   -0.0001    1.8064  694.3775 5155.6293   -0.4252    0.1916 129.70  -1.0  -1.0  0     0.0000    0.0003
35           ?    N    ? P      ? 20180313 0058   37.7457 GAU  2.13e-02 -1.00e+00  7.56e+00  1.20e-02    7.5600 >    0.3328   -0.0103    1.2771  694.3818 5155.6141   -0.4216    0.2048 132.21  -1.0  -1.0  0     0.0000    0.0003
31           ?    N    ? P      ? 20180313 0058   37.7270 GAU  1.13e-02 -1.00e+00  7.75e+00  1.60e-02    7.7500 >    0.3392   -0.0354    0.1150  694.4086 5155.6503   -0.4335    0.2053 119.59  -1.0  -1.0  0     0.0000    0.0003
36           ?    N    ? P      ? 20180313 0058   37.7514 GAU  2.44e-02 -1.00e+00  6.28e+00  1.60e-02    6.2800 >    0.3609   -0.0326    0.6160  694.3865 5155.5904   -0.4164    0.2247 135.89  -1.0  -1.0  0     0.0000    0.0004
34           ?    N    ? P      ? 20180313 0058   37.7808 GAU  3.50e-02 -1.00e+00  7.65e+00  1.20e-02    7.6500 >    0.3719   -0.0143    0.9196  694.4145 5155.6153   -0.4263    0.2294 126.49  -1.0  -1.0  0     0.0000    0.0004
37           ?    N    ? P      ? 20180313 0058   37.7714 GAU  6.07e-02 -1.00e+00  5.95e+00  5.60e-02    5.9500 >    0.4052   -0.0570    0.4162  694.4219 5155.5876   -0.4220    0.2525 130.55  -1.0  -1.0  0     0.0000    0.0004
END_PHASE
END_NLLOC

