NLLOC "./loc/RR.20180313.012715.grid0" "LOCATED" "Location completed."
PUBLIC_ID None
SIGNATURE "   obs:./obs/nll_picks.obs   NLLoc:v7.00.10(30Aug2020)   run:29Apr2022 23h20m09"
COMMENT "Rattlesnake Ridge Slidequake Locations"
GRID  150 250 75  694.15 5155.4 0  0.002 0.002 0.002 PROB_DENSITY
SEARCH OCTREE nInitial 1000 nEvaluated 3552 smallestNodeSide 0.001863/0.003112/0.000925 oct_tree_integral 1.213679e-05 scatter_volume 1.213640e-05
HYPOCENTER  x 694.413 y 5155.78 z 0.039775  OT 15.2266  ix -1 iy -1 iz -1 MAXIMUM_LIKELIHOOD
GEOGRAPHIC  OT 2018 03 13  01 27 15.226626  Lat 5155.776613 Long 694.412612 Depth 0.039775
QUALITY  Pmax 1.00532e+156 MFmin 346.756 MFmax 346.765 RMS 0.0201044 Nphs 34 Gap 222.07 Dist 0.0517035 Mamp  0.45 34 Mdur -9.90 0
VPVSRATIO  VpVsRatio -1  Npair 0  Diff -2e+30
STATISTICS  ExpectX 694.406689 Y 5155.778366 Z 0.042669  CovXX 0.00126233 XY 0.000212119 XZ -0.000730811 YY 8.6732e-05 YZ -6.80934e-05 ZZ 0.000609647 EllAz1  338.17 Dip1  -19.7267 Len1  0.00995341 Az2  222.186 Dip2  -50.7019 Len2  0.0242573 Len3  7.890976e-02
STAT_GEOG  ExpectLat 5155.778366 Long 694.406689 Depth 0.042669
TRANSFORM  NONE
QML_OriginQuality  assocPhCt 34  usedPhCt 34  assocStaCt -1  usedStaCt 34  depthPhCt -1  stdErr 0.0201044  azGap 222.07  secAzGap 227.271  gtLevel -  minDist 0.0517035 maxDist 0.239037 medDist 0.110785
QML_OriginUncertainty  horUnc -1  minHorUnc 0.010684  maxHorUnc 0.0546689  azMaxHorUnc 80.0785
QML_ConfidenceEllipsoid  semiMajorAxisLength 0.0789098  semiMinorAxisLength 0.00995341  semiIntermediateAxisLength 0.0242573  majorAxisPlunge -32.4063  majorAxisAzimuth 81.327  majorAxisRotation 225.704
FOCALMECH  Hyp  5155.776613 694.412612 0.039775 Mech  0 0 0 mf  0 nObs -1
PHASE ID Ins Cmp On Pha  FM Date     HrMn   Sec     Err  ErrMag    Coda      Amp       Per       PriorWt  >   TTpred    Res       Weight    StaLoc(X  Y         Z)        SDist    SAzim  RAz  RDip RQual    Tcorr       TTerr
103          ?    N    ? P      ? 20180313 0127   15.3769 GAU  9.50e-03 -1.00e+00  8.13e+00  8.00e-03    8.1300 >    0.1114    0.0389    0.5023  694.3644 5155.7952   -0.4662    0.0517 291.06  -1.0  -1.0  0     0.0000    0.0001
22           ?    N    ? P      ? 20180313 0127   15.4008 GAU  8.38e-03 -1.00e+00  7.54e+00  8.00e-03    7.5400 >    0.0958    0.0784    0.0388  694.3985 5155.7265   -0.4488    0.0520 195.74  -1.0  -1.0  0     0.0000    0.0001
20           ?    N    ? P      ? 20180313 0127   15.3646 GAU  4.71e-03 -1.00e+00  9.27e+00  1.20e-02    9.2700 >    0.1082    0.0298    0.7460  694.3609 5155.7515   -0.4553    0.0575 244.10  -1.0  -1.0  0     0.0000    0.0001
18           ?    N    ? P      ? 20180313 0127   15.3500 GAU  5.75e-03 -1.00e+00  9.10e+00  1.20e-02    9.1000 >    0.1125    0.0109    1.2437  694.3549 5155.7674   -0.4586    0.0585 260.94  -1.0  -1.0  0     0.0000    0.0001
21           ?    N    ? P      ? 20180313 0127   15.3618 GAU  6.54e-03 -1.00e+00  9.08e+00  8.00e-03    9.0800 >    0.1110    0.0242    0.9414  694.3642 5155.7391   -0.4517    0.0613 232.27  -1.0  -1.0  0     0.0000    0.0001
17           ?    N    ? P      ? 20180313 0127   15.3526 GAU  3.66e-03 -1.00e+00  9.63e+00  1.20e-02    9.6300 >    0.1269   -0.0009    1.2647  694.3461 5155.7815   -0.4621    0.0666 274.19  -1.0  -1.0  0     0.0000    0.0001
16           ?    N    ? P      ? 20180313 0127   15.3594 GAU  4.71e-03 -1.00e+00  9.67e+00  1.20e-02    9.6700 >    0.1319    0.0009    1.3206  694.3452 5155.7921   -0.4642    0.0692 282.96  -1.0  -1.0  0     0.0000    0.0001
23           ?    N    ? P      ? 20180313 0127   15.3673 GAU  9.42e-03 -1.00e+00  8.45e+00  8.00e-03    8.4500 >    0.1214    0.0193    1.0675  694.3677 5155.7226   -0.4473    0.0703 219.72  -1.0  -1.0  0     0.0000    0.0001
25           ?    N    ? P      ? 20180313 0127   15.3714 GAU  7.85e-03 -1.00e+00  8.54e+00  1.20e-02    8.5400 >    0.1354    0.0094    1.3544  694.3684 5155.7091   -0.4438    0.0807 213.21  -1.0  -1.0  0     0.0000    0.0001
27           ?    N    ? P      ? 20180313 0127   15.3947 GAU  1.13e-02 -1.00e+00  6.60e+00  1.60e-02    6.6000 >    0.1431    0.0250    1.0192  694.4008 5155.6912   -0.4412    0.0862 187.89  -1.0  -1.0  0     0.0000    0.0001
12           ?    N    ? P      ? 20180313 0127   15.3668 GAU  1.37e-02 -1.00e+00  7.98e+00  8.00e-03    7.9800 >    0.1598   -0.0196    0.7099  694.3356 5155.8197   -0.4663    0.0882 299.26  -1.0  -1.0  0     0.0000    0.0002
26           ?    N    ? P      ? 20180313 0127   15.3722 GAU  7.59e-03 -1.00e+00  8.32e+00  1.20e-02    8.3200 >    0.1522   -0.0067    1.1938  694.3783 5155.6910   -0.4400    0.0923 201.83  -1.0  -1.0  0     0.0000    0.0002
10           ?    N    ? P      ? 20180313 0127   15.3757 GAU  8.32e-03 -1.00e+00  7.53e+00  1.20e-02    7.5300 >    0.1739   -0.0248    0.5434  694.3329 5155.8329   -0.4673    0.0976 305.22  -1.0  -1.0  0     0.0000    0.0002
15           ?    N    ? P      ? 20180313 0127   15.3680 GAU  7.73e-03 -1.00e+00  8.46e+00  1.20e-02    8.4600 >    0.1703   -0.0289    0.5142  694.3206 5155.8107   -0.4609    0.0982 290.31  -1.0  -1.0  0     0.0000    0.0002
105          ?    N    ? P      ? 20180313 0127   15.3885 GAU  4.45e-03 -1.00e+00  8.73e+00  1.20e-02    8.7300 >    0.1640   -0.0022    1.6042  694.3764 5155.6832   -0.4382    0.1002 201.20  -1.0  -1.0  0     0.0000    0.0002
6            ?    N    ? P      ? 20180313 0127   15.4102 GAU  7.13e-03 -1.00e+00  8.15e+00  1.20e-02    8.1500 >    0.1816    0.0020    1.6617  694.3446 5155.8502   -0.4728    0.1002 317.25  -1.0  -1.0  0     0.0000    0.0002
28           ?    N    ? P      ? 20180313 0127   15.3913 GAU  2.04e-02 -1.00e+00  7.92e+00  8.00e-03    7.9200 >    0.1766   -0.0119    1.1520  694.3767 5155.6745   -0.4362    0.1083 199.38  -1.0  -1.0  0     0.0000    0.0002
8            ?    N    ? P      ? 20180313 0127   15.3769 GAU  8.31e-03 -1.00e+00  6.36e+00  1.20e-02    6.3600 >    0.1949   -0.0446    0.5455  694.3223 5155.8450   -0.4648    0.1133 307.14  -1.0  -1.0  0     0.0000    0.0002
13           ?    N    ? P      ? 20180313 0127   15.4494 GAU  1.31e-02 -1.00e+00  7.46e+00  1.20e-02    7.4600 >    0.2054    0.0174    1.3248  694.3062 5155.8390   -0.4568    0.1234 300.40  -1.0  -1.0  0     0.0000    0.0002
31           ?    N    ? P      ? 20180313 0127   15.3963 GAU  1.49e-02 -1.00e+00  6.65e+00  1.20e-02    6.6500 >    0.2052   -0.0355    0.8821  694.4086 5155.6503   -0.4335    0.1263 181.81  -1.0  -1.0  0     0.0000    0.0002
4            ?    N    ? P      ? 20180313 0127   15.6472 GAU  1.60e-02 -1.00e+00  7.41e+00  4.00e-02    7.4100 >    0.2133    0.2073    0.0000  694.3090 5155.8520   -0.4586    0.1281 306.06  -1.0  -1.0  0     0.0000    0.0002
2            ?    N    ? P      ? 20180313 0127   15.3894 GAU  7.73e-03 -1.00e+00  6.75e+00  1.20e-02    6.7500 >    0.2204   -0.0576    0.5809  694.3150 5155.8647   -0.4623    0.1315 312.05  -1.0  -1.0  0     0.0000    0.0002
32           ?    N    ? P      ? 20180313 0127   15.3900 GAU  2.12e-02 -1.00e+00  6.84e+00  1.60e-02    6.8400 >    0.2192   -0.0558    0.5197  694.3777 5155.6456   -0.4297    0.1356 194.92  -1.0  -1.0  0     0.0000    0.0002
106          ?    N    ? P      ? 20180313 0127   15.4000 GAU  2.22e-02 -1.00e+00  6.55e+00  1.20e-02    6.5500 >    0.2262   -0.0528    0.5751  694.3120 5155.6801   -0.4360    0.1394 226.17  -1.0  -1.0  0     0.0000    0.0002
5            ?    N    ? P      ? 20180313 0127   15.4821 GAU  1.37e-02 -1.00e+00  8.11e+00  1.20e-02    8.1100 >    0.2329    0.0226    1.3961  694.2898 5155.8520   -0.4475    0.1441 301.52  -1.0  -1.0  0     0.0000    0.0002
33           ?    N    ? P      ? 20180313 0127   15.4070 GAU  1.41e-02 -1.00e+00  6.84e+00  8.00e-03    6.8400 >    0.2439   -0.0636    0.3818  694.3775 5155.6293   -0.4252    0.1514 193.40  -1.0  -1.0  0     0.0000    0.0002
7            ?    N    ? P      ? 20180313 0127   15.4655 GAU  2.32e-02 -1.00e+00  7.40e+00  1.20e-02    7.4000 >    0.2509   -0.0120    1.1406  694.2704 5155.8450   -0.4359    0.1578 295.68  -1.0  -1.0  0     0.0000    0.0003
34           ?    N    ? P      ? 20180313 0127   15.4235 GAU  2.22e-02 -1.00e+00  6.85e+00  4.40e-02    6.8500 >    0.2603   -0.0634    0.4677  694.4145 5155.6153   -0.4263    0.1613 179.33  -1.0  -1.0  0     0.0000    0.0003
9            ?    N    ? P      ? 20180313 0127   15.4589 GAU  1.90e-02 -1.00e+00  7.95e+00  1.20e-02    7.9500 >    0.2597   -0.0274    0.9210  694.2594 5155.8351   -0.4296    0.1640 290.88  -1.0  -1.0  0     0.0000    0.0003
1            ?    N    ? P      ? 20180313 0127   15.5094 GAU  3.39e-02 -1.00e+00  7.98e+00  1.60e-02    7.9800 >    0.2682    0.0146    1.2101  694.2735 5155.8721   -0.4381    0.1687 304.48  -1.0  -1.0  0     0.0000    0.0003
3            ?    N    ? P      ? 20180313 0127   15.5421 GAU  2.61e-02 -1.00e+00  7.23e+00  1.20e-02    7.2300 >    0.2978    0.0176    1.4237  694.2426 5155.8595   -0.4214    0.1891 295.98  -1.0  -1.0  0     0.0000    0.0003
38           ?    N    ? P      ? 20180313 0127   15.5977 GAU  2.19e-02 -1.00e+00  6.53e+00  1.20e-02    6.5300 >    0.3377    0.0334    1.2214  694.3902 5155.5681   -0.4123    0.2097 186.15  -1.0  -1.0  0     0.0000    0.0003
39           ?    N    ? P      ? 20180313 0127   15.5994 GAU  1.10e-02 -1.00e+00  7.53e+00  8.00e-03    7.5300 >    0.3617    0.0110    2.3512  694.3890 5155.5532   -0.4086    0.2247 186.03  -1.0  -1.0  0     0.0000    0.0004
41           ?    N    ? P      ? 20180313 0127   15.6251 GAU  1.05e-02 -1.00e+00  6.33e+00  1.20e-02    6.3300 >    0.3849    0.0135    2.1808  694.3901 5155.5386   -0.4053    0.2390 185.40  -1.0  -1.0  0     0.0000    0.0004
END_PHASE
END_NLLOC

