NLLOC "./loc/RR.20180313.000933.grid0" "REJECTED" "WARNING: max prob location on grid boundary 11, rejecting location."
PUBLIC_ID None
SIGNATURE "   obs:./obs/nll_picks.obs   NLLoc:v7.00.10(30Aug2020)   run:29Apr2022 23h18m00"
COMMENT "Rattlesnake Ridge Slidequake Locations"
GRID  150 250 75  694.15 5155.4 0  0.002 0.002 0.002 PROB_DENSITY
SEARCH OCTREE nInitial 1000 nEvaluated 18752 smallestNodeSide 0.001863/0.003112/0.000925 oct_tree_integral 1.435961e-04 scatter_volume 1.411090e-04
HYPOCENTER  x 694.447 y 5155.86 z 0.0004625  OT 32.9421  ix -1 iy -1 iz -1 MAXIMUM_LIKELIHOOD
GEOGRAPHIC  OT 2018 03 13  00 09 32.942075  Lat 5155.855981 Long 694.447069 Depth 0.000462
QUALITY  Pmax 5.29158e+45 MFmin 59.4072 MFmax 59.4239 RMS 0.0202495 Nphs 14 Gap 312.378 Dist 0.102603 Mamp  0.49 14 Mdur -9.90 0
VPVSRATIO  VpVsRatio -1  Npair 0  Diff -2e+30
STATISTICS  ExpectX 694.384825 Y 5155.828770 Z 0.053930  CovXX 0.00492499 XY 0.00138543 XZ -0.000853717 YY 0.000851248 YZ -0.00031561 ZZ 0.00164458 EllAz1  343.394 Dip1  2.7386 Len1  0.038611 Az2  265.018 Dip2  -76.6447 Len2  0.0712013 Len3  1.401251e-01
STAT_GEOG  ExpectLat 5155.828770 Long 694.384825 Depth 0.053930
TRANSFORM  NONE
QML_OriginQuality  assocPhCt 14  usedPhCt 14  assocStaCt -1  usedStaCt 14  depthPhCt -1  stdErr 0.0202495  azGap 312.378  secAzGap 319.798  gtLevel -  minDist 0.102603 maxDist 0.177001 medDist 0.126639
QML_OriginUncertainty  horUnc -1  minHorUnc 0.0312554  maxHorUnc 0.110943  azMaxHorUnc 72.8888
QML_ConfidenceEllipsoid  semiMajorAxisLength 0.140125  semiMinorAxisLength 0.038611  semiIntermediateAxisLength 0.0712013  majorAxisPlunge -13.0613  majorAxisAzimuth 72.7582  majorAxisRotation 176.869
FOCALMECH  Hyp  5155.855981 694.447069 0.000462 Mech  0 0 0 mf  0 nObs -1
PHASE ID Ins Cmp On Pha  FM Date     HrMn   Sec     Err  ErrMag    Coda      Amp       Per       PriorWt  >   TTpred    Res       Weight    StaLoc(X  Y         Z)        SDist    SAzim  RAz  RDip RQual    Tcorr       TTerr
6            ?    N    ? P      ? 20180313 0009   33.2021 GAU  1.75e-02 -1.00e+00  7.25e+00  2.80e-02    7.2500 >    0.1710    0.0890    0.1471  694.3446 5155.8502   -0.4728    0.1026 266.75  -1.0  -1.0  0     0.0000    0.0002
103          ?    N    ? P      ? 20180313 0009   33.1657 GAU  5.98e-02 -1.00e+00  6.67e+00  8.00e-03    6.6700 >    0.1726    0.0510    0.7548  694.3644 5155.7952   -0.4662    0.1026 233.68  -1.0  -1.0  0     0.0000    0.0002
10           ?    N    ? P      ? 20180313 0009   33.1502 GAU  9.72e-03 -1.00e+00  8.60e+00  1.20e-02    8.6000 >    0.1942    0.0139    0.8769  694.3329 5155.8329   -0.4673    0.1165 258.56  -1.0  -1.0  0     0.0000    0.0002
12           ?    N    ? P      ? 20180313 0009   33.1379 GAU  1.36e-02 -1.00e+00  8.24e+00  2.40e-02    8.2400 >    0.1958    0.0000    0.8356  694.3356 5155.8197   -0.4663    0.1172 251.98  -1.0  -1.0  0     0.0000    0.0002
16           ?    N    ? P      ? 20180313 0009   33.1681 GAU  1.11e-02 -1.00e+00  9.04e+00  1.20e-02    9.0400 >    0.2016    0.0244    1.3124  694.3452 5155.7921   -0.4642    0.1202 237.92  -1.0  -1.0  0     0.0000    0.0002
8            ?    N    ? P      ? 20180313 0009   33.1454 GAU  7.45e-03 -1.00e+00  7.67e+00  8.00e-03    7.6700 >    0.2087   -0.0054    0.9234  694.3223 5155.8450   -0.4648    0.1252 264.97  -1.0  -1.0  0     0.0000    0.0002
17           ?    N    ? P      ? 20180313 0009   33.1527 GAU  9.17e-03 -1.00e+00  7.05e+00  2.40e-02    7.0500 >    0.2108   -0.0002    1.8807  694.3461 5155.7815   -0.4621    0.1254 233.56  -1.0  -1.0  0     0.0000    0.0002
18           ?    N    ? P      ? 20180313 0009   33.1377 GAU  3.76e-02 -1.00e+00  6.39e+00  8.00e-03    6.3900 >    0.2154   -0.0198    1.3512  694.3549 5155.7674   -0.4586    0.1278 226.14  -1.0  -1.0  0     0.0000    0.0002
2            ?    N    ? P      ? 20180313 0009   33.1454 GAU  1.39e-02 -1.00e+00  7.27e+00  8.00e-03    7.2700 >    0.2201   -0.0168    1.0908  694.3150 5155.8647   -0.4623    0.1324 273.77  -1.0  -1.0  0     0.0000    0.0002
15           ?    N    ? P      ? 20180313 0009   33.1357 GAU  6.81e-03 -1.00e+00  1.09e+01  2.80e-02   10.9000 >    0.2245   -0.0309    0.4202  694.3206 5155.8107   -0.4609    0.1344 250.30  -1.0  -1.0  0     0.0000    0.0002
4            ?    N    ? P      ? 20180313 0009   33.1839 GAU  1.49e-02 -1.00e+00  7.21e+00  1.20e-02    7.2100 >    0.2300    0.0118    1.1353  694.3090 5155.8520   -0.4586    0.1381 268.36  -1.0  -1.0  0     0.0000    0.0002
13           ?    N    ? P      ? 20180313 0009   33.2076 GAU  2.11e-02 -1.00e+00  8.35e+00  2.80e-02    8.3500 >    0.2367    0.0289    0.7392  694.3062 5155.8390   -0.4568    0.1419 263.14  -1.0  -1.0  0     0.0000    0.0002
5            ?    N    ? P      ? 20180313 0009   33.2160 GAU  3.66e-02 -1.00e+00  8.04e+00  1.20e-02    8.0400 >    0.2630    0.0110    1.1769  694.2898 5155.8520   -0.4475    0.1574 268.54  -1.0  -1.0  0     0.0000    0.0003
7            ?    N    ? P      ? 20180313 0009   33.2753 GAU  2.72e-02 -1.00e+00  6.95e+00  1.20e-02    6.9500 >    0.2973    0.0359    1.3553  694.2704 5155.8450   -0.4359    0.1770 266.44  -1.0  -1.0  0     0.0000    0.0003
END_PHASE
END_NLLOC

