NLLOC "./loc/RR.20180313.020841.grid0" "LOCATED" "Location completed."
PUBLIC_ID None
SIGNATURE "   obs:./obs/nll_picks.obs   NLLoc:v7.00.10(30Aug2020)   run:29Apr2022 23h20m46"
COMMENT "Rattlesnake Ridge Slidequake Locations"
GRID  150 250 75  694.15 5155.4 0  0.002 0.002 0.002 PROB_DENSITY
SEARCH OCTREE nInitial 1000 nEvaluated 9328 smallestNodeSide 0.001863/0.003112/0.000925 oct_tree_integral 4.187119e-05 scatter_volume 4.183976e-05
HYPOCENTER  x 694.267 y 5155.6 z 0.063825  OT 41.6363  ix -1 iy -1 iz -1 MAXIMUM_LIKELIHOOD
GEOGRAPHIC  OT 2018 03 13  02 08 41.636303  Lat 5155.602313 Long 694.267337 Depth 0.063825
QUALITY  Pmax 6.52389e+118 MFmin 293.347 MFmax 293.403 RMS 0.00787991 Nphs 26 Gap 256.728 Dist 0.0896678 Mamp  0.58 26 Mdur -9.90 0
VPVSRATIO  VpVsRatio -1  Npair 0  Diff -2e+30
STATISTICS  ExpectX 694.247607 Y 5155.592453 Z 0.064688  CovXX 0.000833666 XY 0.000376071 XZ 0.000383666 YY 0.000199224 YZ 0.000176172 ZZ 0.00117052 EllAz1  155.025 Dip1  -0.114747 Len1  0.00928961 Az2  244.93 Dip2  39.5666 Len2  0.0482534 Len3  7.323499e-02
STAT_GEOG  ExpectLat 5155.592453 Long 694.247607 Depth 0.064688
TRANSFORM  NONE
QML_OriginQuality  assocPhCt 26  usedPhCt 26  assocStaCt -1  usedStaCt 26  depthPhCt -1  stdErr 0.00787991  azGap 256.728  secAzGap 264.887  gtLevel -  minDist 0.0896678 maxDist 0.205158 medDist 0.147265
QML_OriginUncertainty  horUnc -1  minHorUnc 0.00749908  maxHorUnc 0.0481603  azMaxHorUnc 65.074
QML_ConfidenceEllipsoid  semiMajorAxisLength 0.073235  semiMinorAxisLength 0.00928961  semiIntermediateAxisLength 0.0482534  majorAxisPlunge 50.4332  majorAxisAzimuth 65.1637  majorAxisRotation 0.955478
FOCALMECH  Hyp  5155.602313 694.267337 0.063825 Mech  0 0 0 mf  0 nObs -1
PHASE ID Ins Cmp On Pha  FM Date     HrMn   Sec     Err  ErrMag    Coda      Amp       Per       PriorWt  >   TTpred    Res       Weight    StaLoc(X  Y         Z)        SDist    SAzim  RAz  RDip RQual    Tcorr       TTerr
106          ?    N    ? P      ? 20180313 0208   41.9500 GAU  8.30e-03 -1.00e+00  7.11e+00  2.40e-02    7.1100 >    0.1962    0.1175    0.0000  694.3120 5155.6801   -0.4360    0.0897  29.89  -1.0  -1.0  0     0.0000    0.0002
33           ?    N    ? P      ? 20180313 0208   41.8520 GAU  4.35e-03 -1.00e+00  1.05e+01  1.20e-02   10.5000 >    0.2154    0.0003    1.1519  694.3775 5155.6293   -0.4252    0.1134  76.22  -1.0  -1.0  0     0.0000    0.0002
35           ?    N    ? P      ? 20180313 0208   41.8524 GAU  6.32e-03 -1.00e+00  1.11e+01  8.00e-03   11.1000 >    0.2143    0.0018    1.1786  694.3818 5155.6141   -0.4216    0.1150  84.11  -1.0  -1.0  0     0.0000    0.0002
32           ?    N    ? P      ? 20180313 0208   41.8551 GAU  5.93e-03 -1.00e+00  9.43e+00  6.00e-02    9.4300 >    0.2256   -0.0068    0.7941  694.3777 5155.6456   -0.4297    0.1185  68.59  -1.0  -1.0  0     0.0000    0.0002
36           ?    N    ? P      ? 20180313 0208   41.8535 GAU  1.98e-03 -1.00e+00  9.32e+00  1.20e-02    9.3200 >    0.2171    0.0001    1.4684  694.3865 5155.5904   -0.4164    0.1198  95.73  -1.0  -1.0  0     0.0000    0.0002
30           ?    N    ? P      ? 20180313 0208   41.8891 GAU  8.30e-03 -1.00e+00  8.91e+00  1.60e-02    8.9100 >    0.2374    0.0154    0.7016  694.3775 5155.6619   -0.4333    0.1252  61.58  -1.0  -1.0  0     0.0000    0.0002
38           ?    N    ? P      ? 20180313 0208   41.8595 GAU  3.16e-03 -1.00e+00  7.91e+00  8.00e-03    7.9100 >    0.2252   -0.0020    1.5952  694.3902 5155.5681   -0.4123    0.1275 105.56  -1.0  -1.0  0     0.0000    0.0002
28           ?    N    ? P      ? 20180313 0208   41.8820 GAU  7.51e-03 -1.00e+00  8.18e+00  1.20e-02    8.1800 >    0.2475   -0.0018    1.0042  694.3767 5155.6745   -0.4362    0.1310  56.58  -1.0  -1.0  0     0.0000    0.0002
39           ?    N    ? P      ? 20180313 0208   41.8800 GAU  6.33e-03 -1.00e+00  7.67e+00  1.20e-02    7.6700 >    0.2280    0.0157    1.2172  694.3890 5155.5532   -0.4086    0.1312 111.99  -1.0  -1.0  0     0.0000    0.0002
105          ?    N    ? P      ? 20180313 0208   41.8935 GAU  4.75e-03 -1.00e+00  8.25e+00  8.00e-03    8.2500 >    0.2552    0.0020    1.3043  694.3764 5155.6832   -0.4382    0.1358  53.43  -1.0  -1.0  0     0.0000    0.0003
41           ?    N    ? P      ? 20180313 0208   41.8792 GAU  1.03e-02 -1.00e+00  6.92e+00  1.20e-02    6.9200 >    0.2368    0.0061    1.5783  694.3901 5155.5386   -0.4053    0.1383 117.41  -1.0  -1.0  0     0.0000    0.0002
26           ?    N    ? P      ? 20180313 0208   41.9235 GAU  5.53e-03 -1.00e+00  7.71e+00  5.60e-02    7.7100 >    0.2653    0.0219    0.4288  694.3783 5155.6910   -0.4400    0.1420  51.38  -1.0  -1.0  0     0.0000    0.0003
25           ?    N    ? P      ? 20180313 0208   41.9263 GAU  8.30e-03 -1.00e+00  6.90e+00  1.20e-02    6.9000 >    0.2752    0.0148    0.8129  694.3684 5155.7091   -0.4438    0.1471  43.43  -1.0  -1.0  0     0.0000    0.0003
42           ?    N    ? P      ? 20180313 0208   41.8472 GAU  6.72e-03 -1.00e+00  6.25e+00  8.00e-03    6.2500 >    0.2469   -0.0360    0.0737  694.3873 5155.5165   -0.3983    0.1475 125.57  -1.0  -1.0  0     0.0000    0.0002
34           ?    N    ? P      ? 20180313 0208   41.9148 GAU  7.91e-03 -1.00e+00  8.31e+00  2.00e-02    8.3100 >    0.2634    0.0151    0.8686  694.4145 5155.6153   -0.4263    0.1477  84.97  -1.0  -1.0  0     0.0000    0.0003
31           ?    N    ? P      ? 20180313 0208   41.9073 GAU  1.07e-02 -1.00e+00  7.30e+00  8.00e-03    7.3000 >    0.2701    0.0009    0.8417  694.4086 5155.6503   -0.4335    0.1492  71.22  -1.0  -1.0  0     0.0000    0.0003
37           ?    N    ? P      ? 20180313 0208   41.9006 GAU  7.12e-03 -1.00e+00  7.32e+00  8.00e-03    7.3200 >    0.2716   -0.0073    1.0224  694.4219 5155.5876   -0.4220    0.1553  95.44  -1.0  -1.0  0     0.0000    0.0003
23           ?    N    ? P      ? 20180313 0208   41.9263 GAU  1.15e-02 -1.00e+00  7.49e+00  8.00e-03    7.4900 >    0.2909   -0.0009    1.2446  694.3677 5155.7226   -0.4473    0.1566  39.85  -1.0  -1.0  0     0.0000    0.0003
27           ?    N    ? P      ? 20180313 0208   41.9259 GAU  5.53e-03 -1.00e+00  5.88e+00  4.40e-02    5.8800 >    0.2910   -0.0014    1.1561  694.4008 5155.6912   -0.4412    0.1604  56.32  -1.0  -1.0  0     0.0000    0.0003
40           ?    N    ? P      ? 20180313 0208   41.9184 GAU  5.93e-03 -1.00e+00  7.31e+00  1.20e-02    7.3100 >    0.2754    0.0067    1.7701  694.4169 5155.5417   -0.4131    0.1613 112.06  -1.0  -1.0  0     0.0000    0.0003
21           ?    N    ? P      ? 20180313 0208   41.9710 GAU  7.91e-03 -1.00e+00  6.75e+00  1.20e-02    6.7500 >    0.3094    0.0253    0.4338  694.3642 5155.7391   -0.4517    0.1676  35.29  -1.0  -1.0  0     0.0000    0.0003
20           ?    N    ? P      ? 20180313 0208   41.9757 GAU  9.49e-03 -1.00e+00  6.51e+00  8.00e-03    6.5100 >    0.3234    0.0160    1.0642  694.3609 5155.7515   -0.4553    0.1761  32.08  -1.0  -1.0  0     0.0000    0.0003
22           ?    N    ? P      ? 20180313 0208   42.8500 GAU  2.65e-02 -1.00e+00  6.73e+00  8.00e-03    6.7300 >    0.3245    0.8892    0.0000  694.3985 5155.7265   -0.4488    0.1807  46.55  -1.0  -1.0  0     0.0000    0.0003
18           ?    N    ? P      ? 20180313 0208   41.9808 GAU  7.51e-03 -1.00e+00  5.97e+00  8.00e-03    5.9700 >    0.3406    0.0039    2.0032  694.3549 5155.7674   -0.4586    0.1869  27.94  -1.0  -1.0  0     0.0000    0.0003
17           ?    N    ? P      ? 20180313 0208   41.9809 GAU  1.23e-02 -1.00e+00  6.14e+00  8.00e-03    6.1400 >    0.3553   -0.0107    1.2565  694.3461 5155.7815   -0.4621    0.1957  23.74  -1.0  -1.0  0     0.0000    0.0004
16           ?    N    ? P      ? 20180313 0208   41.9916 GAU  1.03e-02 -1.00e+00  6.22e+00  1.20e-02    6.2200 >    0.3696   -0.0143    1.0296  694.3452 5155.7921   -0.4642    0.2052  22.30  -1.0  -1.0  0     0.0000    0.0004
END_PHASE
END_NLLOC

