NLLOC "./loc/RR.20180313.010606.grid0" "LOCATED" "Location completed."
PUBLIC_ID None
SIGNATURE "   obs:./obs/nll_picks.obs   NLLoc:v7.00.10(30Aug2020)   run:29Apr2022 23h19m47"
COMMENT "Rattlesnake Ridge Slidequake Locations"
GRID  150 250 75  694.15 5155.4 0  0.002 0.002 0.002 PROB_DENSITY
SEARCH OCTREE nInitial 1000 nEvaluated 3648 smallestNodeSide 0.001863/0.003112/0.000925 oct_tree_integral 7.157793e-06 scatter_volume 7.157793e-06
HYPOCENTER  x 694.316 y 5155.73 z 0.006475  OT 6.27925  ix -1 iy -1 iz -1 MAXIMUM_LIKELIHOOD
GEOGRAPHIC  OT 2018 03 13  01 06 6.279245  Lat 5155.726813 Long 694.315762 Depth 0.006475
QUALITY  Pmax 2.52805e+70 MFmin 170.1 MFmax 170.107 RMS 0.0990954 Nphs 21 Gap 178.698 Dist 0.0469063 Mamp  0.23 21 Mdur -9.90 0
VPVSRATIO  VpVsRatio -1  Npair 0  Diff -2e+30
STATISTICS  ExpectX 694.320846 Y 5155.751071 Z 0.045075  CovXX 0.00366143 XY -0.00101051 XZ -0.00018226 YY 0.00126016 YZ 0.000504853 ZZ 0.000982063 EllAz1  14.832 Dip1  -42.9051 Len1  0.0423121 Az2  207.72 Dip2  -46.3654 Len2  0.0684507 Len3  1.198502e-01
STAT_GEOG  ExpectLat 5155.751071 Long 694.320846 Depth 0.045075
TRANSFORM  NONE
QML_OriginQuality  assocPhCt 21  usedPhCt 21  assocStaCt -1  usedStaCt 21  depthPhCt -1  stdErr 0.0990954  azGap 178.698  secAzGap 213.635  gtLevel -  minDist 0.0469063 maxDist 0.148968 medDist 0.0803262
QML_OriginUncertainty  horUnc -1  minHorUnc 0.0452821  maxHorUnc 0.0962766  azMaxHorUnc 110.043
QML_ConfidenceEllipsoid  semiMajorAxisLength 0.11985  semiMinorAxisLength 0.0423121  semiIntermediateAxisLength 0.0684507  majorAxisPlunge -6.47316  majorAxisAzimuth 110.885  majorAxisRotation 223.984
FOCALMECH  Hyp  5155.726813 694.315762 0.006475 Mech  0 0 0 mf  0 nObs -1
PHASE ID Ins Cmp On Pha  FM Date     HrMn   Sec     Err  ErrMag    Coda      Amp       Per       PriorWt  >   TTpred    Res       Weight    StaLoc(X  Y         Z)        SDist    SAzim  RAz  RDip RQual    Tcorr       TTerr
106          ?    N    ? P      ? 20180313 0106    6.6310 GAU  1.45e-02 -1.00e+00  7.06e+00  5.20e-02    7.0600 >    0.0785    0.2732    0.9552  694.3120 5155.6801   -0.4360    0.0469 184.58  -1.0  -1.0  0     0.0000    0.0001
21           ?    N    ? P      ? 20180313 0106    6.8750 GAU  6.18e-03 -1.00e+00  7.17e+00  5.20e-02    7.1700 >    0.0850    0.5108    0.0000  694.3642 5155.7391   -0.4517    0.0499  75.73  -1.0  -1.0  0     0.0000    0.0001
20           ?    N    ? P      ? 20180313 0106    6.3550 GAU  8.76e-03 -1.00e+00  6.55e+00  2.40e-02    6.5500 >    0.0884   -0.0126    2.2721  694.3609 5155.7515   -0.4553    0.0514  61.32  -1.0  -1.0  0     0.0000    0.0001
23           ?    N    ? P      ? 20180313 0106    6.6530 GAU  4.64e-03 -1.00e+00  8.65e+00  1.20e-02    8.6500 >    0.0873    0.2864    0.6714  694.3677 5155.7226   -0.4473    0.0521  94.69  -1.0  -1.0  0     0.0000    0.0001
25           ?    N    ? P      ? 20180313 0106    6.5920 GAU  2.21e-03 -1.00e+00  9.06e+00  5.60e-02    9.0600 >    0.0925    0.2203    0.0173  694.3684 5155.7091   -0.4438    0.0556 108.57  -1.0  -1.0  0     0.0000    0.0001
18           ?    N    ? P      ? 20180313 0106    6.4520 GAU  1.85e-02 -1.00e+00  6.33e+00  8.00e-03    6.3300 >    0.0980    0.0748    0.3536  694.3549 5155.7674   -0.4586    0.0564  43.94  -1.0  -1.0  0     0.0000    0.0001
17           ?    N    ? P      ? 20180313 0106    6.3240 GAU  2.73e-02 -1.00e+00  6.56e+00  8.00e-03    6.5600 >    0.1095   -0.0647    0.5315  694.3461 5155.7815   -0.4621    0.0625  29.07  -1.0  -1.0  0     0.0000    0.0001
16           ?    N    ? P      ? 20180313 0106    6.4010 GAU  8.24e-03 -1.00e+00  6.26e+00  1.20e-02    6.2600 >    0.1248   -0.0030    4.2044  694.3452 5155.7921   -0.4642    0.0716  24.25  -1.0  -1.0  0     0.0000    0.0001
26           ?    N    ? P      ? 20180313 0106    6.4760 GAU  3.68e-03 -1.00e+00  8.85e+00  1.20e-02    8.8500 >    0.1200    0.0768    0.5176  694.3783 5155.6910   -0.4400    0.0721 119.82  -1.0  -1.0  0     0.0000    0.0001
105          ?    N    ? P      ? 20180313 0106    6.4240 GAU  4.38e-03 -1.00e+00  1.00e+01  1.20e-02   10.0000 >    0.1244    0.0203    0.3304  694.3764 5155.6832   -0.4382    0.0747 125.70  -1.0  -1.0  0     0.0000    0.0001
28           ?    N    ? P      ? 20180313 0106    6.4140 GAU  2.53e-03 -1.00e+00  9.47e+00  8.00e-03    9.4700 >    0.1341    0.0006    1.8222  694.3767 5155.6745   -0.4362    0.0803 130.68  -1.0  -1.0  0     0.0000    0.0001
22           ?    N    ? P      ? 20180313 0106    6.1071 GAU  5.15e-03 -1.00e+00  7.81e+00  1.20e-02    7.8100 >    0.1380   -0.3101    0.0000  694.3985 5155.7265   -0.4488    0.0827  90.18  -1.0  -1.0  0     0.0000    0.0001
103          ?    N    ? P      ? 20180313 0106    6.7310 GAU  3.91e-02 -1.00e+00  6.41e+00  2.00e-02    6.4100 >    0.1452    0.3066    0.6279  694.3644 5155.7952   -0.4662    0.0839  35.40  -1.0  -1.0  0     0.0000    0.0001
15           ?    N    ? P      ? 20180313 0106    6.4680 GAU  3.66e-02 -1.00e+00  5.45e+00  2.00e-02    5.4500 >    0.1428    0.0460    1.1094  694.3206 5155.8107   -0.4609    0.0840   3.28  -1.0  -1.0  0     0.0000    0.0001
30           ?    N    ? P      ? 20180313 0106    6.4260 GAU  6.45e-03 -1.00e+00  8.17e+00  8.00e-03    8.1700 >    0.1497   -0.0029    1.8846  694.3775 5155.6619   -0.4333    0.0896 136.44  -1.0  -1.0  0     0.0000    0.0001
27           ?    N    ? P      ? 20180313 0106    6.6790 GAU  5.07e-03 -1.00e+00  7.20e+00  2.40e-02    7.2000 >    0.1533    0.2464    0.2670  694.4008 5155.6912   -0.4412    0.0922 112.70  -1.0  -1.0  0     0.0000    0.0002
32           ?    N    ? P      ? 20180313 0106    6.4330 GAU  9.44e-03 -1.00e+00  8.27e+00  5.20e-02    8.2700 >    0.1708   -0.0171    1.4914  694.3777 5155.6456   -0.4297    0.1022 142.68  -1.0  -1.0  0     0.0000    0.0002
33           ?    N    ? P      ? 20180313 0106    6.4650 GAU  7.60e-03 -1.00e+00  7.45e+00  5.60e-02    7.4500 >    0.1934   -0.0076    2.4692  694.3775 5155.6293   -0.4252    0.1154 147.65  -1.0  -1.0  0     0.0000    0.0002
31           ?    N    ? P      ? 20180313 0106    6.8840 GAU  8.98e-03 -1.00e+00  7.23e+00  1.60e-02    7.2300 >    0.2007    0.4041    0.0167  694.4086 5155.6503   -0.4335    0.1203 129.47  -1.0  -1.0  0     0.0000    0.0002
35           ?    N    ? P      ? 20180313 0106    6.4030 GAU  9.67e-03 -1.00e+00  7.25e+00  1.20e-02    7.2500 >    0.2192   -0.0954    0.2878  694.3818 5155.6141   -0.4216    0.1306 149.64  -1.0  -1.0  0     0.0000    0.0002
34           ?    N    ? P      ? 20180313 0106    6.7970 GAU  1.40e-02 -1.00e+00  6.79e+00  1.20e-02    6.7900 >    0.2489    0.2689    1.1702  694.4145 5155.6153   -0.4263    0.1490 138.48  -1.0  -1.0  0     0.0000    0.0002
END_PHASE
END_NLLOC

