NLLOC "./loc/RR.20180313.000716.grid0" "LOCATED" "Location completed."
PUBLIC_ID None
SIGNATURE "   obs:./obs/nll_picks.obs   NLLoc:v7.00.10(30Aug2020)   run:29Apr2022 23h17m29"
COMMENT "Rattlesnake Ridge Slidequake Locations"
GRID  150 250 75  694.15 5155.4 0  0.002 0.002 0.002 PROB_DENSITY
SEARCH OCTREE nInitial 1000 nEvaluated 20000 smallestNodeSide 0.003725/0.006225/0.001850 oct_tree_integral 6.066195e-04 scatter_volume 6.066195e-04
HYPOCENTER  x 694.316 y 5155.65 z 0.106375  OT 15.9904  ix -1 iy -1 iz -1 MAXIMUM_LIKELIHOOD
GEOGRAPHIC  OT 2018 03 13  00 07 15.990449  Lat 5155.645887 Long 694.315762 Depth 0.106375
QUALITY  Pmax 3.89327e+62 MFmin 77.8814 MFmax 77.8941 RMS 0.0112736 Nphs 17 Gap 208.473 Dist 0.0343732 Mamp  0.49 17 Mdur -9.90 0
VPVSRATIO  VpVsRatio -1  Npair 0  Diff -2e+30
STATISTICS  ExpectX 694.256362 Y 5155.648090 Z 0.087178  CovXX 0.00546411 XY -0.000238358 XZ 0.00058465 YY 0.000393604 YZ 0.000512392 ZZ 0.00162241 EllAz1  185.032 Dip1  21.1863 Len1  0.0247298 Az2  341.802 Dip2  67.1304 Len2  0.0786132 Len3  1.400474e-01
STAT_GEOG  ExpectLat 5155.648090 Long 694.256362 Depth 0.087178
TRANSFORM  NONE
QML_OriginQuality  assocPhCt 17  usedPhCt 17  assocStaCt -1  usedStaCt 17  depthPhCt -1  stdErr 0.0112736  azGap 208.473  secAzGap 268.941  gtLevel -  minDist 0.0343732 maxDist 0.14517 medDist 0.0899509
QML_OriginUncertainty  horUnc -1  minHorUnc 0.0296576  maxHorUnc 0.112219  azMaxHorUnc 92.6855
QML_ConfidenceEllipsoid  semiMajorAxisLength 0.140047  semiMinorAxisLength 0.0247298  semiIntermediateAxisLength 0.0786132  majorAxisPlunge 8.21698  majorAxisAzimuth 91.8232  majorAxisRotation 22.2416
FOCALMECH  Hyp  5155.645887 694.315762 0.106375 Mech  0 0 0 mf  0 nObs -1
PHASE ID Ins Cmp On Pha  FM Date     HrMn   Sec     Err  ErrMag    Coda      Amp       Per       PriorWt  >   TTpred    Res       Weight    StaLoc(X  Y         Z)        SDist    SAzim  RAz  RDip RQual    Tcorr       TTerr
106          ?    N    ? P      ? 20180313 0007   16.3276 GAU  4.80e-02 -1.00e+00  6.93e+00  1.60e-02    6.9300 >    0.1822    0.1550    0.0491  694.3120 5155.6801   -0.4360    0.0344 353.74  -1.0  -1.0  0     0.0000    0.0002
32           ?    N    ? P      ? 20180313 0007   16.1921 GAU  2.61e-02 -1.00e+00  8.00e+00  8.00e-03    8.0000 >    0.1902    0.0114    0.8599  694.3777 5155.6456   -0.4297    0.0619  90.29  -1.0  -1.0  0     0.0000    0.0002
30           ?    N    ? P      ? 20180313 0007   16.2024 GAU  2.42e-02 -1.00e+00  8.19e+00  1.20e-02    8.1900 >    0.1966    0.0154    1.0725  694.3775 5155.6619   -0.4333    0.0638  75.44  -1.0  -1.0  0     0.0000    0.0002
33           ?    N    ? P      ? 20180313 0007   16.1656 GAU  1.07e-02 -1.00e+00  7.74e+00  8.00e-03    7.7400 >    0.1863   -0.0111    0.8961  694.3775 5155.6293   -0.4252    0.0639 105.01  -1.0  -1.0  0     0.0000    0.0002
28           ?    N    ? P      ? 20180313 0007   16.1959 GAU  1.40e-02 -1.00e+00  7.81e+00  1.20e-02    7.8100 >    0.2030    0.0024    1.6822  694.3767 5155.6745   -0.4362    0.0673  64.87  -1.0  -1.0  0     0.0000    0.0002
105          ?    N    ? P      ? 20180313 0007   16.1819 GAU  3.82e-02 -1.00e+00  7.85e+00  4.80e-02    7.8500 >    0.2084   -0.0169    1.0415  694.3764 5155.6832   -0.4382    0.0712  58.37  -1.0  -1.0  0     0.0000    0.0002
35           ?    N    ? P      ? 20180313 0007   16.1800 GAU  3.26e-02 -1.00e+00  8.07e+00  8.00e-03    8.0700 >    0.1896   -0.0000    0.6490  694.3818 5155.6141   -0.4216    0.0733 115.70  -1.0  -1.0  0     0.0000    0.0002
26           ?    N    ? P      ? 20180313 0007   16.2271 GAU  4.70e-02 -1.00e+00  7.40e+00  1.20e-02    7.4000 >    0.2159    0.0208    1.0127  694.3783 5155.6910   -0.4400    0.0771  54.21  -1.0  -1.0  0     0.0000    0.0002
36           ?    N    ? P      ? 20180313 0007   16.2145 GAU  2.14e-02 -1.00e+00  7.40e+00  1.60e-02    7.4000 >    0.2001    0.0239    0.7373  694.3865 5155.5904   -0.4164    0.0900 128.12  -1.0  -1.0  0     0.0000    0.0002
31           ?    N    ? P      ? 20180313 0007   16.2122 GAU  2.84e-02 -1.00e+00  6.34e+00  2.00e-02    6.3400 >    0.2225   -0.0008    0.8480  694.4086 5155.6503   -0.4335    0.0930  87.25  -1.0  -1.0  0     0.0000    0.0002
27           ?    N    ? P      ? 20180313 0007   16.2126 GAU  7.45e-02 -1.00e+00  5.49e+00  1.56e-01    5.4900 >    0.2346   -0.0124    0.6226  694.4008 5155.6912   -0.4412    0.0964  61.92  -1.0  -1.0  0     0.0000    0.0002
34           ?    N    ? P      ? 20180313 0007   16.2201 GAU  3.91e-02 -1.00e+00  6.17e+00  1.20e-02    6.1700 >    0.2254    0.0042    0.5897  694.4145 5155.6153   -0.4263    0.1034 107.22  -1.0  -1.0  0     0.0000    0.0002
38           ?    N    ? P      ? 20180313 0007   16.2014 GAU  2.14e-02 -1.00e+00  6.69e+00  8.00e-03    6.6900 >    0.2157   -0.0048    1.1063  694.3902 5155.5681   -0.4123    0.1076 136.27  -1.0  -1.0  0     0.0000    0.0002
39           ?    N    ? P      ? 20180313 0007   16.2191 GAU  1.58e-02 -1.00e+00  6.97e+00  8.00e-03    6.9700 >    0.2254    0.0032    1.5787  694.3890 5155.5532   -0.4086    0.1182 141.68  -1.0  -1.0  0     0.0000    0.0002
37           ?    N    ? P      ? 20180313 0007   16.2508 GAU  3.73e-02 -1.00e+00  6.12e+00  1.20e-02    6.1200 >    0.2413    0.0191    0.7349  694.4219 5155.5876   -0.4220    0.1211 118.77  -1.0  -1.0  0     0.0000    0.0002
41           ?    N    ? P      ? 20180313 0007   16.2280 GAU  1.82e-02 -1.00e+00  6.56e+00  1.20e-02    6.5600 >    0.2381   -0.0005    1.7902  694.3901 5155.5386   -0.4053    0.1305 145.27  -1.0  -1.0  0     0.0000    0.0002
40           ?    N    ? P      ? 20180313 0007   16.2564 GAU  2.14e-02 -1.00e+00  6.70e+00  2.40e-02    6.7000 >    0.2639    0.0021    1.7296  694.4169 5155.5417   -0.4131    0.1452 135.85  -1.0  -1.0  0     0.0000    0.0003
END_PHASE
END_NLLOC

