NLLOC "./loc/RR.20180313.015035.grid0" "LOCATED" "Location completed."
PUBLIC_ID None
SIGNATURE "   obs:./obs/nll_picks.obs   NLLoc:v7.00.10(30Aug2020)   run:29Apr2022 23h20m35"
COMMENT "Rattlesnake Ridge Slidequake Locations"
GRID  150 250 75  694.15 5155.4 0  0.002 0.002 0.002 PROB_DENSITY
SEARCH OCTREE nInitial 1000 nEvaluated 2088 smallestNodeSide 0.001863/0.003112/0.000925 oct_tree_integral 3.121517e-06 scatter_volume 3.116572e-06
HYPOCENTER  x 694.415 y 5155.82 z 0.115163  OT 35.3516  ix -1 iy -1 iz -1 MAXIMUM_LIKELIHOOD
GEOGRAPHIC  OT 2018 03 13  01 50 35.351617  Lat 5155.818631 Long 694.415406 Depth 0.115163
QUALITY  Pmax 5.80714e+157 MFmin 462.462 MFmax 462.58 RMS 0.0107255 Nphs 34 Gap 243.749 Dist 0.0561712 Mamp  0.64 34 Mdur -9.90 0
VPVSRATIO  VpVsRatio -1  Npair 0  Diff -2e+30
STATISTICS  ExpectX 694.413248 Y 5155.820466 Z 0.118447  CovXX 0.000870242 XY 0.000262737 XZ 3.06446e-06 YY 0.000102712 YZ 1.85681e-05 ZZ 0.00011085 EllAz1  162.896 Dip1  10.3185 Len1  0.00804285 Az2  339.643 Dip2  79.6652 Len2  0.0200455 Len3  5.795963e-02
STAT_GEOG  ExpectLat 5155.820466 Long 694.413248 Depth 0.118447
TRANSFORM  NONE
QML_OriginQuality  assocPhCt 34  usedPhCt 34  assocStaCt -1  usedStaCt 34  depthPhCt -1  stdErr 0.0107255  azGap 243.749  secAzGap 245.062  gtLevel -  minDist 0.0561712 maxDist 0.281134 medDist 0.123691
QML_OriginUncertainty  horUnc -1  minHorUnc 0.00701398  maxHorUnc 0.0467824  azMaxHorUnc 72.8017
QML_ConfidenceEllipsoid  semiMajorAxisLength 0.0579596  semiMinorAxisLength 0.00804285  semiIntermediateAxisLength 0.0200455  majorAxisPlunge 0.573807  majorAxisAzimuth 72.7913  majorAxisRotation 10.321
FOCALMECH  Hyp  5155.818631 694.415406 0.115163 Mech  0 0 0 mf  0 nObs -1
PHASE ID Ins Cmp On Pha  FM Date     HrMn   Sec     Err  ErrMag    Coda      Amp       Per       PriorWt  >   TTpred    Res       Weight    StaLoc(X  Y         Z)        SDist    SAzim  RAz  RDip RQual    Tcorr       TTerr
103          ?    N    ? P      ? 20180313 0150   35.5916 GAU  1.31e-02 -1.00e+00  8.35e+00  2.40e-02    8.3500 >    0.1905    0.0494    0.2834  694.3644 5155.7952   -0.4662    0.0562 245.33  -1.0  -1.0  0     0.0000    0.0002
16           ?    N    ? P      ? 20180313 0150   35.5527 GAU  3.80e-03 -1.00e+00  9.48e+00  1.60e-02    9.4800 >    0.2023   -0.0013    1.5469  694.3452 5155.7921   -0.4642    0.0751 249.32  -1.0  -1.0  0     0.0000    0.0002
6            ?    N    ? P      ? 20180313 0150   35.6189 GAU  8.52e-03 -1.00e+00  8.26e+00  1.20e-02    8.2600 >    0.2142    0.0531    0.2751  694.3446 5155.8502   -0.4728    0.0775 294.02  -1.0  -1.0  0     0.0000    0.0002
17           ?    N    ? P      ? 20180313 0150   35.5449 GAU  2.93e-03 -1.00e+00  1.05e+01  1.20e-02   10.5000 >    0.2029   -0.0096    1.0710  694.3461 5155.7815   -0.4621    0.0786 241.79  -1.0  -1.0  0     0.0000    0.0002
18           ?    N    ? P      ? 20180313 0150   35.5501 GAU  3.28e-03 -1.00e+00  8.41e+00  8.00e-03    8.4100 >    0.1989   -0.0004    1.4102  694.3549 5155.7674   -0.4586    0.0793 229.76  -1.0  -1.0  0     0.0000    0.0002
12           ?    N    ? P      ? 20180313 0150   35.5642 GAU  3.97e-03 -1.00e+00  9.06e+00  8.00e-03    9.0600 >    0.2082    0.0044    1.6170  694.3356 5155.8197   -0.4663    0.0798 270.79  -1.0  -1.0  0     0.0000    0.0002
10           ?    N    ? P      ? 20180313 0150   35.5668 GAU  2.76e-03 -1.00e+00  8.34e+00  4.00e-02    8.3400 >    0.2130    0.0022    2.0613  694.3329 5155.8329   -0.4673    0.0837 279.80  -1.0  -1.0  0     0.0000    0.0002
20           ?    N    ? P      ? 20180313 0150   35.5535 GAU  4.81e-03 -1.00e+00  8.52e+00  8.00e-03    8.5200 >    0.2020   -0.0001    1.3800  694.3609 5155.7515   -0.4553    0.0865 219.09  -1.0  -1.0  0     0.0000    0.0002
22           ?    N    ? P      ? 20180313 0150   35.6101 GAU  7.21e-03 -1.00e+00  7.35e+00  1.60e-02    7.3500 >    0.2025    0.0560    0.3830  694.3985 5155.7265   -0.4488    0.0936 190.40  -1.0  -1.0  0     0.0000    0.0002
21           ?    N    ? P      ? 20180313 0150   35.5600 GAU  7.89e-03 -1.00e+00  8.25e+00  8.00e-03    8.2500 >    0.2061    0.0023    1.1929  694.3642 5155.7391   -0.4517    0.0946 212.80  -1.0  -1.0  0     0.0000    0.0002
15           ?    N    ? P      ? 20180313 0150   35.5661 GAU  2.76e-03 -1.00e+00  9.62e+00  2.40e-02    9.6200 >    0.2165   -0.0020    1.9289  694.3206 5155.8107   -0.4609    0.0952 265.21  -1.0  -1.0  0     0.0000    0.0002
8            ?    N    ? P      ? 20180313 0150   35.5570 GAU  5.19e-03 -1.00e+00  7.52e+00  1.20e-02    7.5200 >    0.2220   -0.0166    0.6528  694.3223 5155.8450   -0.4648    0.0968 285.81  -1.0  -1.0  0     0.0000    0.0002
23           ?    N    ? P      ? 20180313 0150   35.5682 GAU  9.27e-03 -1.00e+00  7.78e+00  1.20e-02    7.7800 >    0.2155    0.0011    1.2450  694.3677 5155.7226   -0.4473    0.1073 206.41  -1.0  -1.0  0     0.0000    0.0002
2            ?    N    ? P      ? 20180313 0150   35.5766 GAU  7.77e-03 -1.00e+00  7.35e+00  1.20e-02    7.3500 >    0.2328   -0.0078    1.7265  694.3150 5155.8647   -0.4623    0.1105 294.63  -1.0  -1.0  0     0.0000    0.0002
13           ?    N    ? P      ? 20180313 0150   35.6062 GAU  6.65e-03 -1.00e+00  7.92e+00  8.00e-03    7.9200 >    0.2278    0.0268    0.4471  694.3062 5155.8390   -0.4568    0.1111 280.58  -1.0  -1.0  0     0.0000    0.0002
4            ?    N    ? P      ? 20180313 0150   35.5694 GAU  1.02e-02 -1.00e+00  7.46e+00  1.60e-02    7.4600 >    0.2299   -0.0121    1.1951  694.3090 5155.8520   -0.4586    0.1115 287.43  -1.0  -1.0  0     0.0000    0.0002
25           ?    N    ? P      ? 20180313 0150   35.5809 GAU  4.81e-03 -1.00e+00  7.53e+00  2.80e-02    7.5300 >    0.2265    0.0028    1.6412  694.3684 5155.7091   -0.4438    0.1192 203.22  -1.0  -1.0  0     0.0000    0.0002
27           ?    N    ? P      ? 20180313 0150   35.6098 GAU  6.18e-03 -1.00e+00  5.85e+00  8.00e-03    5.8500 >    0.2362    0.0220    0.5128  694.4008 5155.6912   -0.4412    0.1282 186.55  -1.0  -1.0  0     0.0000    0.0002
5            ?    N    ? P      ? 20180313 0150   35.6291 GAU  9.72e-03 -1.00e+00  8.55e+00  1.20e-02    8.5500 >    0.2399    0.0376    0.3329  694.2898 5155.8520   -0.4475    0.1300 284.86  -1.0  -1.0  0     0.0000    0.0002
26           ?    N    ? P      ? 20180313 0150   35.5905 GAU  6.86e-03 -1.00e+00  7.14e+00  2.80e-02    7.1400 >    0.2407   -0.0018    1.8227  694.3783 5155.6910   -0.4400    0.1329 196.21  -1.0  -1.0  0     0.0000    0.0002
105          ?    N    ? P      ? 20180313 0150   35.5998 GAU  7.21e-03 -1.00e+00  7.96e+00  5.20e-02    7.9600 >    0.2495   -0.0013    1.9990  694.3764 5155.6832   -0.4382    0.1409 196.07  -1.0  -1.0  0     0.0000    0.0002
7            ?    N    ? P      ? 20180313 0150   35.6438 GAU  1.81e-02 -1.00e+00  7.93e+00  2.00e-02    7.9300 >    0.2526    0.0396    0.4922  694.2704 5155.8450   -0.4359    0.1474 280.31  -1.0  -1.0  0     0.0000    0.0003
1            ?    N    ? P      ? 20180313 0150   35.7368 GAU  7.78e-03 -1.00e+00  7.49e+00  2.40e-02    7.4900 >    0.2590    0.1261    0.0001  694.2735 5155.8721   -0.4381    0.1516 290.66  -1.0  -1.0  0     0.0000    0.0003
9            ?    N    ? P      ? 20180313 0150   35.6156 GAU  7.69e-03 -1.00e+00  7.31e+00  1.20e-02    7.3100 >    0.2610    0.0030    2.3119  694.2594 5155.8351   -0.4296    0.1569 276.02  -1.0  -1.0  0     0.0000    0.0003
30           ?    N    ? P      ? 20180313 0150   35.6153 GAU  1.30e-02 -1.00e+00  6.06e+00  8.00e-03    6.0600 >    0.2732   -0.0095    1.3395  694.3775 5155.6619   -0.4333    0.1612 193.61  -1.0  -1.0  0     0.0000    0.0003
3            ?    N    ? P      ? 20180313 0150   35.7150 GAU  1.17e-02 -1.00e+00  7.46e+00  1.20e-02    7.4600 >    0.2832    0.0801    0.0808  694.2426 5155.8595   -0.4214    0.1775 283.29  -1.0  -1.0  0     0.0000    0.0003
33           ?    N    ? P      ? 20180313 0150   35.6482 GAU  1.17e-02 -1.00e+00  5.96e+00  8.00e-03    5.9600 >    0.3124   -0.0158    1.2539  694.3775 5155.6293   -0.4252    0.1931 191.32  -1.0  -1.0  0     0.0000    0.0003
34           ?    N    ? P      ? 20180313 0150   35.6781 GAU  7.90e-03 -1.00e+00  5.49e+00  1.20e-02    5.4900 >    0.3281   -0.0016    2.6726  694.4145 5155.6153   -0.4263    0.2034 180.25  -1.0  -1.0  0     0.0000    0.0003
36           ?    N    ? P      ? 20180313 0150   35.6510 GAU  7.56e-03 -1.00e+00  7.15e+00  1.20e-02    7.1500 >    0.3621   -0.0627    0.0002  694.3865 5155.5904   -0.4164    0.2301 187.21  -1.0  -1.0  0     0.0000    0.0004
37           ?    N    ? P      ? 20180313 0150   35.7396 GAU  1.17e-02 -1.00e+00  6.20e+00  1.20e-02    6.2000 >    0.3667    0.0213    1.1101  694.4219 5155.5876   -0.4220    0.2311 178.38  -1.0  -1.0  0     0.0000    0.0004
38           ?    N    ? P      ? 20180313 0150   35.6484 GAU  2.24e-03 -1.00e+00  7.06e+00  1.20e-02    7.0600 >    0.3928   -0.0960    0.0001  694.3902 5155.5681   -0.4123    0.2518 185.76  -1.0  -1.0  0     0.0000    0.0004
39           ?    N    ? P      ? 20180313 0150   35.6389 GAU  2.60e-03 -1.00e+00  6.91e+00  1.20e-02    6.9100 >    0.4135   -0.1262    0.0027  694.3890 5155.5532   -0.4086    0.2668 185.68  -1.0  -1.0  0     0.0000    0.0004
40           ?    N    ? P      ? 20180313 0150   35.6306 GAU  1.74e-02 -1.00e+00  5.79e+00  1.20e-02    5.7900 >    0.4300   -0.1510    0.0066  694.4169 5155.5417   -0.4131    0.2769 179.70  -1.0  -1.0  0     0.0000    0.0004
41           ?    N    ? P      ? 20180313 0150   35.6390 GAU  1.02e-02 -1.00e+00  6.63e+00  1.60e-02    6.6300 >    0.4336   -0.1462    0.0047  694.3901 5155.5386   -0.4053    0.2811 185.16  -1.0  -1.0  0     0.0000    0.0004
END_PHASE
END_NLLOC

