NLLOC "./loc/RR.20180313.015150.grid0" "LOCATED" "Location completed."
PUBLIC_ID None
SIGNATURE "   obs:./obs/nll_picks.obs   NLLoc:v7.00.10(30Aug2020)   run:29Apr2022 23h20m36"
COMMENT "Rattlesnake Ridge Slidequake Locations"
GRID  150 250 75  694.15 5155.4 0  0.002 0.002 0.002 PROB_DENSITY
SEARCH OCTREE nInitial 1000 nEvaluated 4672 smallestNodeSide 0.001863/0.003112/0.000925 oct_tree_integral 1.372036e-05 scatter_volume 1.372036e-05
HYPOCENTER  x 694.422 y 5155.8 z 0.08695  OT 50.2957  ix -1 iy -1 iz -1 MAXIMUM_LIKELIHOOD
GEOGRAPHIC  OT 2018 03 13  01 51 50.295662  Lat 5155.804625 Long 694.421925 Depth 0.086950
QUALITY  Pmax 3.94333e+89 MFmin 206.592 MFmax 206.609 RMS 0.0104039 Nphs 21 Gap 250.054 Dist 0.0583324 Mamp  0.49 21 Mdur -9.90 0
VPVSRATIO  VpVsRatio -1  Npair 0  Diff -2e+30
STATISTICS  ExpectX 694.298423 Y 5155.791397 Z 0.116009  CovXX 0.0120727 XY 0.00156455 XZ -0.0019755 YY 0.000258771 YZ -0.000213607 ZZ 0.000655898 EllAz1  351.17 Dip1  -8.63058 Len1  0.0130879 Az2  219.429 Dip2  -77.157 Len2  0.0342459 Len3  2.109532e-01
STAT_GEOG  ExpectLat 5155.791397 Long 694.298423 Depth 0.116009
TRANSFORM  NONE
QML_OriginQuality  assocPhCt 21  usedPhCt 21  assocStaCt -1  usedStaCt 21  depthPhCt -1  stdErr 0.0104039  azGap 250.054  secAzGap 257.785  gtLevel -  minDist 0.0583324 maxDist 0.156804 medDist 0.0983719
QML_OriginUncertainty  horUnc -1  minHorUnc 0.011256  maxHorUnc 0.168035  azMaxHorUnc 82.5825
QML_ConfidenceEllipsoid  semiMajorAxisLength 0.210953  semiMinorAxisLength 0.0130879  semiIntermediateAxisLength 0.0342459  majorAxisPlunge -9.43802  majorAxisAzimuth 82.6153  majorAxisRotation 189.239
FOCALMECH  Hyp  5155.804625 694.421925 0.086950 Mech  0 0 0 mf  0 nObs -1
PHASE ID Ins Cmp On Pha  FM Date     HrMn   Sec     Err  ErrMag    Coda      Amp       Per       PriorWt  >   TTpred    Res       Weight    StaLoc(X  Y         Z)        SDist    SAzim  RAz  RDip RQual    Tcorr       TTerr
103          ?    N    ? P      ? 20180313 0151   50.4960 GAU  5.07e-03 -1.00e+00  7.36e+00  1.20e-02    7.3600 >    0.1633    0.0371    0.1544  694.3644 5155.7952   -0.4662    0.0583 260.69  -1.0  -1.0  0     0.0000    0.0002
18           ?    N    ? P      ? 20180313 0151   50.4678 GAU  7.05e-03 -1.00e+00  7.55e+00  6.80e-02    7.5500 >    0.1715    0.0006    0.9242  694.3549 5155.7674   -0.4586    0.0767 240.96  -1.0  -1.0  0     0.0000    0.0002
16           ?    N    ? P      ? 20180313 0151   50.4756 GAU  6.09e-03 -1.00e+00  9.36e+00  1.20e-02    9.3600 >    0.1794    0.0006    1.1606  694.3452 5155.7921   -0.4642    0.0777 260.75  -1.0  -1.0  0     0.0000    0.0002
17           ?    N    ? P      ? 20180313 0151   50.4673 GAU  5.60e-03 -1.00e+00  8.52e+00  1.20e-02    8.5200 >    0.1783   -0.0067    0.9928  694.3461 5155.7815   -0.4621    0.0792 253.01  -1.0  -1.0  0     0.0000    0.0002
20           ?    N    ? P      ? 20180313 0151   50.4763 GAU  1.12e-02 -1.00e+00  7.01e+00  2.00e-02    7.0100 >    0.1726    0.0080    0.6500  694.3609 5155.7515   -0.4553    0.0810 228.97  -1.0  -1.0  0     0.0000    0.0002
22           ?    N    ? P      ? 20180313 0151   50.5023 GAU  6.57e-03 -1.00e+00  6.63e+00  8.00e-03    6.6300 >    0.1669    0.0398    0.1679  694.3985 5155.7265   -0.4488    0.0815 196.70  -1.0  -1.0  0     0.0000    0.0002
21           ?    N    ? P      ? 20180313 0151   50.4748 GAU  4.38e-03 -1.00e+00  7.32e+00  8.00e-03    7.3200 >    0.1766    0.0026    1.1441  694.3642 5155.7391   -0.4517    0.0873 221.41  -1.0  -1.0  0     0.0000    0.0002
12           ?    N    ? P      ? 20180313 0151   50.4657 GAU  5.98e-03 -1.00e+00  8.87e+00  6.40e-02    8.8700 >    0.1916   -0.0215    0.5152  694.3356 5155.8197   -0.4663    0.0876 279.93  -1.0  -1.0  0     0.0000    0.0002
6            ?    N    ? P      ? 20180313 0151   50.4967 GAU  4.68e-03 -1.00e+00  7.46e+00  1.20e-02    7.4600 >    0.2007    0.0003    1.9555  694.3446 5155.8502   -0.4728    0.0897 300.51  -1.0  -1.0  0     0.0000    0.0002
10           ?    N    ? P      ? 20180313 0151   50.4740 GAU  3.09e-03 -1.00e+00  7.71e+00  1.20e-02    7.7100 >    0.1988   -0.0204    0.5554  694.3329 5155.8329   -0.4673    0.0934 287.61  -1.0  -1.0  0     0.0000    0.0002
23           ?    N    ? P      ? 20180313 0151   50.4748 GAU  1.02e-02 -1.00e+00  7.35e+00  1.20e-02    7.3500 >    0.1858   -0.0066    1.1156  694.3677 5155.7226   -0.4473    0.0984 213.46  -1.0  -1.0  0     0.0000    0.0002
15           ?    N    ? P      ? 20180313 0151   50.4681 GAU  4.22e-03 -1.00e+00  8.92e+00  5.60e-02    8.9200 >    0.2018   -0.0294    0.1849  694.3206 5155.8107   -0.4609    0.1015 273.42  -1.0  -1.0  0     0.0000    0.0002
8            ?    N    ? P      ? 20180313 0151   50.4649 GAU  8.31e-03 -1.00e+00  6.65e+00  8.00e-03    6.6500 >    0.2122   -0.0430    0.0392  694.3223 5155.8450   -0.4648    0.1075 292.06  -1.0  -1.0  0     0.0000    0.0002
25           ?    N    ? P      ? 20180313 0151   50.4858 GAU  8.03e-03 -1.00e+00  6.93e+00  1.20e-02    6.9300 >    0.1974   -0.0073    1.2662  694.3684 5155.7091   -0.4438    0.1095 209.25  -1.0  -1.0  0     0.0000    0.0002
27           ?    N    ? P      ? 20180313 0151   50.4994 GAU  3.65e-03 -1.00e+00  5.27e+00  8.00e-03    5.2700 >    0.2036    0.0001    1.9260  694.4008 5155.6912   -0.4412    0.1153 190.56  -1.0  -1.0  0     0.0000    0.0002
13           ?    N    ? P      ? 20180313 0151   50.5190 GAU  8.32e-03 -1.00e+00  7.84e+00  2.40e-02    7.8400 >    0.2210    0.0023    1.5060  694.3062 5155.8390   -0.4568    0.1207 286.56  -1.0  -1.0  0     0.0000    0.0002
26           ?    N    ? P      ? 20180313 0151   50.4931 GAU  9.00e-03 -1.00e+00  6.64e+00  1.20e-02    6.6400 >    0.2116   -0.0141    1.3547  694.3783 5155.6910   -0.4400    0.1217 201.00  -1.0  -1.0  0     0.0000    0.0002
4            ?    N    ? P      ? 20180313 0151   50.5107 GAU  1.14e-02 -1.00e+00  6.88e+00  1.20e-02    6.8800 >    0.2246   -0.0096    1.3113  694.3090 5155.8520   -0.4586    0.1224 292.78  -1.0  -1.0  0     0.0000    0.0002
105          ?    N    ? P      ? 20180313 0151   50.5125 GAU  1.24e-02 -1.00e+00  7.33e+00  1.20e-02    7.3300 >    0.2212   -0.0044    1.5798  694.3764 5155.6832   -0.4382    0.1296 200.56  -1.0  -1.0  0     0.0000    0.0002
5            ?    N    ? P      ? 20180313 0151   50.5331 GAU  1.72e-02 -1.00e+00  7.67e+00  1.20e-02    7.6700 >    0.2391   -0.0016    1.3138  694.2898 5155.8520   -0.4475    0.1404 289.71  -1.0  -1.0  0     0.0000    0.0002
7            ?    N    ? P      ? 20180313 0151   50.5596 GAU  1.77e-02 -1.00e+00  6.94e+00  1.60e-02    6.9400 >    0.2549    0.0090    1.1825  694.2704 5155.8450   -0.4359    0.1568 284.92  -1.0  -1.0  0     0.0000    0.0003
END_PHASE
END_NLLOC

