NLLOC "./loc/RR.20180313.025419.grid0" "REJECTED" "WARNING: max prob location on grid boundary 31, rejecting location."
PUBLIC_ID None
SIGNATURE "   obs:./obs/nll_picks.obs   NLLoc:v7.00.10(30Aug2020)   run:29Apr2022 23h21m11"
COMMENT "Rattlesnake Ridge Slidequake Locations"
GRID  150 250 75  694.15 5155.4 0  0.002 0.002 0.002 PROB_DENSITY
SEARCH OCTREE nInitial 1000 nEvaluated 8760 smallestNodeSide 0.001863/0.003112/0.000925 oct_tree_integral 3.964450e-05 scatter_volume 3.964450e-05
HYPOCENTER  x 694.266 y 5155.71 z 0.147537  OT 19.3152  ix -1 iy -1 iz -1 MAXIMUM_LIKELIHOOD
GEOGRAPHIC  OT 2018 03 13  02 54 19.315249  Lat 5155.712806 Long 694.266406 Depth 0.147537
QUALITY  Pmax 6.75658e+80 MFmin 173.246 MFmax 173.284 RMS 0.00731693 Nphs 19 Gap 253.405 Dist 0.0561509 Mamp  0.67 19 Mdur -9.90 0
VPVSRATIO  VpVsRatio -1  Npair 0  Diff -2e+30
STATISTICS  ExpectX 694.242541 Y 5155.702978 Z 0.114627  CovXX 0.00170847 XY 0.000434076 XZ 0.000538523 YY 0.000197629 YZ 0.000294041 ZZ 0.000898535 EllAz1  169.357 Dip1  12.5805 Len1  0.0131905 Az2  282.571 Dip2  60.482 Len2  0.047426 Len3  8.647050e-02
STAT_GEOG  ExpectLat 5155.702978 Long 694.242541 Depth 0.114627
TRANSFORM  NONE
QML_OriginQuality  assocPhCt 19  usedPhCt 19  assocStaCt -1  usedStaCt 19  depthPhCt -1  stdErr 0.00731693  azGap 253.405  secAzGap 269.255  gtLevel -  minDist 0.0561509 maxDist 0.171531 medDist 0.1139
QML_OriginUncertainty  horUnc -1  minHorUnc 0.0137161  maxHorUnc 0.0647758  azMaxHorUnc 75.0588
QML_ConfidenceEllipsoid  semiMajorAxisLength 0.0864705  semiMinorAxisLength 0.0131905  semiIntermediateAxisLength 0.047426  majorAxisPlunge 26.2275  majorAxisAzimuth 73.045  majorAxisRotation 22.3301
FOCALMECH  Hyp  5155.712806 694.266406 0.147537 Mech  0 0 0 mf  0 nObs -1
PHASE ID Ins Cmp On Pha  FM Date     HrMn   Sec     Err  ErrMag    Coda      Amp       Per       PriorWt  >   TTpred    Res       Weight    StaLoc(X  Y         Z)        SDist    SAzim  RAz  RDip RQual    Tcorr       TTerr
106          ?    N    ? P      ? 20180313 0254   19.6265 GAU  1.02e-02 -1.00e+00  7.77e+00  8.00e-03    7.7700 >    0.2395    0.0718    0.0004  694.3120 5155.6801   -0.4360    0.0562 125.68  -1.0  -1.0  0     0.0000    0.0002
21           ?    N    ? P      ? 20180313 0254   19.6039 GAU  7.41e-03 -1.00e+00  8.00e+00  2.80e-02    8.0000 >    0.2894   -0.0007    0.8706  694.3642 5155.7391   -0.4517    0.1012  74.93  -1.0  -1.0  0     0.0000    0.0003
23           ?    N    ? P      ? 20180313 0254   19.6011 GAU  7.41e-03 -1.00e+00  8.46e+00  1.20e-02    8.4600 >    0.2843    0.0016    0.8048  694.3677 5155.7226   -0.4473    0.1018  84.50  -1.0  -1.0  0     0.0000    0.0003
20           ?    N    ? P      ? 20180313 0254   19.6011 GAU  6.71e-03 -1.00e+00  7.71e+00  2.80e-02    7.7100 >    0.2940   -0.0082    0.8554  694.3609 5155.7515   -0.4553    0.1021  67.73  -1.0  -1.0  0     0.0000    0.0003
25           ?    N    ? P      ? 20180313 0254   19.6057 GAU  6.36e-03 -1.00e+00  8.43e+00  1.20e-02    8.4300 >    0.2802    0.0103    0.6515  694.3684 5155.7091   -0.4438    0.1021  92.07  -1.0  -1.0  0     0.0000    0.0003
18           ?    N    ? P      ? 20180313 0254   19.6085 GAU  6.35e-03 -1.00e+00  7.37e+00  2.80e-02    7.3700 >    0.3000   -0.0067    1.1002  694.3549 5155.7674   -0.4586    0.1040  58.32  -1.0  -1.0  0     0.0000    0.0003
17           ?    N    ? P      ? 20180313 0254   19.6261 GAU  4.94e-03 -1.00e+00  7.91e+00  8.00e-03    7.9100 >    0.3058    0.0051    1.4808  694.3461 5155.7815   -0.4621    0.1052  49.27  -1.0  -1.0  0     0.0000    0.0003
16           ?    N    ? P      ? 20180313 0254   19.6328 GAU  9.53e-03 -1.00e+00  8.06e+00  4.80e-02    8.0600 >    0.3132    0.0043    1.5316  694.3452 5155.7921   -0.4642    0.1118  44.81  -1.0  -1.0  0     0.0000    0.0003
15           ?    N    ? P      ? 20180313 0254   19.6300 GAU  1.31e-02 -1.00e+00  6.80e+00  1.20e-02    6.8000 >    0.3093    0.0054    1.6013  694.3206 5155.8107   -0.4609    0.1119  28.96  -1.0  -1.0  0     0.0000    0.0003
105          ?    N    ? P      ? 20180313 0254   19.5958 GAU  5.64e-03 -1.00e+00  8.83e+00  8.00e-03    8.8300 >    0.2830   -0.0025    1.0446  694.3764 5155.6832   -0.4382    0.1139 105.05  -1.0  -1.0  0     0.0000    0.0003
26           ?    N    ? P      ? 20180313 0254   19.5940 GAU  5.29e-03 -1.00e+00  8.11e+00  1.20e-02    8.1100 >    0.2859   -0.0072    0.8365  694.3783 5155.6910   -0.4400    0.1140 101.04  -1.0  -1.0  0     0.0000    0.0003
28           ?    N    ? P      ? 20180313 0254   19.6011 GAU  9.53e-03 -1.00e+00  7.54e+00  5.60e-02    7.5400 >    0.2837    0.0021    0.9414  694.3767 5155.6745   -0.4362    0.1168 109.17  -1.0  -1.0  0     0.0000    0.0003
30           ?    N    ? P      ? 20180313 0254   19.6035 GAU  1.06e-02 -1.00e+00  8.17e+00  8.00e-03    8.1700 >    0.2856    0.0027    1.0921  694.3775 5155.6619   -0.4333    0.1222 114.62  -1.0  -1.0  0     0.0000    0.0003
103          ?    N    ? P      ? 20180313 0254   19.6261 GAU  9.88e-03 -1.00e+00  7.49e+00  6.00e-02    7.4900 >    0.3288   -0.0179    0.7438  694.3644 5155.7952   -0.4662    0.1280  49.94  -1.0  -1.0  0     0.0000    0.0003
22           ?    N    ? P      ? 20180313 0254   19.6473 GAU  1.20e-02 -1.00e+00  7.24e+00  1.20e-02    7.2400 >    0.3126    0.0194    0.4178  694.3985 5155.7265   -0.4488    0.1328  84.06  -1.0  -1.0  0     0.0000    0.0003
27           ?    N    ? P      ? 20180313 0254   19.6201 GAU  9.53e-03 -1.00e+00  6.60e+00  8.00e-03    6.6000 >    0.3075   -0.0026    0.8696  694.4008 5155.6912   -0.4412    0.1361  99.11  -1.0  -1.0  0     0.0000    0.0003
33           ?    N    ? P      ? 20180313 0254   19.6205 GAU  8.47e-03 -1.00e+00  7.67e+00  1.20e-02    7.6700 >    0.2930    0.0122    1.1953  694.3775 5155.6293   -0.4252    0.1390 126.92  -1.0  -1.0  0     0.0000    0.0003
31           ?    N    ? P      ? 20180313 0254   19.6332 GAU  1.34e-02 -1.00e+00  7.11e+00  1.20e-02    7.1100 >    0.3186   -0.0006    1.2070  694.4086 5155.6503   -0.4335    0.1553 113.71  -1.0  -1.0  0     0.0000    0.0003
36           ?    N    ? P      ? 20180313 0254   19.6247 GAU  1.06e-02 -1.00e+00  6.40e+00  5.60e-02    6.4000 >    0.3199   -0.0105    1.7553  694.3865 5155.5904   -0.4164    0.1715 135.55  -1.0  -1.0  0     0.0000    0.0003
END_PHASE
END_NLLOC

