NLLOC "./loc/RR.20180313.000908.grid0" "LOCATED" "Location completed."
PUBLIC_ID None
SIGNATURE "   obs:./obs/nll_picks.obs   NLLoc:v7.00.10(30Aug2020)   run:29Apr2022 23h17m57"
COMMENT "Rattlesnake Ridge Slidequake Locations"
GRID  150 250 75  694.15 5155.4 0  0.002 0.002 0.002 PROB_DENSITY
SEARCH OCTREE nInitial 1000 nEvaluated 2888 smallestNodeSide 0.001863/0.003112/0.000925 oct_tree_integral 4.862297e-06 scatter_volume 4.862297e-06
HYPOCENTER  x 694.38 y 5155.61 z 0.0004625  OT 8.02845  ix -1 iy -1 iz -1 MAXIMUM_LIKELIHOOD
GEOGRAPHIC  OT 2018 03 13  00 09 8.028450  Lat 5155.613206 Long 694.380019 Depth 0.000462
QUALITY  Pmax 9.03765e+57 MFmin 82.4154 MFmax 82.4265 RMS 0.0388964 Nphs 17 Gap 143.042 Dist 0.00197211 Mamp -0.06 17 Mdur -9.90 0
VPVSRATIO  VpVsRatio -1  Npair 0  Diff -2e+30
STATISTICS  ExpectX 694.325970 Y 5155.591838 Z 0.107013  CovXX 0.00318938 XY 0.00136518 XZ -0.00050672 YY 0.000762174 YZ -0.000283518 ZZ 0.00177735 EllAz1  336.119 Dip1  1.90131 Len1  0.0228151 Az2  253.236 Dip2  -75.0009 Len2  0.0757484 Len3  1.181722e-01
STAT_GEOG  ExpectLat 5155.591838 Long 694.325970 Depth 0.107013
TRANSFORM  NONE
QML_OriginQuality  assocPhCt 17  usedPhCt 17  assocStaCt -1  usedStaCt 17  depthPhCt -1  stdErr 0.0388964  azGap 143.042  secAzGap 179.717  gtLevel -  minDist 0.00197211 maxDist 0.110039 medDist 0.0607049
QML_OriginUncertainty  horUnc -1  minHorUnc 0.0185217  maxHorUnc 0.0935174  azMaxHorUnc 65.818
QML_ConfidenceEllipsoid  semiMajorAxisLength 0.118172  semiMinorAxisLength 0.0228151  semiIntermediateAxisLength 0.0757484  majorAxisPlunge -14.8725  majorAxisAzimuth 65.6139  majorAxisRotation 177.735
FOCALMECH  Hyp  5155.613206 694.380019 0.000462 Mech  0 0 0 mf  0 nObs -1
PHASE ID Ins Cmp On Pha  FM Date     HrMn   Sec     Err  ErrMag    Coda      Amp       Per       PriorWt  >   TTpred    Res       Weight    StaLoc(X  Y         Z)        SDist    SAzim  RAz  RDip RQual    Tcorr       TTerr
35           ?    N    ? P      ? 20180313 0009    8.9850 GAU  8.59e-03 -1.00e+00  8.65e+00  1.20e-02    8.6500 >    0.0040    0.9525    0.0037  694.3818 5155.6141   -0.4216    0.0020  62.56  -1.0  -1.0  0     0.0000    0.0001
33           ?    N    ? P      ? 20180313 0009    8.9000 GAU  1.29e-02 -1.00e+00  8.42e+00  8.00e-03    8.4200 >    0.0285    0.8431    0.0002  694.3775 5155.6293   -0.4252    0.0163 351.19  -1.0  -1.0  0     0.0000    0.0001
36           ?    N    ? P      ? 20180313 0009    8.9850 GAU  1.43e-02 -1.00e+00  6.45e+00  1.60e-02    6.4500 >    0.0404    0.9161    0.0038  694.3865 5155.5904   -0.4164    0.0238 164.11  -1.0  -1.0  0     0.0000    0.0001
32           ?    N    ? P      ? 20180313 0009    8.8780 GAU  7.88e-03 -1.00e+00  7.42e+00  1.20e-02    7.4200 >    0.0564    0.7932    0.0001  694.3777 5155.6456   -0.4297    0.0324 355.88  -1.0  -1.0  0     0.0000    0.0001
34           ?    N    ? P      ? 20180313 0009    8.1601 GAU  3.44e-02 -1.00e+00  6.40e+00  4.80e-02    6.4000 >    0.0585    0.0732    0.5009  694.4145 5155.6153   -0.4263    0.0346  86.56  -1.0  -1.0  0     0.0000    0.0001
38           ?    N    ? P      ? 20180313 0009    8.1093 GAU  1.79e-02 -1.00e+00  6.59e+00  6.40e-02    6.5900 >    0.0784    0.0024    1.9624  694.3902 5155.5681   -0.4123    0.0462 167.33  -1.0  -1.0  0     0.0000    0.0001
30           ?    N    ? P      ? 20180313 0009    8.1823 GAU  3.51e-02 -1.00e+00  7.38e+00  1.20e-02    7.3800 >    0.0842    0.0697    0.3949  694.3775 5155.6619   -0.4333    0.0488 357.00  -1.0  -1.0  0     0.0000    0.0001
37           ?    N    ? P      ? 20180313 0009    8.1250 GAU  3.22e-02 -1.00e+00  6.41e+00  1.20e-02    6.4100 >    0.0821    0.0145    1.5564  694.4219 5155.5876   -0.4220    0.0491 121.43  -1.0  -1.0  0     0.0000    0.0001
39           ?    N    ? P      ? 20180313 0009    8.1293 GAU  1.22e-02 -1.00e+00  6.76e+00  4.80e-02    6.7600 >    0.1032   -0.0024    2.2979  694.3890 5155.5532   -0.4086    0.0607 171.47  -1.0  -1.0  0     0.0000    0.0001
28           ?    N    ? P      ? 20180313 0009    8.1780 GAU  2.79e-02 -1.00e+00  7.35e+00  1.20e-02    7.3500 >    0.1057    0.0439    0.7280  694.3767 5155.6745   -0.4362    0.0613 356.88  -1.0  -1.0  0     0.0000    0.0001
105          ?    N    ? P      ? 20180313 0009    8.1766 GAU  3.51e-02 -1.00e+00  7.49e+00  1.20e-02    7.4900 >    0.1206    0.0276    1.0287  694.3764 5155.6832   -0.4382    0.0701 357.04  -1.0  -1.0  0     0.0000    0.0001
26           ?    N    ? P      ? 20180313 0009    8.1694 GAU  2.50e-02 -1.00e+00  6.30e+00  3.20e-02    6.3000 >    0.1336    0.0073    1.3853  694.3783 5155.6910   -0.4400    0.0778 358.74  -1.0  -1.0  0     0.0000    0.0001
40           ?    N    ? P      ? 20180313 0009    8.1580 GAU  4.94e-02 -1.00e+00  6.60e+00  1.20e-02    6.6000 >    0.1350   -0.0054    1.7538  694.4169 5155.5417   -0.4131    0.0804 152.72  -1.0  -1.0  0     0.0000    0.0001
27           ?    N    ? P      ? 20180313 0009    8.1844 GAU  4.01e-02 -1.00e+00  5.94e+00  5.20e-02    5.9400 >    0.1389    0.0171    1.0765  694.4008 5155.6912   -0.4412    0.0808  14.90  -1.0  -1.0  0     0.0000    0.0001
106          ?    N    ? P      ? 20180313 0009    8.1673 GAU  3.29e-02 -1.00e+00  7.16e+00  1.20e-02    7.1600 >    0.1612   -0.0223    1.5303  694.3120 5155.6801   -0.4360    0.0954 314.51  -1.0  -1.0  0     0.0000    0.0002
25           ?    N    ? P      ? 20180313 0009    8.2002 GAU  2.43e-02 -1.00e+00  6.76e+00  4.80e-02    6.7600 >    0.1655    0.0062    1.7398  694.3684 5155.7091   -0.4438    0.0966 353.11  -1.0  -1.0  0     0.0000    0.0002
23           ?    N    ? P      ? 20180313 0009    8.1802 GAU  4.58e-02 -1.00e+00  6.80e+00  8.00e-03    6.8000 >    0.1887   -0.0369    1.0371  694.3677 5155.7226   -0.4473    0.1100 353.57  -1.0  -1.0  0     0.0000    0.0002
END_PHASE
END_NLLOC

