NLLOC "./loc/RR.20180313.001003.grid0" "REJECTED" "WARNING: max prob location on grid boundary 10, rejecting location."
PUBLIC_ID None
SIGNATURE "   obs:./obs/nll_picks.obs   NLLoc:v7.00.10(30Aug2020)   run:29Apr2022 23h18m46"
COMMENT "Rattlesnake Ridge Slidequake Locations"
GRID  150 250 75  694.15 5155.4 0  0.002 0.002 0.002 PROB_DENSITY
SEARCH OCTREE nInitial 1000 nEvaluated 19840 smallestNodeSide 0.001863/0.003112/0.000925 oct_tree_integral 1.653319e-04 scatter_volume 1.637977e-04
HYPOCENTER  x 694.152 y 5155.7 z 0.147075  OT 3.0545  ix -1 iy -1 iz -1 MAXIMUM_LIKELIHOOD
GEOGRAPHIC  OT 2018 03 13  00 10 3.054503  Lat 5155.701912 Long 694.151862 Depth 0.147075
QUALITY  Pmax 6.56624e+94 MFmin 132.027 MFmax 132.046 RMS 0.0152541 Nphs 23 Gap 305.635 Dist 0.161639 Mamp  0.83 23 Mdur -9.90 0
VPVSRATIO  VpVsRatio -1  Npair 0  Diff -2e+30
STATISTICS  ExpectX 694.205217 Y 5155.687321 Z 0.109145  CovXX 0.00284876 XY 4.44644e-05 XZ 0.000586701 YY 0.000253629 YZ 0.000317725 ZZ 0.0012137 EllAz1  183.16 Dip1  18.2148 Len1  0.0231158 Az2  315.035 Dip2  63.7577 Len2  0.0628813 Len3  1.036696e-01
STAT_GEOG  ExpectLat 5155.687321 Long 694.205217 Depth 0.109145
TRANSFORM  NONE
QML_OriginQuality  assocPhCt 23  usedPhCt 23  assocStaCt -1  usedStaCt 23  depthPhCt -1  stdErr 0.0152541  azGap 305.635  secAzGap 310.025  gtLevel -  minDist 0.161639 maxDist 0.309666 medDist 0.232748
QML_OriginUncertainty  horUnc -1  minHorUnc 0.0241163  maxHorUnc 0.0809561  azMaxHorUnc 89.0187
QML_ConfidenceEllipsoid  semiMajorAxisLength 0.10367  semiMinorAxisLength 0.0231158  semiIntermediateAxisLength 0.0628813  majorAxisPlunge 18.2244  majorAxisAzimuth 86.9394  majorAxisRotation 23.4245
FOCALMECH  Hyp  5155.701912 694.151862 0.147075 Mech  0 0 0 mf  0 nObs -1
PHASE ID Ins Cmp On Pha  FM Date     HrMn   Sec     Err  ErrMag    Coda      Amp       Per       PriorWt  >   TTpred    Res       Weight    StaLoc(X  Y         Z)        SDist    SAzim  RAz  RDip RQual    Tcorr       TTerr
106          ?    N    ? P      ? 20180313 0010    3.5152 GAU  9.35e-03 -1.00e+00  8.13e+00  1.20e-02    8.1300 >    0.4041    0.0566    0.3292  694.3120 5155.6801   -0.4360    0.1616  97.77  -1.0  -1.0  0     0.0000    0.0004
17           ?    N    ? P      ? 20180313 0010    3.5286 GAU  3.58e-02 -1.00e+00  6.40e+00  5.60e-02    6.4000 >    0.4754   -0.0013    1.4429  694.3461 5155.7815   -0.4621    0.2099  67.73  -1.0  -1.0  0     0.0000    0.0005
18           ?    N    ? P      ? 20180313 0010    3.5144 GAU  1.83e-02 -1.00e+00  6.45e+00  8.00e-03    6.4500 >    0.4734   -0.0135    1.5998  694.3549 5155.7674   -0.4586    0.2133  72.12  -1.0  -1.0  0     0.0000    0.0005
20           ?    N    ? P      ? 20180313 0010    3.5148 GAU  2.77e-02 -1.00e+00  6.37e+00  2.00e-02    6.3700 >    0.4701   -0.0098    1.1815  694.3609 5155.7515   -0.4553    0.2148  76.66  -1.0  -1.0  0     0.0000    0.0005
21           ?    N    ? P      ? 20180313 0010    3.5563 GAU  3.66e-02 -1.00e+00  7.02e+00  8.00e-03    7.0200 >    0.4669    0.0349    0.7395  694.3642 5155.7391   -0.4517    0.2155  80.06  -1.0  -1.0  0     0.0000    0.0005
25           ?    N    ? P      ? 20180313 0010    3.5327 GAU  1.46e-02 -1.00e+00  8.64e+00  8.00e-03    8.6400 >    0.4589    0.0193    0.8718  694.3684 5155.7091   -0.4438    0.2167  88.09  -1.0  -1.0  0     0.0000    0.0005
23           ?    N    ? P      ? 20180313 0010    3.5213 GAU  1.30e-02 -1.00e+00  7.47e+00  8.00e-03    7.4700 >    0.4628    0.0040    1.1985  694.3677 5155.7226   -0.4473    0.2168  84.54  -1.0  -1.0  0     0.0000    0.0005
105          ?    N    ? P      ? 20180313 0010    3.5160 GAU  9.36e-03 -1.00e+00  8.73e+00  1.20e-02    8.7300 >    0.4615    0.0000    0.9458  694.3764 5155.6832   -0.4382    0.2253  94.75  -1.0  -1.0  0     0.0000    0.0005
28           ?    N    ? P      ? 20180313 0010    3.5111 GAU  1.67e-02 -1.00e+00  8.21e+00  8.00e-03    8.2100 >    0.4607   -0.0041    0.8121  694.3767 5155.6745   -0.4362    0.2265  96.96  -1.0  -1.0  0     0.0000    0.0005
26           ?    N    ? P      ? 20180313 0010    3.5176 GAU  1.83e-02 -1.00e+00  8.09e+00  8.00e-03    8.0900 >    0.4647   -0.0016    0.8416  694.3783 5155.6910   -0.4400    0.2267  92.77  -1.0  -1.0  0     0.0000    0.0005
30           ?    N    ? P      ? 20180313 0010    3.5083 GAU  3.90e-02 -1.00e+00  6.76e+00  4.80e-02    6.7600 >    0.4597   -0.0059    0.5236  694.3775 5155.6619   -0.4333    0.2291 100.05  -1.0  -1.0  0     0.0000    0.0005
32           ?    N    ? P      ? 20180313 0010    3.5152 GAU  1.75e-02 -1.00e+00  7.94e+00  8.00e-03    7.9400 >    0.4597    0.0010    0.8755  694.3777 5155.6456   -0.4297    0.2327 104.01  -1.0  -1.0  0     0.0000    0.0005
33           ?    N    ? P      ? 20180313 0010    3.5253 GAU  1.55e-02 -1.00e+00  7.35e+00  1.20e-02    7.3500 >    0.4601    0.0107    0.9630  694.3775 5155.6293   -0.4252    0.2370 107.83  -1.0  -1.0  0     0.0000    0.0005
35           ?    N    ? P      ? 20180313 0010    3.5188 GAU  1.79e-02 -1.00e+00  7.60e+00  1.20e-02    7.6000 >    0.4656   -0.0013    1.1684  694.3818 5155.6141   -0.4216    0.2461 110.90  -1.0  -1.0  0     0.0000    0.0005
22           ?    N    ? P      ? 20180313 0010    3.5587 GAU  3.09e-02 -1.00e+00  7.17e+00  8.00e-03    7.1700 >    0.4937    0.0105    0.9336  694.3985 5155.7265   -0.4488    0.2479  84.30  -1.0  -1.0  0     0.0000    0.0005
27           ?    N    ? P      ? 20180313 0010    3.5412 GAU  1.34e-02 -1.00e+00  6.93e+00  8.00e-03    6.9300 >    0.4879   -0.0012    0.9091  694.4008 5155.6912   -0.4412    0.2492  92.45  -1.0  -1.0  0     0.0000    0.0005
36           ?    N    ? P      ? 20180313 0010    3.5209 GAU  3.05e-02 -1.00e+00  6.29e+00  1.20e-02    6.2900 >    0.4756   -0.0092    1.0372  694.3865 5155.5904   -0.4164    0.2598 115.43  -1.0  -1.0  0     0.0000    0.0005
31           ?    N    ? P      ? 20180313 0010    3.5375 GAU  2.11e-02 -1.00e+00  6.70e+00  1.20e-02    6.7000 >    0.4933   -0.0103    0.7749  694.4086 5155.6503   -0.4335    0.2619 101.36  -1.0  -1.0  0     0.0000    0.0005
38           ?    N    ? P      ? 20180313 0010    3.5237 GAU  3.58e-02 -1.00e+00  5.77e+00  1.20e-02    5.7700 >    0.4878   -0.0186    1.0407  694.3902 5155.5681   -0.4123    0.2733 119.31  -1.0  -1.0  0     0.0000    0.0005
34           ?    N    ? P      ? 20180313 0010    3.5424 GAU  1.46e-02 -1.00e+00  6.89e+00  4.00e-02    6.8900 >    0.5037   -0.0158    1.0584  694.4145 5155.6153   -0.4263    0.2766 108.25  -1.0  -1.0  0     0.0000    0.0005
39           ?    N    ? P      ? 20180313 0010    3.5745 GAU  3.29e-02 -1.00e+00  6.10e+00  6.00e-02    6.1000 >    0.4927    0.0273    1.2366  694.3890 5155.5532   -0.4086    0.2799 122.09  -1.0  -1.0  0     0.0000    0.0005
37           ?    N    ? P      ? 20180313 0010    3.5798 GAU  5.04e-02 -1.00e+00  6.41e+00  8.00e-03    6.4100 >    0.5191    0.0062    0.8887  694.4219 5155.5876   -0.4220    0.2933 112.94  -1.0  -1.0  0     0.0000    0.0005
40           ?    N    ? P      ? 20180313 0010    3.5941 GAU  3.29e-02 -1.00e+00  6.17e+00  1.20e-02    6.1700 >    0.5325    0.0071    1.6276  694.4169 5155.5417   -0.4131    0.3097 121.15  -1.0  -1.0  0     0.0000    0.0005
END_PHASE
END_NLLOC

