NLLOC "./loc/RR.20180313.031423.grid0" "LOCATED" "Location completed."
PUBLIC_ID None
SIGNATURE "   obs:./obs/nll_picks.obs   NLLoc:v7.00.10(30Aug2020)   run:29Apr2022 23h21m23"
COMMENT "Rattlesnake Ridge Slidequake Locations"
GRID  150 250 75  694.15 5155.4 0  0.002 0.002 0.002 PROB_DENSITY
SEARCH OCTREE nInitial 1000 nEvaluated 2664 smallestNodeSide 0.001863/0.003112/0.000925 oct_tree_integral 1.092649e-05 scatter_volume 1.092275e-05
HYPOCENTER  x 694.171 y 5155.66 z 0.146612  OT 23.5301  ix -1 iy -1 iz -1 MAXIMUM_LIKELIHOOD
GEOGRAPHIC  OT 2018 03 13  03 14 23.530132  Lat 5155.659894 Long 694.171419 Depth 0.146612
QUALITY  Pmax 4.06105e+123 MFmin 337.004 MFmax 337.158 RMS 0.00949233 Nphs 28 Gap 285.678 Dist 0.142037 Mamp  0.86 28 Mdur -9.90 0
VPVSRATIO  VpVsRatio -1  Npair 0  Diff -2e+30
STATISTICS  ExpectX 694.171629 Y 5155.655616 Z 0.132897  CovXX 0.000237466 XY 9.68973e-06 XZ 3.72035e-05 YY 3.14257e-05 YZ 2.49069e-05 ZZ 0.000149098 EllAz1  179.386 Dip1  11.2906 Len1  0.00964427 Az2  296.164 Dip2  66.0997 Len2  0.0221645 Len3  2.985347e-02
STAT_GEOG  ExpectLat 5155.655616 Long 694.171629 Depth 0.132897
TRANSFORM  NONE
QML_OriginQuality  assocPhCt 28  usedPhCt 28  assocStaCt -1  usedStaCt 28  depthPhCt -1  stdErr 0.00949233  azGap 285.678  secAzGap 288.561  gtLevel -  minDist 0.142037 maxDist 0.272422 medDist 0.214071
QML_OriginUncertainty  horUnc -1  minHorUnc 0.00843999  maxHorUnc 0.0233927  azMaxHorUnc 87.3134
QML_ConfidenceEllipsoid  semiMajorAxisLength 0.0298535  semiMinorAxisLength 0.00964427  semiIntermediateAxisLength 0.0221645  majorAxisPlunge 20.775  majorAxisAzimuth 85.0425  majorAxisRotation 15.9685
FOCALMECH  Hyp  5155.659894 694.171419 0.146612 Mech  0 0 0 mf  0 nObs -1
PHASE ID Ins Cmp On Pha  FM Date     HrMn   Sec     Err  ErrMag    Coda      Amp       Per       PriorWt  >   TTpred    Res       Weight    StaLoc(X  Y         Z)        SDist    SAzim  RAz  RDip RQual    Tcorr       TTerr
106          ?    N    ? P      ? 20180313 0314   23.9873 GAU  6.15e-03 -1.00e+00  8.69e+00  8.00e-03    8.6900 >    0.3769    0.0803    0.0584  694.3120 5155.6801   -0.4360    0.1420  81.84  -1.0  -1.0  0     0.0000    0.0004
25           ?    N    ? P      ? 20180313 0314   24.9300 GAU  1.02e-02 -1.00e+00  8.42e+00  1.20e-02    8.4200 >    0.4370    0.9629    0.0000  694.3684 5155.7091   -0.4438    0.2031  75.97  -1.0  -1.0  0     0.0000    0.0004
28           ?    N    ? P      ? 20180313 0314   23.9693 GAU  6.63e-03 -1.00e+00  9.26e+00  1.20e-02    9.2600 >    0.4314    0.0077    0.9954  694.3767 5155.6745   -0.4362    0.2058  85.94  -1.0  -1.0  0     0.0000    0.0004
23           ?    N    ? P      ? 20180313 0314   23.9866 GAU  8.30e-03 -1.00e+00  9.13e+00  8.00e-03    9.1300 >    0.4439    0.0126    0.9711  694.3677 5155.7226   -0.4473    0.2060  72.29  -1.0  -1.0  0     0.0000    0.0004
30           ?    N    ? P      ? 20180313 0314   23.9624 GAU  4.03e-03 -1.00e+00  9.60e+00  8.00e-03    9.6000 >    0.4283    0.0039    1.3256  694.3775 5155.6619   -0.4333    0.2061  89.44  -1.0  -1.0  0     0.0000    0.0004
105          ?    N    ? P      ? 20180313 0314   23.9717 GAU  4.74e-03 -1.00e+00  9.22e+00  1.20e-02    9.2200 >    0.4340    0.0076    1.1096  694.3764 5155.6832   -0.4382    0.2063  83.50  -1.0  -1.0  0     0.0000    0.0004
32           ?    N    ? P      ? 20180313 0314   23.9496 GAU  6.39e-03 -1.00e+00  1.00e+01  1.20e-02   10.0000 >    0.4258   -0.0064    1.1411  694.3777 5155.6456   -0.4297    0.2068  93.97  -1.0  -1.0  0     0.0000    0.0004
33           ?    N    ? P      ? 20180313 0314   23.9494 GAU  9.00e-03 -1.00e+00  9.70e+00  1.60e-02    9.7000 >    0.4228   -0.0036    1.2135  694.3775 5155.6293   -0.4252    0.2084  98.44  -1.0  -1.0  0     0.0000    0.0004
21           ?    N    ? P      ? 20180313 0314   24.1380 GAU  7.11e-03 -1.00e+00  7.91e+00  8.00e-03    7.9100 >    0.4513    0.1566    0.0000  694.3642 5155.7391   -0.4517    0.2084  67.65  -1.0  -1.0  0     0.0000    0.0005
26           ?    N    ? P      ? 20180313 0314   23.9707 GAU  7.58e-03 -1.00e+00  8.68e+00  1.20e-02    8.6800 >    0.4389    0.0017    1.3063  694.3783 5155.6910   -0.4400    0.2092  81.46  -1.0  -1.0  0     0.0000    0.0004
20           ?    N    ? P      ? 20180313 0314   23.9842 GAU  5.45e-03 -1.00e+00  7.36e+00  1.20e-02    7.3600 >    0.4569   -0.0029    2.4523  694.3609 5155.7515   -0.4553    0.2104  64.20  -1.0  -1.0  0     0.0000    0.0005
15           ?    N    ? P      ? 20180313 0314   24.6000 GAU  7.11e-03 -1.00e+00  5.13e+00  4.80e-02    5.1300 >    0.4680    0.6018    0.0000  694.3206 5155.8107   -0.4609    0.2121  44.69  -1.0  -1.0  0     0.0000    0.0005
18           ?    N    ? P      ? 20180313 0314   23.9949 GAU  6.64e-03 -1.00e+00  6.81e+00  1.20e-02    6.8100 >    0.4634    0.0014    2.6374  694.3549 5155.7674   -0.4586    0.2127  59.63  -1.0  -1.0  0     0.0000    0.0005
17           ?    N    ? P      ? 20180313 0314   23.9828 GAU  1.16e-02 -1.00e+00  6.68e+00  5.20e-02    6.6800 >    0.4684   -0.0157    1.9298  694.3461 5155.7815   -0.4621    0.2129  55.17  -1.0  -1.0  0     0.0000    0.0005
35           ?    N    ? P      ? 20180313 0314   23.9532 GAU  3.31e-03 -1.00e+00  1.01e+01  8.00e-03   10.1000 >    0.4252   -0.0022    1.7200  694.3818 5155.6141   -0.4216    0.2153 102.28  -1.0  -1.0  0     0.0000    0.0004
16           ?    N    ? P      ? 20180313 0314   24.8600 GAU  1.37e-02 -1.00e+00  6.76e+00  1.60e-02    6.7600 >    0.4762    0.8536    0.0000  694.3452 5155.7921   -0.4642    0.2184  52.73  -1.0  -1.0  0     0.0000    0.0005
36           ?    N    ? P      ? 20180313 0314   23.9517 GAU  1.28e-02 -1.00e+00  8.73e+00  1.20e-02    8.7300 >    0.4326   -0.0110    1.1601  694.3865 5155.5904   -0.4164    0.2261 107.92  -1.0  -1.0  0     0.0000    0.0004
12           ?    N    ? P      ? 20180313 0314   24.4600 GAU  1.49e-02 -1.00e+00  6.82e+00  2.80e-02    6.8200 >    0.4898    0.4401    0.0000  694.3356 5155.8197   -0.4663    0.2292  45.77  -1.0  -1.0  0     0.0000    0.0005
27           ?    N    ? P      ? 20180313 0314   23.9821 GAU  8.05e-03 -1.00e+00  7.97e+00  8.00e-03    7.9700 >    0.4622   -0.0102    1.1889  694.4008 5155.6912   -0.4412    0.2315  82.22  -1.0  -1.0  0     0.0000    0.0005
103          ?    N    ? P      ? 20180313 0314   24.3000 GAU  7.34e-03 -1.00e+00  7.28e+00  8.00e-03    7.2800 >    0.4937    0.2762    0.0000  694.3644 5155.7952   -0.4662    0.2357  54.96  -1.0  -1.0  0     0.0000    0.0005
22           ?    N    ? P      ? 20180313 0314   24.1000 GAU  9.01e-03 -1.00e+00  7.41e+00  8.00e-03    7.4100 >    0.4747    0.0952    0.0584  694.3985 5155.7265   -0.4488    0.2367  73.64  -1.0  -1.0  0     0.0000    0.0005
38           ?    N    ? P      ? 20180313 0314   23.9577 GAU  7.34e-03 -1.00e+00  7.97e+00  1.20e-02    7.9700 >    0.4413   -0.0137    1.2024  694.3902 5155.5681   -0.4123    0.2372 112.76  -1.0  -1.0  0     0.0000    0.0004
31           ?    N    ? P      ? 20180313 0314   23.9840 GAU  7.11e-03 -1.00e+00  8.24e+00  1.20e-02    8.2400 >    0.4607   -0.0068    1.1352  694.4086 5155.6503   -0.4335    0.2374  92.30  -1.0  -1.0  0     0.0000    0.0005
39           ?    N    ? P      ? 20180313 0314   23.9802 GAU  4.94e-03 -1.00e+00  8.04e+00  1.20e-02    8.0400 >    0.4439    0.0062    2.5035  694.3890 5155.5532   -0.4086    0.2424 116.12  -1.0  -1.0  0     0.0000    0.0004
34           ?    N    ? P      ? 20180313 0314   23.9527 GAU  1.85e-02 -1.00e+00  7.58e+00  1.20e-02    7.5800 >    0.4646   -0.0420    0.1988  694.4145 5155.6153   -0.4263    0.2472 100.40  -1.0  -1.0  0     0.0000    0.0005
41           ?    N    ? P      ? 20180313 0314   23.9835 GAU  6.58e-03 -1.00e+00  7.58e+00  1.20e-02    7.5800 >    0.4503    0.0031    2.8359  694.3901 5155.5386   -0.4053    0.2501 119.01  -1.0  -1.0  0     0.0000    0.0005
37           ?    N    ? P      ? 20180313 0314   23.9769 GAU  6.16e-03 -1.00e+00  7.61e+00  2.80e-02    7.6100 >    0.4769   -0.0301    0.2370  694.4219 5155.5876   -0.4220    0.2607 106.10  -1.0  -1.0  0     0.0000    0.0005
40           ?    N    ? P      ? 20180313 0314   23.9901 GAU  5.76e-03 -1.00e+00  8.21e+00  1.20e-02    8.2100 >    0.4834   -0.0234    0.6193  694.4169 5155.5417   -0.4131    0.2724 115.71  -1.0  -1.0  0     0.0000    0.0005
END_PHASE
END_NLLOC

