NLLOC "./loc/RR.20180313.031154.grid0" "LOCATED" "Location completed."
PUBLIC_ID None
SIGNATURE "   obs:./obs/nll_picks.obs   NLLoc:v7.00.10(30Aug2020)   run:29Apr2022 23h21m20"
COMMENT "Rattlesnake Ridge Slidequake Locations"
GRID  150 250 75  694.15 5155.4 0  0.002 0.002 0.002 PROB_DENSITY
SEARCH OCTREE nInitial 1000 nEvaluated 8280 smallestNodeSide 0.001863/0.003112/0.000925 oct_tree_integral 4.220062e-05 scatter_volume 4.193783e-05
HYPOCENTER  x 694.385 y 5155.62 z 0.09435  OT 54.8082  ix -1 iy -1 iz -1 MAXIMUM_LIKELIHOOD
GEOGRAPHIC  OT 2018 03 13  03 11 54.808216  Lat 5155.617875 Long 694.384675 Depth 0.094350
QUALITY  Pmax 3.25073e+60 MFmin 121.429 MFmax 121.436 RMS 0.0520828 Nphs 18 Gap 137.302 Dist 0.0047521 Mamp  0.49 18 Mdur -9.90 0
VPVSRATIO  VpVsRatio -1  Npair 0  Diff -2e+30
STATISTICS  ExpectX 694.362796 Y 5155.608450 Z 0.085478  CovXX 0.0015082 XY 0.000370577 XZ 0.000735418 YY 0.000161661 YZ 0.000131575 ZZ 0.000649965 EllAz1  159.186 Dip1  -13.0557 Len1  0.0137334 Az2  227.458 Dip2  57.9367 Len2  0.029992 Len3  8.426648e-02
STAT_GEOG  ExpectLat 5155.608450 Long 694.362796 Depth 0.085478
TRANSFORM  NONE
QML_OriginQuality  assocPhCt 18  usedPhCt 18  assocStaCt -1  usedStaCt 18  depthPhCt -1  stdErr 0.0520828  azGap 137.302  secAzGap 161.33  gtLevel -  minDist 0.0047521 maxDist 0.203192 medDist 0.0860503
QML_OriginUncertainty  horUnc -1  minHorUnc 0.0123592  maxHorUnc 0.0607283  azMaxHorUnc 75.5855
QML_ConfidenceEllipsoid  semiMajorAxisLength 0.0842665  semiMinorAxisLength 0.0137334  semiIntermediateAxisLength 0.029992  majorAxisPlunge 28.7111  majorAxisAzimuth 76.4832  majorAxisRotation 333.662
FOCALMECH  Hyp  5155.617875 694.384675 0.094350 Mech  0 0 0 mf  0 nObs -1
PHASE ID Ins Cmp On Pha  FM Date     HrMn   Sec     Err  ErrMag    Coda      Amp       Per       PriorWt  >   TTpred    Res       Weight    StaLoc(X  Y         Z)        SDist    SAzim  RAz  RDip RQual    Tcorr       TTerr
35           ?    N    ? P      ? 20180313 0311   54.9719 GAU  1.97e-02 -1.00e+00  8.15e+00  1.20e-02    8.1500 >    0.1444    0.0192    1.3245  694.3818 5155.6141   -0.4216    0.0048 217.70  -1.0  -1.0  0     0.0000    0.0001
33           ?    N    ? P      ? 20180313 0311   54.9677 GAU  2.25e-02 -1.00e+00  8.02e+00  1.20e-02    8.0200 >    0.1519    0.0076    1.4190  694.3775 5155.6293   -0.4252    0.0135 328.00  -1.0  -1.0  0     0.0000    0.0002
32           ?    N    ? P      ? 20180313 0311   54.9670 GAU  1.34e-02 -1.00e+00  8.68e+00  1.20e-02    8.6800 >    0.1632   -0.0044    1.8810  694.3777 5155.6456   -0.4297    0.0286 345.84  -1.0  -1.0  0     0.0000    0.0002
31           ?    N    ? P      ? 20180313 0311   55.4920 GAU  3.37e-02 -1.00e+00  6.79e+00  6.00e-02    6.7900 >    0.1740    0.5098    0.0001  694.4086 5155.6503   -0.4335    0.0403  36.41  -1.0  -1.0  0     0.0000    0.0002
38           ?    N    ? P      ? 20180313 0311   54.9550 GAU  3.37e-02 -1.00e+00  6.03e+00  3.60e-02    6.0300 >    0.1516   -0.0048    1.1992  694.3902 5155.5681   -0.4123    0.0501 173.71  -1.0  -1.0  0     0.0000    0.0002
28           ?    N    ? P      ? 20180313 0311   54.9986 GAU  2.95e-02 -1.00e+00  8.23e+00  1.20e-02    8.2300 >    0.1889    0.0014    1.6782  694.3767 5155.6745   -0.4362    0.0571 351.96  -1.0  -1.0  0     0.0000    0.0002
39           ?    N    ? P      ? 20180313 0311   54.9677 GAU  1.12e-02 -1.00e+00  6.70e+00  8.00e-03    6.7000 >    0.1599   -0.0004    2.2761  694.3890 5155.5532   -0.4086    0.0648 176.15  -1.0  -1.0  0     0.0000    0.0002
27           ?    N    ? P      ? 20180313 0311   55.2810 GAU  2.81e-02 -1.00e+00  7.51e+00  8.00e-03    7.5100 >    0.2094    0.2634    0.2557  694.4008 5155.6912   -0.4412    0.0751  12.38  -1.0  -1.0  0     0.0000    0.0002
41           ?    N    ? P      ? 20180313 0311   54.9965 GAU  2.60e-02 -1.00e+00  6.28e+00  4.40e-02    6.2800 >    0.1717    0.0166    1.8005  694.3901 5155.5386   -0.4053    0.0794 176.08  -1.0  -1.0  0     0.0000    0.0002
25           ?    N    ? P      ? 20180313 0311   55.2390 GAU  1.55e-02 -1.00e+00  8.73e+00  1.20e-02    8.7300 >    0.2290    0.2018    0.0930  694.3684 5155.7091   -0.4438    0.0927 349.90  -1.0  -1.0  0     0.0000    0.0002
106          ?    N    ? P      ? 20180313 0311   55.2670 GAU  1.55e-02 -1.00e+00  8.88e+00  1.20e-02    8.8800 >    0.2228    0.2359    0.2617  694.3120 5155.6801   -0.4360    0.0956 310.56  -1.0  -1.0  0     0.0000    0.0002
23           ?    N    ? P      ? 20180313 0311   55.1970 GAU  2.81e-02 -1.00e+00  8.38e+00  8.00e-03    8.3800 >    0.2465    0.1423    0.0537  694.3677 5155.7226   -0.4473    0.1060 350.78  -1.0  -1.0  0     0.0000    0.0002
22           ?    N    ? P      ? 20180313 0311   55.2180 GAU  2.46e-02 -1.00e+00  7.69e+00  8.00e-03    7.6900 >    0.2518    0.1580    0.0620  694.3985 5155.7265   -0.4488    0.1095   7.25  -1.0  -1.0  0     0.0000    0.0003
20           ?    N    ? P      ? 20180313 0311   54.9937 GAU  2.46e-02 -1.00e+00  7.03e+00  1.16e-01    7.0300 >    0.2869   -0.1014    0.0384  694.3609 5155.7515   -0.4553    0.1357 349.89  -1.0  -1.0  0     0.0000    0.0003
18           ?    N    ? P      ? 20180313 0311   55.9100 GAU  1.90e-02 -1.00e+00  6.94e+00  4.00e-02    6.9400 >    0.3096    0.7922    0.0000  694.3549 5155.7674   -0.4586    0.1525 348.73  -1.0  -1.0  0     0.0000    0.0003
17           ?    N    ? P      ? 20180313 0311   55.2040 GAU  2.88e-02 -1.00e+00  7.10e+00  8.00e-03    7.1000 >    0.3316    0.0642    0.9556  694.3461 5155.7815   -0.4621    0.1681 346.75  -1.0  -1.0  0     0.0000    0.0003
16           ?    N    ? P      ? 20180313 0311   55.4850 GAU  2.88e-02 -1.00e+00  7.43e+00  8.00e-03    7.4300 >    0.3461    0.3306    0.0754  694.3452 5155.7921   -0.4642    0.1787 347.23  -1.0  -1.0  0     0.0000    0.0003
15           ?    N    ? P      ? 20180313 0311   55.1805 GAU  1.76e-02 -1.00e+00  7.27e+00  8.00e-03    7.2700 >    0.3723   -0.0000    4.6259  694.3206 5155.8107   -0.4609    0.2032 341.61  -1.0  -1.0  0     0.0000    0.0004
END_PHASE
END_NLLOC

