NLLOC "./loc/RR.20180313.001012.grid0" "LOCATED" "Location completed."
PUBLIC_ID None
SIGNATURE "   obs:./obs/nll_picks.obs   NLLoc:v7.00.10(30Aug2020)   run:29Apr2022 23h18m13"
COMMENT "Rattlesnake Ridge Slidequake Locations"
GRID  150 250 75  694.15 5155.4 0  0.002 0.002 0.002 PROB_DENSITY
SEARCH OCTREE nInitial 1000 nEvaluated 20024 smallestNodeSide 0.003725/0.006225/0.001850 oct_tree_integral 3.900537e-04 scatter_volume 3.900537e-04
HYPOCENTER  x 694.372 y 5155.71 z 0.086025  OT 12.146  ix -1 iy -1 iz -1 MAXIMUM_LIKELIHOOD
GEOGRAPHIC  OT 2018 03 13  00 10 12.145954  Lat 5155.714362 Long 694.371638 Depth 0.086025
QUALITY  Pmax 1.58696e+45 MFmin 57.375 MFmax 57.3968 RMS 0.00870876 Nphs 13 Gap 122.829 Dist 0.00614759 Mamp  0.33 13 Mdur -9.90 0
VPVSRATIO  VpVsRatio -1  Npair 0  Diff -2e+30
STATISTICS  ExpectX 694.284424 Y 5155.675901 Z 0.092827  CovXX 0.00627141 XY 0.00269488 XZ 0.000626741 YY 0.00144005 YZ 0.000412005 ZZ 0.00139904 EllAz1  156.578 Dip1  6.25827 Len1  0.0280817 Az2  288.629 Dip2  80.7016 Len2  0.0683479 Len3  1.634015e-01
STAT_GEOG  ExpectLat 5155.675901 Long 694.284424 Depth 0.092827
TRANSFORM  NONE
QML_OriginQuality  assocPhCt 13  usedPhCt 13  assocStaCt -1  usedStaCt 13  depthPhCt -1  stdErr 0.00870876  azGap 122.829  secAzGap 160.625  gtLevel -  minDist 0.00614759 maxDist 0.0739333 medDist 0.0372012
QML_OriginUncertainty  horUnc -1  minHorUnc 0.0233289  maxHorUnc 0.131119  azMaxHorUnc 65.9365
QML_ConfidenceEllipsoid  semiMajorAxisLength 0.163401  semiMinorAxisLength 0.0280817  semiIntermediateAxisLength 0.0683479  majorAxisPlunge 6.84955  majorAxisAzimuth 65.8232  majorAxisRotation 6.48646
FOCALMECH  Hyp  5155.714362 694.371638 0.086025 Mech  0 0 0 mf  0 nObs -1
PHASE ID Ins Cmp On Pha  FM Date     HrMn   Sec     Err  ErrMag    Coda      Amp       Per       PriorWt  >   TTpred    Res       Weight    StaLoc(X  Y         Z)        SDist    SAzim  RAz  RDip RQual    Tcorr       TTerr
25           ?    N    ? P      ? 20180313 0010   12.2785 GAU  9.07e-03 -1.00e+00  7.81e+00  1.20e-02    7.8100 >    0.1323    0.0002    0.7365  694.3684 5155.7091   -0.4438    0.0061 211.45  -1.0  -1.0  0     0.0000    0.0001
23           ?    N    ? P      ? 20180313 0010   12.2977 GAU  1.92e-02 -1.00e+00  8.84e+00  8.00e-03    8.8400 >    0.1382    0.0136    0.6564  694.3677 5155.7226   -0.4473    0.0091 334.28  -1.0  -1.0  0     0.0000    0.0001
26           ?    N    ? P      ? 20180313 0010   12.2840 GAU  1.46e-02 -1.00e+00  7.64e+00  2.80e-02    7.6400 >    0.1319    0.0062    0.7830  694.3783 5155.6910   -0.4400    0.0243 164.10  -1.0  -1.0  0     0.0000    0.0001
21           ?    N    ? P      ? 20180313 0010   12.3108 GAU  1.61e-02 -1.00e+00  8.38e+00  1.20e-02    8.3800 >    0.1500    0.0148    0.8938  694.3642 5155.7391   -0.4517    0.0259 343.21  -1.0  -1.0  0     0.0000    0.0002
22           ?    N    ? P      ? 20180313 0010   12.2901 GAU  2.57e-02 -1.00e+00  6.28e+00  1.20e-02    6.2800 >    0.1470   -0.0028    0.6478  694.3985 5155.7265   -0.4488    0.0295  65.60  -1.0  -1.0  0     0.0000    0.0001
105          ?    N    ? P      ? 20180313 0010   12.2775 GAU  1.61e-02 -1.00e+00  8.11e+00  8.00e-03    8.1100 >    0.1327   -0.0011    0.8900  694.3764 5155.6832   -0.4382    0.0315 171.30  -1.0  -1.0  0     0.0000    0.0001
27           ?    N    ? P      ? 20180313 0010   12.3083 GAU  1.66e-02 -1.00e+00  5.88e+00  8.00e-03    5.8800 >    0.1404    0.0220    0.6815  694.4008 5155.6912   -0.4412    0.0372 128.41  -1.0  -1.0  0     0.0000    0.0001
20           ?    N    ? P      ? 20180313 0010   12.3027 GAU  9.08e-03 -1.00e+00  8.26e+00  8.00e-03    8.2600 >    0.1612   -0.0044    1.3597  694.3609 5155.7515   -0.4553    0.0386 343.79  -1.0  -1.0  0     0.0000    0.0002
28           ?    N    ? P      ? 20180313 0010   12.2825 GAU  1.82e-02 -1.00e+00  7.34e+00  8.00e-03    7.3400 >    0.1357    0.0009    0.9826  694.3767 5155.6745   -0.4362    0.0402 172.79  -1.0  -1.0  0     0.0000    0.0001
30           ?    N    ? P      ? 20180313 0010   12.3002 GAU  3.08e-02 -1.00e+00  7.18e+00  1.20e-02    7.1800 >    0.1422    0.0120    0.9495  694.3775 5155.6619   -0.4333    0.0528 173.65  -1.0  -1.0  0     0.0000    0.0001
18           ?    N    ? P      ? 20180313 0010   12.3304 GAU  2.37e-02 -1.00e+00  7.83e+00  8.00e-03    7.8300 >    0.1773    0.0071    1.4403  694.3549 5155.7674   -0.4586    0.0556 342.48  -1.0  -1.0  0     0.0000    0.0002
17           ?    N    ? P      ? 20180313 0010   12.3562 GAU  3.43e-02 -1.00e+00  6.92e+00  2.40e-02    6.9200 >    0.1955    0.0147    1.3864  694.3461 5155.7815   -0.4621    0.0718 339.20  -1.0  -1.0  0     0.0000    0.0002
31           ?    N    ? P      ? 20180313 0010   12.3108 GAU  2.12e-02 -1.00e+00  6.02e+00  8.00e-03    6.0200 >    0.1633    0.0016    1.5927  694.4086 5155.6503   -0.4335    0.0739 149.98  -1.0  -1.0  0     0.0000    0.0002
END_PHASE
END_NLLOC

