NLLOC "./loc/RR.20180313.000628.grid0" "LOCATED" "Location completed."
PUBLIC_ID None
SIGNATURE "   obs:./obs/nll_picks.obs   NLLoc:v7.00.10(30Aug2020)   run:29Apr2022 23h17m15"
COMMENT "Rattlesnake Ridge Slidequake Locations"
GRID  150 250 75  694.15 5155.4 0  0.002 0.002 0.002 PROB_DENSITY
SEARCH OCTREE nInitial 1000 nEvaluated 20000 smallestNodeSide 0.003725/0.006225/0.001850 oct_tree_integral 1.704420e-03 scatter_volume 1.704420e-03
HYPOCENTER  x 694.174 y 5155.88 z 0.000925  OT 27.8097  ix -1 iy -1 iz -1 MAXIMUM_LIKELIHOOD
GEOGRAPHIC  OT 2018 03 13  00 06 27.809714  Lat 5155.876213 Long 694.174212 Depth 0.000925
QUALITY  Pmax 3.52884e+46 MFmin 50.152 MFmax 50.171 RMS 0.0175967 Nphs 14 Gap 342.849 Dist 0.27562 Mamp  0.88 14 Mdur -9.90 0
VPVSRATIO  VpVsRatio -1  Npair 0  Diff -2e+30
STATISTICS  ExpectX 694.271737 Y 5155.822442 Z 0.067764  CovXX 0.00412714 XY -0.00115763 XZ 0.00133528 YY 0.00259873 YZ 0.00040199 ZZ 0.00164837 EllAz1  46.0367 Dip1  -51.6392 Len1  0.0485161 Az2  190.7 Dip2  -32.8489 Len2  0.0966115 Len3  1.336917e-01
STAT_GEOG  ExpectLat 5155.822442 Long 694.271737 Depth 0.067764
TRANSFORM  NONE
QML_OriginQuality  assocPhCt 14  usedPhCt 14  assocStaCt -1  usedStaCt 14  depthPhCt -1  stdErr 0.0175967  azGap 342.849  secAzGap 345.851  gtLevel -  minDist 0.27562 maxDist 0.387941 medDist 0.322672
QML_OriginUncertainty  horUnc -1  minHorUnc 0.0674119  maxHorUnc 0.104523  azMaxHorUnc 118.285
QML_ConfidenceEllipsoid  semiMajorAxisLength 0.133692  semiMinorAxisLength 0.0485161  semiIntermediateAxisLength 0.0966115  majorAxisPlunge 17.5508  majorAxisAzimuth 112.483  majorAxisRotation 240.492
FOCALMECH  Hyp  5155.876213 694.174212 0.000925 Mech  0 0 0 mf  0 nObs -1
PHASE ID Ins Cmp On Pha  FM Date     HrMn   Sec     Err  ErrMag    Coda      Amp       Per       PriorWt  >   TTpred    Res       Weight    StaLoc(X  Y         Z)        SDist    SAzim  RAz  RDip RQual    Tcorr       TTerr
26           ?    N    ? P      ? 20180313 0006   28.2484 GAU  3.21e-02 -1.00e+00  6.52e+00  1.20e-02    6.5200 >    0.4521   -0.0134    1.2784  694.3783 5155.6910   -0.4400    0.2756 132.23  -1.0  -1.0  0     0.0000    0.0005
105          ?    N    ? P      ? 20180313 0006   28.2692 GAU  3.21e-02 -1.00e+00  7.45e+00  1.20e-02    7.4500 >    0.4575    0.0020    1.3101  694.3764 5155.6832   -0.4382    0.2795 133.66  -1.0  -1.0  0     0.0000    0.0005
28           ?    N    ? P      ? 20180313 0006   28.2708 GAU  2.73e-02 -1.00e+00  7.44e+00  8.00e-03    7.4400 >    0.4666   -0.0055    1.1959  694.3767 5155.6745   -0.4362    0.2858 134.90  -1.0  -1.0  0     0.0000    0.0005
27           ?    N    ? P      ? 20180313 0006   28.2941 GAU  5.85e-02 -1.00e+00  5.21e+00  4.80e-02    5.2100 >    0.4769    0.0075    0.8881  694.4008 5155.6912   -0.4412    0.2925 129.23  -1.0  -1.0  0     0.0000    0.0005
30           ?    N    ? P      ? 20180313 0006   28.2925 GAU  3.45e-02 -1.00e+00  6.42e+00  8.00e-03    6.4200 >    0.4802    0.0026    0.8301  694.3775 5155.6619   -0.4333    0.2954 136.51  -1.0  -1.0  0     0.0000    0.0005
32           ?    N    ? P      ? 20180313 0006   28.3542 GAU  4.17e-02 -1.00e+00  8.23e+00  1.20e-02    8.2300 >    0.4979    0.0466    0.4815  694.3777 5155.6456   -0.4297    0.3076 138.58  -1.0  -1.0  0     0.0000    0.0005
33           ?    N    ? P      ? 20180313 0006   28.3574 GAU  3.21e-02 -1.00e+00  8.26e+00  1.20e-02    8.2600 >    0.5150    0.0327    0.5827  694.3775 5155.6293   -0.4252    0.3198 140.53  -1.0  -1.0  0     0.0000    0.0005
31           ?    N    ? P      ? 20180313 0006   28.3334 GAU  4.65e-02 -1.00e+00  5.47e+00  6.80e-02    5.4700 >    0.5248   -0.0011    0.6208  694.4086 5155.6503   -0.4335    0.3255 133.94  -1.0  -1.0  0     0.0000    0.0005
35           ?    N    ? P      ? 20180313 0006   28.3679 GAU  4.09e-02 -1.00e+00  8.86e+00  8.00e-03    8.8600 >    0.5357    0.0224    0.6856  694.3818 5155.6141   -0.4216    0.3343 141.62  -1.0  -1.0  0     0.0000    0.0005
34           ?    N    ? P      ? 20180313 0006   28.4473 GAU  4.33e-02 -1.00e+00  7.05e+00  1.60e-02    7.0500 >    0.5677    0.0698    0.3703  694.4145 5155.6153   -0.4263    0.3547 137.36  -1.0  -1.0  0     0.0000    0.0006
36           ?    N    ? P      ? 20180313 0006   28.3855 GAU  2.33e-02 -1.00e+00  7.07e+00  3.20e-02    7.0700 >    0.5679    0.0079    1.1633  694.3865 5155.5904   -0.4164    0.3561 143.40  -1.0  -1.0  0     0.0000    0.0006
38           ?    N    ? P      ? 20180313 0006   28.4023 GAU  2.73e-02 -1.00e+00  6.03e+00  5.60e-02    6.0300 >    0.5981   -0.0055    1.4658  694.3902 5155.5681   -0.4123    0.3762 144.97  -1.0  -1.0  0     0.0000    0.0006
37           ?    N    ? P      ? 20180313 0006   28.4280 GAU  2.73e-02 -1.00e+00  5.94e+00  8.00e-03    5.9400 >    0.6057    0.0126    1.2758  694.4219 5155.5876   -0.4220    0.3803 139.36  -1.0  -1.0  0     0.0000    0.0006
39           ?    N    ? P      ? 20180313 0006   28.4120 GAU  2.41e-02 -1.00e+00  6.31e+00  3.60e-02    6.3100 >    0.6153   -0.0130    1.8516  694.3890 5155.5532   -0.4086    0.3879 146.38  -1.0  -1.0  0     0.0000    0.0006
END_PHASE
END_NLLOC

