NLLOC "./loc/RR.20180313.000656.grid0" "LOCATED" "Location completed."
PUBLIC_ID None
SIGNATURE "   obs:./obs/nll_picks.obs   NLLoc:v7.00.10(30Aug2020)   run:29Apr2022 23h17m19"
COMMENT "Rattlesnake Ridge Slidequake Locations"
GRID  150 250 75  694.15 5155.4 0  0.002 0.002 0.002 PROB_DENSITY
SEARCH OCTREE nInitial 1000 nEvaluated 11112 smallestNodeSide 0.001863/0.003112/0.000925 oct_tree_integral 8.231157e-05 scatter_volume 8.167066e-05
HYPOCENTER  x 694.408 y 5155.65 z 0.0235875  OT 56.0874  ix -1 iy -1 iz -1 MAXIMUM_LIKELIHOOD
GEOGRAPHIC  OT 2018 03 13  00 06 56.087356  Lat 5155.647444 Long 694.407956 Depth 0.023587
QUALITY  Pmax 8.3416e+34 MFmin 55.0273 MFmax 55.0362 RMS 0.0351052 Nphs 13 Gap 153.869 Dist 0.0029795 Mamp  0.09 13 Mdur -9.90 0
VPVSRATIO  VpVsRatio -1  Npair 0  Diff -2e+30
STATISTICS  ExpectX 694.418514 Y 5155.708984 Z 0.072045  CovXX 0.000548232 XY -0.000153946 XZ -7.36284e-05 YY 0.00286062 YZ 0.00170318 ZZ 0.0014701 EllAz1  11.4384 Dip1  -55.2679 Len1  0.0337626 Az2  271.322 Dip2  -6.94256 Len2  0.0437738 Len3  1.190237e-01
STAT_GEOG  ExpectLat 5155.708984 Long 694.418514 Depth 0.072045
TRANSFORM  NONE
QML_OriginQuality  assocPhCt 13  usedPhCt 13  assocStaCt -1  usedStaCt 13  depthPhCt -1  stdErr 0.0351052  azGap 153.869  secAzGap 216.038  gtLevel -  minDist 0.0029795 maxDist 0.11026 medDist 0.0423861
QML_OriginUncertainty  horUnc -1  minHorUnc 0.0351776  maxHorUnc 0.0812582  azMaxHorUnc 176.208
QML_ConfidenceEllipsoid  semiMajorAxisLength 0.119024  semiMinorAxisLength 0.0337626  semiIntermediateAxisLength 0.0437738  majorAxisPlunge -33.8327  majorAxisAzimuth 176.641  majorAxisRotation 266.801
FOCALMECH  Hyp  5155.647444 694.407956 0.023587 Mech  0 0 0 mf  0 nObs -1
PHASE ID Ins Cmp On Pha  FM Date     HrMn   Sec     Err  ErrMag    Coda      Amp       Per       PriorWt  >   TTpred    Res       Weight    StaLoc(X  Y         Z)        SDist    SAzim  RAz  RDip RQual    Tcorr       TTerr
31           ?    N    ? P      ? 20180313 0006   56.1346 GAU  3.41e-02 -1.00e+00  6.33e+00  1.20e-02    6.3300 >    0.0398    0.0074    2.4387  694.4086 5155.6503   -0.4335    0.0030  12.99  -1.0  -1.0  0     0.0000    0.0001
32           ?    N    ? P      ? 20180313 0006   56.7610 GAU  2.84e-02 -1.00e+00  8.02e+00  1.20e-02    8.0200 >    0.0601    0.6136    0.0192  694.3777 5155.6456   -0.4297    0.0303 266.46  -1.0  -1.0  0     0.0000    0.0001
34           ?    N    ? P      ? 20180313 0006   56.8540 GAU  2.72e-02 -1.00e+00  6.66e+00  3.60e-02    6.6600 >    0.0605    0.7061    0.0182  694.4145 5155.6153   -0.4263    0.0328 168.48  -1.0  -1.0  0     0.0000    0.0001
30           ?    N    ? P      ? 20180313 0006   56.1407 GAU  6.21e-02 -1.00e+00  8.04e+00  1.20e-02    8.0400 >    0.0679   -0.0145    2.1446  694.3775 5155.6619   -0.4333    0.0337 295.39  -1.0  -1.0  0     0.0000    0.0001
33           ?    N    ? P      ? 20180313 0006   56.3910 GAU  1.42e-02 -1.00e+00  8.20e+00  1.60e-02    8.2000 >    0.0638    0.2398    0.0004  694.3775 5155.6293   -0.4252    0.0354 239.24  -1.0  -1.0  0     0.0000    0.0001
28           ?    N    ? P      ? 20180313 0006   56.9880 GAU  2.19e-02 -1.00e+00  7.14e+00  1.20e-02    7.1400 >    0.0808    0.8198    0.0027  694.3767 5155.6745   -0.4362    0.0413 310.82  -1.0  -1.0  0     0.0000    0.0001
35           ?    N    ? P      ? 20180313 0006   56.1600 GAU  1.38e-02 -1.00e+00  9.06e+00  4.40e-02    9.0600 >    0.0723    0.0004    1.8964  694.3818 5155.6141   -0.4216    0.0424 218.16  -1.0  -1.0  0     0.0000    0.0001
36           ?    N    ? P      ? 20180313 0006   56.1720 GAU  1.26e-02 -1.00e+00  9.13e+00  8.00e-03    9.1300 >    0.1005   -0.0158    1.2911  694.3865 5155.5904   -0.4164    0.0610 200.58  -1.0  -1.0  0     0.0000    0.0001
37           ?    N    ? P      ? 20180313 0006   56.1005 GAU  6.98e-02 -1.00e+00  7.67e+00  1.60e-02    7.6700 >    0.1029   -0.0898    0.5651  694.4219 5155.5876   -0.4220    0.0615 166.86  -1.0  -1.0  0     0.0000    0.0001
38           ?    N    ? P      ? 20180313 0006   56.2290 GAU  1.50e-02 -1.00e+00  8.54e+00  1.20e-02    8.5400 >    0.1332    0.0084    2.0053  694.3902 5155.5681   -0.4123    0.0813 192.65  -1.0  -1.0  0     0.0000    0.0001
39           ?    N    ? P      ? 20180313 0006   56.2450 GAU  1.99e-02 -1.00e+00  7.12e+00  5.60e-02    7.1200 >    0.1573    0.0003    2.5639  694.3890 5155.5532   -0.4086    0.0962 191.36  -1.0  -1.0  0     0.0000    0.0002
40           ?    N    ? P      ? 20180313 0006   56.7160 GAU  3.86e-02 -1.00e+00  7.00e+00  8.00e-03    7.0000 >    0.1742    0.4545    0.0036  694.4169 5155.5417   -0.4131    0.1061 175.18  -1.0  -1.0  0     0.0000    0.0002
41           ?    N    ? P      ? 20180313 0006   56.4080 GAU  1.99e-02 -1.00e+00  6.62e+00  1.20e-02    6.6200 >    0.1804    0.1403    0.0508  694.3901 5155.5386   -0.4053    0.1103 189.32  -1.0  -1.0  0     0.0000    0.0002
END_PHASE
END_NLLOC

