NLLOC "./loc/RR.20180313.000456.grid0" "REJECTED" "WARNING: max prob location on grid boundary 10, rejecting location."
PUBLIC_ID None
SIGNATURE "   obs:./obs/nll_picks.obs   NLLoc:v7.00.10(30Aug2020)   run:29Apr2022 23h16m45"
COMMENT "Rattlesnake Ridge Slidequake Locations"
GRID  150 250 75  694.15 5155.4 0  0.002 0.002 0.002 PROB_DENSITY
SEARCH OCTREE nInitial 1000 nEvaluated 20000 smallestNodeSide 0.003725/0.006225/0.001850 oct_tree_integral 2.685657e-04 scatter_volume 2.630694e-04
HYPOCENTER  x 694.152 y 5155.55 z 0.145225  OT 55.678  ix -1 iy -1 iz -1 MAXIMUM_LIKELIHOOD
GEOGRAPHIC  OT 2018 03 13  00 04 55.678039  Lat 5155.552513 Long 694.151862 Depth 0.145225
QUALITY  Pmax 2.73354e+89 MFmin 137.928 MFmax 137.951 RMS 0.0135428 Nphs 22 Gap 315.352 Dist 0.204736 Mamp  0.88 22 Mdur -9.90 0
VPVSRATIO  VpVsRatio -1  Npair 0  Diff -2e+30
STATISTICS  ExpectX 694.197893 Y 5155.564800 Z 0.095076  CovXX 0.00174515 XY 0.000567448 XZ 0.000393604 YY 0.000360288 YZ 0.000178942 ZZ 0.00158572 EllAz1  160.707 Dip1  1.557 Len1  0.023504 Az2  253.047 Dip2  56.3385 Len2  0.0677484 Len3  8.881159e-02
STAT_GEOG  ExpectLat 5155.564800 Long 694.197893 Depth 0.095076
TRANSFORM  NONE
QML_OriginQuality  assocPhCt 22  usedPhCt 22  assocStaCt -1  usedStaCt 22  depthPhCt -1  stdErr 0.0135428  azGap 315.352  secAzGap 318.134  gtLevel -  minDist 0.204736 maxDist 0.301858 medDist 0.262526
QML_OriginUncertainty  horUnc -1  minHorUnc 0.0190315  maxHorUnc 0.0669352  azMaxHorUnc 70.3327
QML_ConfidenceEllipsoid  semiMajorAxisLength 0.0888116  semiMinorAxisLength 0.023504  semiIntermediateAxisLength 0.0677484  majorAxisPlunge 33.6157  majorAxisAzimuth 69.6719  majorAxisRotation 4.8216
FOCALMECH  Hyp  5155.552513 694.151862 0.145225 Mech  0 0 0 mf  0 nObs -1
PHASE ID Ins Cmp On Pha  FM Date     HrMn   Sec     Err  ErrMag    Coda      Amp       Per       PriorWt  >   TTpred    Res       Weight    StaLoc(X  Y         Z)        SDist    SAzim  RAz  RDip RQual    Tcorr       TTerr
106          ?    N    ? P      ? 20180313 0004   56.2206 GAU  3.43e-02 -1.00e+00  7.05e+00  2.40e-02    7.0500 >    0.4460    0.0966    0.1204  694.3120 5155.6801   -0.4360    0.2047  51.47  -1.0  -1.0  0     0.0000    0.0004
39           ?    N    ? P      ? 20180313 0004   56.1194 GAU  1.38e-02 -1.00e+00  7.78e+00  3.60e-02    7.7800 >    0.4505   -0.0092    1.7480  694.3890 5155.5532   -0.4086    0.2372  89.84  -1.0  -1.0  0     0.0000    0.0005
36           ?    N    ? P      ? 20180313 0004   56.1573 GAU  1.09e-02 -1.00e+00  7.94e+00  1.20e-02    7.9400 >    0.4573    0.0219    0.9307  694.3865 5155.5904   -0.4164    0.2377  80.84  -1.0  -1.0  0     0.0000    0.0005
35           ?    N    ? P      ? 20180313 0004   56.1531 GAU  1.13e-02 -1.00e+00  9.03e+00  2.80e-02    9.0300 >    0.4618    0.0133    0.9420  694.3818 5155.6141   -0.4216    0.2380  75.00  -1.0  -1.0  0     0.0000    0.0005
42           ?    N    ? P      ? 20180313 0004   56.9430 GAU  1.43e-02 -1.00e+00  9.02e+00  1.20e-02    9.0200 >    0.4461    0.8189    0.0000  694.3873 5155.5165   -0.3983    0.2382  98.69  -1.0  -1.0  0     0.0000    0.0004
33           ?    N    ? P      ? 20180313 0004   56.1417 GAU  1.07e-02 -1.00e+00  8.90e+00  1.20e-02    8.9000 >    0.4661   -0.0024    0.9568  694.3775 5155.6293   -0.4252    0.2384  71.20  -1.0  -1.0  0     0.0000    0.0005
41           ?    N    ? P      ? 20180313 0004   56.1101 GAU  1.68e-02 -1.00e+00  7.88e+00  1.20e-02    7.8800 >    0.4503   -0.0182    1.6307  694.3901 5155.5386   -0.4053    0.2386  93.33  -1.0  -1.0  0     0.0000    0.0005
38           ?    N    ? P      ? 20180313 0004   56.1497 GAU  1.34e-02 -1.00e+00  7.31e+00  1.20e-02    7.3100 >    0.4554    0.0163    1.3137  694.3902 5155.5681   -0.4123    0.2388  86.25  -1.0  -1.0  0     0.0000    0.0005
32           ?    N    ? P      ? 20180313 0004   56.1472 GAU  1.49e-02 -1.00e+00  8.76e+00  1.20e-02    8.7600 >    0.4768   -0.0076    0.8408  694.3777 5155.6456   -0.4297    0.2442  67.60  -1.0  -1.0  0     0.0000    0.0005
30           ?    N    ? P      ? 20180313 0004   56.1583 GAU  1.63e-02 -1.00e+00  8.08e+00  2.40e-02    8.0800 >    0.4868   -0.0065    0.8567  694.3775 5155.6619   -0.4333    0.2507  64.13  -1.0  -1.0  0     0.0000    0.0005
28           ?    N    ? P      ? 20180313 0004   56.1770 GAU  1.70e-02 -1.00e+00  8.50e+00  1.20e-02    8.5000 >    0.4949    0.0041    1.0269  694.3767 5155.6745   -0.4362    0.2558  61.52  -1.0  -1.0  0     0.0000    0.0005
105          ?    N    ? P      ? 20180313 0004   56.1759 GAU  2.08e-02 -1.00e+00  8.50e+00  1.20e-02    8.5000 >    0.5011   -0.0032    1.0228  694.3764 5155.6832   -0.4382    0.2598  59.79  -1.0  -1.0  0     0.0000    0.0005
40           ?    N    ? P      ? 20180313 0004   56.1837 GAU  2.79e-02 -1.00e+00  6.90e+00  8.00e-03    6.9000 >    0.4878    0.0178    1.4361  694.4169 5155.5417   -0.4131    0.2652  92.33  -1.0  -1.0  0     0.0000    0.0005
26           ?    N    ? P      ? 20180313 0004   56.1995 GAU  3.11e-02 -1.00e+00  7.14e+00  2.00e-02    7.1400 >    0.5091    0.0123    0.8307  694.3783 5155.6910   -0.4400    0.2654  58.56  -1.0  -1.0  0     0.0000    0.0005
25           ?    N    ? P      ? 20180313 0004   56.2091 GAU  3.11e-02 -1.00e+00  6.91e+00  1.20e-02    6.9100 >    0.5151    0.0159    1.0092  694.3684 5155.7091   -0.4438    0.2673  54.13  -1.0  -1.0  0     0.0000    0.0005
34           ?    N    ? P      ? 20180313 0004   56.2074 GAU  2.04e-02 -1.00e+00  7.48e+00  6.80e-02    7.4800 >    0.5020    0.0274    0.6887  694.4145 5155.6153   -0.4263    0.2700  76.56  -1.0  -1.0  0     0.0000    0.0005
37           ?    N    ? P      ? 20180313 0004   56.1784 GAU  1.83e-02 -1.00e+00  6.72e+00  1.20e-02    6.7200 >    0.5018   -0.0014    1.2215  694.4219 5155.5876   -0.4220    0.2723  82.60  -1.0  -1.0  0     0.0000    0.0005
23           ?    N    ? P      ? 20180313 0004   56.2057 GAU  2.28e-02 -1.00e+00  7.55e+00  1.20e-02    7.5500 >    0.5270    0.0007    1.5239  694.3677 5155.7226   -0.4473    0.2748  51.77  -1.0  -1.0  0     0.0000    0.0005
31           ?    N    ? P      ? 20180313 0004   56.1891 GAU  1.94e-02 -1.00e+00  6.64e+00  8.00e-03    6.6400 >    0.5130   -0.0019    0.7922  694.4086 5155.6503   -0.4335    0.2748  69.14  -1.0  -1.0  0     0.0000    0.0005
21           ?    N    ? P      ? 20180313 0004   56.2213 GAU  3.84e-02 -1.00e+00  6.67e+00  1.20e-02    6.6700 >    0.5403    0.0030    1.2483  694.3642 5155.7391   -0.4517    0.2827  48.68  -1.0  -1.0  0     0.0000    0.0005
27           ?    N    ? P      ? 20180313 0004   56.1953 GAU  2.91e-02 -1.00e+00  6.26e+00  8.00e-03    6.2600 >    0.5309   -0.0137    0.7663  694.4008 5155.6912   -0.4412    0.2850  60.87  -1.0  -1.0  0     0.0000    0.0005
22           ?    N    ? P      ? 20180313 0004   56.2448 GAU  3.50e-02 -1.00e+00  5.98e+00  8.00e-03    5.9800 >    0.5569    0.0099    1.0933  694.3985 5155.7265   -0.4488    0.3019  54.79  -1.0  -1.0  0     0.0000    0.0006
END_PHASE
END_NLLOC

