NLLOC "./loc/RR.20180313.015848.grid0" "REJECTED" "WARNING: max prob location on grid boundary 31, rejecting location."
PUBLIC_ID None
SIGNATURE "   obs:./obs/nll_picks.obs   NLLoc:v7.00.10(30Aug2020)   run:29Apr2022 23h20m40"
COMMENT "Rattlesnake Ridge Slidequake Locations"
GRID  150 250 75  694.15 5155.4 0  0.002 0.002 0.002 PROB_DENSITY
SEARCH OCTREE nInitial 1000 nEvaluated 8552 smallestNodeSide 0.001863/0.003112/0.000925 oct_tree_integral 3.616090e-05 scatter_volume 3.616090e-05
HYPOCENTER  x 694.257 y 5155.69 z 0.147537  OT 48.6738  ix -1 iy -1 iz -1 MAXIMUM_LIKELIHOOD
GEOGRAPHIC  OT 2018 03 13  01 58 48.673780  Lat 5155.687906 Long 694.257094 Depth 0.147537
QUALITY  Pmax 3.73278e+80 MFmin 157.906 MFmax 157.945 RMS 0.0222488 Nphs 20 Gap 255.609 Dist 0.113339 Mamp  0.68 20 Mdur -9.90 0
VPVSRATIO  VpVsRatio -1  Npair 0  Diff -2e+30
STATISTICS  ExpectX 694.229510 Y 5155.679630 Z 0.115879  CovXX 0.00146427 XY 0.000148675 XZ 0.000443561 YY 8.18805e-05 YZ 0.000210569 ZZ 0.000936772 EllAz1  177.855 Dip1  12.081 Len1  0.0104965 Az2  287.138 Dip2  57.0512 Len2  0.0497895 Len3  7.858469e-02
STAT_GEOG  ExpectLat 5155.679630 Long 694.229510 Depth 0.115879
TRANSFORM  NONE
QML_OriginQuality  assocPhCt 20  usedPhCt 20  assocStaCt -1  usedStaCt 20  depthPhCt -1  stdErr 0.0222488  azGap 255.609  secAzGap 268.212  gtLevel -  minDist 0.113339 maxDist 0.179041 medDist 0.128492
QML_OriginUncertainty  horUnc -1  minHorUnc 0.0123274  maxHorUnc 0.0583454  azMaxHorUnc 83.9304
QML_ConfidenceEllipsoid  semiMajorAxisLength 0.0785847  semiMinorAxisLength 0.0104965  semiIntermediateAxisLength 0.0497895  majorAxisPlunge 30.1329  majorAxisAzimuth 80.7185  majorAxisRotation 26.6962
FOCALMECH  Hyp  5155.687906 694.257094 0.147537 Mech  0 0 0 mf  0 nObs -1
PHASE ID Ins Cmp On Pha  FM Date     HrMn   Sec     Err  ErrMag    Coda      Amp       Per       PriorWt  >   TTpred    Res       Weight    StaLoc(X  Y         Z)        SDist    SAzim  RAz  RDip RQual    Tcorr       TTerr
25           ?    N    ? P      ? 20180313 0158   48.9828 GAU  2.55e-03 -1.00e+00  8.99e+00  8.00e-03    8.9900 >    0.2980    0.0110    0.8748  694.3684 5155.7091   -0.4438    0.1133  79.21  -1.0  -1.0  0     0.0000    0.0003
23           ?    N    ? P      ? 20180313 0158   48.9884 GAU  6.50e-03 -1.00e+00  8.74e+00  1.20e-02    8.7400 >    0.3041    0.0105    1.0017  694.3677 5155.7226   -0.4473    0.1159  72.61  -1.0  -1.0  0     0.0000    0.0003
21           ?    N    ? P      ? 20180313 0158   48.9900 GAU  1.25e-02 -1.00e+00  7.09e+00  8.00e-03    7.0900 >    0.3120    0.0042    1.2087  694.3642 5155.7391   -0.4517    0.1187  64.44  -1.0  -1.0  0     0.0000    0.0003
105          ?    N    ? P      ? 20180313 0158   48.9530 GAU  1.23e-02 -1.00e+00  1.01e+01  8.00e-03   10.1000 >    0.2961   -0.0169    0.5473  694.3764 5155.6832   -0.4382    0.1194  92.24  -1.0  -1.0  0     0.0000    0.0003
28           ?    N    ? P      ? 20180313 0158   48.9680 GAU  3.98e-03 -1.00e+00  9.77e+00  8.00e-03    9.7700 >    0.2952   -0.0010    1.1305  694.3767 5155.6745   -0.4362    0.1203  96.42  -1.0  -1.0  0     0.0000    0.0003
26           ?    N    ? P      ? 20180313 0158   48.9736 GAU  3.58e-03 -1.00e+00  8.92e+00  1.20e-02    8.9200 >    0.3000   -0.0001    1.1268  694.3783 5155.6910   -0.4400    0.1212  88.55  -1.0  -1.0  0     0.0000    0.0003
20           ?    N    ? P      ? 20180313 0158   48.9987 GAU  1.14e-02 -1.00e+00  6.85e+00  8.00e-03    6.8500 >    0.3183    0.0066    1.4358  694.3609 5155.7515   -0.4553    0.1217  58.51  -1.0  -1.0  0     0.0000    0.0003
30           ?    N    ? P      ? 20180313 0158   48.9633 GAU  3.98e-03 -1.00e+00  8.14e+00  6.80e-02    8.1400 >    0.2941   -0.0046    0.9858  694.3775 5155.6619   -0.4333    0.1232 102.18  -1.0  -1.0  0     0.0000    0.0003
18           ?    N    ? P      ? 20180313 0158   48.9970 GAU  9.75e-03 -1.00e+00  6.12e+00  8.00e-03    6.1200 >    0.3264   -0.0032    1.9590  694.3549 5155.7674   -0.4586    0.1260  50.89  -1.0  -1.0  0     0.0000    0.0003
32           ?    N    ? P      ? 20180313 0158   48.9495 GAU  1.46e-02 -1.00e+00  7.48e+00  1.20e-02    7.4800 >    0.2945   -0.0188    0.6162  694.3777 5155.6456   -0.4297    0.1278 109.34  -1.0  -1.0  0     0.0000    0.0003
17           ?    N    ? P      ? 20180313 0158   48.9862 GAU  2.60e-02 -1.00e+00  6.24e+00  8.00e-03    6.2400 >    0.3334   -0.0209    0.9726  694.3461 5155.7815   -0.4621    0.1292  43.58  -1.0  -1.0  0     0.0000    0.0003
33           ?    N    ? P      ? 20180313 0158   48.9736 GAU  9.03e-03 -1.00e+00  7.62e+00  8.00e-03    7.6200 >    0.2952    0.0046    1.5843  694.3775 5155.6293   -0.4252    0.1339 115.94  -1.0  -1.0  0     0.0000    0.0003
16           ?    N    ? P      ? 20180313 0158   49.8400 GAU  4.17e-02 -1.00e+00  6.30e+00  1.20e-02    6.3000 >    0.3424    0.8238    0.0111  694.3452 5155.7921   -0.4642    0.1365  40.21  -1.0  -1.0  0     0.0000    0.0003
27           ?    N    ? P      ? 20180313 0158   48.9966 GAU  3.75e-03 -1.00e+00  7.46e+00  1.20e-02    7.4600 >    0.3221    0.0007    1.2429  694.4008 5155.6912   -0.4412    0.1437  88.67  -1.0  -1.0  0     0.0000    0.0003
35           ?    N    ? P      ? 20180313 0158   48.9821 GAU  6.37e-03 -1.00e+00  7.46e+00  1.20e-02    7.4600 >    0.3018    0.0065    2.1222  694.3818 5155.6141   -0.4216    0.1449 120.62  -1.0  -1.0  0     0.0000    0.0003
22           ?    N    ? P      ? 20180313 0158   49.9000 GAU  7.58e-03 -1.00e+00  7.38e+00  1.20e-02    7.3800 >    0.3331    0.8931    0.0111  694.3985 5155.7265   -0.4488    0.1466  74.72  -1.0  -1.0  0     0.0000    0.0003
31           ?    N    ? P      ? 20180313 0158   49.1200 GAU  1.65e-02 -1.00e+00  7.00e+00  1.60e-02    7.0000 >    0.3263    0.1199    0.0633  694.4086 5155.6503   -0.4335    0.1561 103.92  -1.0  -1.0  0     0.0000    0.0003
36           ?    N    ? P      ? 20180313 0158   48.9896 GAU  9.03e-03 -1.00e+00  6.14e+00  1.20e-02    6.1400 >    0.3158    0.0000    2.4166  694.3865 5155.5904   -0.4164    0.1621 127.01  -1.0  -1.0  0     0.0000    0.0003
10           ?    N    ? P      ? 20180313 0158   48.9943 GAU  3.52e-02 -1.00e+00  6.07e+00  1.20e-02    6.0700 >    0.3705   -0.0500    0.6260  694.3329 5155.8329   -0.4673    0.1636  27.61  -1.0  -1.0  0     0.0000    0.0004
38           ?    N    ? P      ? 20180313 0158   49.1130 GAU  1.59e-02 -1.00e+00  5.63e+00  1.20e-02    5.6300 >    0.3318    0.1074    0.0634  694.3902 5155.5681   -0.4123    0.1790 132.00  -1.0  -1.0  0     0.0000    0.0003
END_PHASE
END_NLLOC

