NLLOC "./loc/RR.20180313.003825.grid0" "LOCATED" "Location completed."
PUBLIC_ID None
SIGNATURE "   obs:./obs/nll_picks.obs   NLLoc:v7.00.10(30Aug2020)   run:29Apr2022 23h19m25"
COMMENT "Rattlesnake Ridge Slidequake Locations"
GRID  150 250 75  694.15 5155.4 0  0.002 0.002 0.002 PROB_DENSITY
SEARCH OCTREE nInitial 1000 nEvaluated 8904 smallestNodeSide 0.001863/0.003112/0.000925 oct_tree_integral 3.506476e-05 scatter_volume 3.506476e-05
HYPOCENTER  x 694.332 y 5155.77 z 0.0587375  OT 26.4868  ix -1 iy -1 iz -1 MAXIMUM_LIKELIHOOD
GEOGRAPHIC  OT 2018 03 13  00 38 26.486782  Lat 5155.765719 Long 694.331594 Depth 0.058737
QUALITY  Pmax 2.5005e+86 MFmin 205.727 MFmax 205.734 RMS 0.195159 Nphs 26 Gap 160.444 Dist 0.0214505 Mamp  0.39 26 Mdur -9.90 0
VPVSRATIO  VpVsRatio -1  Npair 0  Diff -2e+30
STATISTICS  ExpectX 694.385014 Y 5155.781255 Z 0.082574  CovXX 0.00296411 XY 0.000562603 XZ 0.000281587 YY 0.000251785 YZ 0.000325094 ZZ 0.000984565 EllAz1  170.657 Dip1  16.5869 Len1  0.014685 Az2  320.309 Dip2  70.9572 Len2  0.0596758 Len3  1.051226e-01
STAT_GEOG  ExpectLat 5155.781255 Long 694.385014 Depth 0.082574
TRANSFORM  NONE
QML_OriginQuality  assocPhCt 26  usedPhCt 26  assocStaCt -1  usedStaCt 26  depthPhCt -1  stdErr 0.195159  azGap 160.444  secAzGap 188.437  gtLevel -  minDist 0.0214505 maxDist 0.220168 medDist 0.08666
QML_OriginUncertainty  horUnc -1  minHorUnc 0.0179262  maxHorUnc 0.0841142  azMaxHorUnc 78.7344
QML_ConfidenceEllipsoid  semiMajorAxisLength 0.105123  semiMinorAxisLength 0.014685  semiIntermediateAxisLength 0.0596758  majorAxisPlunge 9.09044  majorAxisAzimuth 77.9257  majorAxisRotation 17.6336
FOCALMECH  Hyp  5155.765719 694.331594 0.058737 Mech  0 0 0 mf  0 nObs -1
PHASE ID Ins Cmp On Pha  FM Date     HrMn   Sec     Err  ErrMag    Coda      Amp       Per       PriorWt  >   TTpred    Res       Weight    StaLoc(X  Y         Z)        SDist    SAzim  RAz  RDip RQual    Tcorr       TTerr
17           ?    N    ? P      ? 20180313 0038   26.5170 GAU  5.39e-03 -1.00e+00  1.03e+01  1.20e-02   10.3000 >    0.1063   -0.0761    0.0000  694.3461 5155.7815   -0.4621    0.0215  42.72  -1.0  -1.0  0     0.0000    0.0001
18           ?    N    ? P      ? 20180313 0038   26.4810 GAU  3.59e-03 -1.00e+00  9.00e+00  1.20e-02    9.0000 >    0.1023   -0.1081    0.0000  694.3549 5155.7674   -0.4586    0.0234  85.85  -1.0  -1.0  0     0.0000    0.0001
16           ?    N    ? P      ? 20180313 0038   26.5940 GAU  4.04e-03 -1.00e+00  1.03e+01  8.00e-03   10.3000 >    0.1143   -0.0071    1.6418  694.3452 5155.7921   -0.4642    0.0297  27.24  -1.0  -1.0  0     0.0000    0.0001
20           ?    N    ? P      ? 20180313 0038   26.6160 GAU  5.39e-03 -1.00e+00  9.88e+00  8.00e-03    9.8800 >    0.1033    0.0259    1.3434  694.3609 5155.7515   -0.4553    0.0325 115.96  -1.0  -1.0  0     0.0000    0.0001
21           ?    N    ? P      ? 20180313 0038   26.6930 GAU  1.03e-02 -1.00e+00  9.31e+00  1.20e-02    9.3100 >    0.1076    0.0986    0.0298  694.3642 5155.7391   -0.4517    0.0420 129.23  -1.0  -1.0  0     0.0000    0.0001
103          ?    N    ? P      ? 20180313 0038   26.7460 GAU  7.64e-03 -1.00e+00  8.29e+00  2.00e-02    8.2900 >    0.1281    0.1312    1.3307  694.3644 5155.7952   -0.4662    0.0441  48.03  -1.0  -1.0  0     0.0000    0.0001
12           ?    N    ? P      ? 20180313 0038   26.6250 GAU  3.60e-03 -1.00e+00  8.09e+00  6.40e-02    8.0900 >    0.1376    0.0006    2.5944  694.3356 5155.8197   -0.4663    0.0542   4.27  -1.0  -1.0  0     0.0000    0.0001
23           ?    N    ? P      ? 20180313 0038   26.6070 GAU  6.28e-03 -1.00e+00  8.38e+00  6.00e-02    8.3800 >    0.1182    0.0020    2.4772  694.3677 5155.7226   -0.4473    0.0563 140.10  -1.0  -1.0  0     0.0000    0.0001
10           ?    N    ? P      ? 20180313 0038   26.6660 GAU  5.83e-03 -1.00e+00  7.46e+00  8.00e-03    7.4600 >    0.1524    0.0268    1.3688  694.3329 5155.8329   -0.4673    0.0672   1.12  -1.0  -1.0  0     0.0000    0.0002
25           ?    N    ? P      ? 20180313 0038   26.6030 GAU  9.43e-03 -1.00e+00  7.78e+00  1.20e-02    7.7800 >    0.1291   -0.0129    1.6075  694.3684 5155.7091   -0.4438    0.0675 146.94  -1.0  -1.0  0     0.0000    0.0001
22           ?    N    ? P      ? 20180313 0038   26.9840 GAU  3.59e-03 -1.00e+00  8.23e+00  2.00e-02    8.2300 >    0.1467    0.3505    0.0000  694.3985 5155.7265   -0.4488    0.0775 120.35  -1.0  -1.0  0     0.0000    0.0001
8            ?    N    ? P      ? 20180313 0038   25.9916 GAU  6.56e-02 -1.00e+00  6.05e+00  8.00e-03    6.0500 >    0.1647   -0.6599    1.6108  694.3223 5155.8450   -0.4648    0.0798 353.32  -1.0  -1.0  0     0.0000    0.0002
6            ?    N    ? P      ? 20180313 0038   26.1011 GAU  3.14e-02 -1.00e+00  7.22e+00  1.20e-02    7.2200 >    0.1794   -0.5651    3.2795  694.3446 5155.8502   -0.4728    0.0854   8.78  -1.0  -1.0  0     0.0000    0.0002
106          ?    N    ? P      ? 20180313 0038   26.1793 GAU  4.85e-02 -1.00e+00  6.38e+00  3.60e-02    6.3800 >    0.1522   -0.4596    0.2638  694.3120 5155.6801   -0.4360    0.0879 192.87  -1.0  -1.0  0     0.0000    0.0002
26           ?    N    ? P      ? 20180313 0038   26.7730 GAU  7.64e-03 -1.00e+00  7.83e+00  1.20e-02    7.8300 >    0.1551    0.1312    1.3271  694.3783 5155.6910   -0.4400    0.0881 148.00  -1.0  -1.0  0     0.0000    0.0002
105          ?    N    ? P      ? 20180313 0038   26.8900 GAU  1.12e-02 -1.00e+00  8.47e+00  1.20e-02    8.4700 >    0.1620    0.2412    0.0722  694.3764 5155.6832   -0.4382    0.0939 151.49  -1.0  -1.0  0     0.0000    0.0002
27           ?    N    ? P      ? 20180313 0038   26.8990 GAU  6.73e-03 -1.00e+00  6.94e+00  8.00e-03    6.9400 >    0.1755    0.2367    0.0722  694.4008 5155.6912   -0.4412    0.1017 137.10  -1.0  -1.0  0     0.0000    0.0002
28           ?    N    ? P      ? 20180313 0038   26.1128 GAU  2.33e-02 -1.00e+00  7.37e+00  8.00e-03    7.3700 >    0.1727   -0.5466    0.9254  694.3767 5155.6745   -0.4362    0.1018 153.71  -1.0  -1.0  0     0.0000    0.0002
30           ?    N    ? P      ? 20180313 0038   26.1469 GAU  3.68e-02 -1.00e+00  6.92e+00  1.60e-02    6.9200 >    0.1889   -0.5288    0.6283  694.3775 5155.6619   -0.4333    0.1135 156.16  -1.0  -1.0  0     0.0000    0.0002
32           ?    N    ? P      ? 20180313 0038   26.1016 GAU  2.20e-02 -1.00e+00  6.41e+00  4.40e-02    6.4100 >    0.2109   -0.5961    0.8834  694.3777 5155.6456   -0.4297    0.1287 159.01  -1.0  -1.0  0     0.0000    0.0002
31           ?    N    ? P      ? 20180313 0038   26.1043 GAU  1.93e-02 -1.00e+00  7.11e+00  1.60e-02    7.1100 >    0.2279   -0.6103    0.8682  694.4086 5155.6503   -0.4335    0.1387 146.27  -1.0  -1.0  0     0.0000    0.0002
33           ?    N    ? P      ? 20180313 0038   26.1613 GAU  4.76e-02 -1.00e+00  6.61e+00  1.20e-02    6.6100 >    0.2330   -0.5585    0.7769  694.3775 5155.6293   -0.4252    0.1439 161.39  -1.0  -1.0  0     0.0000    0.0002
35           ?    N    ? P      ? 20180313 0038   26.1447 GAU  2.83e-02 -1.00e+00  6.99e+00  1.20e-02    6.9900 >    0.2565   -0.5986    0.9564  694.3818 5155.6141   -0.4216    0.1597 161.69  -1.0  -1.0  0     0.0000    0.0003
34           ?    N    ? P      ? 20180313 0038   26.1743 GAU  4.90e-02 -1.00e+00  6.84e+00  1.20e-02    6.8400 >    0.2767   -0.5892    0.9583  694.4145 5155.6153   -0.4263    0.1718 151.14  -1.0  -1.0  0     0.0000    0.0003
38           ?    N    ? P      ? 20180313 0038   26.1725 GAU  7.77e-02 -1.00e+00  5.43e+00  1.16e-01    5.4300 >    0.3283   -0.6426    0.7918  694.3902 5155.5681   -0.4123    0.2061 163.49  -1.0  -1.0  0     0.0000    0.0003
39           ?    N    ? P      ? 20180313 0038   26.1002 GAU  1.80e-02 -1.00e+00  6.28e+00  8.00e-03    6.2800 >    0.3502   -0.7367    0.1920  694.3890 5155.5532   -0.4086    0.2202 164.88  -1.0  -1.0  0     0.0000    0.0004
END_PHASE
END_NLLOC

