NLLOC "./loc/RR.20180313.000741.grid0" "REJECTED" "WARNING: max prob location on grid boundary 11, rejecting location."
PUBLIC_ID None
SIGNATURE "   obs:./obs/nll_picks.obs   NLLoc:v7.00.10(30Aug2020)   run:29Apr2022 23h17m44"
COMMENT "Rattlesnake Ridge Slidequake Locations"
GRID  150 250 75  694.15 5155.4 0  0.002 0.002 0.002 PROB_DENSITY
SEARCH OCTREE nInitial 1000 nEvaluated 12224 smallestNodeSide 0.001863/0.003112/0.000925 oct_tree_integral 1.065754e-04 scatter_volume 1.061969e-04
HYPOCENTER  x 694.447 y 5155.81 z 0.0920375  OT 40.9026  ix -1 iy -1 iz -1 MAXIMUM_LIKELIHOOD
GEOGRAPHIC  OT 2018 03 13  00 07 40.902604  Lat 5155.812406 Long 694.447069 Depth 0.092037
QUALITY  Pmax 2.99595e+44 MFmin 82.9282 MFmax 82.9396 RMS 0.365182 Nphs 16 Gap 296.934 Dist 0.084481 Mamp  0.55 16 Mdur -9.90 0
VPVSRATIO  VpVsRatio -1  Npair 0  Diff -2e+30
STATISTICS  ExpectX 694.417620 Y 5155.808965 Z 0.083087  CovXX 0.000682268 XY 0.000175358 XZ 0.000237172 YY 0.000270612 YZ -4.69846e-05 ZZ 0.000822902 EllAz1  155.197 Dip1  -12.433 Len1  0.0250782 Az2  235.894 Dip2  36.2494 Len2  0.0456752 Len3  5.961011e-02
STAT_GEOG  ExpectLat 5155.808965 Long 694.417620 Depth 0.083087
TRANSFORM  NONE
QML_OriginQuality  assocPhCt 16  usedPhCt 16  assocStaCt -1  usedStaCt 16  depthPhCt -1  stdErr 0.365182  azGap 296.934  secAzGap 303.159  gtLevel -  minDist 0.084481 maxDist 0.179642 medDist 0.113834
QML_OriginUncertainty  horUnc -1  minHorUnc 0.0217691  maxHorUnc 0.0414455  azMaxHorUnc 69.7851
QML_ConfidenceEllipsoid  semiMajorAxisLength 0.0596101  semiMinorAxisLength 0.0250782  semiIntermediateAxisLength 0.0456752  majorAxisPlunge 51.0031  majorAxisAzimuth 80.9974  majorAxisRotation 60.2601
FOCALMECH  Hyp  5155.812406 694.447069 0.092037 Mech  0 0 0 mf  0 nObs -1
PHASE ID Ins Cmp On Pha  FM Date     HrMn   Sec     Err  ErrMag    Coda      Amp       Per       PriorWt  >   TTpred    Res       Weight    StaLoc(X  Y         Z)        SDist    SAzim  RAz  RDip RQual    Tcorr       TTerr
103          ?    N    ? P      ? 20180313 0007   41.1116 GAU  1.56e-02 -1.00e+00  6.64e+00  2.80e-02    6.6400 >    0.1921    0.0169    2.1584  694.3644 5155.7952   -0.4662    0.0845 258.24  -1.0  -1.0  0     0.0000    0.0002
18           ?    N    ? P      ? 20180313 0007   41.8940 GAU  1.30e-02 -1.00e+00  7.30e+00  5.60e-02    7.3000 >    0.2041    0.7873    0.4939  694.3549 5155.7674   -0.4586    0.1026 243.98  -1.0  -1.0  0     0.0000    0.0002
16           ?    N    ? P      ? 20180313 0007   41.9500 GAU  1.01e-02 -1.00e+00  7.96e+00  1.20e-02    7.9600 >    0.2113    0.8361    0.0713  694.3452 5155.7921   -0.4642    0.1039 258.74  -1.0  -1.0  0     0.0000    0.0002
17           ?    N    ? P      ? 20180313 0007   41.8940 GAU  1.24e-02 -1.00e+00  8.03e+00  8.00e-03    8.0300 >    0.2114    0.7800    0.4624  694.3461 5155.7815   -0.4621    0.1056 252.96  -1.0  -1.0  0     0.0000    0.0002
20           ?    N    ? P      ? 20180313 0007   41.9730 GAU  1.63e-02 -1.00e+00  6.89e+00  1.20e-02    6.8900 >    0.2044    0.8660    0.0700  694.3609 5155.7515   -0.4553    0.1056 234.75  -1.0  -1.0  0     0.0000    0.0002
6            ?    N    ? P      ? 20180313 0007   41.1393 GAU  2.31e-02 -1.00e+00  7.20e+00  1.60e-02    7.2000 >    0.2252    0.0115    1.6925  694.3446 5155.8502   -0.4728    0.1092 290.23  -1.0  -1.0  0     0.0000    0.0002
21           ?    N    ? P      ? 20180313 0007   41.1035 GAU  1.34e-02 -1.00e+00  6.68e+00  1.20e-02    6.6800 >    0.2081   -0.0072    3.7773  694.3642 5155.7391   -0.4517    0.1106 228.53  -1.0  -1.0  0     0.0000    0.0002
12           ?    N    ? P      ? 20180313 0007   41.8420 GAU  9.78e-03 -1.00e+00  8.30e+00  1.20e-02    8.3000 >    0.2222    0.7172    0.0797  694.3356 5155.8197   -0.4663    0.1117 273.76  -1.0  -1.0  0     0.0000    0.0002
10           ?    N    ? P      ? 20180313 0007   41.9040 GAU  8.15e-03 -1.00e+00  7.06e+00  2.80e-02    7.0600 >    0.2278    0.7736    0.8352  694.3329 5155.8329   -0.4673    0.1160 280.17  -1.0  -1.0  0     0.0000    0.0002
15           ?    N    ? P      ? 20180313 0007   41.7900 GAU  7.83e-03 -1.00e+00  8.94e+00  6.40e-02    8.9400 >    0.2349    0.6525    0.0001  694.3206 5155.8107   -0.4609    0.1265 269.22  -1.0  -1.0  0     0.0000    0.0002
8            ?    N    ? P      ? 20180313 0007   41.8720 GAU  1.86e-02 -1.00e+00  6.60e+00  1.20e-02    6.6000 >    0.2412    0.7282    0.1319  694.3223 5155.8450   -0.4648    0.1290 284.64  -1.0  -1.0  0     0.0000    0.0002
2            ?    N    ? P      ? 20180313 0007   41.1084 GAU  2.15e-02 -1.00e+00  6.40e+00  8.00e-03    6.4000 >    0.2548   -0.0490    0.3758  694.3150 5155.8647   -0.4623    0.1420 291.59  -1.0  -1.0  0     0.0000    0.0003
13           ?    N    ? P      ? 20180313 0007   41.1289 GAU  1.92e-02 -1.00e+00  7.82e+00  2.00e-02    7.8200 >    0.2522   -0.0259    0.9906  694.3062 5155.8390   -0.4568    0.1433 280.71  -1.0  -1.0  0     0.0000    0.0003
4            ?    N    ? P      ? 20180313 0007   41.1787 GAU  2.80e-02 -1.00e+00  6.64e+00  3.20e-02    6.6400 >    0.2539    0.0222    1.0856  694.3090 5155.8520   -0.4586    0.1436 286.01  -1.0  -1.0  0     0.0000    0.0003
5            ?    N    ? P      ? 20180313 0007   41.1742 GAU  3.06e-02 -1.00e+00  7.24e+00  1.20e-02    7.2400 >    0.2700    0.0016    1.5157  694.2898 5155.8520   -0.4475    0.1622 284.12  -1.0  -1.0  0     0.0000    0.0003
7            ?    N    ? P      ? 20180313 0007   41.2064 GAU  1.92e-02 -1.00e+00  7.29e+00  1.20e-02    7.2900 >    0.2879    0.0159    2.2596  694.2704 5155.8450   -0.4359    0.1796 280.45  -1.0  -1.0  0     0.0000    0.0003
END_PHASE
END_NLLOC

