NLLOC "./loc/RR.20180313.000423.grid0" "REJECTED" "WARNING: max prob location on grid boundary 10, rejecting location."
PUBLIC_ID None
SIGNATURE "   obs:./obs/nll_picks.obs   NLLoc:v7.00.10(30Aug2020)   run:29Apr2022 23h16m34"
COMMENT "Rattlesnake Ridge Slidequake Locations"
GRID  150 250 75  694.15 5155.4 0  0.002 0.002 0.002 PROB_DENSITY
SEARCH OCTREE nInitial 1000 nEvaluated 20016 smallestNodeSide 0.003725/0.006225/0.001850 oct_tree_integral 2.172768e-04 scatter_volume 2.153454e-04
HYPOCENTER  x 694.152 y 5155.67 z 0.147075  OT 23.2204  ix -1 iy -1 iz -1 MAXIMUM_LIKELIHOOD
GEOGRAPHIC  OT 2018 03 13  00 04 23.220433  Lat 5155.670787 Long 694.151862 Depth 0.147075
QUALITY  Pmax 8.7049e+58 MFmin 87.9379 MFmax 87.9624 RMS 0.0158931 Nphs 16 Gap 320.702 Dist 0.160422 Mamp  0.81 16 Mdur -9.90 0
VPVSRATIO  VpVsRatio -1  Npair 0  Diff -2e+30
STATISTICS  ExpectX 694.225087 Y 5155.667320 Z 0.109761  CovXX 0.00429831 XY 0.000504951 XZ 0.000724596 YY 0.000320285 YZ 0.000242402 ZZ 0.00121308 EllAz1  174.726 Dip1  10.0842 Len1  0.0285172 Az2  302.023 Dip2  73.6435 Len2  0.0614725 Len3  1.264662e-01
STAT_GEOG  ExpectLat 5155.667320 Long 694.225087 Depth 0.109761
TRANSFORM  NONE
QML_OriginQuality  assocPhCt 16  usedPhCt 16  assocStaCt -1  usedStaCt 16  depthPhCt -1  stdErr 0.0158931  azGap 320.702  secAzGap 325.042  gtLevel -  minDist 0.160422 maxDist 0.268452 medDist 0.225333
QML_OriginUncertainty  horUnc -1  minHorUnc 0.0243215  maxHorUnc 0.100156  azMaxHorUnc 82.8776
QML_ConfidenceEllipsoid  semiMajorAxisLength 0.126466  semiMinorAxisLength 0.0285172  semiIntermediateAxisLength 0.0614725  majorAxisPlunge 12.742  majorAxisAzimuth 82.4208  majorAxisRotation 11.4282
FOCALMECH  Hyp  5155.670787 694.151862 0.147075 Mech  0 0 0 mf  0 nObs -1
PHASE ID Ins Cmp On Pha  FM Date     HrMn   Sec     Err  ErrMag    Coda      Amp       Per       PriorWt  >   TTpred    Res       Weight    StaLoc(X  Y         Z)        SDist    SAzim  RAz  RDip RQual    Tcorr       TTerr
106          ?    N    ? P      ? 20180313 0004   23.6735 GAU  1.00e-02 -1.00e+00  7.31e+00  2.40e-02    7.3100 >    0.4062    0.0469    0.4779  694.3120 5155.6801   -0.4360    0.1604  86.69  -1.0  -1.0  0     0.0000    0.0004
25           ?    N    ? P      ? 20180313 0004   23.6991 GAU  1.93e-02 -1.00e+00  7.12e+00  3.60e-02    7.1200 >    0.4653    0.0134    0.7124  694.3684 5155.7091   -0.4438    0.2199  79.96  -1.0  -1.0  0     0.0000    0.0005
23           ?    N    ? P      ? 20180313 0004   23.6952 GAU  1.37e-02 -1.00e+00  7.44e+00  2.80e-02    7.4400 >    0.4710    0.0037    1.1031  694.3677 5155.7226   -0.4473    0.2220  76.51  -1.0  -1.0  0     0.0000    0.0005
21           ?    N    ? P      ? 20180313 0004   23.7369 GAU  1.37e-02 -1.00e+00  6.80e+00  8.00e-03    6.8000 >    0.4773    0.0392    0.5724  694.3642 5155.7391   -0.4517    0.2230  72.16  -1.0  -1.0  0     0.0000    0.0005
20           ?    N    ? P      ? 20180313 0004   23.6896 GAU  1.93e-02 -1.00e+00  6.15e+00  2.40e-02    6.1500 >    0.4821   -0.0129    1.2702  694.3609 5155.7515   -0.4553    0.2240  68.89  -1.0  -1.0  0     0.0000    0.0005
18           ?    N    ? P      ? 20180313 0004   23.7018 GAU  1.35e-02 -1.00e+00  5.80e+00  8.00e-03    5.8000 >    0.4873   -0.0059    1.9593  694.3549 5155.7674   -0.4586    0.2248  64.55  -1.0  -1.0  0     0.0000    0.0005
28           ?    N    ? P      ? 20180313 0004   23.6873 GAU  1.53e-02 -1.00e+00  7.74e+00  8.00e-03    7.7400 >    0.4617    0.0052    0.7379  694.3767 5155.6745   -0.4362    0.2249  89.06  -1.0  -1.0  0     0.0000    0.0005
105          ?    N    ? P      ? 20180313 0004   23.6838 GAU  1.24e-02 -1.00e+00  7.64e+00  8.00e-03    7.6400 >    0.4637   -0.0003    0.7758  694.3764 5155.6832   -0.4382    0.2249  86.83  -1.0  -1.0  0     0.0000    0.0005
30           ?    N    ? P      ? 20180313 0004   23.6822 GAU  2.19e-02 -1.00e+00  6.93e+00  6.40e-02    6.9300 >    0.4598    0.0019    0.7058  694.3775 5155.6619   -0.4333    0.2258  92.25  -1.0  -1.0  0     0.0000    0.0005
32           ?    N    ? P      ? 20180313 0004   23.6809 GAU  2.33e-02 -1.00e+00  7.41e+00  5.20e-02    7.4100 >    0.4578    0.0027    0.9073  694.3777 5155.6456   -0.4297    0.2272  96.37  -1.0  -1.0  0     0.0000    0.0005
26           ?    N    ? P      ? 20180313 0004   23.6791 GAU  1.93e-02 -1.00e+00  6.90e+00  6.80e-02    6.9000 >    0.4682   -0.0095    0.6114  694.3783 5155.6910   -0.4400    0.2273  84.91  -1.0  -1.0  0     0.0000    0.0005
33           ?    N    ? P      ? 20180313 0004   23.6740 GAU  1.69e-02 -1.00e+00  7.67e+00  1.20e-02    7.6700 >    0.4549   -0.0013    1.3543  694.3775 5155.6293   -0.4252    0.2294 100.41  -1.0  -1.0  0     0.0000    0.0005
35           ?    N    ? P      ? 20180313 0004   23.6835 GAU  1.74e-02 -1.00e+00  7.71e+00  1.20e-02    7.7100 >    0.4585    0.0046    1.7427  694.3818 5155.6141   -0.4216    0.2368 103.85  -1.0  -1.0  0     0.0000    0.0005
27           ?    N    ? P      ? 20180313 0004   23.7454 GAU  2.06e-02 -1.00e+00  6.70e+00  8.00e-03    6.7000 >    0.4914    0.0336    0.5178  694.4008 5155.6912   -0.4412    0.2498  85.30  -1.0  -1.0  0     0.0000    0.0005
22           ?    N    ? P      ? 20180313 0004   23.7340 GAU  1.72e-02 -1.00e+00  6.62e+00  8.00e-03    6.6200 >    0.5020    0.0116    1.0540  694.3985 5155.7265   -0.4488    0.2529  77.26  -1.0  -1.0  0     0.0000    0.0005
34           ?    N    ? P      ? 20180313 0004   23.7063 GAU  1.96e-02 -1.00e+00  6.64e+00  3.20e-02    6.6400 >    0.4972   -0.0113    1.4977  694.4145 5155.6153   -0.4263    0.2685 101.93  -1.0  -1.0  0     0.0000    0.0005
END_PHASE
END_NLLOC

