NLLOC "./loc/RR.20180313.001147.grid0" "LOCATED" "Location completed."
PUBLIC_ID None
SIGNATURE "   obs:./obs/nll_picks.obs   NLLoc:v7.00.10(30Aug2020)   run:29Apr2022 23h18m30"
COMMENT "Rattlesnake Ridge Slidequake Locations"
GRID  150 250 75  694.15 5155.4 0  0.002 0.002 0.002 PROB_DENSITY
SEARCH OCTREE nInitial 1000 nEvaluated 20008 smallestNodeSide 0.003725/0.006225/0.001850 oct_tree_integral 8.929501e-04 scatter_volume 8.878487e-04
HYPOCENTER  x 694.346 y 5155.78 z 0.134125  OT 46.9395  ix -1 iy -1 iz -1 MAXIMUM_LIKELIHOOD
GEOGRAPHIC  OT 2018 03 13  00 11 46.939495  Lat 5155.782837 Long 694.345562 Depth 0.134125
QUALITY  Pmax 1.81322e+28 MFmin 38.7968 MFmax 38.8262 RMS 0.00900377 Nphs 9 Gap 155.295 Dist 0.00147943 Mamp  0.54 9 Mdur -9.90 0
VPVSRATIO  VpVsRatio -1  Npair 0  Diff -2e+30
STATISTICS  ExpectX 694.267064 Y 5155.759187 Z 0.089129  CovXX 0.00673681 XY 0.00167671 XZ 0.000994136 YY 0.000824377 YZ 0.000623114 ZZ 0.00166224 EllAz1  167.923 Dip1  16.1961 Len1  0.031469 Az2  311.703 Dip2  70.1999 Len2  0.0738327 Len3  1.616080e-01
STAT_GEOG  ExpectLat 5155.759187 Long 694.267064 Depth 0.089129
TRANSFORM  NONE
QML_OriginQuality  assocPhCt 9  usedPhCt 9  assocStaCt -1  usedStaCt 9  depthPhCt -1  stdErr 0.00900377  azGap 155.295  secAzGap 182.136  gtLevel -  minDist 0.00147943 maxDist 0.104266 medDist 0.0374229
QML_OriginUncertainty  horUnc -1  minHorUnc 0.0296405  maxHorUnc 0.1285  azMaxHorUnc 75.2195
QML_ConfidenceEllipsoid  semiMajorAxisLength 0.161608  semiMinorAxisLength 0.031469  semiIntermediateAxisLength 0.0738327  majorAxisPlunge 11.0819  majorAxisAzimuth 74.6615  majorAxisRotation 17.7501
FOCALMECH  Hyp  5155.782837 694.345562 0.134125 Mech  0 0 0 mf  0 nObs -1
PHASE ID Ins Cmp On Pha  FM Date     HrMn   Sec     Err  ErrMag    Coda      Amp       Per       PriorWt  >   TTpred    Res       Weight    StaLoc(X  Y         Z)        SDist    SAzim  RAz  RDip RQual    Tcorr       TTerr
17           ?    N    ? P      ? 20180313 0011   47.1307 GAU  1.51e-02 -1.00e+00  8.82e+00  8.00e-03    8.8200 >    0.2016   -0.0104    0.6485  694.3461 5155.7815   -0.4621    0.0015 156.77  -1.0  -1.0  0     0.0000    0.0002
16           ?    N    ? P      ? 20180313 0011   47.1416 GAU  1.37e-02 -1.00e+00  8.81e+00  1.20e-02    8.8100 >    0.2055   -0.0034    0.7428  694.3452 5155.7921   -0.4642    0.0093 357.70  -1.0  -1.0  0     0.0000    0.0002
18           ?    N    ? P      ? 20180313 0011   47.1307 GAU  2.88e-02 -1.00e+00  7.05e+00  4.00e-02    7.0500 >    0.1988   -0.0076    0.5456  694.3549 5155.7674   -0.4586    0.0180 148.84  -1.0  -1.0  0     0.0000    0.0002
20           ?    N    ? P      ? 20180313 0011   47.1601 GAU  1.71e-02 -1.00e+00  7.52e+00  1.20e-02    7.5200 >    0.1989    0.0217    0.7693  694.3609 5155.7515   -0.4553    0.0349 154.01  -1.0  -1.0  0     0.0000    0.0002
15           ?    N    ? P      ? 20180313 0011   47.1519 GAU  1.85e-02 -1.00e+00  7.77e+00  8.00e-03    7.7700 >    0.2070    0.0054    1.0384  694.3206 5155.8107   -0.4609    0.0374 318.09  -1.0  -1.0  0     0.0000    0.0002
12           ?    N    ? P      ? 20180313 0011   47.1546 GAU  2.67e-02 -1.00e+00  7.20e+00  5.60e-02    7.2000 >    0.2158   -0.0007    0.8856  694.3356 5155.8197   -0.4663    0.0382 344.93  -1.0  -1.0  0     0.0000    0.0002
21           ?    N    ? P      ? 20180313 0011   47.1416 GAU  3.56e-02 -1.00e+00  7.93e+00  8.00e-03    7.9300 >    0.1995    0.0026    0.8649  694.3642 5155.7391   -0.4517    0.0475 156.95  -1.0  -1.0  0     0.0000    0.0002
10           ?    N    ? P      ? 20180313 0011   47.1710 GAU  2.26e-02 -1.00e+00  6.87e+00  1.60e-02    6.8700 >    0.2231    0.0084    1.1922  694.3329 5155.8329   -0.4673    0.0516 345.80  -1.0  -1.0  0     0.0000    0.0002
105          ?    N    ? P      ? 20180313 0011   47.1669 GAU  3.08e-02 -1.00e+00  7.57e+00  8.00e-03    7.5700 >    0.2284   -0.0010    2.3128  694.3764 5155.6832   -0.4382    0.1043 162.80  -1.0  -1.0  0     0.0000    0.0002
END_PHASE
END_NLLOC

