NLLOC "./loc/RR.20180313.023549.grid0" "LOCATED" "Location completed."
PUBLIC_ID None
SIGNATURE "   obs:./obs/nll_picks.obs   NLLoc:v7.00.10(30Aug2020)   run:29Apr2022 23h20m58"
COMMENT "Rattlesnake Ridge Slidequake Locations"
GRID  150 250 75  694.15 5155.4 0  0.002 0.002 0.002 PROB_DENSITY
SEARCH OCTREE nInitial 1000 nEvaluated 2424 smallestNodeSide 0.001863/0.003112/0.000925 oct_tree_integral 3.054359e-06 scatter_volume 3.054359e-06
HYPOCENTER  x 694.335 y 5155.64 z 0.104988  OT 49.5218  ix -1 iy -1 iz -1 MAXIMUM_LIKELIHOOD
GEOGRAPHIC  OT 2018 03 13  02 35 49.521839  Lat 5155.641219 Long 694.335319 Depth 0.104988
QUALITY  Pmax 1.80506e+121 MFmin 301.844 MFmax 301.884 RMS 0.00506703 Nphs 26 Gap 171.66 Dist 0.0425923 Mamp  0.55 26 Mdur -9.90 0
VPVSRATIO  VpVsRatio -1  Npair 0  Diff -2e+30
STATISTICS  ExpectX 694.332014 Y 5155.641126 Z 0.110510  CovXX 0.000536529 XY 6.64469e-05 XZ 6.08879e-05 YY 2.90381e-05 YZ 2.82464e-05 ZZ 0.000130974 EllAz1  173.98 Dip1  10.7491 Len1  0.00766393 Az2  314.425 Dip2  76.1678 Len2  0.0210173 Len3  4.425296e-02
STAT_GEOG  ExpectLat 5155.641126 Long 694.332014 Depth 0.110510
TRANSFORM  NONE
QML_OriginQuality  assocPhCt 26  usedPhCt 26  assocStaCt -1  usedStaCt 26  depthPhCt -1  stdErr 0.00506703  azGap 171.66  secAzGap 206.366  gtLevel -  minDist 0.0425923 maxDist 0.156684 medDist 0.0854374
QML_OriginUncertainty  horUnc -1  minHorUnc 0.00686361  maxHorUnc 0.0354076  azMaxHorUnc 82.6629
QML_ConfidenceEllipsoid  semiMajorAxisLength 0.044253  semiMinorAxisLength 0.00766393  semiIntermediateAxisLength 0.0210173  majorAxisPlunge 8.60252  majorAxisAzimuth 82.3345  majorAxisRotation 11.3692
FOCALMECH  Hyp  5155.641219 694.335319 0.104988 Mech  0 0 0 mf  0 nObs -1
PHASE ID Ins Cmp On Pha  FM Date     HrMn   Sec     Err  ErrMag    Coda      Amp       Per       PriorWt  >   TTpred    Res       Weight    StaLoc(X  Y         Z)        SDist    SAzim  RAz  RDip RQual    Tcorr       TTerr
32           ?    N    ? P      ? 20180313 0235   49.6933 GAU  2.42e-03 -1.00e+00  1.02e+01  8.00e-03   10.2000 >    0.1770   -0.0055    0.9655  694.3777 5155.6456   -0.4297    0.0426  84.13  -1.0  -1.0  0     0.0000    0.0002
33           ?    N    ? P      ? 20180313 0235   49.6926 GAU  2.42e-03 -1.00e+00  1.03e+01  1.20e-02   10.3000 >    0.1717   -0.0010    1.2801  694.3775 5155.6293   -0.4252    0.0438 105.74  -1.0  -1.0  0     0.0000    0.0002
106          ?    N    ? P      ? 20180313 0235   49.8073 GAU  1.21e-02 -1.00e+00  7.65e+00  6.40e-02    7.6500 >    0.1870    0.0984    0.0001  694.3120 5155.6801   -0.4360    0.0453 329.04  -1.0  -1.0  0     0.0000    0.0002
30           ?    N    ? P      ? 20180313 0235   49.7085 GAU  4.49e-03 -1.00e+00  9.78e+00  8.00e-03    9.7800 >    0.1845    0.0021    1.1737  694.3775 5155.6619   -0.4333    0.0470  63.85  -1.0  -1.0  0     0.0000    0.0002
28           ?    N    ? P      ? 20180313 0235   49.7223 GAU  4.49e-03 -1.00e+00  9.72e+00  4.40e-02    9.7200 >    0.1924    0.0081    0.7293  694.3767 5155.6745   -0.4362    0.0531  51.22  -1.0  -1.0  0     0.0000    0.0002
35           ?    N    ? P      ? 20180313 0235   49.6942 GAU  3.59e-03 -1.00e+00  1.01e+01  5.20e-02   10.1000 >    0.1728   -0.0005    1.2925  694.3818 5155.6141   -0.4216    0.0538 120.26  -1.0  -1.0  0     0.0000    0.0002
105          ?    N    ? P      ? 20180313 0235   49.7296 GAU  4.83e-03 -1.00e+00  1.06e+01  1.20e-02   10.6000 >    0.1985    0.0093    0.6660  694.3764 5155.6832   -0.4382    0.0588  44.36  -1.0  -1.0  0     0.0000    0.0002
26           ?    N    ? P      ? 20180313 0235   49.7282 GAU  2.07e-03 -1.00e+00  8.49e+00  1.20e-02    8.4900 >    0.2064    0.0000    1.6956  694.3783 5155.6910   -0.4400    0.0657  40.82  -1.0  -1.0  0     0.0000    0.0002
36           ?    N    ? P      ? 20180313 0235   49.7040 GAU  5.39e-03 -1.00e+00  9.16e+00  8.00e-03    9.1600 >    0.1817    0.0005    1.3643  694.3865 5155.5904   -0.4164    0.0722 134.81  -1.0  -1.0  0     0.0000    0.0002
31           ?    N    ? P      ? 20180313 0235   49.7628 GAU  5.53e-03 -1.00e+00  8.38e+00  1.20e-02    8.3800 >    0.2044    0.0365    0.0264  694.4086 5155.6503   -0.4335    0.0739  82.90  -1.0  -1.0  0     0.0000    0.0002
25           ?    N    ? P      ? 20180313 0235   49.7520 GAU  5.19e-03 -1.00e+00  8.66e+00  8.00e-03    8.6600 >    0.2191    0.0110    0.5864  694.3684 5155.7091   -0.4438    0.0755  26.00  -1.0  -1.0  0     0.0000    0.0002
27           ?    N    ? P      ? 20180313 0235   49.7476 GAU  3.46e-03 -1.00e+00  8.20e+00  1.20e-02    8.2000 >    0.2214    0.0044    1.2839  694.4008 5155.6912   -0.4412    0.0824  52.61  -1.0  -1.0  0     0.0000    0.0002
34           ?    N    ? P      ? 20180313 0235   49.7637 GAU  1.03e-02 -1.00e+00  8.64e+00  1.60e-02    8.6400 >    0.2046    0.0373    0.0477  694.4145 5155.6153   -0.4263    0.0833 108.14  -1.0  -1.0  0     0.0000    0.0002
23           ?    N    ? P      ? 20180313 0235   49.7496 GAU  5.53e-03 -1.00e+00  8.54e+00  1.20e-02    8.5400 >    0.2339   -0.0061    1.4754  694.3677 5155.7226   -0.4473    0.0875  21.70  -1.0  -1.0  0     0.0000    0.0002
38           ?    N    ? P      ? 20180313 0235   49.7081 GAU  7.63e-03 -1.00e+00  7.65e+00  2.40e-02    7.6500 >    0.1971   -0.0109    0.8462  694.3902 5155.5681   -0.4123    0.0914 143.13  -1.0  -1.0  0     0.0000    0.0002
37           ?    N    ? P      ? 20180313 0235   49.7372 GAU  5.39e-03 -1.00e+00  8.20e+00  1.20e-02    8.2000 >    0.2189   -0.0035    1.3868  694.4219 5155.5876   -0.4220    0.1019 121.76  -1.0  -1.0  0     0.0000    0.0002
21           ?    N    ? P      ? 20180313 0235   49.7700 GAU  7.95e-03 -1.00e+00  7.31e+00  1.20e-02    7.3100 >    0.2527   -0.0046    1.5442  694.3642 5155.7391   -0.4517    0.1021  16.42  -1.0  -1.0  0     0.0000    0.0003
39           ?    N    ? P      ? 20180313 0235   49.7229 GAU  1.08e-02 -1.00e+00  7.91e+00  1.20e-02    7.9100 >    0.2067   -0.0056    1.2096  694.3890 5155.5532   -0.4086    0.1031 148.62  -1.0  -1.0  0     0.0000    0.0002
22           ?    N    ? P      ? 20180313 0235   49.7686 GAU  8.64e-03 -1.00e+00  7.01e+00  2.00e-02    7.0100 >    0.2530   -0.0062    1.2342  694.3985 5155.7265   -0.4488    0.1062  36.52  -1.0  -1.0  0     0.0000    0.0003
20           ?    N    ? P      ? 20180313 0235   49.7800 GAU  2.56e-02 -1.00e+00  7.07e+00  8.00e-03    7.0700 >    0.2672   -0.0091    0.7345  694.3609 5155.7515   -0.4553    0.1132  13.04  -1.0  -1.0  0     0.0000    0.0003
41           ?    N    ? P      ? 20180313 0235   49.7449 GAU  3.14e-03 -1.00e+00  6.97e+00  6.00e-02    6.9700 >    0.2198    0.0033    2.0540  694.3901 5155.5386   -0.4053    0.1163 151.89  -1.0  -1.0  0     0.0000    0.0002
18           ?    N    ? P      ? 20180313 0235   49.7814 GAU  2.83e-02 -1.00e+00  6.61e+00  3.60e-02    6.6100 >    0.2864   -0.0269    0.5210  694.3549 5155.7674   -0.4586    0.1277   8.82  -1.0  -1.0  0     0.0000    0.0003
40           ?    N    ? P      ? 20180313 0235   49.7597 GAU  1.17e-02 -1.00e+00  7.80e+00  4.00e-02    7.8000 >    0.2426   -0.0047    1.3575  694.4169 5155.5417   -0.4131    0.1287 140.66  -1.0  -1.0  0     0.0000    0.0002
42           ?    N    ? P      ? 20180313 0235   49.7615 GAU  4.49e-03 -1.00e+00  6.59e+00  1.20e-02    6.5900 >    0.2385    0.0012    2.3949  694.3873 5155.5165   -0.3983    0.1351 157.38  -1.0  -1.0  0     0.0000    0.0002
16           ?    N    ? P      ? 20180313 0235   49.7717 GAU  2.83e-02 -1.00e+00  6.76e+00  1.20e-02    6.7600 >    0.3177   -0.0679    0.0719  694.3452 5155.7921   -0.4642    0.1512   3.74  -1.0  -1.0  0     0.0000    0.0003
103          ?    N    ? P      ? 20180313 0235   49.7914 GAU  2.04e-02 -1.00e+00  6.79e+00  5.60e-02    6.7900 >    0.3256   -0.0560    0.0583  694.3644 5155.7952   -0.4662    0.1567  10.68  -1.0  -1.0  0     0.0000    0.0003
END_PHASE
END_NLLOC

