NLLOC "./loc/RR.20180313.011146.grid0" "LOCATED" "Location completed."
PUBLIC_ID None
SIGNATURE "   obs:./obs/nll_picks.obs   NLLoc:v7.00.10(30Aug2020)   run:29Apr2022 23h19m48"
COMMENT "Rattlesnake Ridge Slidequake Locations"
GRID  150 250 75  694.15 5155.4 0  0.002 0.002 0.002 PROB_DENSITY
SEARCH OCTREE nInitial 1000 nEvaluated 5992 smallestNodeSide 0.001863/0.003112/0.000925 oct_tree_integral 2.159581e-05 scatter_volume 2.159581e-05
HYPOCENTER  x 694.305 y 5155.62 z 0.087875  OT 46.5969  ix -1 iy -1 iz -1 MAXIMUM_LIKELIHOOD
GEOGRAPHIC  OT 2018 03 13  01 11 46.596856  Lat 5155.620987 Long 694.304588 Depth 0.087875
QUALITY  Pmax 1.56596e+93 MFmin 213.918 MFmax 213.964 RMS 0.00917407 Nphs 21 Gap 225.535 Dist 0.0595339 Mamp  0.54 21 Mdur -9.90 0
VPVSRATIO  VpVsRatio -1  Npair 0  Diff -2e+30
STATISTICS  ExpectX 694.297062 Y 5155.619954 Z 0.093123  CovXX 0.000459715 XY 0.000117423 XZ 0.000245889 YY 6.85304e-05 YZ 0.000189935 ZZ 0.000872086 EllAz1  170.438 Dip1  9.70557 Len1  0.00747005 Az2  265.307 Dip2  26.3923 Len2  0.0349949 Len3  6.052043e-02
STAT_GEOG  ExpectLat 5155.619954 Long 694.297062 Depth 0.093123
TRANSFORM  NONE
QML_OriginQuality  assocPhCt 21  usedPhCt 21  assocStaCt -1  usedStaCt 21  depthPhCt -1  stdErr 0.00917407  azGap 225.535  secAzGap 250.22  gtLevel -  minDist 0.0595339 maxDist 0.141288 medDist 0.108102
QML_OriginUncertainty  horUnc -1  minHorUnc 0.00909818  maxHorUnc 0.033648  azMaxHorUnc 74.5108
QML_ConfidenceEllipsoid  semiMajorAxisLength 0.0605204  semiMinorAxisLength 0.00747005  semiIntermediateAxisLength 0.0349949  majorAxisPlunge 61.614  majorAxisAzimuth 61.9867  majorAxisRotation 325.312
FOCALMECH  Hyp  5155.620987 694.304588 0.087875 Mech  0 0 0 mf  0 nObs -1
PHASE ID Ins Cmp On Pha  FM Date     HrMn   Sec     Err  ErrMag    Coda      Amp       Per       PriorWt  >   TTpred    Res       Weight    StaLoc(X  Y         Z)        SDist    SAzim  RAz  RDip RQual    Tcorr       TTerr
106          ?    N    ? P      ? 20180313 0111   46.8976 GAU  3.28e-02 -1.00e+00  7.56e+00  1.20e-02    7.5600 >    0.1832    0.1176    0.0011  694.3120 5155.6801   -0.4360    0.0595   7.17  -1.0  -1.0  0     0.0000    0.0002
33           ?    N    ? P      ? 20180313 0111   46.7650 GAU  2.82e-03 -1.00e+00  1.11e+01  1.20e-02   11.1000 >    0.1823   -0.0141    0.8911  694.3775 5155.6293   -0.4252    0.0734  83.48  -1.0  -1.0  0     0.0000    0.0002
32           ?    N    ? P      ? 20180313 0111   46.7687 GAU  2.72e-03 -1.00e+00  1.00e+01  8.00e-03   10.0000 >    0.1911   -0.0192    0.4917  694.3777 5155.6456   -0.4297    0.0771  71.41  -1.0  -1.0  0     0.0000    0.0002
35           ?    N    ? P      ? 20180313 0111   46.7812 GAU  3.73e-03 -1.00e+00  1.13e+01  8.00e-03   11.3000 >    0.1818    0.0026    0.8245  694.3818 5155.6141   -0.4216    0.0775  95.09  -1.0  -1.0  0     0.0000    0.0002
30           ?    N    ? P      ? 20180313 0111   46.7984 GAU  7.92e-03 -1.00e+00  9.53e+00  8.00e-03    9.5300 >    0.2014    0.0002    0.8699  694.3775 5155.6619   -0.4333    0.0836  60.68  -1.0  -1.0  0     0.0000    0.0002
36           ?    N    ? P      ? 20180313 0111   46.7748 GAU  3.15e-03 -1.00e+00  9.08e+00  1.20e-02    9.0800 >    0.1871   -0.0092    1.0170  694.3865 5155.5904   -0.4164    0.0875 110.50  -1.0  -1.0  0     0.0000    0.0002
28           ?    N    ? P      ? 20180313 0111   46.8077 GAU  6.34e-03 -1.00e+00  9.45e+00  1.20e-02    9.4500 >    0.2111   -0.0003    1.0695  694.3767 5155.6745   -0.4362    0.0898  53.44  -1.0  -1.0  0     0.0000    0.0002
105          ?    N    ? P      ? 20180313 0111   46.8140 GAU  4.53e-03 -1.00e+00  9.42e+00  1.20e-02    9.4200 >    0.2188   -0.0016    1.3228  694.3764 5155.6832   -0.4382    0.0950  49.08  -1.0  -1.0  0     0.0000    0.0002
38           ?    N    ? P      ? 20180313 0111   46.7837 GAU  4.59e-03 -1.00e+00  7.20e+00  8.00e-02    7.2000 >    0.1986   -0.0117    1.0764  694.3902 5155.5681   -0.4123    0.1006 121.71  -1.0  -1.0  0     0.0000    0.0002
26           ?    N    ? P      ? 20180313 0111   46.8077 GAU  5.43e-03 -1.00e+00  7.83e+00  1.20e-02    7.8300 >    0.2279   -0.0170    0.9571  694.3783 5155.6910   -0.4400    0.1016  46.49  -1.0  -1.0  0     0.0000    0.0002
31           ?    N    ? P      ? 20180313 0111   46.8176 GAU  1.45e-02 -1.00e+00  7.64e+00  1.60e-02    7.6400 >    0.2282   -0.0075    0.6421  694.4086 5155.6503   -0.4335    0.1081  74.24  -1.0  -1.0  0     0.0000    0.0002
39           ?    N    ? P      ? 20180313 0111   46.8035 GAU  3.73e-03 -1.00e+00  7.96e+00  2.80e-02    7.9600 >    0.2053    0.0014    1.4988  694.3890 5155.5532   -0.4086    0.1083 128.77  -1.0  -1.0  0     0.0000    0.0002
25           ?    N    ? P      ? 20180313 0111   46.8305 GAU  7.02e-03 -1.00e+00  7.52e+00  2.00e-02    7.5200 >    0.2399   -0.0062    1.6429  694.3684 5155.7091   -0.4438    0.1088  35.92  -1.0  -1.0  0     0.0000    0.0002
34           ?    N    ? P      ? 20180313 0111   46.8207 GAU  1.78e-03 -1.00e+00  8.53e+00  1.20e-02    8.5300 >    0.2237    0.0001    0.9929  694.4145 5155.6153   -0.4263    0.1101  92.97  -1.0  -1.0  0     0.0000    0.0002
41           ?    N    ? P      ? 20180313 0111   46.8067 GAU  9.75e-03 -1.00e+00  6.60e+00  8.00e-03    6.6000 >    0.2164   -0.0065    1.3918  694.3901 5155.5386   -0.4053    0.1187 133.92  -1.0  -1.0  0     0.0000    0.0002
27           ?    N    ? P      ? 20180313 0111   46.8462 GAU  1.63e-02 -1.00e+00  6.94e+00  8.00e-03    6.9400 >    0.2486    0.0008    0.7426  694.4008 5155.6912   -0.4412    0.1191  53.86  -1.0  -1.0  0     0.0000    0.0002
23           ?    N    ? P      ? 20180313 0111   46.8462 GAU  1.49e-02 -1.00e+00  8.02e+00  8.00e-03    8.0200 >    0.2555   -0.0062    1.3163  694.3677 5155.7226   -0.4473    0.1196  31.85  -1.0  -1.0  0     0.0000    0.0003
37           ?    N    ? P      ? 20180313 0111   46.8219 GAU  5.45e-03 -1.00e+00  7.96e+00  1.20e-02    7.9600 >    0.2347   -0.0096    1.1132  694.4219 5155.5876   -0.4220    0.1220 105.88  -1.0  -1.0  0     0.0000    0.0002
42           ?    N    ? P      ? 20180313 0111   46.8193 GAU  1.84e-02 -1.00e+00  5.95e+00  8.00e-03    5.9500 >    0.2312   -0.0088    1.1505  694.3873 5155.5165   -0.3983    0.1332 141.63  -1.0  -1.0  0     0.0000    0.0002
40           ?    N    ? P      ? 20180313 0111   46.8342 GAU  5.17e-03 -1.00e+00  7.29e+00  1.20e-02    7.2900 >    0.2476   -0.0103    1.5688  694.4169 5155.5417   -0.4131    0.1374 125.22  -1.0  -1.0  0     0.0000    0.0002
22           ?    N    ? P      ? 20180313 0111   46.8423 GAU  2.56e-02 -1.00e+00  6.13e+00  4.80e-02    6.1300 >    0.2825   -0.0370    0.4190  694.3985 5155.7265   -0.4488    0.1413  41.66  -1.0  -1.0  0     0.0000    0.0003
END_PHASE
END_NLLOC

