NLLOC "./loc/RR.20180313.000308.grid0" "LOCATED" "Location completed."
PUBLIC_ID None
SIGNATURE "   obs:./obs/nll_picks.obs   NLLoc:v7.00.10(30Aug2020)   run:29Apr2022 23h16m17"
COMMENT "Rattlesnake Ridge Slidequake Locations"
GRID  150 250 75  694.15 5155.4 0  0.002 0.002 0.002 PROB_DENSITY
SEARCH OCTREE nInitial 1000 nEvaluated 9056 smallestNodeSide 0.001863/0.003112/0.000925 oct_tree_integral 4.182006e-05 scatter_volume 4.182006e-05
HYPOCENTER  x 694.387 y 5155.81 z 0.065675  OT 8.53227  ix -1 iy -1 iz -1 MAXIMUM_LIKELIHOOD
GEOGRAPHIC  OT 2018 03 13  00 03 8.532274  Lat 5155.807737 Long 694.386538 Depth 0.065675
QUALITY  Pmax 5.39181e+62 MFmin 113.508 MFmax 113.521 RMS 0.00792353 Nphs 16 Gap 235.049 Dist 0.0254811 Mamp  0.32 16 Mdur -9.90 0
VPVSRATIO  VpVsRatio -1  Npair 0  Diff -2e+30
STATISTICS  ExpectX 694.395445 Y 5155.815104 Z 0.075456  CovXX 0.00154296 XY 0.000437212 XZ -0.000343688 YY 0.000181402 YZ 3.72026e-05 ZZ 0.000839603 EllAz1  341.672 Dip1  -10.0392 Len1  0.0102275 Az2  225.119 Dip2  -68.3955 Len2  0.0515758 Len3  7.928506e-02
STAT_GEOG  ExpectLat 5155.815104 Long 694.395445 Depth 0.075456
TRANSFORM  NONE
QML_OriginQuality  assocPhCt 16  usedPhCt 16  assocStaCt -1  usedStaCt 16  depthPhCt -1  stdErr 0.00792353  azGap 235.049  secAzGap 250.285  gtLevel -  minDist 0.0254811 maxDist 0.106403 medDist 0.0639435
QML_OriginUncertainty  horUnc -1  minHorUnc 0.0110511  maxHorUnc 0.0619992  azMaxHorUnc 73.6452
QML_ConfidenceEllipsoid  semiMajorAxisLength 0.0792851  semiMinorAxisLength 0.0102275  semiIntermediateAxisLength 0.0515758  majorAxisPlunge -18.9242  majorAxisAzimuth 75.1516  majorAxisRotation 193.357
FOCALMECH  Hyp  5155.807737 694.386538 0.065675 Mech  0 0 0 mf  0 nObs -1
PHASE ID Ins Cmp On Pha  FM Date     HrMn   Sec     Err  ErrMag    Coda      Amp       Per       PriorWt  >   TTpred    Res       Weight    StaLoc(X  Y         Z)        SDist    SAzim  RAz  RDip RQual    Tcorr       TTerr
103          ?    N    ? P      ? 20180313 0003    8.6838 GAU  1.28e-02 -1.00e+00  7.65e+00  1.20e-02    7.6500 >    0.1107    0.0408    0.1707  694.3644 5155.7952   -0.4662    0.0255 240.49  -1.0  -1.0  0     0.0000    0.0001
16           ?    N    ? P      ? 20180313 0003    8.6585 GAU  1.00e-02 -1.00e+00  8.63e+00  8.00e-03    8.6300 >    0.1219    0.0043    0.7548  694.3452 5155.7921   -0.4642    0.0442 249.31  -1.0  -1.0  0     0.0000    0.0001
17           ?    N    ? P      ? 20180313 0003    8.6549 GAU  5.17e-03 -1.00e+00  7.97e+00  1.20e-02    7.9700 >    0.1229   -0.0003    0.8907  694.3461 5155.7815   -0.4621    0.0482 236.97  -1.0  -1.0  0     0.0000    0.0001
18           ?    N    ? P      ? 20180313 0003    8.6613 GAU  1.10e-02 -1.00e+00  7.65e+00  2.40e-02    7.6500 >    0.1221    0.0070    0.7732  694.3549 5155.7674   -0.4586    0.0513 218.13  -1.0  -1.0  0     0.0000    0.0001
12           ?    N    ? P      ? 20180313 0003    8.6637 GAU  5.47e-03 -1.00e+00  8.38e+00  1.20e-02    8.3800 >    0.1318   -0.0004    1.2541  694.3356 5155.8197   -0.4663    0.0523 283.26  -1.0  -1.0  0     0.0000    0.0001
10           ?    N    ? P      ? 20180313 0003    8.6695 GAU  1.00e-02 -1.00e+00  7.31e+00  1.20e-02    7.3100 >    0.1399   -0.0026    1.1306  694.3329 5155.8329   -0.4673    0.0592 295.12  -1.0  -1.0  0     0.0000    0.0001
6            ?    N    ? P      ? 20180313 0003    8.6917 GAU  1.76e-02 -1.00e+00  6.99e+00  6.00e-02    6.9900 >    0.1466    0.0128    0.9120  694.3446 5155.8502   -0.4728    0.0596 315.36  -1.0  -1.0  0     0.0000    0.0001
20           ?    N    ? P      ? 20180313 0003    8.6664 GAU  7.00e-03 -1.00e+00  7.64e+00  8.00e-03    7.6400 >    0.1297    0.0044    1.1400  694.3609 5155.7515   -0.4553    0.0618 204.54  -1.0  -1.0  0     0.0000    0.0001
15           ?    N    ? P      ? 20180313 0003    8.6674 GAU  9.13e-03 -1.00e+00  7.82e+00  8.00e-03    7.8200 >    0.1403   -0.0051    0.9242  694.3206 5155.8107   -0.4609    0.0660 272.56  -1.0  -1.0  0     0.0000    0.0001
21           ?    N    ? P      ? 20180313 0003    8.6707 GAU  7.00e-03 -1.00e+00  7.21e+00  1.20e-02    7.2100 >    0.1395   -0.0011    1.4377  694.3642 5155.7391   -0.4517    0.0722 198.06  -1.0  -1.0  0     0.0000    0.0001
8            ?    N    ? P      ? 20180313 0003    8.6619 GAU  9.74e-03 -1.00e+00  6.51e+00  1.20e-02    6.5100 >    0.1539   -0.0242    0.2723  694.3223 5155.8450   -0.4648    0.0743 300.12  -1.0  -1.0  0     0.0000    0.0002
13           ?    N    ? P      ? 20180313 0003    8.7048 GAU  1.31e-02 -1.00e+00  7.25e+00  1.20e-02    7.2500 >    0.1611    0.0114    1.0506  694.3062 5155.8390   -0.4568    0.0862 291.29  -1.0  -1.0  0     0.0000    0.0002
23           ?    N    ? P      ? 20180313 0003    8.6829 GAU  1.06e-02 -1.00e+00  6.78e+00  8.00e-03    6.7800 >    0.1557   -0.0051    1.5378  694.3677 5155.7226   -0.4473    0.0872 192.47  -1.0  -1.0  0     0.0000    0.0002
4            ?    N    ? P      ? 20180313 0003    8.6881 GAU  1.52e-02 -1.00e+00  6.72e+00  1.20e-02    6.7200 >    0.1664   -0.0106    1.0588  694.3090 5155.8520   -0.4586    0.0893 299.74  -1.0  -1.0  0     0.0000    0.0002
25           ?    N    ? P      ? 20180313 0003    8.7045 GAU  9.74e-03 -1.00e+00  6.81e+00  4.80e-02    6.8100 >    0.1720    0.0002    2.0140  694.3684 5155.7091   -0.4438    0.1003 190.40  -1.0  -1.0  0     0.0000    0.0002
5            ?    N    ? P      ? 20180313 0003    8.7419 GAU  1.73e-02 -1.00e+00  7.83e+00  1.20e-02    7.8300 >    0.1812    0.0285    0.6786  694.2898 5155.8520   -0.4475    0.1064 294.56  -1.0  -1.0  0     0.0000    0.0002
END_PHASE
END_NLLOC

