NLLOC "./loc/RR.20180313.011731.grid0" "REJECTED" "WARNING: max prob location on grid boundary 31, rejecting location."
PUBLIC_ID None
SIGNATURE "   obs:./obs/nll_picks.obs   NLLoc:v7.00.10(30Aug2020)   run:29Apr2022 23h20m00"
COMMENT "Rattlesnake Ridge Slidequake Locations"
GRID  150 250 75  694.15 5155.4 0  0.002 0.002 0.002 PROB_DENSITY
SEARCH OCTREE nInitial 1000 nEvaluated 2952 smallestNodeSide 0.001863/0.003112/0.000925 oct_tree_integral 7.946557e-06 scatter_volume 7.946557e-06
HYPOCENTER  x 694.267 y 5155.69 z 0.147075  OT 30.9537  ix -1 iy -1 iz -1 MAXIMUM_LIKELIHOOD
GEOGRAPHIC  OT 2018 03 13  01 17 30.953685  Lat 5155.689463 Long 694.267337 Depth 0.147075
QUALITY  Pmax 1.96806e+119 MFmin 279.569 MFmax 279.658 RMS 0.00959906 Nphs 26 Gap 249.051 Dist 0.045659 Mamp  0.69 26 Mdur -9.90 0
VPVSRATIO  VpVsRatio -1  Npair 0  Diff -2e+30
STATISTICS  ExpectX 694.254040 Y 5155.685458 Z 0.131073  CovXX 0.000901784 XY 0.000162134 XZ 0.000224459 YY 7.23537e-05 YZ 8.14554e-05 ZZ 0.000274686 EllAz1  172.541 Dip1  12.0846 Len1  0.0108809 Az2  294.933 Dip2  68.2153 Len2  0.0270357 Len3  5.965754e-02
STAT_GEOG  ExpectLat 5155.685458 Long 694.254040 Depth 0.131073
TRANSFORM  NONE
QML_OriginQuality  assocPhCt 26  usedPhCt 26  assocStaCt -1  usedStaCt 26  depthPhCt -1  stdErr 0.00959906  azGap 249.051  secAzGap 251.031  gtLevel -  minDist 0.045659 maxDist 0.210212 medDist 0.127184
QML_OriginUncertainty  horUnc -1  minHorUnc 0.00980355  maxHorUnc 0.0463077  azMaxHorUnc 79.3234
QML_ConfidenceEllipsoid  semiMajorAxisLength 0.0596575  semiMinorAxisLength 0.0108809  semiIntermediateAxisLength 0.0270357  majorAxisPlunge 17.8443  majorAxisAzimuth 78.5894  majorAxisRotation 15.514
FOCALMECH  Hyp  5155.689463 694.267337 0.147075 Mech  0 0 0 mf  0 nObs -1
PHASE ID Ins Cmp On Pha  FM Date     HrMn   Sec     Err  ErrMag    Coda      Amp       Per       PriorWt  >   TTpred    Res       Weight    StaLoc(X  Y         Z)        SDist    SAzim  RAz  RDip RQual    Tcorr       TTerr
106          ?    N    ? P      ? 20180313 0117   31.2836 GAU  7.83e-03 -1.00e+00  7.20e+00  2.80e-02    7.2000 >    0.2380    0.0919    0.1012  694.3120 5155.6801   -0.4360    0.0457 101.89  -1.0  -1.0  0     0.0000    0.0002
25           ?    N    ? P      ? 20180313 0117   31.2410 GAU  4.96e-03 -1.00e+00  9.67e+00  2.40e-02    9.6700 >    0.2840    0.0033    0.9613  694.3684 5155.7091   -0.4438    0.1030  79.00  -1.0  -1.0  0     0.0000    0.0003
23           ?    N    ? P      ? 20180313 0117   31.2499 GAU  6.30e-03 -1.00e+00  9.45e+00  1.20e-02    9.4500 >    0.2900    0.0062    0.8845  694.3677 5155.7226   -0.4473    0.1057  71.75  -1.0  -1.0  0     0.0000    0.0003
21           ?    N    ? P      ? 20180313 0117   31.2543 GAU  3.44e-03 -1.00e+00  8.13e+00  2.00e-02    8.1300 >    0.2983    0.0023    1.2084  694.3642 5155.7391   -0.4517    0.1088  62.85  -1.0  -1.0  0     0.0000    0.0003
105          ?    N    ? P      ? 20180313 0117   31.2234 GAU  6.11e-03 -1.00e+00  9.75e+00  8.00e-03    9.7500 >    0.2820   -0.0123    0.6594  694.3764 5155.6832   -0.4382    0.1092  93.27  -1.0  -1.0  0     0.0000    0.0003
28           ?    N    ? P      ? 20180313 0117   31.2346 GAU  2.86e-03 -1.00e+00  9.17e+00  2.80e-02    9.1700 >    0.2811   -0.0002    1.2352  694.3767 5155.6745   -0.4362    0.1104  97.81  -1.0  -1.0  0     0.0000    0.0003
26           ?    N    ? P      ? 20180313 0117   31.2341 GAU  4.58e-03 -1.00e+00  9.34e+00  1.20e-02    9.3400 >    0.2856   -0.0052    0.8888  694.3783 5155.6910   -0.4400    0.1110  89.22  -1.0  -1.0  0     0.0000    0.0003
20           ?    N    ? P      ? 20180313 0117   31.2578 GAU  3.44e-03 -1.00e+00  8.00e+00  8.00e-03    8.0000 >    0.3049   -0.0008    1.4959  694.3609 5155.7515   -0.4553    0.1122  56.45  -1.0  -1.0  0     0.0000    0.0003
30           ?    N    ? P      ? 20180313 0117   31.2327 GAU  5.16e-03 -1.00e+00  8.77e+00  8.00e-03    8.7700 >    0.2799   -0.0009    1.1953  694.3775 5155.6619   -0.4333    0.1135 104.04  -1.0  -1.0  0     0.0000    0.0003
18           ?    N    ? P      ? 20180313 0117   31.2627 GAU  5.35e-03 -1.00e+00  7.54e+00  2.40e-02    7.5400 >    0.3134   -0.0044    1.4300  694.3549 5155.7674   -0.4586    0.1172  48.32  -1.0  -1.0  0     0.0000    0.0003
32           ?    N    ? P      ? 20180313 0117   31.2346 GAU  2.86e-03 -1.00e+00  8.19e+00  1.20e-02    8.1900 >    0.2809    0.0000    1.6290  694.3777 5155.6456   -0.4297    0.1188 111.69  -1.0  -1.0  0     0.0000    0.0003
17           ?    N    ? P      ? 20180313 0117   31.2780 GAU  5.73e-03 -1.00e+00  7.48e+00  8.00e-03    7.4800 >    0.3211    0.0032    1.7037  694.3461 5155.7815   -0.4621    0.1212  40.58  -1.0  -1.0  0     0.0000    0.0003
33           ?    N    ? P      ? 20180313 0117   31.2608 GAU  1.23e-02 -1.00e+00  7.86e+00  1.20e-02    7.8600 >    0.2819    0.0253    0.3739  694.3775 5155.6293   -0.4252    0.1255 118.63  -1.0  -1.0  0     0.0000    0.0003
16           ?    N    ? P      ? 20180313 0117   31.2994 GAU  3.06e-03 -1.00e+00  7.42e+00  8.00e-03    7.4200 >    0.3301    0.0157    0.6396  694.3452 5155.7921   -0.4642    0.1288  37.17  -1.0  -1.0  0     0.0000    0.0003
15           ?    N    ? P      ? 20180313 0117   31.3823 GAU  6.11e-03 -1.00e+00  7.08e+00  1.20e-02    7.0800 >    0.3286    0.1001    0.1004  694.3206 5155.8107   -0.4609    0.1324  23.71  -1.0  -1.0  0     0.0000    0.0003
27           ?    N    ? P      ? 20180313 0117   31.2677 GAU  7.26e-03 -1.00e+00  6.87e+00  6.40e-02    6.8700 >    0.3072    0.0068    0.7843  694.4008 5155.6912   -0.4412    0.1335  89.23  -1.0  -1.0  0     0.0000    0.0003
22           ?    N    ? P      ? 20180313 0117   31.2713 GAU  4.39e-03 -1.00e+00  7.79e+00  1.20e-02    7.7900 >    0.3185   -0.0009    1.1586  694.3985 5155.7265   -0.4488    0.1363  74.21  -1.0  -1.0  0     0.0000    0.0003
103          ?    N    ? P      ? 20180313 0117   31.2772 GAU  6.88e-03 -1.00e+00  6.77e+00  6.00e-02    6.7700 >    0.3450   -0.0214    0.4273  694.3644 5155.7952   -0.4662    0.1435  42.54  -1.0  -1.0  0     0.0000    0.0003
31           ?    N    ? P      ? 20180313 0117   31.2650 GAU  1.18e-02 -1.00e+00  7.29e+00  8.00e-03    7.2900 >    0.3120   -0.0007    1.0056  694.4086 5155.6503   -0.4335    0.1466 105.47  -1.0  -1.0  0     0.0000    0.0003
12           ?    N    ? P      ? 20180313 0117   31.2807 GAU  1.38e-02 -1.00e+00  6.05e+00  8.00e-03    6.0500 >    0.3484   -0.0214    0.7039  694.3356 5155.8197   -0.4663    0.1471  27.66  -1.0  -1.0  0     0.0000    0.0003
36           ?    N    ? P      ? 20180313 0117   31.2842 GAU  2.38e-02 -1.00e+00  6.25e+00  1.20e-02    6.2500 >    0.3038    0.0267    0.5452  694.3865 5155.5904   -0.4164    0.1550 129.74  -1.0  -1.0  0     0.0000    0.0003
34           ?    N    ? P      ? 20180313 0117   31.2710 GAU  1.32e-02 -1.00e+00  7.17e+00  1.20e-02    7.1700 >    0.3242   -0.0069    1.1940  694.4145 5155.6153   -0.4263    0.1648 116.75  -1.0  -1.0  0     0.0000    0.0003
38           ?    N    ? P      ? 20180313 0117   31.2744 GAU  2.09e-02 -1.00e+00  5.87e+00  1.20e-02    5.8700 >    0.3203    0.0004    1.1745  694.3902 5155.5681   -0.4123    0.1727 134.66  -1.0  -1.0  0     0.0000    0.0003
6            ?    N    ? P      ? 20180313 0117   31.3391 GAU  1.66e-02 -1.00e+00  6.70e+00  1.20e-02    6.7000 >    0.3855   -0.0001    1.6663  694.3446 5155.8502   -0.4728    0.1783  25.69  -1.0  -1.0  0     0.0000    0.0004
37           ?    N    ? P      ? 20180313 0117   31.2889 GAU  3.45e-02 -1.00e+00  6.08e+00  3.60e-02    6.0800 >    0.3442   -0.0089    0.7086  694.4219 5155.5876   -0.4220    0.1851 123.38  -1.0  -1.0  0     0.0000    0.0003
40           ?    N    ? P      ? 20180313 0117   31.3221 GAU  1.15e-02 -1.00e+00  6.05e+00  7.20e-02    6.0500 >    0.3679    0.0006    2.1251  694.4169 5155.5417   -0.4131    0.2102 134.65  -1.0  -1.0  0     0.0000    0.0004
END_PHASE
END_NLLOC

