NLLOC "./loc/RR.20180313.001104.grid0" "REJECTED" "WARNING: max prob location on grid boundary 31, rejecting location."
PUBLIC_ID None
SIGNATURE "   obs:./obs/nll_picks.obs   NLLoc:v7.00.10(30Aug2020)   run:29Apr2022 23h18m23"
COMMENT "Rattlesnake Ridge Slidequake Locations"
GRID  150 250 75  694.15 5155.4 0  0.002 0.002 0.002 PROB_DENSITY
SEARCH OCTREE nInitial 1000 nEvaluated 20008 smallestNodeSide 0.003725/0.006225/0.001850 oct_tree_integral 1.886363e-04 scatter_volume 1.886363e-04
HYPOCENTER  x 694.333 y 5155.73 z 0.14615  OT 3.93798  ix -1 iy -1 iz -1 MAXIMUM_LIKELIHOOD
GEOGRAPHIC  OT 2018 03 13  00 11 3.937977  Lat 5155.729925 Long 694.332525 Depth 0.146150
QUALITY  Pmax 1.22064e+68 MFmin 108.379 MFmax 108.394 RMS 0.00796329 Nphs 17 Gap 215.606 Dist 0.035591 Mamp  0.62 17 Mdur -9.90 0
VPVSRATIO  VpVsRatio -1  Npair 0  Diff -2e+30
STATISTICS  ExpectX 694.245387 Y 5155.705687 Z 0.109385  CovXX 0.0046822 XY 0.00102926 XZ 0.000775395 YY 0.000388398 YZ 0.000392497 ZZ 0.001086 EllAz1  169.719 Dip1  14.1254 Len1  0.0189111 Az2  307.983 Dip2  71.3641 Len2  0.0582546 Len3  1.340953e-01
STAT_GEOG  ExpectLat 5155.705687 Long 694.245387 Depth 0.109385
TRANSFORM  NONE
QML_OriginQuality  assocPhCt 17  usedPhCt 17  assocStaCt -1  usedStaCt 17  depthPhCt -1  stdErr 0.00796329  azGap 215.606  secAzGap 219.674  gtLevel -  minDist 0.035591 maxDist 0.140947 medDist 0.0660625
QML_OriginUncertainty  horUnc -1  minHorUnc 0.0188461  maxHorUnc 0.106335  azMaxHorUnc 77.1931
QML_ConfidenceEllipsoid  semiMajorAxisLength 0.134095  semiMinorAxisLength 0.0189111  semiIntermediateAxisLength 0.0582546  majorAxisPlunge 11.9051  majorAxisAzimuth 76.6774  majorAxisRotation 15.7223
FOCALMECH  Hyp  5155.729925 694.332525 0.146150 Mech  0 0 0 mf  0 nObs -1
PHASE ID Ins Cmp On Pha  FM Date     HrMn   Sec     Err  ErrMag    Coda      Amp       Per       PriorWt  >   TTpred    Res       Weight    StaLoc(X  Y         Z)        SDist    SAzim  RAz  RDip RQual    Tcorr       TTerr
20           ?    N    ? P      ? 20180313 0011    4.1695 GAU  1.05e-02 -1.00e+00  7.98e+00  1.60e-02    7.9800 >    0.2342   -0.0026    1.1682  694.3609 5155.7515   -0.4553    0.0356  52.74  -1.0  -1.0  0     0.0000    0.0002
23           ?    N    ? P      ? 20180313 0011    4.1594 GAU  9.21e-03 -1.00e+00  8.78e+00  2.80e-02    8.7800 >    0.2233   -0.0018    0.8737  694.3677 5155.7226   -0.4473    0.0359 101.84  -1.0  -1.0  0     0.0000    0.0002
25           ?    N    ? P      ? 20180313 0011    4.1607 GAU  1.58e-02 -1.00e+00  8.99e+00  8.00e-03    8.9900 >    0.2206    0.0021    0.6960  694.3684 5155.7091   -0.4438    0.0415 120.09  -1.0  -1.0  0     0.0000    0.0002
18           ?    N    ? P      ? 20180313 0011    4.1804 GAU  1.27e-02 -1.00e+00  7.38e+00  2.00e-02    7.3800 >    0.2421    0.0003    1.3574  694.3549 5155.7674   -0.4586    0.0437  30.82  -1.0  -1.0  0     0.0000    0.0002
17           ?    N    ? P      ? 20180313 0011    4.1861 GAU  2.46e-02 -1.00e+00  7.84e+00  8.00e-03    7.8400 >    0.2515   -0.0034    1.2318  694.3461 5155.7815   -0.4621    0.0533  14.80  -1.0  -1.0  0     0.0000    0.0003
26           ?    N    ? P      ? 20180313 0011    4.1655 GAU  7.45e-03 -1.00e+00  9.61e+00  8.00e-03    9.6100 >    0.2247    0.0028    0.8795  694.3783 5155.6910   -0.4400    0.0601 130.40  -1.0  -1.0  0     0.0000    0.0002
16           ?    N    ? P      ? 20180313 0011    4.2116 GAU  2.28e-02 -1.00e+00  7.61e+00  8.00e-03    7.6100 >    0.2595    0.0142    1.3050  694.3452 5155.7921   -0.4642    0.0635  11.51  -1.0  -1.0  0     0.0000    0.0003
105          ?    N    ? P      ? 20180313 0011    4.1532 GAU  1.54e-02 -1.00e+00  9.29e+00  1.20e-02    9.2900 >    0.2243   -0.0090    0.7265  694.3764 5155.6832   -0.4382    0.0641 136.78  -1.0  -1.0  0     0.0000    0.0002
22           ?    N    ? P      ? 20180313 0011    4.2081 GAU  1.84e-02 -1.00e+00  7.96e+00  1.20e-02    7.9600 >    0.2398    0.0303    0.4053  694.3985 5155.7265   -0.4488    0.0661  92.93  -1.0  -1.0  0     0.0000    0.0002
28           ?    N    ? P      ? 20180313 0011    4.1572 GAU  1.23e-02 -1.00e+00  8.50e+00  8.00e-03    8.5000 >    0.2268   -0.0076    0.8329  694.3767 5155.6745   -0.4362    0.0709 141.48  -1.0  -1.0  0     0.0000    0.0002
103          ?    N    ? P      ? 20180313 0011    4.1940 GAU  1.75e-02 -1.00e+00  7.16e+00  8.00e-03    7.1600 >    0.2669   -0.0109    1.4491  694.3644 5155.7952   -0.4662    0.0726  26.00  -1.0  -1.0  0     0.0000    0.0003
27           ?    N    ? P      ? 20180313 0011    4.1883 GAU  1.62e-02 -1.00e+00  7.24e+00  1.20e-02    7.2400 >    0.2381    0.0123    0.6359  694.4008 5155.6912   -0.4412    0.0785 119.54  -1.0  -1.0  0     0.0000    0.0002
30           ?    N    ? P      ? 20180313 0011    4.1738 GAU  1.93e-02 -1.00e+00  8.51e+00  4.40e-02    8.5100 >    0.2310    0.0048    0.8342  694.3775 5155.6619   -0.4333    0.0815 146.54  -1.0  -1.0  0     0.0000    0.0002
32           ?    N    ? P      ? 20180313 0011    4.1804 GAU  2.50e-02 -1.00e+00  7.43e+00  8.00e-03    7.4300 >    0.2385    0.0039    0.8502  694.3777 5155.6456   -0.4297    0.0957 151.84  -1.0  -1.0  0     0.0000    0.0002
31           ?    N    ? P      ? 20180313 0011    4.1966 GAU  1.23e-02 -1.00e+00  7.64e+00  5.20e-02    7.6400 >    0.2558    0.0028    1.2912  694.4086 5155.6503   -0.4335    0.1101 136.28  -1.0  -1.0  0     0.0000    0.0003
33           ?    N    ? P      ? 20180313 0011    4.1927 GAU  2.15e-02 -1.00e+00  7.57e+00  1.20e-02    7.5700 >    0.2475    0.0072    1.1516  694.3775 5155.6293   -0.4252    0.1102 155.90  -1.0  -1.0  0     0.0000    0.0002
34           ?    N    ? P      ? 20180313 0011    4.2045 GAU  2.19e-02 -1.00e+00  7.50e+00  1.20e-02    7.5000 >    0.2806   -0.0141    1.3116  694.4145 5155.6153   -0.4263    0.1409 144.43  -1.0  -1.0  0     0.0000    0.0003
END_PHASE
END_NLLOC

