NLLOC "./loc/RR.20180313.031148.grid0" "REJECTED" "WARNING: max prob location on grid boundary 31, rejecting location."
PUBLIC_ID None
SIGNATURE "   obs:./obs/nll_picks.obs   NLLoc:v7.00.10(30Aug2020)   run:29Apr2022 23h21m18"
COMMENT "Rattlesnake Ridge Slidequake Locations"
GRID  150 250 75  694.15 5155.4 0  0.002 0.002 0.002 PROB_DENSITY
SEARCH OCTREE nInitial 1000 nEvaluated 4440 smallestNodeSide 0.001863/0.003112/0.000925 oct_tree_integral 2.072083e-05 scatter_volume 2.065600e-05
HYPOCENTER  x 694.227 y 5155.67 z 0.147537  OT 47.7616  ix -1 iy -1 iz -1 MAXIMUM_LIKELIHOOD
GEOGRAPHIC  OT 2018 03 13  03 11 47.761644  Lat 5155.669231 Long 694.227294 Depth 0.147537
QUALITY  Pmax 6.75398e+121 MFmin 309.703 MFmax 309.833 RMS 0.00778666 Nphs 27 Gap 270.145 Dist 0.085412 Mamp  0.77 27 Mdur -9.90 0
VPVSRATIO  VpVsRatio -1  Npair 0  Diff -2e+30
STATISTICS  ExpectX 694.200133 Y 5155.660160 Z 0.129946  CovXX 0.000827711 XY 7.05233e-05 XZ 0.000132022 YY 6.28395e-05 YZ 4.4751e-05 ZZ 0.000269002 EllAz1  176.434 Dip1  9.49043 Len1  0.0134108 Az2  301.925 Dip2  73.9368 Len2  0.0293213 Len3  5.525969e-02
STAT_GEOG  ExpectLat 5155.660160 Long 694.200133 Depth 0.129946
TRANSFORM  NONE
QML_OriginQuality  assocPhCt 27  usedPhCt 27  assocStaCt -1  usedStaCt 27  depthPhCt -1  stdErr 0.00778666  azGap 270.145  secAzGap 275.077  gtLevel -  minDist 0.085412 maxDist 0.228473 medDist 0.170301
QML_OriginUncertainty  horUnc -1  minHorUnc 0.0113886  maxHorUnc 0.0438014  azMaxHorUnc 84.7759
QML_ConfidenceEllipsoid  semiMajorAxisLength 0.0552597  semiMinorAxisLength 0.0134108  semiIntermediateAxisLength 0.0293213  majorAxisPlunge 12.8385  majorAxisAzimuth 84.2503  majorAxisRotation 10.7791
FOCALMECH  Hyp  5155.669231 694.227294 0.147537 Mech  0 0 0 mf  0 nObs -1
PHASE ID Ins Cmp On Pha  FM Date     HrMn   Sec     Err  ErrMag    Coda      Amp       Per       PriorWt  >   TTpred    Res       Weight    StaLoc(X  Y         Z)        SDist    SAzim  RAz  RDip RQual    Tcorr       TTerr
106          ?    N    ? P      ? 20180313 0311   48.1385 GAU  3.90e-03 -1.00e+00  8.48e+00  1.20e-02    8.4800 >    0.2888    0.0881    0.0001  694.3120 5155.6801   -0.4360    0.0854  82.72  -1.0  -1.0  0     0.0000    0.0003
25           ?    N    ? P      ? 20180313 0311   48.1233 GAU  3.57e-03 -1.00e+00  8.17e+00  8.00e-03    8.1700 >    0.3457    0.0160    0.3415  694.3684 5155.7091   -0.4438    0.1467  74.22  -1.0  -1.0  0     0.0000    0.0003
28           ?    N    ? P      ? 20180313 0311   48.1009 GAU  2.60e-03 -1.00e+00  9.15e+00  1.20e-02    9.1500 >    0.3396   -0.0003    1.5492  694.3767 5155.6745   -0.4362    0.1495  88.00  -1.0  -1.0  0     0.0000    0.0003
105          ?    N    ? P      ? 20180313 0311   48.1061 GAU  3.25e-03 -1.00e+00  9.74e+00  1.20e-02    9.7400 >    0.3421    0.0023    1.4333  694.3764 5155.6832   -0.4382    0.1498  84.63  -1.0  -1.0  0     0.0000    0.0003
23           ?    N    ? P      ? 20180313 0311   48.1207 GAU  6.82e-03 -1.00e+00  8.42e+00  8.00e-03    8.4200 >    0.3530    0.0061    1.0740  694.3677 5155.7226   -0.4473    0.1502  69.20  -1.0  -1.0  0     0.0000    0.0004
30           ?    N    ? P      ? 20180313 0311   48.9180 GAU  1.95e-03 -1.00e+00  9.93e+00  1.20e-02    9.9300 >    0.3374    0.8190    0.0000  694.3775 5155.6619   -0.4333    0.1504  92.79  -1.0  -1.0  0     0.0000    0.0003
32           ?    N    ? P      ? 20180313 0311   48.8200 GAU  3.25e-03 -1.00e+00  9.84e+00  8.00e-03    9.8400 >    0.3354    0.7230    0.0000  694.3777 5155.6456   -0.4297    0.1522  98.94  -1.0  -1.0  0     0.0000    0.0003
26           ?    N    ? P      ? 20180313 0311   48.1051 GAU  6.17e-03 -1.00e+00  9.08e+00  1.20e-02    9.0800 >    0.3470   -0.0035    1.2769  694.3783 5155.6910   -0.4400    0.1526  81.81  -1.0  -1.0  0     0.0000    0.0003
21           ?    N    ? P      ? 20180313 0311   48.1349 GAU  1.07e-02 -1.00e+00  7.50e+00  1.20e-02    7.5000 >    0.3614    0.0118    0.7410  694.3642 5155.7391   -0.4517    0.1537  62.95  -1.0  -1.0  0     0.0000    0.0004
33           ?    N    ? P      ? 20180313 0311   48.8720 GAU  3.25e-03 -1.00e+00  9.59e+00  1.20e-02    9.5900 >    0.3333    0.7771    0.0000  694.3775 5155.6293   -0.4252    0.1554 104.88  -1.0  -1.0  0     0.0000    0.0003
20           ?    N    ? P      ? 20180313 0311   48.1275 GAU  3.90e-03 -1.00e+00  7.34e+00  8.00e-03    7.3400 >    0.3680   -0.0022    1.6841  694.3609 5155.7515   -0.4553    0.1568  58.38  -1.0  -1.0  0     0.0000    0.0004
18           ?    N    ? P      ? 20180313 0311   48.1307 GAU  5.19e-03 -1.00e+00  6.81e+00  8.00e-03    6.8100 >    0.3759   -0.0068    1.5021  694.3549 5155.7674   -0.4586    0.1610  52.42  -1.0  -1.0  0     0.0000    0.0004
17           ?    N    ? P      ? 20180313 0311   48.1411 GAU  9.40e-03 -1.00e+00  6.89e+00  1.20e-02    6.8900 >    0.3826   -0.0031    1.6992  694.3461 5155.7815   -0.4621    0.1635  46.64  -1.0  -1.0  0     0.0000    0.0004
35           ?    N    ? P      ? 20180313 0311   48.9470 GAU  5.52e-03 -1.00e+00  9.26e+00  1.20e-02    9.2600 >    0.3383    0.8470    0.0000  694.3818 5155.6141   -0.4216    0.1640 109.64  -1.0  -1.0  0     0.0000    0.0003
16           ?    N    ? P      ? 20180313 0311   48.1590 GAU  1.60e-02 -1.00e+00  7.16e+00  8.00e-03    7.1600 >    0.3915    0.0059    1.3121  694.3452 5155.7921   -0.4642    0.1703  43.81  -1.0  -1.0  0     0.0000    0.0004
27           ?    N    ? P      ? 20180313 0311   48.1187 GAU  5.52e-03 -1.00e+00  6.79e+00  6.00e-02    6.7900 >    0.3701   -0.0130    0.8508  694.4008 5155.6912   -0.4412    0.1749  82.77  -1.0  -1.0  0     0.0000    0.0004
36           ?    N    ? P      ? 20180313 0311   48.1106 GAU  1.23e-02 -1.00e+00  8.15e+00  1.20e-02    8.1500 >    0.3475    0.0015    1.5582  694.3865 5155.5904   -0.4164    0.1777 116.35  -1.0  -1.0  0     0.0000    0.0003
22           ?    N    ? P      ? 20180313 0311   48.1388 GAU  8.77e-03 -1.00e+00  7.49e+00  8.00e-03    7.4900 >    0.3835   -0.0063    1.2083  694.3985 5155.7265   -0.4488    0.1805  71.49  -1.0  -1.0  0     0.0000    0.0004
31           ?    N    ? P      ? 20180313 0311   48.1158 GAU  1.49e-02 -1.00e+00  7.61e+00  4.80e-02    7.6100 >    0.3700   -0.0159    0.8379  694.4086 5155.6503   -0.4335    0.1823  95.95  -1.0  -1.0  0     0.0000    0.0004
103          ?    N    ? P      ? 20180313 0311   48.1294 GAU  3.71e-02 -1.00e+00  6.77e+00  1.20e-02    6.7700 >    0.4082   -0.0404    0.5887  694.3644 5155.7952   -0.4662    0.1862  47.42  -1.0  -1.0  0     0.0000    0.0004
38           ?    N    ? P      ? 20180313 0311   48.1112 GAU  1.49e-02 -1.00e+00  7.13e+00  6.40e-02    7.1300 >    0.3600   -0.0104    1.3342  694.3902 5155.5681   -0.4123    0.1917 121.84  -1.0  -1.0  0     0.0000    0.0004
34           ?    N    ? P      ? 20180313 0311   48.1090 GAU  1.46e-02 -1.00e+00  7.73e+00  1.20e-02    7.7300 >    0.3765   -0.0292    0.4763  694.4145 5155.6153   -0.4263    0.1948 106.08  -1.0  -1.0  0     0.0000    0.0004
39           ?    N    ? P      ? 20180313 0311   48.1294 GAU  8.40e-03 -1.00e+00  7.19e+00  2.00e-02    7.1900 >    0.3657    0.0021    2.1454  694.3890 5155.5532   -0.4086    0.1991 125.66  -1.0  -1.0  0     0.0000    0.0004
41           ?    N    ? P      ? 20180313 0311   48.1381 GAU  4.85e-03 -1.00e+00  7.08e+00  1.20e-02    7.0800 >    0.3746    0.0018    2.7194  694.3901 5155.5386   -0.4053    0.2087 128.73  -1.0  -1.0  0     0.0000    0.0004
37           ?    N    ? P      ? 20180313 0311   48.1405 GAU  1.75e-02 -1.00e+00  7.24e+00  2.80e-02    7.2400 >    0.3913   -0.0124    1.1230  694.4219 5155.5876   -0.4220    0.2111 112.75  -1.0  -1.0  0     0.0000    0.0004
42           ?    N    ? P      ? 20180313 0311   48.1242 GAU  1.49e-02 -1.00e+00  6.34e+00  3.60e-02    6.3400 >    0.3843   -0.0217    1.0780  694.3873 5155.5165   -0.3983    0.2212 133.67  -1.0  -1.0  0     0.0000    0.0004
40           ?    N    ? P      ? 20180313 0311   48.1423 GAU  5.17e-03 -1.00e+00  7.27e+00  5.20e-02    7.2700 >    0.4052   -0.0245    0.4665  694.4169 5155.5417   -0.4131    0.2285 123.92  -1.0  -1.0  0     0.0000    0.0004
END_PHASE
END_NLLOC

