NLLOC "./loc/RR.20180313.020025.grid0" "LOCATED" "Location completed."
PUBLIC_ID None
SIGNATURE "   obs:./obs/nll_picks.obs   NLLoc:v7.00.10(30Aug2020)   run:29Apr2022 23h20m41"
COMMENT "Rattlesnake Ridge Slidequake Locations"
GRID  150 250 75  694.15 5155.4 0  0.002 0.002 0.002 PROB_DENSITY
SEARCH OCTREE nInitial 1000 nEvaluated 6168 smallestNodeSide 0.001863/0.003112/0.000925 oct_tree_integral 3.071606e-05 scatter_volume 3.059152e-05
HYPOCENTER  x 694.184 y 5155.62 z 0.145687  OT 24.9431  ix -1 iy -1 iz -1 MAXIMUM_LIKELIHOOD
GEOGRAPHIC  OT 2018 03 13  02 00 24.943103  Lat 5155.616319 Long 694.184456 Depth 0.145687
QUALITY  Pmax 4.39673e+132 MFmin 399.344 MFmax 399.811 RMS 0.0120806 Nphs 28 Gap 278.804 Dist 0.142598 Mamp  0.87 28 Mdur -9.90 0
VPVSRATIO  VpVsRatio -1  Npair 0  Diff -2e+30
STATISTICS  ExpectX 694.188614 Y 5155.620004 Z 0.122008  CovXX 0.000645331 XY 0.000216094 XZ 0.000126694 YY 0.000125534 YZ 4.38068e-05 ZZ 0.000467754 EllAz1  160.075 Dip1  -0.271435 Len1  0.0129386 Az2  249.441 Dip2  66.8197 Len2  0.0380607 Len3  5.250055e-02
STAT_GEOG  ExpectLat 5155.620004 Long 694.188614 Depth 0.122008
TRANSFORM  NONE
QML_OriginQuality  assocPhCt 28  usedPhCt 28  assocStaCt -1  usedStaCt 28  depthPhCt -1  stdErr 0.0120806  azGap 278.804  secAzGap 286.238  gtLevel -  minDist 0.142598 maxDist 0.253693 medDist 0.218746
QML_OriginUncertainty  horUnc -1  minHorUnc 0.0104449  maxHorUnc 0.0407909  azMaxHorUnc 70.129
QML_ConfidenceEllipsoid  semiMajorAxisLength 0.0525005  semiMinorAxisLength 0.0129386  semiIntermediateAxisLength 0.0380607  majorAxisPlunge 23.1785  majorAxisAzimuth 70.1914  majorAxisRotation 359.572
FOCALMECH  Hyp  5155.616319 694.184456 0.145687 Mech  0 0 0 mf  0 nObs -1
PHASE ID Ins Cmp On Pha  FM Date     HrMn   Sec     Err  ErrMag    Coda      Amp       Per       PriorWt  >   TTpred    Res       Weight    StaLoc(X  Y         Z)        SDist    SAzim  RAz  RDip RQual    Tcorr       TTerr
106          ?    N    ? P      ? 20180313 0200   25.4694 GAU  2.68e-02 -1.00e+00  8.86e+00  2.80e-02    8.8600 >    0.3686    0.1577    0.0000  694.3120 5155.6801   -0.4360    0.1426  63.45  -1.0  -1.0  0     0.0000    0.0004
33           ?    N    ? P      ? 20180313 0200   25.3483 GAU  4.65e-03 -1.00e+00  1.06e+01  8.00e-03   10.6000 >    0.4018    0.0034    1.1846  694.3775 5155.6293   -0.4252    0.1935  86.15  -1.0  -1.0  0     0.0000    0.0004
32           ?    N    ? P      ? 20180313 0200   25.3498 GAU  2.32e-03 -1.00e+00  1.04e+01  1.20e-02   10.4000 >    0.4084   -0.0017    1.1451  694.3777 5155.6456   -0.4297    0.1954  81.39  -1.0  -1.0  0     0.0000    0.0004
35           ?    N    ? P      ? 20180313 0200   25.3559 GAU  4.22e-03 -1.00e+00  1.12e+01  1.20e-02   11.2000 >    0.4014    0.0114    1.0294  694.3818 5155.6141   -0.4216    0.1973  90.64  -1.0  -1.0  0     0.0000    0.0004
30           ?    N    ? P      ? 20180313 0200   25.3695 GAU  5.49e-03 -1.00e+00  9.05e+00  2.40e-02    9.0500 >    0.4146    0.0118    0.6538  694.3775 5155.6619   -0.4333    0.1983  76.71  -1.0  -1.0  0     0.0000    0.0004
28           ?    N    ? P      ? 20180313 0200   25.3942 GAU  7.39e-03 -1.00e+00  9.52e+00  1.20e-02    9.5200 >    0.4202    0.0309    0.5058  694.3767 5155.6745   -0.4362    0.2008  73.17  -1.0  -1.0  0     0.0000    0.0004
105          ?    N    ? P      ? 20180313 0200   25.3840 GAU  8.66e-03 -1.00e+00  9.68e+00  1.60e-02    9.6800 >    0.4248    0.0161    0.7076  694.3764 5155.6832   -0.4382    0.2033  70.78  -1.0  -1.0  0     0.0000    0.0004
36           ?    N    ? P      ? 20180313 0200   25.3464 GAU  2.32e-03 -1.00e+00  9.43e+00  1.20e-02    9.4300 >    0.4038   -0.0005    1.4318  694.3865 5155.5904   -0.4164    0.2037  97.32  -1.0  -1.0  0     0.0000    0.0004
25           ?    N    ? P      ? 20180313 0200   25.4045 GAU  7.19e-03 -1.00e+00  8.20e+00  1.20e-02    8.2000 >    0.4336    0.0278    0.6539  694.3684 5155.7091   -0.4438    0.2061  63.23  -1.0  -1.0  0     0.0000    0.0004
26           ?    N    ? P      ? 20180313 0200   25.3845 GAU  4.43e-03 -1.00e+00  8.05e+00  1.20e-02    8.0500 >    0.4314    0.0100    0.6736  694.3783 5155.6910   -0.4400    0.2077  68.94  -1.0  -1.0  0     0.0000    0.0004
38           ?    N    ? P      ? 20180313 0200   25.3519 GAU  4.86e-03 -1.00e+00  9.17e+00  1.20e-02    9.1700 >    0.4080    0.0008    1.5936  694.3902 5155.5681   -0.4123    0.2113 103.19  -1.0  -1.0  0     0.0000    0.0004
23           ?    N    ? P      ? 20180313 0200   25.4020 GAU  1.01e-02 -1.00e+00  9.33e+00  8.00e-03    9.3300 >    0.4432    0.0157    0.9166  694.3677 5155.7226   -0.4473    0.2118  59.90  -1.0  -1.0  0     0.0000    0.0004
39           ?    N    ? P      ? 20180313 0200   25.3745 GAU  2.96e-03 -1.00e+00  8.87e+00  1.20e-02    8.8700 >    0.4081    0.0233    0.9431  694.3890 5155.5532   -0.4086    0.2141 107.15  -1.0  -1.0  0     0.0000    0.0004
21           ?    N    ? P      ? 20180313 0200   25.4180 GAU  5.07e-03 -1.00e+00  7.74e+00  8.00e-03    7.7400 >    0.4540    0.0209    0.8627  694.3642 5155.7391   -0.4517    0.2177  55.65  -1.0  -1.0  0     0.0000    0.0005
41           ?    N    ? P      ? 20180313 0200   25.3838 GAU  3.38e-03 -1.00e+00  8.32e+00  1.60e-02    8.3200 >    0.4119    0.0288    0.6771  694.3901 5155.5386   -0.4053    0.2198 110.69  -1.0  -1.0  0     0.0000    0.0004
20           ?    N    ? P      ? 20180313 0200   25.4077 GAU  4.86e-03 -1.00e+00  7.40e+00  2.80e-02    7.4000 >    0.4624    0.0022    1.6649  694.3609 5155.7515   -0.4553    0.2222  52.54  -1.0  -1.0  0     0.0000    0.0005
42           ?    N    ? P      ? 20180313 0200   25.3845 GAU  3.17e-03 -1.00e+00  7.14e+00  1.20e-02    7.1400 >    0.4138    0.0276    0.7747  694.3873 5155.5165   -0.3983    0.2260 116.20  -1.0  -1.0  0     0.0000    0.0004
31           ?    N    ? P      ? 20180313 0200   25.3880 GAU  3.38e-03 -1.00e+00  8.22e+00  8.00e-03    8.2200 >    0.4443    0.0006    1.1220  694.4086 5155.6503   -0.4335    0.2267  81.37  -1.0  -1.0  0     0.0000    0.0004
18           ?    N    ? P      ? 20180313 0200   25.4138 GAU  5.49e-03 -1.00e+00  7.09e+00  2.80e-02    7.0900 >    0.4718   -0.0011    1.6385  694.3549 5155.7674   -0.4586    0.2278  48.44  -1.0  -1.0  0     0.0000    0.0005
27           ?    N    ? P      ? 20180313 0200   25.4009 GAU  4.43e-03 -1.00e+00  7.80e+00  8.00e-03    7.8000 >    0.4539    0.0039    1.0814  694.4008 5155.6912   -0.4412    0.2289  70.90  -1.0  -1.0  0     0.0000    0.0005
34           ?    N    ? P      ? 20180313 0200   25.3992 GAU  4.02e-03 -1.00e+00  8.96e+00  1.20e-02    8.9600 >    0.4412    0.0149    0.8546  694.4145 5155.6153   -0.4263    0.2301  90.26  -1.0  -1.0  0     0.0000    0.0004
17           ?    N    ? P      ? 20180313 0200   25.4271 GAU  8.67e-03 -1.00e+00  7.36e+00  1.20e-02    7.3600 >    0.4794    0.0046    1.6581  694.3461 5155.7815   -0.4621    0.2311  44.39  -1.0  -1.0  0     0.0000    0.0005
15           ?    N    ? P      ? 20180313 0200   25.3973 GAU  5.49e-03 -1.00e+00  5.81e+00  8.00e-03    5.8100 >    0.4854   -0.0312    0.0063  694.3206 5155.8107   -0.4609    0.2373  35.00  -1.0  -1.0  0     0.0000    0.0005
16           ?    N    ? P      ? 20180313 0200   25.4371 GAU  1.48e-02 -1.00e+00  7.18e+00  5.20e-02    7.1800 >    0.4892    0.0048    1.3535  694.3452 5155.7921   -0.4642    0.2382  42.44  -1.0  -1.0  0     0.0000    0.0005
37           ?    N    ? P      ? 20180313 0200   25.3889 GAU  4.65e-03 -1.00e+00  8.85e+00  8.00e-03    8.8500 >    0.4486   -0.0028    1.1739  694.4219 5155.5876   -0.4220    0.2392  96.90  -1.0  -1.0  0     0.0000    0.0004
22           ?    N    ? P      ? 20180313 0200   25.4259 GAU  6.13e-03 -1.00e+00  7.65e+00  1.20e-02    7.6500 >    0.4737    0.0091    1.0147  694.3985 5155.7265   -0.4488    0.2408  62.75  -1.0  -1.0  0     0.0000    0.0005
40           ?    N    ? P      ? 20180313 0200   25.3929 GAU  4.02e-03 -1.00e+00  8.40e+00  1.20e-02    8.4000 >    0.4471    0.0027    2.1075  694.4169 5155.5417   -0.4131    0.2441 107.79  -1.0  -1.0  0     0.0000    0.0004
103          ?    N    ? P      ? 20180313 0200   25.4337 GAU  1.39e-02 -1.00e+00  6.88e+00  8.00e-03    6.8800 >    0.5057   -0.0151    0.5715  694.3644 5155.7952   -0.4662    0.2537  45.17  -1.0  -1.0  0     0.0000    0.0005
END_PHASE
END_NLLOC

