NLLOC "./loc/RR.20180313.020730.grid0" "REJECTED" "WARNING: max prob location on grid boundary 31, rejecting location."
PUBLIC_ID None
SIGNATURE "   obs:./obs/nll_picks.obs   NLLoc:v7.00.10(30Aug2020)   run:29Apr2022 23h20m44"
COMMENT "Rattlesnake Ridge Slidequake Locations"
GRID  150 250 75  694.15 5155.4 0  0.002 0.002 0.002 PROB_DENSITY
SEARCH OCTREE nInitial 1000 nEvaluated 2680 smallestNodeSide 0.001863/0.003112/0.000925 oct_tree_integral 5.907921e-06 scatter_volume 5.907921e-06
HYPOCENTER  x 694.23 y 5155.67 z 0.147075  OT 29.791  ix -1 iy -1 iz -1 MAXIMUM_LIKELIHOOD
GEOGRAPHIC  OT 2018 03 13  02 07 29.791004  Lat 5155.670787 Long 694.230087 Depth 0.147075
QUALITY  Pmax 1.47645e+130 MFmin 378.387 MFmax 378.54 RMS 0.00824698 Nphs 28 Gap 262.835 Dist 0.0824521 Mamp  0.75 28 Mdur -9.90 0
VPVSRATIO  VpVsRatio -1  Npair 0  Diff -2e+30
STATISTICS  ExpectX 694.204091 Y 5155.663587 Z 0.131007  CovXX 0.000715065 XY 0.000195169 XZ 9.00941e-05 YY 0.000105055 YZ 1.96309e-05 ZZ 0.000247181 EllAz1  163.443 Dip1  -1.9693 Len1  0.0129808 Az2  242.032 Dip2  80.1408 Len2  0.0286022 Len3  5.273505e-02
STAT_GEOG  ExpectLat 5155.663587 Long 694.204091 Depth 0.131007
TRANSFORM  NONE
QML_OriginQuality  assocPhCt 28  usedPhCt 28  assocStaCt -1  usedStaCt 28  depthPhCt -1  stdErr 0.00824698  azGap 262.835  secAzGap 265.885  gtLevel -  minDist 0.0824521 maxDist 0.227042 medDist 0.164266
QML_OriginUncertainty  horUnc -1  minHorUnc 0.0105024  maxHorUnc 0.0421423  azMaxHorUnc 73.6927
QML_ConfidenceEllipsoid  semiMajorAxisLength 0.0527351  semiMinorAxisLength 0.0129808  semiIntermediateAxisLength 0.0286022  majorAxisPlunge 9.65664  majorAxisAzimuth 73.7777  majorAxisRotation 357.883
FOCALMECH  Hyp  5155.670787 694.230087 0.147075 Mech  0 0 0 mf  0 nObs -1
PHASE ID Ins Cmp On Pha  FM Date     HrMn   Sec     Err  ErrMag    Coda      Amp       Per       PriorWt  >   TTpred    Res       Weight    StaLoc(X  Y         Z)        SDist    SAzim  RAz  RDip RQual    Tcorr       TTerr
106          ?    N    ? P      ? 20180313 0207   30.1408 GAU  4.91e-03 -1.00e+00  7.70e+00  1.20e-02    7.7000 >    0.2842    0.0656    0.0000  694.3120 5155.6801   -0.4360    0.0825  83.55  -1.0  -1.0  0     0.0000    0.0003
25           ?    N    ? P      ? 20180313 0207   30.1375 GAU  4.78e-03 -1.00e+00  8.37e+00  2.80e-02    8.3700 >    0.3406    0.0058    0.6899  694.3684 5155.7091   -0.4438    0.1436  74.51  -1.0  -1.0  0     0.0000    0.0003
28           ?    N    ? P      ? 20180313 0207   30.1267 GAU  5.48e-03 -1.00e+00  9.75e+00  8.00e-03    9.7500 >    0.3347    0.0010    0.9861  694.3767 5155.6745   -0.4362    0.1466  88.57  -1.0  -1.0  0     0.0000    0.0003
105          ?    N    ? P      ? 20180313 0207   30.1306 GAU  3.78e-03 -1.00e+00  8.96e+00  1.20e-02    8.9600 >    0.3372    0.0024    0.9620  694.3764 5155.6832   -0.4382    0.1468  85.14  -1.0  -1.0  0     0.0000    0.0003
23           ?    N    ? P      ? 20180313 0207   30.1398 GAU  5.41e-03 -1.00e+00  8.53e+00  2.40e-02    8.5300 >    0.3479    0.0009    1.2193  694.3677 5155.7226   -0.4473    0.1470  69.38  -1.0  -1.0  0     0.0000    0.0003
30           ?    N    ? P      ? 20180313 0207   30.1199 GAU  4.72e-03 -1.00e+00  8.78e+00  8.00e-03    8.7800 >    0.3328   -0.0039    1.0760  694.3775 5155.6619   -0.4333    0.1476  93.45  -1.0  -1.0  0     0.0000    0.0003
26           ?    N    ? P      ? 20180313 0207   30.1346 GAU  3.53e-03 -1.00e+00  8.52e+00  8.00e-03    8.5200 >    0.3420    0.0016    1.0460  694.3783 5155.6910   -0.4400    0.1496  82.24  -1.0  -1.0  0     0.0000    0.0003
32           ?    N    ? P      ? 20180313 0207   30.1133 GAU  6.80e-03 -1.00e+00  9.22e+00  5.20e-02    9.2200 >    0.3308   -0.0085    1.0331  694.3777 5155.6456   -0.4297    0.1497  99.69  -1.0  -1.0  0     0.0000    0.0003
21           ?    N    ? P      ? 20180313 0207   30.1527 GAU  1.16e-02 -1.00e+00  7.67e+00  1.20e-02    7.6700 >    0.3563    0.0054    0.8262  694.3642 5155.7391   -0.4517    0.1505  62.99  -1.0  -1.0  0     0.0000    0.0004
33           ?    N    ? P      ? 20180313 0207   30.1197 GAU  8.69e-03 -1.00e+00  9.34e+00  1.20e-02    9.3400 >    0.3291   -0.0004    1.1095  694.3775 5155.6293   -0.4252    0.1532 105.71  -1.0  -1.0  0     0.0000    0.0003
20           ?    N    ? P      ? 20180313 0207   30.1410 GAU  5.40e-03 -1.00e+00  7.02e+00  2.40e-02    7.0200 >    0.3629   -0.0129    1.1076  694.3609 5155.7515   -0.4553    0.1537  58.32  -1.0  -1.0  0     0.0000    0.0004
18           ?    N    ? P      ? 20180313 0207   30.1504 GAU  3.95e-03 -1.00e+00  6.56e+00  1.20e-02    6.5600 >    0.3708   -0.0114    1.3367  694.3549 5155.7674   -0.4586    0.1578  52.25  -1.0  -1.0  0     0.0000    0.0004
17           ?    N    ? P      ? 20180313 0207   30.1589 GAU  5.82e-03 -1.00e+00  6.57e+00  2.80e-02    6.5700 >    0.3775   -0.0096    1.6968  694.3461 5155.7815   -0.4621    0.1604  46.36  -1.0  -1.0  0     0.0000    0.0004
35           ?    N    ? P      ? 20180313 0207   30.1199 GAU  6.99e-03 -1.00e+00  8.72e+00  1.20e-02    8.7200 >    0.3342   -0.0053    1.3776  694.3818 5155.6141   -0.4216    0.1619 110.49  -1.0  -1.0  0     0.0000    0.0003
15           ?    N    ? P      ? 20180313 0207   30.3673 GAU  4.32e-03 -1.00e+00  9.10e+00  1.20e-02    9.1000 >    0.3824    0.1939    0.0004  694.3206 5155.8107   -0.4609    0.1666  32.89  -1.0  -1.0  0     0.0000    0.0004
16           ?    N    ? P      ? 20180313 0207   30.1788 GAU  5.41e-03 -1.00e+00  7.03e+00  1.20e-02    7.0300 >    0.3865    0.0013    2.2035  694.3452 5155.7921   -0.4642    0.1672  43.49  -1.0  -1.0  0     0.0000    0.0004
27           ?    N    ? P      ? 20180313 0207   30.1487 GAU  5.20e-03 -1.00e+00  8.20e+00  1.20e-02    8.2000 >    0.3651   -0.0074    1.0318  694.4008 5155.6912   -0.4412    0.1719  83.16  -1.0  -1.0  0     0.0000    0.0004
36           ?    N    ? P      ? 20180313 0207   30.1299 GAU  1.44e-02 -1.00e+00  7.13e+00  8.00e-03    7.1300 >    0.3438   -0.0049    1.0981  694.3865 5155.5904   -0.4164    0.1759 117.21  -1.0  -1.0  0     0.0000    0.0003
22           ?    N    ? P      ? 20180313 0207   30.1618 GAU  8.73e-03 -1.00e+00  7.73e+00  8.00e-03    7.7300 >    0.3783   -0.0075    1.1248  694.3985 5155.7265   -0.4488    0.1774  71.68  -1.0  -1.0  0     0.0000    0.0004
31           ?    N    ? P      ? 20180313 0207   30.1450 GAU  5.66e-03 -1.00e+00  7.51e+00  8.00e-03    7.5100 >    0.3654   -0.0114    0.9015  694.4086 5155.6503   -0.4335    0.1797  96.53  -1.0  -1.0  0     0.0000    0.0004
103          ?    N    ? P      ? 20180313 0207   30.1545 GAU  9.35e-03 -1.00e+00  6.18e+00  2.80e-02    6.1800 >    0.4031   -0.0396    0.3117  694.3644 5155.7952   -0.4662    0.1830  47.19  -1.0  -1.0  0     0.0000    0.0004
38           ?    N    ? P      ? 20180313 0207   30.1227 GAU  1.06e-02 -1.00e+00  6.62e+00  1.20e-02    6.6200 >    0.3566   -0.0249    0.5771  694.3902 5155.5681   -0.4123    0.1902 122.68  -1.0  -1.0  0     0.0000    0.0004
10           ?    N    ? P      ? 20180313 0207   30.3763 GAU  7.97e-03 -1.00e+00  6.51e+00  1.20e-02    6.5100 >    0.4140    0.1713    0.0004  694.3329 5155.8329   -0.4673    0.1920  32.39  -1.0  -1.0  0     0.0000    0.0004
34           ?    N    ? P      ? 20180313 0207   30.1488 GAU  4.53e-03 -1.00e+00  7.45e+00  1.20e-02    7.4500 >    0.3724   -0.0146    0.9536  694.4145 5155.6153   -0.4263    0.1926 106.75  -1.0  -1.0  0     0.0000    0.0004
39           ?    N    ? P      ? 20180313 0207   30.1542 GAU  2.83e-03 -1.00e+00  6.81e+00  1.60e-02    6.8100 >    0.3626    0.0006    2.4292  694.3890 5155.5532   -0.4086    0.1977 126.50  -1.0  -1.0  0     0.0000    0.0004
41           ?    N    ? P      ? 20180313 0207   30.1609 GAU  3.78e-03 -1.00e+00  6.13e+00  8.00e-03    6.1300 >    0.3716   -0.0018    2.5029  694.3901 5155.5386   -0.4053    0.2075 129.55  -1.0  -1.0  0     0.0000    0.0004
37           ?    N    ? P      ? 20180313 0207   30.1405 GAU  1.21e-02 -1.00e+00  6.54e+00  1.20e-02    6.5400 >    0.3874   -0.0379    0.2226  694.4219 5155.5876   -0.4220    0.2091 113.44  -1.0  -1.0  0     0.0000    0.0004
40           ?    N    ? P      ? 20180313 0207   30.1658 GAU  1.89e-03 -1.00e+00  6.92e+00  2.40e-02    6.9200 >    0.4020   -0.0272    0.1756  694.4169 5155.5417   -0.4131    0.2270 124.64  -1.0  -1.0  0     0.0000    0.0004
END_PHASE
END_NLLOC

