NLLOC "./loc/RR.20180313.000717.grid0" "LOCATED" "Location completed."
PUBLIC_ID None
SIGNATURE "   obs:./obs/nll_picks.obs   NLLoc:v7.00.10(30Aug2020)   run:29Apr2022 23h17m30"
COMMENT "Rattlesnake Ridge Slidequake Locations"
GRID  150 250 75  694.15 5155.4 0  0.002 0.002 0.002 PROB_DENSITY
SEARCH OCTREE nInitial 1000 nEvaluated 20008 smallestNodeSide 0.003725/0.006225/0.001850 oct_tree_integral 7.389228e-04 scatter_volume 7.346062e-04
HYPOCENTER  x 694.349 y 5155.54 z 0.071225  OT 17.7414  ix -1 iy -1 iz -1 MAXIMUM_LIKELIHOOD
GEOGRAPHIC  OT 2018 03 13  00 07 17.741369  Lat 5155.540063 Long 694.349287 Depth 0.071225
QUALITY  Pmax 1.38816e+37 MFmin 52.2223 MFmax 52.2379 RMS 0.00698748 Nphs 11 Gap 253.288 Dist 0.0408423 Mamp  0.36 11 Mdur -9.90 0
VPVSRATIO  VpVsRatio -1  Npair 0  Diff -2e+30
STATISTICS  ExpectX 694.283410 Y 5155.492128 Z 0.090712  CovXX 0.00426052 XY 0.00211695 XZ 0.000465676 YY 0.00169676 YZ -9.30903e-05 ZZ 0.00153403 EllAz1  149.437 Dip1  -15.8274 Len1  0.0383214 Az2  348.673 Dip2  -73.2876 Len2  0.0748921 Len3  1.391653e-01
STAT_GEOG  ExpectLat 5155.492128 Long 694.283410 Depth 0.090712
TRANSFORM  NONE
QML_OriginQuality  assocPhCt 11  usedPhCt 11  assocStaCt -1  usedStaCt 11  depthPhCt -1  stdErr 0.00698748  azGap 253.288  secAzGap 283.067  gtLevel -  minDist 0.0408423 maxDist 0.109265 medDist 0.0676089
QML_OriginUncertainty  horUnc -1  minHorUnc 0.0340414  maxHorUnc 0.111995  azMaxHorUnc 60.5982
QML_ConfidenceEllipsoid  semiMajorAxisLength 0.139165  semiMinorAxisLength 0.0383214  semiIntermediateAxisLength 0.0748921  majorAxisPlunge 5.22958  majorAxisAzimuth 60.9241  majorAxisRotation 343.85
FOCALMECH  Hyp  5155.540063 694.349287 0.071225 Mech  0 0 0 mf  0 nObs -1
PHASE ID Ins Cmp On Pha  FM Date     HrMn   Sec     Err  ErrMag    Coda      Amp       Per       PriorWt  >   TTpred    Res       Weight    StaLoc(X  Y         Z)        SDist    SAzim  RAz  RDip RQual    Tcorr       TTerr
41           ?    N    ? P      ? 20180313 0007   17.8948 GAU  7.79e-03 -1.00e+00  8.63e+00  1.60e-02    8.6300 >    0.1545   -0.0011    1.1760  694.3901 5155.5386   -0.4053    0.0408  92.00  -1.0  -1.0  0     0.0000    0.0002
39           ?    N    ? P      ? 20180313 0007   17.9040 GAU  9.20e-03 -1.00e+00  9.24e+00  8.00e-03    9.2400 >    0.1596    0.0030    0.9459  694.3890 5155.5532   -0.4086    0.0418  71.74  -1.0  -1.0  0     0.0000    0.0002
42           ?    N    ? P      ? 20180313 0007   17.8884 GAU  9.92e-03 -1.00e+00  8.65e+00  8.00e-03    8.6500 >    0.1481   -0.0010    1.8172  694.3873 5155.5165   -0.3983    0.0447 121.78  -1.0  -1.0  0     0.0000    0.0001
38           ?    N    ? P      ? 20180313 0007   17.9273 GAU  2.41e-02 -1.00e+00  7.26e+00  1.60e-02    7.2600 >    0.1699    0.0160    0.4692  694.3902 5155.5681   -0.4123    0.0496  55.53  -1.0  -1.0  0     0.0000    0.0002
36           ?    N    ? P      ? 20180313 0007   17.9171 GAU  1.52e-02 -1.00e+00  7.65e+00  1.20e-02    7.6500 >    0.1852   -0.0095    0.7201  694.3865 5155.5904   -0.4164    0.0626  36.52  -1.0  -1.0  0     0.0000    0.0002
40           ?    N    ? P      ? 20180313 0007   17.9316 GAU  1.77e-02 -1.00e+00  7.44e+00  1.20e-02    7.4400 >    0.1856    0.0047    1.0088  694.4169 5155.5417   -0.4131    0.0676  88.59  -1.0  -1.0  0     0.0000    0.0002
35           ?    N    ? P      ? 20180313 0007   17.9270 GAU  2.73e-02 -1.00e+00  7.31e+00  8.00e-03    7.3100 >    0.2081   -0.0225    0.6174  694.3818 5155.6141   -0.4216    0.0809  23.68  -1.0  -1.0  0     0.0000    0.0002
37           ?    N    ? P      ? 20180313 0007   17.9588 GAU  3.01e-02 -1.00e+00  6.60e+00  1.20e-02    6.6000 >    0.2142    0.0033    0.6304  694.4219 5155.5876   -0.4220    0.0868  56.80  -1.0  -1.0  0     0.0000    0.0002
33           ?    N    ? P      ? 20180313 0007   17.9822 GAU  1.74e-02 -1.00e+00  6.75e+00  1.60e-02    6.7500 >    0.2257    0.0152    1.2010  694.3775 5155.6293   -0.4252    0.0936  17.55  -1.0  -1.0  0     0.0000    0.0002
34           ?    N    ? P      ? 20180313 0007   17.9663 GAU  2.76e-02 -1.00e+00  6.82e+00  1.20e-02    6.8200 >    0.2323   -0.0073    0.8633  694.4145 5155.6153   -0.4263    0.0996  40.93  -1.0  -1.0  0     0.0000    0.0002
32           ?    N    ? P      ? 20180313 0007   17.9840 GAU  2.48e-02 -1.00e+00  7.05e+00  8.00e-03    7.0500 >    0.2470   -0.0044    1.5506  694.3777 5155.6456   -0.4297    0.1093  15.07  -1.0  -1.0  0     0.0000    0.0002
END_PHASE
END_NLLOC

