NLLOC "./loc/RR.20180313.022742.grid0" "REJECTED" "WARNING: max prob location on grid boundary 31, rejecting location."
PUBLIC_ID None
SIGNATURE "   obs:./obs/nll_picks.obs   NLLoc:v7.00.10(30Aug2020)   run:29Apr2022 23h20m58"
COMMENT "Rattlesnake Ridge Slidequake Locations"
GRID  150 250 75  694.15 5155.4 0  0.002 0.002 0.002 PROB_DENSITY
SEARCH OCTREE nInitial 1000 nEvaluated 12600 smallestNodeSide 0.001863/0.003112/0.000925 oct_tree_integral 7.740229e-05 scatter_volume 7.740229e-05
HYPOCENTER  x 694.238 y 5155.64 z 0.147537  OT 41.9267  ix -1 iy -1 iz -1 MAXIMUM_LIKELIHOOD
GEOGRAPHIC  OT 2018 03 13  02 27 41.926669  Lat 5155.641219 Long 694.238469 Depth 0.147537
QUALITY  Pmax 6.58172e+130 MFmin 322.961 MFmax 323.067 RMS 0.0105121 Nphs 28 Gap 255.887 Dist 0.0831726 Mamp  0.77 28 Mdur -9.90 0
VPVSRATIO  VpVsRatio -1  Npair 0  Diff -2e+30
STATISTICS  ExpectX 694.201776 Y 5155.627353 Z 0.103671  CovXX 0.000798657 XY 0.000207925 XZ 0.000423917 YY 0.000114205 YZ 0.000209117 ZZ 0.00120453 EllAz1  167.573 Dip1  5.57742 Len1  0.0129455 Az2  261.367 Dip2  34.1219 Len2  0.0436473 Len3  7.349637e-02
STAT_GEOG  ExpectLat 5155.627353 Long 694.201776 Depth 0.103671
TRANSFORM  NONE
QML_OriginQuality  assocPhCt 28  usedPhCt 28  assocStaCt -1  usedStaCt 28  depthPhCt -1  stdErr 0.0105121  azGap 255.887  secAzGap 265.308  gtLevel -  minDist 0.0831726 maxDist 0.204276 medDist 0.169119
QML_OriginUncertainty  horUnc -1  minHorUnc 0.0113482  maxHorUnc 0.0443937  azMaxHorUnc 74.3593
QML_ConfidenceEllipsoid  semiMajorAxisLength 0.0734964  semiMinorAxisLength 0.0129455  semiIntermediateAxisLength 0.0436473  majorAxisPlunge 55.2976  majorAxisAzimuth 69.4659  majorAxisRotation 333.778
FOCALMECH  Hyp  5155.641219 694.238469 0.147537 Mech  0 0 0 mf  0 nObs -1
PHASE ID Ins Cmp On Pha  FM Date     HrMn   Sec     Err  ErrMag    Coda      Amp       Per       PriorWt  >   TTpred    Res       Weight    StaLoc(X  Y         Z)        SDist    SAzim  RAz  RDip RQual    Tcorr       TTerr
106          ?    N    ? P      ? 20180313 0227   42.3152 GAU  1.01e-02 -1.00e+00  8.22e+00  1.60e-02    8.2200 >    0.2845    0.1041    0.0002  694.3120 5155.6801   -0.4360    0.0832  62.16  -1.0  -1.0  0     0.0000    0.0003
32           ?    N    ? P      ? 20180313 0227   42.2452 GAU  3.71e-03 -1.00e+00  9.86e+00  8.00e-03    9.8600 >    0.3210   -0.0025    0.9860  694.3777 5155.6456   -0.4297    0.1393  88.21  -1.0  -1.0  0     0.0000    0.0003
33           ?    N    ? P      ? 20180313 0227   42.2437 GAU  7.41e-03 -1.00e+00  9.07e+00  3.20e-02    9.0700 >    0.3168    0.0002    0.9728  694.3775 5155.6293   -0.4252    0.1396  94.89  -1.0  -1.0  0     0.0000    0.0003
30           ?    N    ? P      ? 20180313 0227   42.2654 GAU  5.83e-03 -1.00e+00  9.50e+00  1.20e-02    9.5000 >    0.3264    0.0123    0.8707  694.3775 5155.6619   -0.4333    0.1405  81.53  -1.0  -1.0  0     0.0000    0.0003
28           ?    N    ? P      ? 20180313 0227   42.2760 GAU  6.88e-03 -1.00e+00  9.78e+00  8.00e-03    9.7800 >    0.3311    0.0183    0.7068  694.3767 5155.6745   -0.4362    0.1422  76.48  -1.0  -1.0  0     0.0000    0.0003
105          ?    N    ? P      ? 20180313 0227   42.2733 GAU  4.24e-03 -1.00e+00  9.89e+00  8.00e-03    9.8900 >    0.3350    0.0116    0.8719  694.3764 5155.6832   -0.4382    0.1442  73.06  -1.0  -1.0  0     0.0000    0.0003
35           ?    N    ? P      ? 20180313 0227   42.2490 GAU  6.36e-03 -1.00e+00  9.91e+00  1.20e-02    9.9100 >    0.3184    0.0040    1.2012  694.3818 5155.6141   -0.4216    0.1458 100.71  -1.0  -1.0  0     0.0000    0.0003
25           ?    N    ? P      ? 20180313 0227   42.3104 GAU  1.27e-02 -1.00e+00  8.16e+00  2.00e-02    8.1600 >    0.3439    0.0398    0.1932  694.3684 5155.7091   -0.4438    0.1466  62.41  -1.0  -1.0  0     0.0000    0.0003
26           ?    N    ? P      ? 20180313 0227   42.2707 GAU  3.71e-03 -1.00e+00  8.81e+00  1.20e-02    8.8100 >    0.3414    0.0026    1.1055  694.3783 5155.6910   -0.4400    0.1484  70.41  -1.0  -1.0  0     0.0000    0.0003
23           ?    N    ? P      ? 20180313 0227   42.2908 GAU  3.71e-03 -1.00e+00  9.15e+00  8.00e-03    9.1500 >    0.3535    0.0107    1.0561  694.3677 5155.7226   -0.4473    0.1527  57.81  -1.0  -1.0  0     0.0000    0.0004
36           ?    N    ? P      ? 20180313 0227   42.2479 GAU  4.24e-03 -1.00e+00  9.09e+00  1.20e-02    9.0900 >    0.3244   -0.0031    1.1078  694.3865 5155.5904   -0.4164    0.1565 108.96  -1.0  -1.0  0     0.0000    0.0003
21           ?    N    ? P      ? 20180313 0227   42.3083 GAU  7.41e-03 -1.00e+00  7.69e+00  8.00e-03    7.6900 >    0.3652    0.0165    0.9092  694.3642 5155.7391   -0.4517    0.1593  52.08  -1.0  -1.0  0     0.0000    0.0004
20           ?    N    ? P      ? 20180313 0227   42.2913 GAU  6.36e-03 -1.00e+00  7.08e+00  8.00e-03    7.0800 >    0.3739   -0.0093    1.1365  694.3609 5155.7515   -0.4553    0.1647  47.98  -1.0  -1.0  0     0.0000    0.0004
38           ?    N    ? P      ? 20180313 0227   42.2553 GAU  5.30e-03 -1.00e+00  8.49e+00  1.20e-02    8.4900 >    0.3330   -0.0043    1.2371  694.3902 5155.5681   -0.4123    0.1684 115.73  -1.0  -1.0  0     0.0000    0.0003
27           ?    N    ? P      ? 20180313 0227   42.2956 GAU  4.24e-03 -1.00e+00  7.97e+00  1.20e-02    7.9700 >    0.3632    0.0057    1.0008  694.4008 5155.6912   -0.4412    0.1699  72.87  -1.0  -1.0  0     0.0000    0.0004
31           ?    N    ? P      ? 20180313 0227   42.2845 GAU  7.95e-03 -1.00e+00  8.10e+00  1.20e-02    8.1000 >    0.3561    0.0017    0.9520  694.4086 5155.6503   -0.4335    0.1704  86.93  -1.0  -1.0  0     0.0000    0.0004
18           ?    N    ? P      ? 20180313 0227   42.3078 GAU  1.11e-02 -1.00e+00  6.62e+00  8.00e-03    6.6200 >    0.3842   -0.0031    1.3812  694.3549 5155.7674   -0.4586    0.1717  42.69  -1.0  -1.0  0     0.0000    0.0004
39           ?    N    ? P      ? 20180313 0227   42.2829 GAU  6.36e-03 -1.00e+00  8.52e+00  8.00e-03    8.5200 >    0.3364    0.0198    1.2802  694.3890 5155.5532   -0.4086    0.1744 120.32  -1.0  -1.0  0     0.0000    0.0003
17           ?    N    ? P      ? 20180313 0227   42.3083 GAU  1.06e-02 -1.00e+00  6.56e+00  1.20e-02    6.5600 >    0.3934   -0.0118    1.0620  694.3461 5155.7815   -0.4621    0.1768  37.51  -1.0  -1.0  0     0.0000    0.0004
34           ?    N    ? P      ? 20180313 0227   42.2797 GAU  8.47e-03 -1.00e+00  7.79e+00  1.20e-02    7.7900 >    0.3575   -0.0045    0.9127  694.4145 5155.6153   -0.4263    0.1779  98.38  -1.0  -1.0  0     0.0000    0.0004
22           ?    N    ? P      ? 20180313 0227   42.3295 GAU  5.30e-03 -1.00e+00  7.04e+00  8.00e-03    7.0400 >    0.3829    0.0200    0.6946  694.3985 5155.7265   -0.4488    0.1814  61.93  -1.0  -1.0  0     0.0000    0.0004
41           ?    N    ? P      ? 20180313 0227   42.2855 GAU  1.32e-02 -1.00e+00  7.49e+00  1.20e-02    7.4900 >    0.3437    0.0151    1.4173  694.3901 5155.5386   -0.4053    0.1831 124.08  -1.0  -1.0  0     0.0000    0.0003
16           ?    N    ? P      ? 20180313 0227   42.3406 GAU  7.95e-03 -1.00e+00  7.04e+00  1.20e-02    7.0400 >    0.4032    0.0107    1.7760  694.3452 5155.7921   -0.4642    0.1848  35.27  -1.0  -1.0  0     0.0000    0.0004
15           ?    N    ? P      ? 20180313 0227   42.3295 GAU  2.22e-02 -1.00e+00  5.86e+00  1.20e-02    5.8600 >    0.4030   -0.0002    1.2402  694.3206 5155.8107   -0.4609    0.1883  25.85  -1.0  -1.0  0     0.0000    0.0004
37           ?    N    ? P      ? 20180313 0227   42.2786 GAU  8.47e-03 -1.00e+00  7.40e+00  6.80e-02    7.4000 >    0.3682   -0.0163    0.5955  694.4219 5155.5876   -0.4220    0.1911 106.29  -1.0  -1.0  0     0.0000    0.0004
42           ?    N    ? P      ? 20180313 0227   42.3025 GAU  2.07e-02 -1.00e+00  7.01e+00  2.80e-02    7.0100 >    0.3513    0.0245    1.0176  694.3873 5155.5165   -0.3983    0.1942 129.96  -1.0  -1.0  0     0.0000    0.0004
103          ?    N    ? P      ? 20180313 0227   42.3205 GAU  1.75e-02 -1.00e+00  7.21e+00  1.20e-02    7.2100 >    0.4193   -0.0255    0.5442  694.3644 5155.7952   -0.4662    0.1989  39.27  -1.0  -1.0  0     0.0000    0.0004
40           ?    N    ? P      ? 20180313 0227   42.3035 GAU  9.01e-03 -1.00e+00  7.75e+00  5.20e-02    7.7500 >    0.3759    0.0009    1.7706  694.4169 5155.5417   -0.4131    0.2043 119.15  -1.0  -1.0  0     0.0000    0.0004
END_PHASE
END_NLLOC

