NLLOC "./loc/RR.20180313.020454.grid0" "LOCATED" "Location completed."
PUBLIC_ID None
SIGNATURE "   obs:./obs/nll_picks.obs   NLLoc:v7.00.10(30Aug2020)   run:29Apr2022 23h20m42"
COMMENT "Rattlesnake Ridge Slidequake Locations"
GRID  150 250 75  694.15 5155.4 0  0.002 0.002 0.002 PROB_DENSITY
SEARCH OCTREE nInitial 1000 nEvaluated 2624 smallestNodeSide 0.001863/0.003112/0.000925 oct_tree_integral 4.891789e-06 scatter_volume 4.883104e-06
HYPOCENTER  x 694.193 y 5155.76 z 0.024975  OT 54.1007  ix -1 iy -1 iz -1 MAXIMUM_LIKELIHOOD
GEOGRAPHIC  OT 2018 03 13  02 04 54.100742  Lat 5155.757937 Long 694.192838 Depth 0.024975
QUALITY  Pmax 1.1003e+156 MFmin 464.907 MFmax 465.233 RMS 0.0084208 Nphs 33 Gap 258.84 Dist 0.10187 Mamp  0.64 33 Mdur -9.90 0
VPVSRATIO  VpVsRatio -1  Npair 0  Diff -2e+30
STATISTICS  ExpectX 694.195295 Y 5155.761120 Z 0.032477  CovXX 0.000675484 XY 0.000119775 XZ 0.000382926 YY 6.45083e-05 YZ 0.000146633 ZZ 0.000489055 EllAz1  179.937 Dip1  17.2714 Len1  0.00814356 Az2  289.417 Dip2  47.0048 Len2  0.0264233 Len3  5.978318e-02
STAT_GEOG  ExpectLat 5155.761120 Long 694.195295 Depth 0.032477
TRANSFORM  NONE
QML_OriginQuality  assocPhCt 33  usedPhCt 33  assocStaCt -1  usedStaCt 33  depthPhCt -1  stdErr 0.0084208  azGap 258.84  secAzGap 267.966  gtLevel -  minDist 0.10187 maxDist 0.263613 medDist 0.168138
QML_OriginUncertainty  horUnc -1  minHorUnc 0.00981291  maxHorUnc 0.040071  azMaxHorUnc 79.2954
QML_ConfidenceEllipsoid  semiMajorAxisLength 0.0597832  semiMinorAxisLength 0.00814356  semiIntermediateAxisLength 0.0264233  majorAxisPlunge 37.873  majorAxisAzimuth 75.9442  majorAxisRotation 58.7602
FOCALMECH  Hyp  5155.757937 694.192838 0.024975 Mech  0 0 0 mf  0 nObs -1
PHASE ID Ins Cmp On Pha  FM Date     HrMn   Sec     Err  ErrMag    Coda      Amp       Per       PriorWt  >   TTpred    Res       Weight    StaLoc(X  Y         Z)        SDist    SAzim  RAz  RDip RQual    Tcorr       TTerr
9            ?    N    ? P      ? 20180313 0204   54.4703 GAU  1.53e-02 -1.00e+00  8.07e+00  8.00e-03    8.0700 >    0.1961    0.1734    0.0055  694.2594 5155.8351   -0.4296    0.1019  40.77  -1.0  -1.0  0     0.0000    0.0002
3            ?    N    ? P      ? 20180313 0204   54.5146 GAU  2.89e-02 -1.00e+00  8.07e+00  1.20e-02    8.0700 >    0.2055    0.2083    0.0038  694.2426 5155.8595   -0.4214    0.1131  26.12  -1.0  -1.0  0     0.0000    0.0002
7            ?    N    ? P      ? 20180313 0204   54.4813 GAU  4.34e-03 -1.00e+00  8.93e+00  1.20e-02    8.9300 >    0.2220    0.1585    0.0048  694.2704 5155.8450   -0.4359    0.1166  41.70  -1.0  -1.0  0     0.0000    0.0002
5            ?    N    ? P      ? 20180313 0204   54.4643 GAU  9.49e-03 -1.00e+00  9.30e+00  1.20e-02    9.3000 >    0.2567    0.1068    0.1658  694.2898 5155.8520   -0.4475    0.1350  45.87  -1.0  -1.0  0     0.0000    0.0003
15           ?    N    ? P      ? 20180313 0204   54.4071 GAU  8.00e-03 -1.00e+00  9.04e+00  1.20e-02    9.0400 >    0.2717    0.0346    0.0973  694.3206 5155.8107   -0.4609    0.1382  67.56  -1.0  -1.0  0     0.0000    0.0003
13           ?    N    ? P      ? 20180313 0204   54.4492 GAU  1.27e-03 -1.00e+00  8.49e+00  1.20e-02    8.4900 >    0.2708    0.0777    0.0001  694.3062 5155.8390   -0.4568    0.1394  54.43  -1.0  -1.0  0     0.0000    0.0003
1            ?    N    ? P      ? 20180313 0204   54.4995 GAU  8.30e-03 -1.00e+00  7.36e+00  5.60e-02    7.3600 >    0.2561    0.1426    0.0055  694.2735 5155.8721   -0.4381    0.1398  35.25  -1.0  -1.0  0     0.0000    0.0003
106          ?    N    ? P      ? 20180313 0204   54.4624 GAU  6.37e-03 -1.00e+00  7.05e+00  5.60e-02    7.0500 >    0.2551    0.1065    0.1662  694.3120 5155.6801   -0.4360    0.1424 123.16  -1.0  -1.0  0     0.0000    0.0003
4            ?    N    ? P      ? 20180313 0204   54.4303 GAU  1.11e-02 -1.00e+00  7.82e+00  1.20e-02    7.8200 >    0.2861    0.0434    0.0557  694.3090 5155.8520   -0.4586    0.1495  51.00  -1.0  -1.0  0     0.0000    0.0003
17           ?    N    ? P      ? 20180313 0204   54.3933 GAU  3.86e-03 -1.00e+00  8.92e+00  2.40e-02    8.9200 >    0.2935   -0.0010    1.3710  694.3461 5155.7815   -0.4621    0.1551  81.27  -1.0  -1.0  0     0.0000    0.0003
12           ?    N    ? P      ? 20180313 0204   54.4023 GAU  4.00e-03 -1.00e+00  9.58e+00  1.20e-02    9.5800 >    0.2995    0.0021    1.8929  694.3356 5155.8197   -0.4663    0.1556  66.60  -1.0  -1.0  0     0.0000    0.0003
8            ?    N    ? P      ? 20180313 0204   54.4009 GAU  9.50e-04 -1.00e+00  7.62e+00  2.00e-02    7.6200 >    0.3001    0.0000    2.6257  694.3223 5155.8450   -0.4648    0.1560  56.08  -1.0  -1.0  0     0.0000    0.0003
16           ?    N    ? P      ? 20180313 0204   54.3980 GAU  2.76e-03 -1.00e+00  9.88e+00  1.20e-02    9.8800 >    0.2973   -0.0000    1.6299  694.3452 5155.7921   -0.4642    0.1561  77.35  -1.0  -1.0  0     0.0000    0.0003
10           ?    N    ? P      ? 20180313 0204   54.4026 GAU  2.52e-03 -1.00e+00  8.50e+00  1.20e-02    8.5000 >    0.3052   -0.0033    1.9340  694.3329 5155.8329   -0.4673    0.1589  61.85  -1.0  -1.0  0     0.0000    0.0003
2            ?    N    ? P      ? 20180313 0204   54.4122 GAU  3.96e-03 -1.00e+00  7.94e+00  8.00e-03    7.9400 >    0.3069    0.0046    2.5109  694.3150 5155.8647   -0.4623    0.1622  48.85  -1.0  -1.0  0     0.0000    0.0003
18           ?    N    ? P      ? 20180313 0204   54.3955 GAU  4.41e-03 -1.00e+00  8.80e+00  2.40e-02    8.8000 >    0.2998   -0.0051    1.0075  694.3549 5155.7674   -0.4586    0.1623  86.65  -1.0  -1.0  0     0.0000    0.0003
20           ?    N    ? P      ? 20180313 0204   54.4053 GAU  2.07e-03 -1.00e+00  8.73e+00  8.00e-03    8.7300 >    0.3044    0.0002    1.6939  694.3609 5155.7515   -0.4553    0.1681  92.20  -1.0  -1.0  0     0.0000    0.0003
21           ?    N    ? P      ? 20180313 0204   54.4067 GAU  8.13e-03 -1.00e+00  7.94e+00  2.00e-02    7.9400 >    0.3076   -0.0017    1.0171  694.3642 5155.7391   -0.4517    0.1724  96.27  -1.0  -1.0  0     0.0000    0.0003
103          ?    N    ? P      ? 20180313 0204   54.4270 GAU  6.34e-03 -1.00e+00  8.69e+00  1.20e-02    8.6900 >    0.3241    0.0022    1.3209  694.3644 5155.7952   -0.4662    0.1755  77.75  -1.0  -1.0  0     0.0000    0.0003
6            ?    N    ? P      ? 20180313 0204   54.4311 GAU  8.70e-03 -1.00e+00  8.60e+00  1.60e-02    8.6000 >    0.3351   -0.0047    1.6028  694.3446 5155.8502   -0.4728    0.1776  58.72  -1.0  -1.0  0     0.0000    0.0003
23           ?    N    ? P      ? 20180313 0204   54.4187 GAU  5.46e-03 -1.00e+00  7.65e+00  1.60e-02    7.6500 >    0.3122    0.0057    1.0780  694.3677 5155.7226   -0.4473    0.1784 101.44  -1.0  -1.0  0     0.0000    0.0003
25           ?    N    ? P      ? 20180313 0204   54.4257 GAU  1.60e-03 -1.00e+00  8.16e+00  1.20e-02    8.1600 >    0.3157    0.0093    0.5703  694.3684 5155.7091   -0.4438    0.1823 105.54  -1.0  -1.0  0     0.0000    0.0003
26           ?    N    ? P      ? 20180313 0204   54.4321 GAU  2.50e-03 -1.00e+00  7.52e+00  1.60e-02    7.5200 >    0.3346   -0.0032    2.1292  694.3783 5155.6910   -0.4400    0.1972 109.85  -1.0  -1.0  0     0.0000    0.0003
105          ?    N    ? P      ? 20180313 0204   54.4419 GAU  3.64e-03 -1.00e+00  8.25e+00  1.20e-02    8.2500 >    0.3349    0.0062    1.4362  694.3764 5155.6832   -0.4382    0.1982 112.14  -1.0  -1.0  0     0.0000    0.0003
28           ?    N    ? P      ? 20180313 0204   54.4476 GAU  5.70e-03 -1.00e+00  7.26e+00  1.20e-02    7.2600 >    0.3396    0.0073    1.3139  694.3767 5155.6745   -0.4362    0.2019 114.42  -1.0  -1.0  0     0.0000    0.0003
22           ?    N    ? P      ? 20180313 0204   54.4556 GAU  3.64e-03 -1.00e+00  7.80e+00  1.60e-02    7.8000 >    0.3550   -0.0002    1.9998  694.3985 5155.7265   -0.4488    0.2080  98.68  -1.0  -1.0  0     0.0000    0.0004
30           ?    N    ? P      ? 20180313 0204   54.4692 GAU  5.92e-03 -1.00e+00  6.68e+00  1.20e-02    6.6800 >    0.3472    0.0212    0.1771  694.3775 5155.6619   -0.4333    0.2081 117.48  -1.0  -1.0  0     0.0000    0.0003
32           ?    N    ? P      ? 20180313 0204   54.4569 GAU  6.83e-03 -1.00e+00  6.41e+00  2.00e-02    6.4100 >    0.3577   -0.0015    2.2103  694.3777 5155.6456   -0.4297    0.2163 121.29  -1.0  -1.0  0     0.0000    0.0004
27           ?    N    ? P      ? 20180313 0204   54.4428 GAU  5.00e-03 -1.00e+00  7.04e+00  1.20e-02    7.0400 >    0.3659   -0.0239    0.0900  694.4008 5155.6912   -0.4412    0.2184 107.78  -1.0  -1.0  0     0.0000    0.0004
33           ?    N    ? P      ? 20180313 0204   54.4608 GAU  1.07e-02 -1.00e+00  6.71e+00  1.20e-02    6.7100 >    0.3687   -0.0086    1.4483  694.3775 5155.6293   -0.4252    0.2251 124.85  -1.0  -1.0  0     0.0000    0.0004
35           ?    N    ? P      ? 20180313 0204   54.4770 GAU  1.59e-02 -1.00e+00  7.09e+00  1.20e-02    7.0900 >    0.3855   -0.0092    1.3435  694.3818 5155.6141   -0.4216    0.2374 127.28  -1.0  -1.0  0     0.0000    0.0004
31           ?    N    ? P      ? 20180313 0204   54.4528 GAU  5.01e-03 -1.00e+00  6.69e+00  3.20e-02    6.6900 >    0.3960   -0.0439    0.0084  694.4086 5155.6503   -0.4335    0.2411 116.50  -1.0  -1.0  0     0.0000    0.0004
34           ?    N    ? P      ? 20180313 0204   54.4797 GAU  1.87e-02 -1.00e+00  6.27e+00  1.20e-02    6.2700 >    0.4271   -0.0481    0.0837  694.4145 5155.6153   -0.4263    0.2636 122.76  -1.0  -1.0  0     0.0000    0.0004
END_PHASE
END_NLLOC

