NLLOC "./loc/RR.20180313.014957.grid0" "REJECTED" "WARNING: max prob location on grid boundary 31, rejecting location."
PUBLIC_ID None
SIGNATURE "   obs:./obs/nll_picks.obs   NLLoc:v7.00.10(30Aug2020)   run:29Apr2022 23h20m34"
COMMENT "Rattlesnake Ridge Slidequake Locations"
GRID  150 250 75  694.15 5155.4 0  0.002 0.002 0.002 PROB_DENSITY
SEARCH OCTREE nInitial 1000 nEvaluated 4888 smallestNodeSide 0.001863/0.003112/0.000925 oct_tree_integral 2.990653e-05 scatter_volume 2.983059e-05
HYPOCENTER  x 694.175 y 5155.69 z 0.147537  OT 57.2721  ix -1 iy -1 iz -1 MAXIMUM_LIKELIHOOD
GEOGRAPHIC  OT 2018 03 13  01 49 57.272149  Lat 5155.691019 Long 694.175144 Depth 0.147537
QUALITY  Pmax 2.3477e+130 MFmin 261.114 MFmax 261.165 RMS 0.00953101 Nphs 29 Gap 278.598 Dist 0.137312 Mamp  0.79 29 Mdur -9.90 0
VPVSRATIO  VpVsRatio -1  Npair 0  Diff -2e+30
STATISTICS  ExpectX 694.177141 Y 5155.687387 Z 0.125759  CovXX 0.000388117 XY 5.98467e-05 XZ 9.51909e-05 YY 8.08533e-05 YZ 9.41472e-05 ZZ 0.000404496 EllAz1  173.673 Dip1  13.2589 Len1  0.0135351 Az2  275.139 Dip2  40.1512 Len2  0.0326564 Len3  4.282171e-02
STAT_GEOG  ExpectLat 5155.687387 Long 694.177141 Depth 0.125759
TRANSFORM  NONE
QML_OriginQuality  assocPhCt 29  usedPhCt 29  assocStaCt -1  usedStaCt 29  depthPhCt -1  stdErr 0.00953101  azGap 278.598  secAzGap 282.705  gtLevel -  minDist 0.137312 maxDist 0.28412 medDist 0.211569
QML_OriginUncertainty  horUnc -1  minHorUnc 0.012653  maxHorUnc 0.0303073  azMaxHorUnc 79.3584
QML_ConfidenceEllipsoid  semiMajorAxisLength 0.0428217  semiMinorAxisLength 0.0135351  semiIntermediateAxisLength 0.0326564  majorAxisPlunge 46.813  majorAxisAzimuth 69.1342  majorAxisRotation 280.082
FOCALMECH  Hyp  5155.691019 694.175144 0.147537 Mech  0 0 0 mf  0 nObs -1
PHASE ID Ins Cmp On Pha  FM Date     HrMn   Sec     Err  ErrMag    Coda      Amp       Per       PriorWt  >   TTpred    Res       Weight    StaLoc(X  Y         Z)        SDist    SAzim  RAz  RDip RQual    Tcorr       TTerr
106          ?    N    ? P      ? 20180313 0149   57.7209 GAU  8.05e-03 -1.00e+00  7.88e+00  8.00e-03    7.8800 >    0.3676    0.0812    0.0013  694.3120 5155.6801   -0.4360    0.1373  94.58  -1.0  -1.0  0     0.0000    0.0004
17           ?    N    ? P      ? 20180313 0149   57.7176 GAU  1.23e-02 -1.00e+00  7.52e+00  1.20e-02    7.5200 >    0.4452    0.0003    1.5649  694.3461 5155.7815   -0.4621    0.1935  62.12  -1.0  -1.0  0     0.0000    0.0004
25           ?    N    ? P      ? 20180313 0149   57.6982 GAU  1.09e-02 -1.00e+00  8.04e+00  2.40e-02    8.0400 >    0.4234    0.0027    0.9583  694.3684 5155.7091   -0.4438    0.1941  84.65  -1.0  -1.0  0     0.0000    0.0004
21           ?    N    ? P      ? 20180313 0149   57.6954 GAU  9.00e-03 -1.00e+00  7.55e+00  1.20e-02    7.5500 >    0.4333   -0.0101    0.9378  694.3642 5155.7391   -0.4517    0.1950  75.72  -1.0  -1.0  0     0.0000    0.0004
23           ?    N    ? P      ? 20180313 0149   57.6996 GAU  6.63e-03 -1.00e+00  7.99e+00  6.00e-02    7.9900 >    0.4282   -0.0007    1.0883  694.3677 5155.7226   -0.4473    0.1951  80.70  -1.0  -1.0  0     0.0000    0.0004
20           ?    N    ? P      ? 20180313 0149   57.7044 GAU  7.58e-03 -1.00e+00  7.68e+00  2.80e-02    7.6800 >    0.4374   -0.0052    1.2150  694.3609 5155.7515   -0.4553    0.1953  71.97  -1.0  -1.0  0     0.0000    0.0004
18           ?    N    ? P      ? 20180313 0149   57.7086 GAU  8.05e-03 -1.00e+00  7.25e+00  2.40e-02    7.2500 >    0.4419   -0.0055    1.3581  694.3549 5155.7674   -0.4586    0.1953  66.97  -1.0  -1.0  0     0.0000    0.0004
16           ?    N    ? P      ? 20180313 0149   57.7432 GAU  1.04e-02 -1.00e+00  7.50e+00  2.80e-02    7.5000 >    0.4518    0.0192    1.1862  694.3452 5155.7921   -0.4642    0.1978  59.27  -1.0  -1.0  0     0.0000    0.0005
105          ?    N    ? P      ? 20180313 0149   57.6963 GAU  7.11e-03 -1.00e+00  8.88e+00  1.20e-02    8.8800 >    0.4242    0.0000    1.1356  694.3764 5155.6832   -0.4382    0.2014  92.21  -1.0  -1.0  0     0.0000    0.0004
28           ?    N    ? P      ? 20180313 0149   57.7010 GAU  7.11e-03 -1.00e+00  8.38e+00  4.40e-02    8.3800 >    0.4233    0.0056    1.0778  694.3767 5155.6745   -0.4362    0.2022  94.70  -1.0  -1.0  0     0.0000    0.0004
26           ?    N    ? P      ? 20180313 0149   57.7034 GAU  8.53e-03 -1.00e+00  8.41e+00  1.20e-02    8.4100 >    0.4276    0.0037    1.0168  694.3783 5155.6910   -0.4400    0.2032  90.01  -1.0  -1.0  0     0.0000    0.0004
30           ?    N    ? P      ? 20180313 0149   57.7115 GAU  1.66e-02 -1.00e+00  7.48e+00  2.80e-02    7.4800 >    0.4222    0.0171    0.6858  694.3775 5155.6619   -0.4333    0.2044  98.19  -1.0  -1.0  0     0.0000    0.0004
12           ?    N    ? P      ? 20180313 0149   57.7418 GAU  9.95e-03 -1.00e+00  6.60e+00  8.00e-03    6.6000 >    0.4627    0.0069    2.0786  694.3356 5155.8197   -0.4663    0.2057  51.27  -1.0  -1.0  0     0.0000    0.0005
32           ?    N    ? P      ? 20180313 0149   57.7133 GAU  2.13e-02 -1.00e+00  7.39e+00  1.20e-02    7.3900 >    0.4210    0.0201    0.6593  694.3777 5155.6456   -0.4297    0.2076 102.65  -1.0  -1.0  0     0.0000    0.0004
33           ?    N    ? P      ? 20180313 0149   57.7034 GAU  1.52e-02 -1.00e+00  6.60e+00  2.40e-02    6.6000 >    0.4211    0.0102    1.0401  694.3775 5155.6293   -0.4252    0.2116 106.95  -1.0  -1.0  0     0.0000    0.0004
10           ?    N    ? P      ? 20180313 0149   57.7446 GAU  1.75e-02 -1.00e+00  5.74e+00  4.40e-02    5.7400 >    0.4703    0.0022    1.7369  694.3329 5155.8329   -0.4673    0.2122  48.04  -1.0  -1.0  0     0.0000    0.0005
103          ?    N    ? P      ? 20180313 0149   57.7190 GAU  9.95e-03 -1.00e+00  7.04e+00  2.40e-02    7.0400 >    0.4696   -0.0227    0.7517  694.3644 5155.7952   -0.4662    0.2160  61.17  -1.0  -1.0  0     0.0000    0.0005
35           ?    N    ? P      ? 20180313 0149   57.7025 GAU  1.89e-02 -1.00e+00  6.60e+00  5.20e-02    6.6000 >    0.4264    0.0040    1.1808  694.3818 5155.6141   -0.4216    0.2205 110.41  -1.0  -1.0  0     0.0000    0.0004
27           ?    N    ? P      ? 20180313 0149   57.7337 GAU  9.48e-03 -1.00e+00  7.63e+00  8.00e-03    7.6300 >    0.4509    0.0107    0.9201  694.4008 5155.6912   -0.4412    0.2256  89.94  -1.0  -1.0  0     0.0000    0.0005
22           ?    N    ? P      ? 20180313 0149   57.7238 GAU  9.00e-03 -1.00e+00  6.67e+00  8.00e-03    6.6700 >    0.4592   -0.0076    0.9601  694.3985 5155.7265   -0.4488    0.2262  80.96  -1.0  -1.0  0     0.0000    0.0005
36           ?    N    ? P      ? 20180313 0149   57.7280 GAU  1.33e-02 -1.00e+00  5.68e+00  1.60e-02    5.6800 >    0.4360    0.0198    0.9617  694.3865 5155.5904   -0.4164    0.2341 115.46  -1.0  -1.0  0     0.0000    0.0004
31           ?    N    ? P      ? 20180313 0149   57.7228 GAU  1.28e-02 -1.00e+00  7.13e+00  1.20e-02    7.1300 >    0.4554   -0.0047    1.1843  694.4086 5155.6503   -0.4335    0.2370  99.88  -1.0  -1.0  0     0.0000    0.0005
38           ?    N    ? P      ? 20180313 0149   57.6755 GAU  2.23e-02 -1.00e+00  5.24e+00  2.00e-02    5.2400 >    0.4483   -0.0450    0.3256  694.3902 5155.5681   -0.4123    0.2477 119.75  -1.0  -1.0  0     0.0000    0.0004
34           ?    N    ? P      ? 20180313 0149   57.7261 GAU  1.42e-02 -1.00e+00  6.63e+00  1.20e-02    6.6300 >    0.4646   -0.0106    1.3073  694.4145 5155.6153   -0.4263    0.2511 107.56  -1.0  -1.0  0     0.0000    0.0005
39           ?    N    ? P      ? 20180313 0149   57.6233 GAU  1.37e-02 -1.00e+00  6.12e+00  8.00e-03    6.1200 >    0.4533   -0.1021    0.0039  694.3890 5155.5532   -0.4086    0.2545 122.80  -1.0  -1.0  0     0.0000    0.0005
41           ?    N    ? P      ? 20180313 0149   57.6390 GAU  1.99e-02 -1.00e+00  5.88e+00  1.20e-02    5.8800 >    0.4616   -0.0947    0.0042  694.3901 5155.5386   -0.4053    0.2635 125.33  -1.0  -1.0  0     0.0000    0.0005
37           ?    N    ? P      ? 20180313 0149   57.7432 GAU  1.42e-02 -1.00e+00  6.14e+00  8.00e-03    6.1400 >    0.4797   -0.0087    1.6248  694.4219 5155.5876   -0.4220    0.2676 112.74  -1.0  -1.0  0     0.0000    0.0005
42           ?    N    ? P      ? 20180313 0149   57.6072 GAU  1.47e-02 -1.00e+00  5.95e+00  1.20e-02    5.9500 >    0.4698   -0.1348    0.0034  694.3873 5155.5165   -0.3983    0.2747 129.44  -1.0  -1.0  0     0.0000    0.0005
40           ?    N    ? P      ? 20180313 0149   57.7626 GAU  1.75e-02 -1.00e+00  6.09e+00  2.40e-02    6.0900 >    0.4930   -0.0026    2.0312  694.4169 5155.5417   -0.4131    0.2841 121.70  -1.0  -1.0  0     0.0000    0.0005
END_PHASE
END_NLLOC

