NLLOC "./loc/RR.20180313.000705.grid0" "LOCATED" "Location completed."
PUBLIC_ID None
SIGNATURE "   obs:./obs/nll_picks.obs   NLLoc:v7.00.10(30Aug2020)   run:29Apr2022 23h17m24"
COMMENT "Rattlesnake Ridge Slidequake Locations"
GRID  150 250 75  694.15 5155.4 0  0.002 0.002 0.002 PROB_DENSITY
SEARCH OCTREE nInitial 1000 nEvaluated 12656 smallestNodeSide 0.001863/0.003112/0.000925 oct_tree_integral 8.508773e-05 scatter_volume 8.508773e-05
HYPOCENTER  x 694.376 y 5155.73 z 0.146612  OT 4.92054  ix -1 iy -1 iz -1 MAXIMUM_LIKELIHOOD
GEOGRAPHIC  OT 2018 03 13  00 07 4.920536  Lat 5155.731481 Long 694.376294 Depth 0.146612
QUALITY  Pmax 2.74558e+89 MFmin 129.997 MFmax 130.005 RMS 0.0158406 Nphs 22 Gap 113.139 Dist 0.0123977 Mamp  0.59 22 Mdur -9.90 0
VPVSRATIO  VpVsRatio -1  Npair 0  Diff -2e+30
STATISTICS  ExpectX 694.343089 Y 5155.720683 Z 0.115928  CovXX 0.00353815 XY 0.000370024 XZ 0.00102026 YY 0.000262967 YZ 0.000331899 ZZ 0.000896322 EllAz1  181.809 Dip1  25.0934 Len1  0.0205086 Az2  319.396 Dip2  57.6137 Len2  0.0473444 Len3  1.179825e-01
STAT_GEOG  ExpectLat 5155.720683 Long 694.343089 Depth 0.115928
TRANSFORM  NONE
QML_OriginQuality  assocPhCt 22  usedPhCt 22  assocStaCt -1  usedStaCt 22  depthPhCt -1  stdErr 0.0158406  azGap 113.139  secAzGap 159.276  gtLevel -  minDist 0.0123977 maxDist 0.215238 medDist 0.0615988
QML_OriginUncertainty  horUnc -1  minHorUnc 0.0225803  maxHorUnc 0.0907343  azMaxHorUnc 83.6337
QML_ConfidenceEllipsoid  semiMajorAxisLength 0.117983  semiMinorAxisLength 0.0205086  semiIntermediateAxisLength 0.0473444  majorAxisPlunge 19.0968  majorAxisAzimuth 82.4785  majorAxisRotation 32.5788
FOCALMECH  Hyp  5155.731481 694.376294 0.146612 Mech  0 0 0 mf  0 nObs -1
PHASE ID Ins Cmp On Pha  FM Date     HrMn   Sec     Err  ErrMag    Coda      Amp       Per       PriorWt  >   TTpred    Res       Weight    StaLoc(X  Y         Z)        SDist    SAzim  RAz  RDip RQual    Tcorr       TTerr
23           ?    N    ? P      ? 20180313 0007    5.1409 GAU  1.70e-02 -1.00e+00  7.90e+00  8.00e-03    7.9000 >    0.2162    0.0042    1.0723  694.3677 5155.7226   -0.4473    0.0124 223.93  -1.0  -1.0  0     0.0000    0.0002
21           ?    N    ? P      ? 20180313 0007    5.1643 GAU  3.30e-02 -1.00e+00  7.44e+00  1.20e-02    7.4400 >    0.2230    0.0207    0.8728  694.3642 5155.7391   -0.4517    0.0143 302.22  -1.0  -1.0  0     0.0000    0.0002
22           ?    N    ? P      ? 20180313 0007    5.1734 GAU  2.39e-02 -1.00e+00  7.24e+00  1.20e-02    7.2400 >    0.2199    0.0330    0.7267  694.3985 5155.7265   -0.4488    0.0227 102.53  -1.0  -1.0  0     0.0000    0.0002
25           ?    N    ? P      ? 20180313 0007    5.1367 GAU  2.13e-02 -1.00e+00  8.41e+00  8.00e-03    8.4100 >    0.2129    0.0033    0.9223  694.3684 5155.7091   -0.4438    0.0237 199.37  -1.0  -1.0  0     0.0000    0.0002
20           ?    N    ? P      ? 20180313 0007    5.1505 GAU  1.70e-02 -1.00e+00  7.32e+00  8.00e-03    7.3200 >    0.2297    0.0003    1.4298  694.3609 5155.7515   -0.4553    0.0253 322.32  -1.0  -1.0  0     0.0000    0.0002
26           ?    N    ? P      ? 20180313 0007    5.1372 GAU  1.54e-02 -1.00e+00  7.90e+00  1.20e-02    7.9000 >    0.2130    0.0036    0.8898  694.3783 5155.6910   -0.4400    0.0406 177.16  -1.0  -1.0  0     0.0000    0.0002
18           ?    N    ? P      ? 20180313 0007    5.1638 GAU  2.07e-02 -1.00e+00  6.43e+00  8.00e-03    6.4300 >    0.2401    0.0032    1.4854  694.3549 5155.7674   -0.4586    0.0418 329.22  -1.0  -1.0  0     0.0000    0.0002
27           ?    N    ? P      ? 20180313 0007    5.1983 GAU  2.13e-02 -1.00e+00  7.67e+00  8.00e-03    7.6700 >    0.2178    0.0599    0.3024  694.4008 5155.6912   -0.4412    0.0471 148.67  -1.0  -1.0  0     0.0000    0.0002
105          ?    N    ? P      ? 20180313 0007    5.1202 GAU  1.75e-02 -1.00e+00  8.21e+00  4.40e-02    8.2100 >    0.2140   -0.0143    0.7637  694.3764 5155.6832   -0.4382    0.0482 179.87  -1.0  -1.0  0     0.0000    0.0002
28           ?    N    ? P      ? 20180313 0007    5.1345 GAU  1.49e-02 -1.00e+00  7.47e+00  8.00e-03    7.4700 >    0.2159   -0.0019    0.8587  694.3767 5155.6745   -0.4362    0.0570 179.61  -1.0  -1.0  0     0.0000    0.0002
17           ?    N    ? P      ? 20180313 0007    5.7440 GAU  2.93e-02 -1.00e+00  5.84e+00  2.40e-02    5.8400 >    0.2523    0.5711    0.0000  694.3461 5155.7815   -0.4621    0.0584 328.91  -1.0  -1.0  0     0.0000    0.0003
103          ?    N    ? P      ? 20180313 0007    5.1420 GAU  3.19e-02 -1.00e+00  6.58e+00  2.40e-02    6.5800 >    0.2614   -0.0400    0.9673  694.3644 5155.7952   -0.4662    0.0648 349.39  -1.0  -1.0  0     0.0000    0.0003
30           ?    N    ? P      ? 20180313 0007    5.1234 GAU  2.71e-02 -1.00e+00  7.90e+00  2.80e-02    7.9000 >    0.2202   -0.0173    0.6593  694.3775 5155.6619   -0.4333    0.0696 179.03  -1.0  -1.0  0     0.0000    0.0002
106          ?    N    ? P      ? 20180313 0007    5.1686 GAU  3.19e-02 -1.00e+00  7.27e+00  8.00e-03    7.2700 >    0.2336    0.0145    1.0593  694.3120 5155.6801   -0.4360    0.0823 231.34  -1.0  -1.0  0     0.0000    0.0002
32           ?    N    ? P      ? 20180313 0007    5.1430 GAU  3.40e-02 -1.00e+00  7.05e+00  1.20e-02    7.0500 >    0.2285   -0.0060    0.6917  694.3777 5155.6456   -0.4297    0.0859 179.07  -1.0  -1.0  0     0.0000    0.0002
31           ?    N    ? P      ? 20180313 0007    5.1516 GAU  2.87e-02 -1.00e+00  7.18e+00  1.20e-02    7.1800 >    0.2339   -0.0028    0.8585  694.4086 5155.6503   -0.4335    0.0873 158.27  -1.0  -1.0  0     0.0000    0.0002
33           ?    N    ? P      ? 20180313 0007    5.1606 GAU  1.54e-02 -1.00e+00  7.15e+00  1.20e-02    7.1500 >    0.2375    0.0026    1.1504  694.3775 5155.6293   -0.4252    0.1022 179.31  -1.0  -1.0  0     0.0000    0.0002
35           ?    N    ? P      ? 20180313 0007    5.1547 GAU  2.23e-02 -1.00e+00  6.79e+00  1.20e-02    6.7900 >    0.2489   -0.0148    1.0026  694.3818 5155.6141   -0.4216    0.1175 177.33  -1.0  -1.0  0     0.0000    0.0002
34           ?    N    ? P      ? 20180313 0007    5.1739 GAU  3.19e-02 -1.00e+00  6.53e+00  1.20e-02    6.5300 >    0.2593   -0.0059    1.0197  694.4145 5155.6153   -0.4263    0.1223 161.79  -1.0  -1.0  0     0.0000    0.0003
41           ?    N    ? P      ? 20180313 0007    5.2824 GAU  2.77e-02 -1.00e+00  6.17e+00  1.20e-02    6.1700 >    0.3267    0.0352    1.3098  694.3901 5155.5386   -0.4053    0.1933 175.90  -1.0  -1.0  0     0.0000    0.0003
40           ?    N    ? P      ? 20180313 0007    5.2818 GAU  4.63e-02 -1.00e+00  6.11e+00  1.20e-02    6.1100 >    0.3331    0.0282    1.2242  694.4169 5155.5417   -0.4131    0.1941 167.93  -1.0  -1.0  0     0.0000    0.0003
42           ?    N    ? P      ? 20180313 0007    5.2670 GAU  1.86e-02 -1.00e+00  7.50e+00  2.40e-02    7.5000 >    0.3506   -0.0041    2.7335  694.3873 5155.5165   -0.3983    0.2152 177.07  -1.0  -1.0  0     0.0000    0.0004
END_PHASE
END_NLLOC

