NLLOC "./loc/RR.20180313.013421.grid0" "LOCATED" "Location completed."
PUBLIC_ID None
SIGNATURE "   obs:./obs/nll_picks.obs   NLLoc:v7.00.10(30Aug2020)   run:29Apr2022 23h20m16"
COMMENT "Rattlesnake Ridge Slidequake Locations"
GRID  150 250 75  694.15 5155.4 0  0.002 0.002 0.002 PROB_DENSITY
SEARCH OCTREE nInitial 1000 nEvaluated 1648 smallestNodeSide 0.001863/0.003112/0.000925 oct_tree_integral 1.672187e-06 scatter_volume 1.672187e-06
HYPOCENTER  x 694.401 y 5155.8 z 0.078625  OT 20.9583  ix -1 iy -1 iz -1 MAXIMUM_LIKELIHOOD
GEOGRAPHIC  OT 2018 03 13  01 34 20.958277  Lat 5155.795288 Long 694.401438 Depth 0.078625
QUALITY  Pmax 9.65564e+111 MFmin 324.098 MFmax 324.121 RMS 0.104112 Nphs 27 Gap 226.347 Dist 0.0370766 Mamp  0.50 27 Mdur -9.90 0
VPVSRATIO  VpVsRatio -1  Npair 0  Diff -2e+30
STATISTICS  ExpectX 694.394418 Y 5155.789916 Z 0.079807  CovXX 0.000156179 XY 6.74935e-05 XZ 2.0876e-06 YY 5.17135e-05 YZ -1.40896e-05 ZZ 8.18044e-05 EllAz1  334.163 Dip1  11.6365 Len1  0.00747005 Az2  322.539 Dip2  -78.1267 Len2  0.017263 Len3  2.586151e-02
STAT_GEOG  ExpectLat 5155.789916 Long 694.394418 Depth 0.079807
TRANSFORM  NONE
QML_OriginQuality  assocPhCt 27  usedPhCt 27  assocStaCt -1  usedStaCt 27  depthPhCt -1  stdErr 0.104112  azGap 226.347  secAzGap 231.604  gtLevel -  minDist 0.0370766 maxDist 0.171296 medDist 0.0934534
QML_OriginUncertainty  horUnc -1  minHorUnc 0.00654103  maxHorUnc 0.0208655  azMaxHorUnc 63.8681
QML_ConfidenceEllipsoid  semiMajorAxisLength 0.0258615  semiMinorAxisLength 0.00747005  semiIntermediateAxisLength 0.017263  majorAxisPlunge -2.3271  majorAxisAzimuth 63.6832  majorAxisRotation 168.316
FOCALMECH  Hyp  5155.795288 694.401438 0.078625 Mech  0 0 0 mf  0 nObs -1
PHASE ID Ins Cmp On Pha  FM Date     HrMn   Sec     Err  ErrMag    Coda      Amp       Per       PriorWt  >   TTpred    Res       Weight    StaLoc(X  Y         Z)        SDist    SAzim  RAz  RDip RQual    Tcorr       TTerr
103          ?    N    ? P      ? 20180313 0134   21.1262 GAU  5.79e-03 -1.00e+00  8.28e+00  4.00e-02    8.2800 >    0.1384    0.0295    0.3813  694.3644 5155.7952   -0.4662    0.0371 269.85  -1.0  -1.0  0     0.0000    0.0001
18           ?    N    ? P      ? 20180313 0134   21.9890 GAU  3.04e-03 -1.00e+00  7.85e+00  8.00e-03    7.8500 >    0.1418    0.8889    0.0000  694.3549 5155.7674   -0.4586    0.0543 239.08  -1.0  -1.0  0     0.0000    0.0001
16           ?    N    ? P      ? 20180313 0134   21.1020 GAU  5.30e-03 -1.00e+00  9.55e+00  2.00e-02    9.5500 >    0.1510   -0.0072    1.8937  694.3452 5155.7921   -0.4642    0.0563 266.78  -1.0  -1.0  0     0.0000    0.0002
17           ?    N    ? P      ? 20180313 0134   21.9120 GAU  3.14e-03 -1.00e+00  9.01e+00  1.20e-02    9.0100 >    0.1488    0.8050    0.1056  694.3461 5155.7815   -0.4621    0.0570 255.98  -1.0  -1.0  0     0.0000    0.0001
20           ?    N    ? P      ? 20180313 0134   21.1043 GAU  3.76e-03 -1.00e+00  7.64e+00  8.00e-03    7.6400 >    0.1430    0.0030    1.4887  694.3609 5155.7515   -0.4553    0.0597 222.81  -1.0  -1.0  0     0.0000    0.0001
21           ?    N    ? P      ? 20180313 0134   21.1071 GAU  5.55e-03 -1.00e+00  7.43e+00  1.20e-02    7.4300 >    0.1473    0.0015    1.4428  694.3642 5155.7391   -0.4517    0.0674 213.57  -1.0  -1.0  0     0.0000    0.0001
22           ?    N    ? P      ? 20180313 0134   21.1730 GAU  4.83e-03 -1.00e+00  7.11e+00  2.40e-02    7.1100 >    0.1461    0.0686    0.0000  694.3985 5155.7265   -0.4488    0.0688 182.45  -1.0  -1.0  0     0.0000    0.0001
12           ?    N    ? P      ? 20180313 0134   21.9750 GAU  4.58e-03 -1.00e+00  1.00e+01  1.20e-02   10.0000 >    0.1666    0.8501    0.0000  694.3356 5155.8197   -0.4663    0.0702 290.38  -1.0  -1.0  0     0.0000    0.0002
10           ?    N    ? P      ? 20180313 0134   21.9410 GAU  6.21e-03 -1.00e+00  9.42e+00  3.60e-02    9.4200 >    0.1758    0.8070    0.1056  694.3329 5155.8329   -0.4673    0.0782 298.75  -1.0  -1.0  0     0.0000    0.0002
6            ?    N    ? P      ? 20180313 0134   21.1356 GAU  1.33e-02 -1.00e+00  8.84e+00  1.20e-02    8.8400 >    0.1828   -0.0055    2.0408  694.3446 5155.8502   -0.4728    0.0790 314.01  -1.0  -1.0  0     0.0000    0.0002
23           ?    N    ? P      ? 20180313 0134   21.1159 GAU  6.44e-03 -1.00e+00  7.37e+00  4.00e-02    7.3700 >    0.1578   -0.0002    1.4767  694.3677 5155.7226   -0.4473    0.0802 204.89  -1.0  -1.0  0     0.0000    0.0002
15           ?    N    ? P      ? 20180313 0134   21.7990 GAU  4.34e-03 -1.00e+00  1.16e+01  1.20e-02   11.6000 >    0.1734    0.6674    0.0000  694.3206 5155.8107   -0.4609    0.0823 280.78  -1.0  -1.0  0     0.0000    0.0002
25           ?    N    ? P      ? 20180313 0134   21.1309 GAU  5.73e-03 -1.00e+00  7.27e+00  1.20e-02    7.2700 >    0.1705    0.0021    1.5443  694.3684 5155.7091   -0.4438    0.0923 200.96  -1.0  -1.0  0     0.0000    0.0002
8            ?    N    ? P      ? 20180313 0134   21.8910 GAU  7.45e-03 -1.00e+00  8.95e+00  1.20e-02    8.9500 >    0.1902    0.7426    0.0000  694.3223 5155.8450   -0.4648    0.0935 302.14  -1.0  -1.0  0     0.0000    0.0002
27           ?    N    ? P      ? 20180313 0134   21.1424 GAU  7.16e-03 -1.00e+00  6.46e+00  1.20e-02    6.4600 >    0.1844   -0.0002    1.8297  694.4008 5155.6912   -0.4412    0.1040 180.36  -1.0  -1.0  0     0.0000    0.0002
13           ?    N    ? P      ? 20180313 0134   21.1164 GAU  9.32e-03 -1.00e+00  9.45e+00  4.40e-02    9.4500 >    0.1962   -0.0381    0.0443  694.3062 5155.8390   -0.4568    0.1048 294.68  -1.0  -1.0  0     0.0000    0.0002
26           ?    N    ? P      ? 20180313 0134   21.1379 GAU  4.83e-03 -1.00e+00  6.72e+00  1.20e-02    6.7200 >    0.1874   -0.0078    1.6156  694.3783 5155.6910   -0.4400    0.1069 192.50  -1.0  -1.0  0     0.0000    0.0002
4            ?    N    ? P      ? 20180313 0134   21.1063 GAU  8.01e-03 -1.00e+00  8.43e+00  1.20e-02    8.4300 >    0.2023   -0.0543    0.0057  694.3090 5155.8520   -0.4586    0.1084 301.55  -1.0  -1.0  0     0.0000    0.0002
2            ?    N    ? P      ? 20180313 0134   21.1025 GAU  6.11e-03 -1.00e+00  8.82e+00  1.20e-02    8.8200 >    0.2088   -0.0646    0.0063  694.3150 5155.8647   -0.4623    0.1108 308.75  -1.0  -1.0  0     0.0000    0.0002
105          ?    N    ? P      ? 20180313 0134   21.1490 GAU  8.77e-03 -1.00e+00  7.48e+00  5.60e-02    7.4800 >    0.1973   -0.0066    1.6636  694.3764 5155.6832   -0.4382    0.1148 192.60  -1.0  -1.0  0     0.0000    0.0002
28           ?    N    ? P      ? 20180313 0134   21.1677 GAU  8.27e-03 -1.00e+00  6.68e+00  2.80e-02    6.6800 >    0.2085    0.0010    1.8373  694.3767 5155.6745   -0.4362    0.1233 191.58  -1.0  -1.0  0     0.0000    0.0002
5            ?    N    ? P      ? 20180313 0134   21.1803 GAU  1.29e-02 -1.00e+00  8.48e+00  1.20e-02    8.4800 >    0.2152    0.0068    1.8831  694.2898 5155.8520   -0.4475    0.1252 296.91  -1.0  -1.0  0     0.0000    0.0002
7            ?    N    ? P      ? 20180313 0134   21.1840 GAU  1.17e-02 -1.00e+00  8.76e+00  1.20e-02    8.7600 >    0.2296   -0.0039    2.3995  694.2704 5155.8450   -0.4359    0.1401 290.78  -1.0  -1.0  0     0.0000    0.0002
106          ?    N    ? P      ? 20180313 0134   21.1042 GAU  6.93e-03 -1.00e+00  6.88e+00  1.20e-02    6.8800 >    0.2411   -0.0951    0.0021  694.3120 5155.6801   -0.4360    0.1459 217.81  -1.0  -1.0  0     0.0000    0.0002
9            ?    N    ? P      ? 20180313 0134   21.2205 GAU  6.53e-03 -1.00e+00  8.89e+00  1.20e-02    8.8900 >    0.2370    0.0253    0.3983  694.2594 5155.8351   -0.4296    0.1475 285.65  -1.0  -1.0  0     0.0000    0.0002
1            ?    N    ? P      ? 20180313 0134   21.2072 GAU  1.24e-02 -1.00e+00  7.47e+00  1.20e-02    7.4700 >    0.2431    0.0058    2.1465  694.2735 5155.8721   -0.4381    0.1492 301.00  -1.0  -1.0  0     0.0000    0.0002
3            ?    N    ? P      ? 20180313 0134   21.2232 GAU  1.14e-02 -1.00e+00  7.40e+00  1.20e-02    7.4000 >    0.2685   -0.0036    2.6886  694.2426 5155.8595   -0.4214    0.1713 292.00  -1.0  -1.0  0     0.0000    0.0003
END_PHASE
END_NLLOC

