NLLOC "./loc/RR.20180313.002627.grid0" "REJECTED" "WARNING: max prob location on grid boundary 31, rejecting location."
PUBLIC_ID None
SIGNATURE "   obs:./obs/nll_picks.obs   NLLoc:v7.00.10(30Aug2020)   run:29Apr2022 23h19m09"
COMMENT "Rattlesnake Ridge Slidequake Locations"
GRID  150 250 75  694.15 5155.4 0  0.002 0.002 0.002 PROB_DENSITY
SEARCH OCTREE nInitial 1000 nEvaluated 9216 smallestNodeSide 0.001863/0.003112/0.000925 oct_tree_integral 4.993756e-05 scatter_volume 4.975836e-05
HYPOCENTER  x 694.253 y 5155.74 z 0.147537  OT 27.2136  ix -1 iy -1 iz -1 MAXIMUM_LIKELIHOOD
GEOGRAPHIC  OT 2018 03 13  00 26 27.213589  Lat 5155.740819 Long 694.253369 Depth 0.147537
QUALITY  Pmax 9.44605e+129 MFmin 212.912 MFmax 212.926 RMS 0.0143267 Nphs 29 Gap 236.51 Dist 0.0844496 Mamp  0.70 29 Mdur -9.90 0
VPVSRATIO  VpVsRatio -1  Npair 0  Diff -2e+30
STATISTICS  ExpectX 694.227965 Y 5155.732548 Z 0.112637  CovXX 0.00206053 XY 0.000469087 XZ 0.000639969 YY 0.000184957 YZ 0.000276987 ZZ 0.00101765 EllAz1  169.78 Dip1  9.37114 Len1  0.0137984 Az2  278.697 Dip2  63.0221 Len2  0.0503072 Len3  9.379586e-02
STAT_GEOG  ExpectLat 5155.732548 Long 694.227965 Depth 0.112637
TRANSFORM  NONE
QML_OriginQuality  assocPhCt 29  usedPhCt 29  assocStaCt -1  usedStaCt 29  depthPhCt -1  stdErr 0.0143267  azGap 236.51  secAzGap 244.968  gtLevel -  minDist 0.0844496 maxDist 0.227791 medDist 0.124924
QML_OriginUncertainty  horUnc -1  minHorUnc 0.0130619  maxHorUnc 0.0706683  azMaxHorUnc 76.7128
QML_ConfidenceEllipsoid  semiMajorAxisLength 0.0937959  semiMinorAxisLength 0.0137984  semiIntermediateAxisLength 0.0503072  majorAxisPlunge 25.0506  majorAxisAzimuth 75.3561  majorAxisRotation 15.8995
FOCALMECH  Hyp  5155.740819 694.253369 0.147537 Mech  0 0 0 mf  0 nObs -1
PHASE ID Ins Cmp On Pha  FM Date     HrMn   Sec     Err  ErrMag    Coda      Amp       Per       PriorWt  >   TTpred    Res       Weight    StaLoc(X  Y         Z)        SDist    SAzim  RAz  RDip RQual    Tcorr       TTerr
106          ?    N    ? P      ? 20180313 0026   27.5751 GAU  1.59e-02 -1.00e+00  7.41e+00  6.00e-02    7.4100 >    0.2605    0.1010    0.1734  694.3120 5155.6801   -0.4360    0.0844 136.01  -1.0  -1.0  0     0.0000    0.0003
15           ?    N    ? P      ? 20180313 0026   27.5280 GAU  2.85e-02 -1.00e+00  7.66e+00  8.00e-03    7.6600 >    0.3023    0.0121    0.9986  694.3206 5155.8107   -0.4609    0.0969  43.88  -1.0  -1.0  0     0.0000    0.0003
17           ?    N    ? P      ? 20180313 0026   27.5243 GAU  1.26e-02 -1.00e+00  8.79e+00  2.40e-02    8.7900 >    0.3064    0.0043    1.1650  694.3461 5155.7815   -0.4621    0.1013  66.33  -1.0  -1.0  0     0.0000    0.0003
18           ?    N    ? P      ? 20180313 0026   27.5257 GAU  1.21e-02 -1.00e+00  7.62e+00  1.20e-02    7.6200 >    0.3042    0.0080    0.9394  694.3549 5155.7674   -0.4586    0.1049  75.32  -1.0  -1.0  0     0.0000    0.0003
16           ?    N    ? P      ? 20180313 0026   27.5280 GAU  1.73e-02 -1.00e+00  8.40e+00  1.20e-02    8.4000 >    0.3120    0.0024    1.1164  694.3452 5155.7921   -0.4642    0.1052  60.81  -1.0  -1.0  0     0.0000    0.0003
20           ?    N    ? P      ? 20180313 0026   27.5145 GAU  7.47e-03 -1.00e+00  8.52e+00  1.20e-02    8.5200 >    0.3020   -0.0011    1.0638  694.3609 5155.7515   -0.4553    0.1080  84.34  -1.0  -1.0  0     0.0000    0.0003
21           ?    N    ? P      ? 20180313 0026   27.5075 GAU  8.86e-03 -1.00e+00  8.32e+00  2.00e-02    8.3200 >    0.2997   -0.0058    0.9674  694.3642 5155.7391   -0.4517    0.1108  90.88  -1.0  -1.0  0     0.0000    0.0003
12           ?    N    ? P      ? 20180313 0026   27.5345 GAU  2.19e-02 -1.00e+00  7.62e+00  8.00e-03    7.6200 >    0.3218   -0.0009    1.2040  694.3356 5155.8197   -0.4663    0.1140  46.19  -1.0  -1.0  0     0.0000    0.0003
23           ?    N    ? P      ? 20180313 0026   27.5164 GAU  8.39e-03 -1.00e+00  8.56e+00  8.00e-03    8.5600 >    0.2986    0.0042    1.0396  694.3677 5155.7226   -0.4473    0.1158  99.08  -1.0  -1.0  0     0.0000    0.0003
5            ?    N    ? P      ? 20180313 0026   27.6064 GAU  2.01e-02 -1.00e+00  8.01e+00  1.20e-02    8.0100 >    0.3015    0.0914    0.2191  694.2898 5155.8520   -0.4475    0.1170  18.13  -1.0  -1.0  0     0.0000    0.0003
25           ?    N    ? P      ? 20180313 0026   27.5112 GAU  1.07e-02 -1.00e+00  8.14e+00  8.00e-03    8.1400 >    0.2970    0.0006    1.0571  694.3684 5155.7091   -0.4438    0.1193 105.40  -1.0  -1.0  0     0.0000    0.0003
10           ?    N    ? P      ? 20180313 0026   27.5504 GAU  1.54e-02 -1.00e+00  6.92e+00  4.80e-02    6.9200 >    0.3295    0.0073    1.4704  694.3329 5155.8329   -0.4673    0.1217  40.82  -1.0  -1.0  0     0.0000    0.0003
103          ?    N    ? P      ? 20180313 0026   27.5303 GAU  1.40e-02 -1.00e+00  7.69e+00  8.00e-03    7.6900 >    0.3283   -0.0115    1.0197  694.3644 5155.7952   -0.4662    0.1236  63.90  -1.0  -1.0  0     0.0000    0.0003
4            ?    N    ? P      ? 20180313 0026   27.6307 GAU  1.03e-01 -1.00e+00  7.15e+00  1.20e-02    7.1500 >    0.3212    0.0959    0.3617  694.3090 5155.8520   -0.4586    0.1244  26.59  -1.0  -1.0  0     0.0000    0.0003
8            ?    N    ? P      ? 20180313 0026   27.5406 GAU  1.12e-02 -1.00e+00  6.32e+00  5.20e-02    6.3200 >    0.3293   -0.0023    1.8146  694.3223 5155.8450   -0.4648    0.1249  33.49  -1.0  -1.0  0     0.0000    0.0003
26           ?    N    ? P      ? 20180313 0026   27.5308 GAU  1.54e-02 -1.00e+00  8.38e+00  1.20e-02    8.3800 >    0.3071    0.0101    0.9993  694.3783 5155.6910   -0.4400    0.1345 111.75  -1.0  -1.0  0     0.0000    0.0003
105          ?    N    ? P      ? 20180313 0026   27.5164 GAU  1.40e-02 -1.00e+00  8.97e+00  1.20e-02    8.9700 >    0.3061   -0.0033    1.2209  694.3764 5155.6832   -0.4382    0.1358 115.08  -1.0  -1.0  0     0.0000    0.0003
28           ?    N    ? P      ? 20180313 0026   27.5355 GAU  2.01e-02 -1.00e+00  8.22e+00  4.80e-02    8.2200 >    0.3078    0.0141    0.9484  694.3767 5155.6745   -0.4362    0.1400 118.29  -1.0  -1.0  0     0.0000    0.0003
6            ?    N    ? P      ? 20180313 0026   27.5635 GAU  1.45e-02 -1.00e+00  7.58e+00  1.20e-02    7.5800 >    0.3533   -0.0034    1.7961  694.3446 5155.8502   -0.4728    0.1424  39.85  -1.0  -1.0  0     0.0000    0.0004
22           ?    N    ? P      ? 20180313 0026   27.5500 GAU  1.12e-02 -1.00e+00  7.49e+00  5.20e-02    7.4900 >    0.3272    0.0092    0.9936  694.3985 5155.7265   -0.4488    0.1458  95.62  -1.0  -1.0  0     0.0000    0.0003
30           ?    N    ? P      ? 20180313 0026   27.5430 GAU  1.91e-02 -1.00e+00  7.64e+00  1.20e-02    7.6400 >    0.3116    0.0178    0.9509  694.3775 5155.6619   -0.4333    0.1471 122.45  -1.0  -1.0  0     0.0000    0.0003
27           ?    N    ? P      ? 20180313 0026   27.5387 GAU  8.40e-03 -1.00e+00  7.22e+00  8.00e-03    7.2200 >    0.3287   -0.0036    1.3233  694.4008 5155.6912   -0.4412    0.1555 108.59  -1.0  -1.0  0     0.0000    0.0003
32           ?    N    ? P      ? 20180313 0026   27.5383 GAU  5.27e-02 -1.00e+00  7.86e+00  1.20e-02    7.8600 >    0.3182    0.0065    0.6633  694.3777 5155.6456   -0.4297    0.1566 127.46  -1.0  -1.0  0     0.0000    0.0003
33           ?    N    ? P      ? 20180313 0026   27.4888 GAU  6.02e-02 -1.00e+00  6.88e+00  1.20e-02    6.8800 >    0.3247   -0.0495    0.4345  694.3775 5155.6293   -0.4252    0.1669 131.93  -1.0  -1.0  0     0.0000    0.0003
31           ?    N    ? P      ? 20180313 0026   27.5402 GAU  1.45e-02 -1.00e+00  6.92e+00  2.00e-02    6.9200 >    0.3467   -0.0201    0.9454  694.4086 5155.6503   -0.4335    0.1797 120.23  -1.0  -1.0  0     0.0000    0.0003
35           ?    N    ? P      ? 20180313 0026   27.5448 GAU  2.66e-02 -1.00e+00  7.40e+00  8.00e-03    7.4000 >    0.3359   -0.0047    1.3402  694.3818 5155.6141   -0.4216    0.1804 134.62  -1.0  -1.0  0     0.0000    0.0003
36           ?    N    ? P      ? 20180313 0026   27.5373 GAU  5.65e-02 -1.00e+00  6.20e+00  1.20e-02    6.2000 >    0.3566   -0.0329    0.6675  694.3865 5155.5904   -0.4164    0.2009 138.49  -1.0  -1.0  0     0.0000    0.0004
38           ?    N    ? P      ? 20180313 0026   27.5994 GAU  2.43e-02 -1.00e+00  6.07e+00  1.20e-02    6.0700 >    0.3777    0.0081    1.6952  694.3902 5155.5681   -0.4123    0.2203 141.62  -1.0  -1.0  0     0.0000    0.0004
37           ?    N    ? P      ? 20180313 0026   27.6731 GAU  3.08e-02 -1.00e+00  6.31e+00  1.20e-02    6.3100 >    0.3945    0.0650    0.4113  694.4219 5155.5876   -0.4220    0.2278 132.27  -1.0  -1.0  0     0.0000    0.0004
END_PHASE
END_NLLOC

