NLLOC "./loc/RR.20180313.031632.grid0" "REJECTED" "WARNING: max prob location on grid boundary 31, rejecting location."
PUBLIC_ID None
SIGNATURE "   obs:./obs/nll_picks.obs   NLLoc:v7.00.10(30Aug2020)   run:29Apr2022 23h21m24"
COMMENT "Rattlesnake Ridge Slidequake Locations"
GRID  150 250 75  694.15 5155.4 0  0.002 0.002 0.002 PROB_DENSITY
SEARCH OCTREE nInitial 1000 nEvaluated 2448 smallestNodeSide 0.001863/0.003112/0.000925 oct_tree_integral 6.500952e-06 scatter_volume 6.494553e-06
HYPOCENTER  x 694.205 y 5155.68 z 0.147537  OT 31.7883  ix -1 iy -1 iz -1 MAXIMUM_LIKELIHOOD
GEOGRAPHIC  OT 2018 03 13  03 16 31.788314  Lat 5155.684794 Long 694.204944 Depth 0.147537
QUALITY  Pmax 4.51781e+151 MFmin 381.603 MFmax 381.753 RMS 0.00778885 Nphs 31 Gap 258.616 Dist 0.107178 Mamp  0.82 31 Mdur -9.90 0
VPVSRATIO  VpVsRatio -1  Npair 0  Diff -2e+30
STATISTICS  ExpectX 694.193041 Y 5155.680816 Z 0.135407  CovXX 0.000346914 XY 4.63877e-05 XZ 7.05481e-05 YY 4.28632e-05 YZ 3.0791e-05 ZZ 0.000152588 EllAz1  174.08 Dip1  10.9642 Len1  0.0106376 Az2  293.477 Dip2  68.4616 Len2  0.0215771 Len3  3.654888e-02
STAT_GEOG  ExpectLat 5155.680816 Long 694.193041 Depth 0.135407
TRANSFORM  NONE
QML_OriginQuality  assocPhCt 31  usedPhCt 31  assocStaCt -1  usedStaCt 31  depthPhCt -1  stdErr 0.00778885  azGap 258.616  secAzGap 263.172  gtLevel -  minDist 0.107178 maxDist 0.255705 medDist 0.187456
QML_OriginUncertainty  horUnc -1  minHorUnc 0.00909231  maxHorUnc 0.0285275  azMaxHorUnc 81.5157
QML_ConfidenceEllipsoid  semiMajorAxisLength 0.0365489  semiMinorAxisLength 0.0106376  semiIntermediateAxisLength 0.0215771  majorAxisPlunge 18.3014  majorAxisAzimuth 80.4065  majorAxisRotation 14.2897
FOCALMECH  Hyp  5155.684794 694.204944 0.147537 Mech  0 0 0 mf  0 nObs -1
PHASE ID Ins Cmp On Pha  FM Date     HrMn   Sec     Err  ErrMag    Coda      Amp       Per       PriorWt  >   TTpred    Res       Weight    StaLoc(X  Y         Z)        SDist    SAzim  RAz  RDip RQual    Tcorr       TTerr
106          ?    N    ? P      ? 20180313 0316   32.2040 GAU  5.54e-03 -1.00e+00  8.27e+00  8.00e-03    8.2700 >    0.3204    0.0953    0.0101  694.3120 5155.6801   -0.4360    0.1072  92.53  -1.0  -1.0  0     0.0000    0.0003
25           ?    N    ? P      ? 20180313 0316   32.1815 GAU  2.78e-03 -1.00e+00  1.07e+01  8.00e-03   10.7000 >    0.3762    0.0169    0.5659  694.3684 5155.7091   -0.4438    0.1653  81.54  -1.0  -1.0  0     0.0000    0.0004
23           ?    N    ? P      ? 20180313 0316   32.1818 GAU  3.45e-03 -1.00e+00  1.01e+01  8.00e-03   10.1000 >    0.3819    0.0116    0.8024  694.3677 5155.7226   -0.4473    0.1671  76.94  -1.0  -1.0  0     0.0000    0.0004
21           ?    N    ? P      ? 20180313 0316   32.1794 GAU  3.44e-03 -1.00e+00  8.65e+00  1.20e-02    8.6500 >    0.3881    0.0030    1.1813  694.3642 5155.7391   -0.4517    0.1682  71.16  -1.0  -1.0  0     0.0000    0.0004
20           ?    N    ? P      ? 20180313 0316   32.1886 GAU  4.34e-03 -1.00e+00  8.83e+00  8.00e-03    8.8300 >    0.3931    0.0072    1.0637  694.3609 5155.7515   -0.4553    0.1696  66.84  -1.0  -1.0  0     0.0000    0.0004
15           ?    N    ? P      ? 20180313 0316   32.2356 GAU  1.25e-02 -1.00e+00  6.02e+00  2.00e-02    6.0200 >    0.4033    0.0440    0.0797  694.3206 5155.8107   -0.4609    0.1709  42.56  -1.0  -1.0  0     0.0000    0.0004
17           ?    N    ? P      ? 20180313 0316   32.1951 GAU  8.35e-03 -1.00e+00  7.97e+00  8.00e-03    7.9700 >    0.4036    0.0032    1.3524  694.3461 5155.7815   -0.4621    0.1711  55.60  -1.0  -1.0  0     0.0000    0.0004
18           ?    N    ? P      ? 20180313 0316   32.1927 GAU  3.45e-03 -1.00e+00  8.26e+00  2.40e-02    8.2600 >    0.3990    0.0054    1.2549  694.3549 5155.7674   -0.4586    0.1712  61.15  -1.0  -1.0  0     0.0000    0.0004
105          ?    N    ? P      ? 20180313 0316   32.1636 GAU  5.05e-03 -1.00e+00  1.14e+01  1.20e-02   11.4000 >    0.3754   -0.0001    1.1071  694.3764 5155.6832   -0.4382    0.1715  90.52  -1.0  -1.0  0     0.0000    0.0004
28           ?    N    ? P      ? 20180313 0316   32.1629 GAU  5.30e-03 -1.00e+00  1.11e+01  4.80e-02   11.1000 >    0.3744    0.0001    1.1153  694.3767 5155.6745   -0.4362    0.1720  93.44  -1.0  -1.0  0     0.0000    0.0004
26           ?    N    ? P      ? 20180313 0316   32.1684 GAU  2.27e-03 -1.00e+00  1.03e+01  1.60e-02   10.3000 >    0.3797    0.0004    1.1206  694.3783 5155.6910   -0.4400    0.1735  87.96  -1.0  -1.0  0     0.0000    0.0004
30           ?    N    ? P      ? 20180313 0316   32.1588 GAU  6.30e-03 -1.00e+00  1.01e+01  1.20e-02   10.1000 >    0.3733   -0.0029    1.0048  694.3775 5155.6619   -0.4333    0.1740  97.55  -1.0  -1.0  0     0.0000    0.0004
16           ?    N    ? P      ? 20180313 0316   32.2242 GAU  9.08e-03 -1.00e+00  7.96e+00  5.60e-02    7.9600 >    0.4113    0.0245    0.4468  694.3452 5155.7921   -0.4642    0.1766  52.57  -1.0  -1.0  0     0.0000    0.0004
32           ?    N    ? P      ? 20180313 0316   32.1571 GAU  4.54e-03 -1.00e+00  9.54e+00  8.00e-03    9.5400 >    0.3719   -0.0031    1.1123  694.3777 5155.6456   -0.4297    0.1771 102.79  -1.0  -1.0  0     0.0000    0.0004
33           ?    N    ? P      ? 20180313 0316   32.1770 GAU  6.30e-03 -1.00e+00  9.66e+00  1.20e-02    9.6600 >    0.3720    0.0167    0.7131  694.3775 5155.6293   -0.4252    0.1813 107.82  -1.0  -1.0  0     0.0000    0.0004
5            ?    N    ? P      ? 20180313 0316   32.2225 GAU  6.09e-02 -1.00e+00  6.14e+00  1.28e-01    6.1400 >    0.4048    0.0294    0.4166  694.2898 5155.8520   -0.4475    0.1875  26.90  -1.0  -1.0  0     0.0000    0.0004
12           ?    N    ? P      ? 20180313 0316   32.2151 GAU  9.08e-03 -1.00e+00  6.81e+00  4.80e-02    6.8100 >    0.4247    0.0021    1.5879  694.3356 5155.8197   -0.4663    0.1879  44.08  -1.0  -1.0  0     0.0000    0.0004
35           ?    N    ? P      ? 20180313 0316   32.1777 GAU  6.05e-03 -1.00e+00  9.21e+00  1.20e-02    9.2100 >    0.3773    0.0121    1.0675  694.3818 5155.6141   -0.4216    0.1904 111.79  -1.0  -1.0  0     0.0000    0.0004
103          ?    N    ? P      ? 20180313 0316   32.1996 GAU  7.82e-03 -1.00e+00  7.20e+00  3.20e-02    7.2000 >    0.4285   -0.0172    0.5117  694.3644 5155.7952   -0.4662    0.1939  55.30  -1.0  -1.0  0     0.0000    0.0004
10           ?    N    ? P      ? 20180313 0316   32.2200 GAU  7.09e-03 -1.00e+00  6.70e+00  1.20e-02    6.7000 >    0.4337   -0.0020    1.8302  694.3329 5155.8329   -0.4673    0.1957  40.83  -1.0  -1.0  0     0.0000    0.0004
27           ?    N    ? P      ? 20180313 0316   32.1886 GAU  2.78e-03 -1.00e+00  9.03e+00  2.40e-02    9.0300 >    0.4028   -0.0026    1.0119  694.4008 5155.6912   -0.4412    0.1959  88.11  -1.0  -1.0  0     0.0000    0.0004
4            ?    N    ? P      ? 20180313 0316   32.2221 GAU  2.39e-02 -1.00e+00  6.06e+00  1.20e-02    6.0600 >    0.4260    0.0077    0.9618  694.3090 5155.8520   -0.4586    0.1970  31.90  -1.0  -1.0  0     0.0000    0.0004
22           ?    N    ? P      ? 20180313 0316   32.1984 GAU  3.27e-03 -1.00e+00  8.25e+00  7.20e-02    8.2500 >    0.4127   -0.0026    1.1308  694.3985 5155.7265   -0.4488    0.1980  77.83  -1.0  -1.0  0     0.0000    0.0004
36           ?    N    ? P      ? 20180313 0316   32.1777 GAU  7.06e-03 -1.00e+00  7.87e+00  1.20e-02    7.8700 >    0.3877    0.0017    1.6042  694.3865 5155.5904   -0.4164    0.2047 117.48  -1.0  -1.0  0     0.0000    0.0004
31           ?    N    ? P      ? 20180313 0316   32.1929 GAU  7.56e-03 -1.00e+00  8.41e+00  8.00e-03    8.4100 >    0.4065   -0.0019    1.0365  694.4086 5155.6503   -0.4335    0.2066  99.60  -1.0  -1.0  0     0.0000    0.0004
2            ?    N    ? P      ? 20180313 0316   32.2213 GAU  1.43e-02 -1.00e+00  6.30e+00  1.20e-02    6.3000 >    0.4439   -0.0109    1.1436  694.3150 5155.8647   -0.4623    0.2109  31.46  -1.0  -1.0  0     0.0000    0.0004
34           ?    N    ? P      ? 20180313 0316   32.1931 GAU  1.29e-02 -1.00e+00  8.71e+00  1.20e-02    8.7100 >    0.4155   -0.0107    0.8238  694.4145 5155.6153   -0.4263    0.2208 108.35  -1.0  -1.0  0     0.0000    0.0004
39           ?    N    ? P      ? 20180313 0316   32.2153 GAU  1.74e-02 -1.00e+00  7.28e+00  1.60e-02    7.2800 >    0.4066    0.0204    0.8685  694.3890 5155.5532   -0.4086    0.2263 125.57  -1.0  -1.0  0     0.0000    0.0004
41           ?    N    ? P      ? 20180313 0316   32.2113 GAU  8.82e-03 -1.00e+00  6.73e+00  3.20e-02    6.7300 >    0.4155    0.0075    1.7265  694.3901 5155.5386   -0.4053    0.2359 128.29  -1.0  -1.0  0     0.0000    0.0004
37           ?    N    ? P      ? 20180313 0316   32.2108 GAU  1.64e-02 -1.00e+00  8.09e+00  8.00e-03    8.0900 >    0.4310   -0.0085    0.9608  694.4219 5155.5876   -0.4220    0.2378 114.13  -1.0  -1.0  0     0.0000    0.0004
40           ?    N    ? P      ? 20180313 0316   32.2264 GAU  1.03e-02 -1.00e+00  7.35e+00  1.20e-02    7.3500 >    0.4460   -0.0080    1.3871  694.4169 5155.5417   -0.4131    0.2557 124.02  -1.0  -1.0  0     0.0000    0.0004
END_PHASE
END_NLLOC

