NLLOC "./loc/RR.20180313.001002.grid0" "REJECTED" "WARNING: max prob location on grid boundary 31, rejecting location."
PUBLIC_ID None
SIGNATURE "   obs:./obs/nll_picks.obs   NLLoc:v7.00.10(30Aug2020)   run:29Apr2022 23h18m06"
COMMENT "Rattlesnake Ridge Slidequake Locations"
GRID  150 250 75  694.15 5155.4 0  0.002 0.002 0.002 PROB_DENSITY
SEARCH OCTREE nInitial 1000 nEvaluated 20016 smallestNodeSide 0.003725/0.006225/0.001850 oct_tree_integral 2.429398e-04 scatter_volume 2.382767e-04
HYPOCENTER  x 694.189 y 5155.68 z 0.147075  OT 1.70239  ix -1 iy -1 iz -1 MAXIMUM_LIKELIHOOD
GEOGRAPHIC  OT 2018 03 13  00 10 1.702389  Lat 5155.677013 Long 694.189113 Depth 0.147075
QUALITY  Pmax 8.49165e+56 MFmin 90.6951 MFmax 90.7167 RMS 0.103583 Nphs 17 Gap 307.696 Dist 0.122942 Mamp  0.76 17 Mdur -9.90 0
VPVSRATIO  VpVsRatio -1  Npair 0  Diff -2e+30
STATISTICS  ExpectX 694.214526 Y 5155.671169 Z 0.104857  CovXX 0.0032473 XY 0.00068888 XZ 0.000612012 YY 0.000316413 YZ 0.000369964 ZZ 0.0012393 EllAz1  170.125 Dip1  12.9445 Len1  0.0197217 Az2  297.103 Dip2  69.0873 Len2  0.062187 Len3  1.126876e-01
STAT_GEOG  ExpectLat 5155.671169 Long 694.214526 Depth 0.104857
TRANSFORM  NONE
QML_OriginQuality  assocPhCt 17  usedPhCt 17  assocStaCt -1  usedStaCt 17  depthPhCt -1  stdErr 0.103583  azGap 307.696  secAzGap 316.079  gtLevel -  minDist 0.122942 maxDist 0.233702 medDist 0.188962
QML_OriginUncertainty  horUnc -1  minHorUnc 0.019337  maxHorUnc 0.0884457  azMaxHorUnc 77.4113
QML_ConfidenceEllipsoid  semiMajorAxisLength 0.112688  semiMinorAxisLength 0.0197217  semiIntermediateAxisLength 0.062187  majorAxisPlunge 16.1352  majorAxisAzimuth 76.3125  majorAxisRotation 15.8339
FOCALMECH  Hyp  5155.677013 694.189113 0.147075 Mech  0 0 0 mf  0 nObs -1
PHASE ID Ins Cmp On Pha  FM Date     HrMn   Sec     Err  ErrMag    Coda      Amp       Per       PriorWt  >   TTpred    Res       Weight    StaLoc(X  Y         Z)        SDist    SAzim  RAz  RDip RQual    Tcorr       TTerr
106          ?    N    ? P      ? 20180313 0010    2.1485 GAU  2.82e-02 -1.00e+00  6.84e+00  8.00e-03    6.8400 >    0.3451    0.1010    0.1032  694.3120 5155.6801   -0.4360    0.1229  88.58  -1.0  -1.0  0     0.0000    0.0003
25           ?    N    ? P      ? 20180313 0010    2.1170 GAU  1.48e-02 -1.00e+00  8.30e+00  8.00e-03    8.3000 >    0.4032    0.0114    0.9378  694.3684 5155.7091   -0.4438    0.1822  79.85  -1.0  -1.0  0     0.0000    0.0004
23           ?    N    ? P      ? 20180313 0010    2.1084 GAU  1.29e-02 -1.00e+00  8.22e+00  8.00e-03    8.2200 >    0.4091   -0.0031    1.2022  694.3677 5155.7226   -0.4473    0.1843  75.69  -1.0  -1.0  0     0.0000    0.0004
21           ?    N    ? P      ? 20180313 0010    2.1323 GAU  1.77e-02 -1.00e+00  6.84e+00  8.00e-03    6.8400 >    0.4157    0.0142    1.0881  694.3642 5155.7391   -0.4517    0.1857  70.46  -1.0  -1.0  0     0.0000    0.0004
20           ?    N    ? P      ? 20180313 0010    2.1289 GAU  1.15e-02 -1.00e+00  6.39e+00  8.00e-03    6.3900 >    0.4208    0.0057    1.6734  694.3609 5155.7515   -0.4553    0.1872  66.56  -1.0  -1.0  0     0.0000    0.0004
105          ?    N    ? P      ? 20180313 0010    2.9740 GAU  1.34e-02 -1.00e+00  9.27e+00  8.00e-03    9.2700 >    0.4017    0.8699    0.0402  694.3764 5155.6832   -0.4382    0.1874  88.10  -1.0  -1.0  0     0.0000    0.0004
28           ?    N    ? P      ? 20180313 0010    2.1002 GAU  8.60e-03 -1.00e+00  8.96e+00  1.20e-02    8.9600 >    0.3999   -0.0021    1.3373  694.3767 5155.6745   -0.4362    0.1876  90.78  -1.0  -1.0  0     0.0000    0.0004
18           ?    N    ? P      ? 20180313 0010    2.1236 GAU  1.48e-02 -1.00e+00  6.10e+00  2.00e-02    6.1000 >    0.4266   -0.0054    1.9034  694.3549 5155.7674   -0.4586    0.1888  61.40  -1.0  -1.0  0     0.0000    0.0004
30           ?    N    ? P      ? 20180313 0010    2.1065 GAU  1.77e-02 -1.00e+00  7.76e+00  1.20e-02    7.7600 >    0.3986    0.0055    1.1489  694.3775 5155.6619   -0.4333    0.1890  94.58  -1.0  -1.0  0     0.0000    0.0004
26           ?    N    ? P      ? 20180313 0010    2.9780 GAU  1.19e-02 -1.00e+00  8.66e+00  1.20e-02    8.6600 >    0.4062    0.8694    0.0532  694.3783 5155.6910   -0.4400    0.1897  85.78  -1.0  -1.0  0     0.0000    0.0004
32           ?    N    ? P      ? 20180313 0010    2.9880 GAU  1.48e-02 -1.00e+00  7.50e+00  1.20e-02    7.5000 >    0.3968    0.8888    0.0870  694.3777 5155.6456   -0.4297    0.1912  99.47  -1.0  -1.0  0     0.0000    0.0004
33           ?    N    ? P      ? 20180313 0010    2.1074 GAU  2.63e-02 -1.00e+00  7.37e+00  1.20e-02    7.3700 >    0.3951    0.0100    1.3913  694.3775 5155.6293   -0.4252    0.1943 104.20  -1.0  -1.0  0     0.0000    0.0004
27           ?    N    ? P      ? 20180313 0010    2.1222 GAU  1.34e-02 -1.00e+00  6.95e+00  2.40e-02    6.9500 >    0.4294   -0.0096    0.9398  694.4008 5155.6912   -0.4412    0.2122  86.15  -1.0  -1.0  0     0.0000    0.0004
22           ?    N    ? P      ? 20180313 0010    2.1485 GAU  2.05e-02 -1.00e+00  6.16e+00  5.20e-02    6.1600 >    0.4400    0.0061    0.9893  694.3985 5155.7265   -0.4488    0.2152  76.69  -1.0  -1.0  0     0.0000    0.0004
36           ?    N    ? P      ? 20180313 0010    2.1103 GAU  3.77e-02 -1.00e+00  5.56e+00  1.20e-02    5.5600 >    0.4087   -0.0008    1.5213  694.3865 5155.5904   -0.4164    0.2156 113.70  -1.0  -1.0  0     0.0000    0.0004
31           ?    N    ? P      ? 20180313 0010    2.2760 GAU  3.63e-02 -1.00e+00  5.66e+00  4.80e-02    5.6600 >    0.4316    0.1420    0.0737  694.4086 5155.6503   -0.4335    0.2211  96.93  -1.0  -1.0  0     0.0000    0.0004
34           ?    N    ? P      ? 20180313 0010    2.1418 GAU  1.39e-02 -1.00e+00  6.36e+00  8.00e-03    6.3600 >    0.4383    0.0011    2.5098  694.4145 5155.6153   -0.4263    0.2337 105.32  -1.0  -1.0  0     0.0000    0.0004
END_PHASE
END_NLLOC

