NLLOC "./loc/RR.20180313.000042.grid0" "REJECTED" "WARNING: max prob location on grid boundary 10, rejecting location."
PUBLIC_ID None
SIGNATURE "   obs:./obs/nll_picks.obs   NLLoc:v7.00.10(30Aug2020)   run:29Apr2022 23h15m56"
COMMENT "Rattlesnake Ridge Slidequake Locations"
GRID  150 250 75  694.15 5155.4 0  0.002 0.002 0.002 PROB_DENSITY
SEARCH OCTREE nInitial 1000 nEvaluated 20032 smallestNodeSide 0.003725/0.006225/0.001850 oct_tree_integral 2.141262e-04 scatter_volume 2.141262e-04
HYPOCENTER  x 694.154 y 5155.8 z 0.10545  OT 41.9084  ix -1 iy -1 iz -1 MAXIMUM_LIKELIHOOD
GEOGRAPHIC  OT 2018 03 13  00 00 41.908441  Lat 5155.804625 Long 694.153725 Depth 0.105450
QUALITY  Pmax 1.01691e+44 MFmin 80.3806 MFmax 80.4434 RMS 0.00814651 Nphs 13 Gap 329.095 Dist 0.144037 Mamp  0.74 13 Mdur -9.90 0
VPVSRATIO  VpVsRatio -1  Npair 0  Diff -2e+30
STATISTICS  ExpectX 694.233530 Y 5155.812592 Z 0.096020  CovXX 0.00761404 XY 0.00154649 XZ -0.000185051 YY 0.000478519 YZ 0.00016596 ZZ 0.00122594 EllAz1  348.086 Dip1  -10.2931 Len1  0.0207036 Az2  355.216 Dip2  79.6284 Len2  0.0666663 Len3  1.673955e-01
STAT_GEOG  ExpectLat 5155.812592 Long 694.233530 Depth 0.096020
TRANSFORM  NONE
QML_OriginQuality  assocPhCt 13  usedPhCt 13  assocStaCt -1  usedStaCt 13  depthPhCt -1  stdErr 0.00814651  azGap 329.095  secAzGap 332.717  gtLevel -  minDist 0.144037 maxDist 0.210847 medDist 0.181393
QML_OriginUncertainty  horUnc -1  minHorUnc 0.0190488  maxHorUnc 0.135093  azMaxHorUnc 78.2825
QML_ConfidenceEllipsoid  semiMajorAxisLength 0.167396  semiMinorAxisLength 0.0207036  semiIntermediateAxisLength 0.0666663  majorAxisPlunge -1.25977  majorAxisAzimuth 78.3149  majorAxisRotation 190.305
FOCALMECH  Hyp  5155.804625 694.153725 0.105450 Mech  0 0 0 mf  0 nObs -1
PHASE ID Ins Cmp On Pha  FM Date     HrMn   Sec     Err  ErrMag    Coda      Amp       Per       PriorWt  >   TTpred    Res       Weight    StaLoc(X  Y         Z)        SDist    SAzim  RAz  RDip RQual    Tcorr       TTerr
5            ?    N    ? P      ? 20180313 0000   42.3634 GAU  9.79e-03 -1.00e+00  8.47e+00  1.20e-02    8.4700 >    0.3639    0.0910    0.0021  694.2898 5155.8520   -0.4475    0.1440  70.81  -1.0  -1.0  0     0.0000    0.0004
13           ?    N    ? P      ? 20180313 0000   42.3507 GAU  1.05e-02 -1.00e+00  8.69e+00  1.20e-02    8.6900 >    0.3864    0.0558    0.0544  694.3062 5155.8390   -0.4568    0.1563  77.28  -1.0  -1.0  0     0.0000    0.0004
4            ?    N    ? P      ? 20180313 0000   42.3403 GAU  1.19e-02 -1.00e+00  7.41e+00  1.20e-02    7.4100 >    0.3944    0.0375    0.2994  694.3090 5155.8520   -0.4586    0.1624  73.03  -1.0  -1.0  0     0.0000    0.0004
15           ?    N    ? P      ? 20180313 0000   42.3117 GAU  5.26e-03 -1.00e+00  1.11e+01  1.20e-02   11.1000 >    0.4001    0.0032    1.1747  694.3206 5155.8107   -0.4609    0.1670  87.92  -1.0  -1.0  0     0.0000    0.0004
2            ?    N    ? P      ? 20180313 0000   42.3160 GAU  9.03e-03 -1.00e+00  7.56e+00  1.20e-02    7.5600 >    0.4077   -0.0001    2.1627  694.3150 5155.8647   -0.4623    0.1721  69.58  -1.0  -1.0  0     0.0000    0.0004
8            ?    N    ? P      ? 20180313 0000   42.3169 GAU  5.41e-03 -1.00e+00  7.69e+00  1.20e-02    7.6900 >    0.4115   -0.0030    1.4427  694.3223 5155.8450   -0.4648    0.1733  76.53  -1.0  -1.0  0     0.0000    0.0004
10           ?    N    ? P      ? 20180313 0000   42.3238 GAU  8.44e-03 -1.00e+00  8.67e+00  5.60e-02    8.6700 >    0.4211   -0.0057    0.8647  694.3329 5155.8329   -0.4673    0.1814  81.04  -1.0  -1.0  0     0.0000    0.0004
12           ?    N    ? P      ? 20180313 0000   42.3265 GAU  6.05e-03 -1.00e+00  8.96e+00  8.00e-03    8.9600 >    0.4207   -0.0027    0.9109  694.3356 5155.8197   -0.4663    0.1825  85.25  -1.0  -1.0  0     0.0000    0.0004
16           ?    N    ? P      ? 20180313 0000   42.3391 GAU  4.62e-03 -1.00e+00  8.12e+00  5.20e-02    8.1200 >    0.4258    0.0048    1.2601  694.3452 5155.7921   -0.4642    0.1919  93.74  -1.0  -1.0  0     0.0000    0.0004
17           ?    N    ? P      ? 20180313 0000   42.3189 GAU  9.55e-03 -1.00e+00  6.85e+00  1.20e-02    6.8500 >    0.4247   -0.0142    0.8121  694.3461 5155.7815   -0.4621    0.1938  96.86  -1.0  -1.0  0     0.0000    0.0004
6            ?    N    ? P      ? 20180313 0000   42.3648 GAU  1.55e-02 -1.00e+00  7.40e+00  8.00e-03    7.4000 >    0.4411    0.0153    0.7988  694.3446 5155.8502   -0.4728    0.1963  76.58  -1.0  -1.0  0     0.0000    0.0004
18           ?    N    ? P      ? 20180313 0000   42.3362 GAU  5.58e-03 -1.00e+00  6.32e+00  1.20e-02    6.3200 >    0.4299   -0.0021    2.6298  694.3549 5155.7674   -0.4586    0.2046 100.48  -1.0  -1.0  0     0.0000    0.0004
103          ?    N    ? P      ? 20180313 0000   42.3786 GAU  1.07e-02 -1.00e+00  7.38e+00  1.20e-02    7.3800 >    0.4454    0.0248    0.5875  694.3644 5155.7952   -0.4662    0.2108  92.57  -1.0  -1.0  0     0.0000    0.0004
END_PHASE
END_NLLOC

