NLLOC "./loc/RR.20180313.030917.grid0" "LOCATED" "Location completed."
PUBLIC_ID None
SIGNATURE "   obs:./obs/nll_picks.obs   NLLoc:v7.00.10(30Aug2020)   run:29Apr2022 23h21m16"
COMMENT "Rattlesnake Ridge Slidequake Locations"
GRID  150 250 75  694.15 5155.4 0  0.002 0.002 0.002 PROB_DENSITY
SEARCH OCTREE nInitial 1000 nEvaluated 2568 smallestNodeSide 0.001863/0.003112/0.000925 oct_tree_integral 6.750282e-06 scatter_volume 6.731723e-06
HYPOCENTER  x 694.412 y 5155.85 z 0.145687  OT 17.295  ix -1 iy -1 iz -1 MAXIMUM_LIKELIHOOD
GEOGRAPHIC  OT 2018 03 13  03 09 17.295030  Lat 5155.852869 Long 694.411681 Depth 0.145687
QUALITY  Pmax 3.44028e+113 MFmin 241.131 MFmax 241.174 RMS 0.00951283 Nphs 25 Gap 268.019 Dist 0.0671047 Mamp  0.70 25 Mdur -9.90 0
VPVSRATIO  VpVsRatio -1  Npair 0  Diff -2e+30
STATISTICS  ExpectX 694.401250 Y 5155.845239 Z 0.135087  CovXX 0.000430554 XY 0.000254172 XZ 9.54341e-05 YY 0.000171279 YZ 7.46518e-05 ZZ 9.61958e-05 EllAz1  151.341 Dip1  13.2446 Len1  0.00659973 Az2  285.105 Dip2  71.2073 Len2  0.0158828 Len3  4.656418e-02
STAT_GEOG  ExpectLat 5155.845239 Long 694.401250 Depth 0.135087
TRANSFORM  NONE
QML_OriginQuality  assocPhCt 25  usedPhCt 25  assocStaCt -1  usedStaCt 25  depthPhCt -1  stdErr 0.00951283  azGap 268.019  secAzGap 273.161  gtLevel -  minDist 0.0671047 maxDist 0.181811 medDist 0.113422
QML_OriginUncertainty  horUnc -1  minHorUnc 0.00598878  maxHorUnc 0.0367199  azMaxHorUnc 58.5117
QML_ConfidenceEllipsoid  semiMajorAxisLength 0.0465642  semiMinorAxisLength 0.00659973  semiIntermediateAxisLength 0.0158828  majorAxisPlunge 13.0891  majorAxisAzimuth 58.2043  majorAxisRotation 15.092
FOCALMECH  Hyp  5155.852869 694.411681 0.145687 Mech  0 0 0 mf  0 nObs -1
PHASE ID Ins Cmp On Pha  FM Date     HrMn   Sec     Err  ErrMag    Coda      Amp       Per       PriorWt  >   TTpred    Res       Weight    StaLoc(X  Y         Z)        SDist    SAzim  RAz  RDip RQual    Tcorr       TTerr
6            ?    N    ? P      ? 20180313 0309   17.5524 GAU  7.64e-03 -1.00e+00  7.83e+00  1.20e-02    7.8300 >    0.2323    0.0250    0.4650  694.3446 5155.8502   -0.4728    0.0671 267.69  -1.0  -1.0  0     0.0000    0.0002
103          ?    N    ? P      ? 20180313 0309   17.5563 GAU  3.78e-03 -1.00e+00  7.47e+00  1.20e-02    7.4700 >    0.2302    0.0311    0.3113  694.3644 5155.7952   -0.4662    0.0746 219.36  -1.0  -1.0  0     0.0000    0.0002
10           ?    N    ? P      ? 20180313 0309   17.5314 GAU  5.41e-03 -1.00e+00  8.50e+00  1.60e-02    8.5000 >    0.2353    0.0011    1.0209  694.3329 5155.8329   -0.4673    0.0813 255.77  -1.0  -1.0  0     0.0000    0.0002
12           ?    N    ? P      ? 20180313 0309   17.5320 GAU  2.22e-03 -1.00e+00  8.52e+00  2.40e-02    8.5200 >    0.2354    0.0016    1.0538  694.3356 5155.8197   -0.4663    0.0830 246.46  -1.0  -1.0  0     0.0000    0.0002
8            ?    N    ? P      ? 20180313 0309   17.5212 GAU  2.54e-03 -1.00e+00  8.26e+00  6.80e-02    8.2600 >    0.2389   -0.0127    0.6674  694.3223 5155.8450   -0.4648    0.0897 264.97  -1.0  -1.0  0     0.0000    0.0002
16           ?    N    ? P      ? 20180313 0309   17.5444 GAU  9.16e-03 -1.00e+00  8.18e+00  1.20e-02    8.1800 >    0.2392    0.0101    0.6735  694.3452 5155.7921   -0.4642    0.0901 227.59  -1.0  -1.0  0     0.0000    0.0002
17           ?    N    ? P      ? 20180313 0309   17.5363 GAU  7.54e-03 -1.00e+00  7.69e+00  1.20e-02    7.6900 >    0.2425   -0.0013    1.0326  694.3461 5155.7815   -0.4621    0.0969 222.55  -1.0  -1.0  0     0.0000    0.0002
2            ?    N    ? P      ? 20180313 0309   17.5349 GAU  5.50e-03 -1.00e+00  8.10e+00  8.00e-03    8.1000 >    0.2416   -0.0017    1.2697  694.3150 5155.8647   -0.4623    0.0974 276.96  -1.0  -1.0  0     0.0000    0.0002
15           ?    N    ? P      ? 20180313 0309   17.5244 GAU  1.91e-03 -1.00e+00  9.98e+00  2.80e-02    9.9800 >    0.2434   -0.0140    0.5205  694.3206 5155.8107   -0.4609    0.1004 245.16  -1.0  -1.0  0     0.0000    0.0002
18           ?    N    ? P      ? 20180313 0309   17.5369 GAU  9.16e-03 -1.00e+00  7.14e+00  1.20e-02    7.1400 >    0.2438   -0.0019    1.0633  694.3549 5155.7674   -0.4586    0.1026 213.61  -1.0  -1.0  0     0.0000    0.0002
4            ?    N    ? P      ? 20180313 0309   17.5329 GAU  4.13e-03 -1.00e+00  9.42e+00  1.20e-02    9.4200 >    0.2416   -0.0037    1.2513  694.3090 5155.8520   -0.4586    0.1027 269.53  -1.0  -1.0  0     0.0000    0.0002
13           ?    N    ? P      ? 20180313 0309   17.5341 GAU  6.52e-03 -1.00e+00  1.01e+01  1.60e-02   10.1000 >    0.2440   -0.0049    1.0572  694.3062 5155.8390   -0.4568    0.1064 262.53  -1.0  -1.0  0     0.0000    0.0002
20           ?    N    ? P      ? 20180313 0309   17.5407 GAU  1.51e-02 -1.00e+00  7.03e+00  1.60e-02    7.0300 >    0.2502   -0.0046    0.9230  694.3609 5155.7515   -0.4553    0.1134 206.63  -1.0  -1.0  0     0.0000    0.0003
5            ?    N    ? P      ? 20180313 0309   17.5406 GAU  6.88e-03 -1.00e+00  1.00e+01  1.20e-02   10.0000 >    0.2476   -0.0021    1.2964  694.2898 5155.8520   -0.4475    0.1219 269.57  -1.0  -1.0  0     0.0000    0.0002
21           ?    N    ? P      ? 20180313 0309   17.5611 GAU  1.94e-02 -1.00e+00  7.49e+00  1.20e-02    7.4900 >    0.2569    0.0092    0.8692  694.3642 5155.7391   -0.4517    0.1233 202.67  -1.0  -1.0  0     0.0000    0.0003
22           ?    N    ? P      ? 20180313 0309   17.6015 GAU  1.56e-02 -1.00e+00  6.36e+00  8.00e-03    6.3600 >    0.2585    0.0480    0.1950  694.3985 5155.7265   -0.4488    0.1270 185.96  -1.0  -1.0  0     0.0000    0.0003
23           ?    N    ? P      ? 20180313 0309   17.6231 GAU  2.96e-02 -1.00e+00  6.86e+00  1.20e-02    6.8600 >    0.2680    0.0601    0.1875  694.3677 5155.7226   -0.4473    0.1375 198.65  -1.0  -1.0  0     0.0000    0.0003
1            ?    N    ? P      ? 20180313 0309   17.5753 GAU  2.50e-02 -1.00e+00  9.01e+00  1.20e-02    9.0100 >    0.2581    0.0222    0.7750  694.2735 5155.8721   -0.4381    0.1395 277.94  -1.0  -1.0  0     0.0000    0.0003
7            ?    N    ? P      ? 20180313 0309   17.5538 GAU  6.53e-03 -1.00e+00  9.76e+00  1.20e-02    9.7600 >    0.2593   -0.0005    1.5257  694.2704 5155.8450   -0.4359    0.1415 266.81  -1.0  -1.0  0     0.0000    0.0003
25           ?    N    ? P      ? 20180313 0309   17.6053 GAU  2.69e-02 -1.00e+00  6.90e+00  1.20e-02    6.9000 >    0.2793    0.0310    0.5904  694.3684 5155.7091   -0.4438    0.1501 196.75  -1.0  -1.0  0     0.0000    0.0003
9            ?    N    ? P      ? 20180313 0309   17.5834 GAU  1.29e-02 -1.00e+00  9.92e+00  4.00e-02    9.9200 >    0.2683    0.0201    0.8436  694.2594 5155.8351   -0.4296    0.1534 263.34  -1.0  -1.0  0     0.0000    0.0003
26           ?    N    ? P      ? 20180313 0309   17.5875 GAU  8.08e-03 -1.00e+00  7.06e+00  1.20e-02    7.0600 >    0.2946   -0.0021    2.1836  694.3783 5155.6910   -0.4400    0.1653 191.65  -1.0  -1.0  0     0.0000    0.0003
3            ?    N    ? P      ? 20180313 0309   17.5769 GAU  1.79e-02 -1.00e+00  8.34e+00  8.00e-03    8.3400 >    0.2816    0.0003    1.2915  694.2426 5155.8595   -0.4214    0.1692 272.23  -1.0  -1.0  0     0.0000    0.0003
105          ?    N    ? P      ? 20180313 0309   17.5934 GAU  6.47e-03 -1.00e+00  7.70e+00  1.20e-02    7.7000 >    0.3028   -0.0045    2.5287  694.3764 5155.6832   -0.4382    0.1733 191.75  -1.0  -1.0  0     0.0000    0.0003
28           ?    N    ? P      ? 20180313 0309   17.6128 GAU  2.05e-02 -1.00e+00  7.02e+00  8.00e-03    7.0200 >    0.3125    0.0053    1.4039  694.3767 5155.6745   -0.4362    0.1818 191.10  -1.0  -1.0  0     0.0000    0.0003
END_PHASE
END_NLLOC

