NLLOC "./loc/RR.20180313.002819.grid0" "REJECTED" "WARNING: max prob location on grid boundary 10, rejecting location."
PUBLIC_ID None
SIGNATURE "   obs:./obs/nll_picks.obs   NLLoc:v7.00.10(30Aug2020)   run:29Apr2022 23h19m10"
COMMENT "Rattlesnake Ridge Slidequake Locations"
GRID  150 250 75  694.15 5155.4 0  0.002 0.002 0.002 PROB_DENSITY
SEARCH OCTREE nInitial 1000 nEvaluated 2384 smallestNodeSide 0.001863/0.003112/0.000925 oct_tree_integral 6.058861e-06 scatter_volume 6.058861e-06
HYPOCENTER  x 694.151 y 5155.66 z 0.147537  OT 18.6623  ix -1 iy -1 iz -1 MAXIMUM_LIKELIHOOD
GEOGRAPHIC  OT 2018 03 13  00 28 18.662324  Lat 5155.663006 Long 694.150931 Depth 0.147537
QUALITY  Pmax 2.99218e+162 MFmin 285.142 MFmax 285.194 RMS 0.0184272 Nphs 35 Gap 274.516 Dist 0.222333 Mamp  0.86 35 Mdur -9.90 0
VPVSRATIO  VpVsRatio -1  Npair 0  Diff -2e+30
STATISTICS  ExpectX 694.164289 Y 5155.660489 Z 0.127924  CovXX 0.000166232 XY 1.9931e-05 XZ 1.55102e-05 YY 4.30892e-05 YZ 4.04444e-05 ZZ 0.000280452 EllAz1  172.447 Dip1  8.7828 Len1  0.0109784 Az2  263.965 Dip2  9.72706 Len2  0.0241826 Len3  3.199333e-02
STAT_GEOG  ExpectLat 5155.660489 Long 694.164289 Depth 0.127924
TRANSFORM  NONE
QML_OriginQuality  assocPhCt 35  usedPhCt 35  assocStaCt -1  usedStaCt 35  depthPhCt -1  stdErr 0.0184272  azGap 274.516  secAzGap 278.831  gtLevel -  minDist 0.222333 maxDist 0.292295 medDist 0.242234
QML_OriginUncertainty  horUnc -1  minHorUnc 0.00958491  maxHorUnc 0.0197375  azMaxHorUnc 81.0315
QML_ConfidenceEllipsoid  semiMajorAxisLength 0.0319933  semiMinorAxisLength 0.0109784  semiIntermediateAxisLength 0.0241826  majorAxisPlunge 76.8367  majorAxisAzimuth 41.1  majorAxisRotation 314.763
FOCALMECH  Hyp  5155.663006 694.150931 0.147537 Mech  0 0 0 mf  0 nObs -1
PHASE ID Ins Cmp On Pha  FM Date     HrMn   Sec     Err  ErrMag    Coda      Amp       Per       PriorWt  >   TTpred    Res       Weight    StaLoc(X  Y         Z)        SDist    SAzim  RAz  RDip RQual    Tcorr       TTerr
25           ?    N    ? P      ? 20180313 0028   19.2394 GAU  5.52e-02 -1.00e+00  7.89e+00  1.20e-02    7.8900 >    0.4692    0.1078    0.1920  694.3684 5155.7091   -0.4438    0.2223  78.03  -1.0  -1.0  0     0.0000    0.0005
23           ?    N    ? P      ? 20180313 0028   19.2602 GAU  6.53e-02 -1.00e+00  7.29e+00  1.20e-02    7.2900 >    0.4755    0.1224    0.1655  694.3677 5155.7226   -0.4473    0.2248  74.64  -1.0  -1.0  0     0.0000    0.0005
15           ?    N    ? P      ? 20180313 0028   19.1581 GAU  8.31e-03 -1.00e+00  1.00e+01  1.20e-02   10.0000 >    0.4948    0.0009    1.8839  694.3206 5155.8107   -0.4609    0.2249  48.96  -1.0  -1.0  0     0.0000    0.0005
28           ?    N    ? P      ? 20180313 0028   19.2471 GAU  5.11e-02 -1.00e+00  7.00e+00  8.00e-03    7.0000 >    0.4646    0.1202    0.1320  694.3767 5155.6745   -0.4362    0.2260  87.10  -1.0  -1.0  0     0.0000    0.0005
105          ?    N    ? P      ? 20180313 0028   19.2388 GAU  5.58e-02 -1.00e+00  7.22e+00  1.16e-01    7.2200 >    0.4669    0.1096    0.1868  694.3764 5155.6832   -0.4382    0.2264  84.87  -1.0  -1.0  0     0.0000    0.0005
21           ?    N    ? P      ? 20180313 0028   19.1836 GAU  1.01e-02 -1.00e+00  7.27e+00  8.00e-03    7.2700 >    0.4823    0.0390    0.5168  694.3642 5155.7391   -0.4517    0.2264  70.36  -1.0  -1.0  0     0.0000    0.0005
30           ?    N    ? P      ? 20180313 0028   19.1741 GAU  7.07e-02 -1.00e+00  6.72e+00  5.20e-02    6.7200 >    0.4618    0.0499    0.4680  694.3775 5155.6619   -0.4333    0.2265  90.28  -1.0  -1.0  0     0.0000    0.0005
32           ?    N    ? P      ? 20180313 0028   19.1207 GAU  3.26e-02 -1.00e+00  6.75e+00  1.20e-02    6.7500 >    0.4596   -0.0012    0.9579  694.3777 5155.6456   -0.4297    0.2274  94.40  -1.0  -1.0  0     0.0000    0.0005
20           ?    N    ? P      ? 20180313 0028   19.1800 GAU  1.13e-02 -1.00e+00  7.54e+00  8.00e-03    7.5400 >    0.4873    0.0304    0.6573  694.3609 5155.7515   -0.4553    0.2278  67.15  -1.0  -1.0  0     0.0000    0.0005
17           ?    N    ? P      ? 20180313 0028   19.1652 GAU  8.31e-03 -1.00e+00  8.20e+00  1.20e-02    8.2000 >    0.4972    0.0057    1.5323  694.3461 5155.7815   -0.4621    0.2284  58.75  -1.0  -1.0  0     0.0000    0.0005
33           ?    N    ? P      ? 20180313 0028   19.1189 GAU  2.38e-02 -1.00e+00  7.48e+00  1.20e-02    7.4800 >    0.4566    0.0000    1.2229  694.3775 5155.6293   -0.4252    0.2291  98.45  -1.0  -1.0  0     0.0000    0.0005
26           ?    N    ? P      ? 20180313 0028   19.2436 GAU  4.63e-02 -1.00e+00  7.34e+00  1.20e-02    7.3400 >    0.4716    0.1096    0.1448  694.3783 5155.6910   -0.4400    0.2291  82.99  -1.0  -1.0  0     0.0000    0.0005
18           ?    N    ? P      ? 20180313 0028   19.1694 GAU  6.53e-03 -1.00e+00  7.68e+00  1.20e-02    7.6800 >    0.4930    0.0140    1.1255  694.3549 5155.7674   -0.4586    0.2291  62.89  -1.0  -1.0  0     0.0000    0.0005
16           ?    N    ? P      ? 20180313 0028   19.1700 GAU  7.13e-03 -1.00e+00  8.75e+00  2.40e-02    8.7500 >    0.5045    0.0032    1.7049  694.3452 5155.7921   -0.4642    0.2333  56.39  -1.0  -1.0  0     0.0000    0.0005
5            ?    N    ? P      ? 20180313 0028   19.2264 GAU  3.74e-02 -1.00e+00  8.05e+00  1.20e-02    8.0500 >    0.4915    0.0726    0.6217  694.2898 5155.8520   -0.4475    0.2345  36.31  -1.0  -1.0  0     0.0000    0.0005
13           ?    N    ? P      ? 20180313 0028   19.2097 GAU  8.90e-03 -1.00e+00  8.56e+00  2.40e-02    8.5600 >    0.5014    0.0460    0.6843  694.3062 5155.8390   -0.4568    0.2347  41.42  -1.0  -1.0  0     0.0000    0.0005
35           ?    N    ? P      ? 20180313 0028   19.1213 GAU  9.50e-03 -1.00e+00  7.89e+00  1.20e-02    7.8900 >    0.4590   -0.0000    1.7813  694.3818 5155.6141   -0.4216    0.2360 101.96  -1.0  -1.0  0     0.0000    0.0005
12           ?    N    ? P      ? 20180313 0028   19.1735 GAU  7.12e-03 -1.00e+00  8.83e+00  6.00e-02    8.8300 >    0.5166   -0.0054    1.7235  694.3356 5155.8197   -0.4663    0.2422  49.68  -1.0  -1.0  0     0.0000    0.0005
4            ?    N    ? P      ? 20180313 0028   19.2086 GAU  1.25e-02 -1.00e+00  7.70e+00  2.00e-02    7.7000 >    0.5149    0.0314    0.9644  694.3090 5155.8520   -0.4586    0.2464  39.91  -1.0  -1.0  0     0.0000    0.0005
36           ?    N    ? P      ? 20180313 0028   19.1343 GAU  2.14e-02 -1.00e+00  7.51e+00  1.20e-02    7.5100 >    0.4662    0.0058    1.3509  694.3865 5155.5904   -0.4164    0.2465 107.14  -1.0  -1.0  0     0.0000    0.0005
10           ?    N    ? P      ? 20180313 0028   19.1694 GAU  8.90e-03 -1.00e+00  8.29e+00  3.20e-02    8.2900 >    0.5248   -0.0177    1.0581  694.3329 5155.8329   -0.4673    0.2489  46.97  -1.0  -1.0  0     0.0000    0.0005
8            ?    N    ? P      ? 20180313 0028   19.1676 GAU  1.31e-02 -1.00e+00  7.63e+00  1.20e-02    7.6300 >    0.5244   -0.0191    0.9902  694.3223 5155.8450   -0.4648    0.2500  43.28  -1.0  -1.0  0     0.0000    0.0005
103          ?    N    ? P      ? 20180313 0028   19.2109 GAU  3.86e-02 -1.00e+00  7.43e+00  1.20e-02    7.4300 >    0.5221    0.0265    0.7678  694.3644 5155.7952   -0.4662    0.2510  58.23  -1.0  -1.0  0     0.0000    0.0005
27           ?    N    ? P      ? 20180313 0028   19.2353 GAU  4.63e-02 -1.00e+00  6.37e+00  1.20e-02    6.3700 >    0.4949    0.0780    0.3172  694.4008 5155.6912   -0.4412    0.2514  83.55  -1.0  -1.0  0     0.0000    0.0005
22           ?    N    ? P      ? 20180313 0028   19.2394 GAU  1.72e-02 -1.00e+00  7.29e+00  8.00e-03    7.2900 >    0.5063    0.0708    0.2267  694.3985 5155.7265   -0.4488    0.2556  75.61  -1.0  -1.0  0     0.0000    0.0005
38           ?    N    ? P      ? 20180313 0028   19.1367 GAU  1.07e-02 -1.00e+00  7.18e+00  1.20e-02    7.1800 >    0.4748   -0.0004    1.7305  694.3902 5155.5681   -0.4123    0.2574 111.64  -1.0  -1.0  0     0.0000    0.0005
31           ?    N    ? P      ? 20180313 0028   19.2109 GAU  3.86e-02 -1.00e+00  5.97e+00  4.40e-02    5.9700 >    0.4944    0.0542    0.5380  694.4086 5155.6503   -0.4335    0.2580  92.81  -1.0  -1.0  0     0.0000    0.0005
2            ?    N    ? P      ? 20180313 0028   19.1830 GAU  1.31e-02 -1.00e+00  7.73e+00  1.20e-02    7.7300 >    0.5323   -0.0116    1.4025  694.3150 5155.8647   -0.4623    0.2600  39.13  -1.0  -1.0  0     0.0000    0.0005
39           ?    N    ? P      ? 20180313 0028   19.1326 GAU  1.84e-02 -1.00e+00  6.97e+00  8.00e-03    6.9700 >    0.4767   -0.0065    1.3956  694.3890 5155.5532   -0.4086    0.2622 114.76  -1.0  -1.0  0     0.0000    0.0005
34           ?    N    ? P      ? 20180313 0028   19.1753 GAU  3.15e-02 -1.00e+00  6.74e+00  1.20e-02    6.7400 >    0.4983    0.0146    1.0477  694.4145 5155.6153   -0.4263    0.2679 100.26  -1.0  -1.0  0     0.0000    0.0005
6            ?    N    ? P      ? 20180313 0028   19.2139 GAU  1.66e-02 -1.00e+00  7.98e+00  1.20e-02    7.9800 >    0.5502    0.0014    1.4982  694.3446 5155.8502   -0.4728    0.2693  45.98  -1.0  -1.0  0     0.0000    0.0006
41           ?    N    ? P      ? 20180313 0028   19.1468 GAU  1.37e-02 -1.00e+00  6.90e+00  8.00e-03    6.9000 >    0.4829    0.0016    1.7133  694.3901 5155.5386   -0.4053    0.2696 117.47  -1.0  -1.0  0     0.0000    0.0005
42           ?    N    ? P      ? 20180313 0028   19.1409 GAU  2.32e-02 -1.00e+00  6.86e+00  1.20e-02    6.8600 >    0.4877   -0.0091    1.3665  694.3873 5155.5165   -0.3983    0.2781 121.79  -1.0  -1.0  0     0.0000    0.0005
37           ?    N    ? P      ? 20180313 0028   19.1991 GAU  3.03e-02 -1.00e+00  6.72e+00  4.40e-02    6.7200 >    0.5104    0.0263    1.0573  694.4219 5155.5876   -0.4220    0.2813 105.55  -1.0  -1.0  0     0.0000    0.0005
40           ?    N    ? P      ? 20180313 0028   19.1747 GAU  1.07e-02 -1.00e+00  7.55e+00  1.20e-02    7.5500 >    0.5163   -0.0039    1.8738  694.4169 5155.5417   -0.4131    0.2923 114.52  -1.0  -1.0  0     0.0000    0.0005
END_PHASE
END_NLLOC

