NLLOC "./loc/RR.20180313.014819.grid0" "LOCATED" "Location completed."
PUBLIC_ID None
SIGNATURE "   obs:./obs/nll_picks.obs   NLLoc:v7.00.10(30Aug2020)   run:29Apr2022 23h20m31"
COMMENT "Rattlesnake Ridge Slidequake Locations"
GRID  150 250 75  694.15 5155.4 0  0.002 0.002 0.002 PROB_DENSITY
SEARCH OCTREE nInitial 1000 nEvaluated 4536 smallestNodeSide 0.001863/0.003112/0.000925 oct_tree_integral 2.216883e-05 scatter_volume 2.216883e-05
HYPOCENTER  x 694.162 y 5155.63 z 0.146612  OT 19.3814  ix -1 iy -1 iz -1 MAXIMUM_LIKELIHOOD
GEOGRAPHIC  OT 2018 03 13  01 48 19.381383  Lat 5155.625656 Long 694.162106 Depth 0.146612
QUALITY  Pmax 7.25315e+108 MFmin 245.539 MFmax 245.671 RMS 0.00784884 Nphs 24 Gap 296.831 Dist 0.159476 Mamp  0.86 24 Mdur -9.90 0
VPVSRATIO  VpVsRatio -1  Npair 0  Diff -2e+30
STATISTICS  ExpectX 694.173388 Y 5155.624966 Z 0.121950  CovXX 0.000351432 XY 7.45904e-05 XZ 9.42556e-05 YY 5.9811e-05 YZ 7.59565e-05 ZZ 0.000585604 EllAz1  168.354 Dip1  5.75889 Len1  0.0113691 Az2  260.69 Dip2  22.0064 Len2  0.0338741 Len3  4.735149e-02
STAT_GEOG  ExpectLat 5155.624966 Long 694.173388 Depth 0.121950
TRANSFORM  NONE
QML_OriginQuality  assocPhCt 24  usedPhCt 24  assocStaCt -1  usedStaCt 24  depthPhCt -1  stdErr 0.00784884  azGap 296.831  secAzGap 299.487  gtLevel -  minDist 0.159476 maxDist 0.26824 medDist 0.23521
QML_OriginUncertainty  horUnc -1  minHorUnc 0.00980977  maxHorUnc 0.0291484  azMaxHorUnc 76.4538
QML_ConfidenceEllipsoid  semiMajorAxisLength 0.0473515  semiMinorAxisLength 0.0113691  semiIntermediateAxisLength 0.0338741  majorAxisPlunge 67.1753  majorAxisAzimuth 64.4896  majorAxisRotation 339.039
FOCALMECH  Hyp  5155.625656 694.162106 0.146612 Mech  0 0 0 mf  0 nObs -1
PHASE ID Ins Cmp On Pha  FM Date     HrMn   Sec     Err  ErrMag    Coda      Amp       Per       PriorWt  >   TTpred    Res       Weight    StaLoc(X  Y         Z)        SDist    SAzim  RAz  RDip RQual    Tcorr       TTerr
106          ?    N    ? P      ? 20180313 0148   19.8570 GAU  6.10e-03 -1.00e+00  7.77e+00  8.00e-03    7.7700 >    0.4012    0.0745    0.0020  694.3120 5155.6801   -0.4360    0.1595  70.06  -1.0  -1.0  0     0.0000    0.0004
32           ?    N    ? P      ? 20180313 0148   19.8164 GAU  5.51e-03 -1.00e+00  9.03e+00  1.20e-02    9.0300 >    0.4441   -0.0091    0.8745  694.3777 5155.6456   -0.4297    0.2165  84.72  -1.0  -1.0  0     0.0000    0.0004
30           ?    N    ? P      ? 20180313 0148   19.8274 GAU  6.10e-03 -1.00e+00  9.22e+00  1.20e-02    9.2200 >    0.4497   -0.0037    0.9800  694.3775 5155.6619   -0.4333    0.2184  80.44  -1.0  -1.0  0     0.0000    0.0004
35           ?    N    ? P      ? 20180313 0148   19.8227 GAU  5.79e-03 -1.00e+00  9.21e+00  8.00e-03    9.2100 >    0.4393    0.0020    1.2814  694.3818 5155.6141   -0.4216    0.2200  93.01  -1.0  -1.0  0     0.0000    0.0004
28           ?    N    ? P      ? 20180313 0148   19.8405 GAU  4.64e-03 -1.00e+00  8.94e+00  1.20e-02    8.9400 >    0.4542    0.0050    0.8772  694.3767 5155.6745   -0.4362    0.2201  77.19  -1.0  -1.0  0     0.0000    0.0005
105          ?    N    ? P      ? 20180313 0148   19.8425 GAU  5.51e-03 -1.00e+00  8.99e+00  1.20e-02    8.9900 >    0.4578    0.0033    0.9515  694.3764 5155.6832   -0.4382    0.2219  74.96  -1.0  -1.0  0     0.0000    0.0005
25           ?    N    ? P      ? 20180313 0148   19.8655 GAU  8.71e-03 -1.00e+00  8.01e+00  1.20e-02    8.0100 >    0.4652    0.0189    0.3936  694.3684 5155.7091   -0.4438    0.2226  67.98  -1.0  -1.0  0     0.0000    0.0005
26           ?    N    ? P      ? 20180313 0148   19.8419 GAU  6.09e-03 -1.00e+00  8.05e+00  1.20e-02    8.0500 >    0.4639   -0.0034    1.0036  694.3783 5155.6910   -0.4400    0.2258  73.19  -1.0  -1.0  0     0.0000    0.0005
36           ?    N    ? P      ? 20180313 0148   19.8254 GAU  5.79e-03 -1.00e+00  7.68e+00  8.00e-03    7.6800 >    0.4420    0.0020    1.4744  694.3865 5155.5904   -0.4164    0.2272  98.94  -1.0  -1.0  0     0.0000    0.0004
23           ?    N    ? P      ? 20180313 0148   19.8553 GAU  7.84e-03 -1.00e+00  8.20e+00  8.00e-03    8.2000 >    0.4735    0.0005    1.2124  694.3677 5155.7226   -0.4473    0.2273  64.76  -1.0  -1.0  0     0.0000    0.0005
21           ?    N    ? P      ? 20180313 0148   19.8637 GAU  1.28e-02 -1.00e+00  7.43e+00  8.00e-03    7.4300 >    0.4830   -0.0007    1.0927  694.3642 5155.7391   -0.4517    0.2317  60.68  -1.0  -1.0  0     0.0000    0.0005
38           ?    N    ? P      ? 20180313 0148   19.8280 GAU  5.79e-03 -1.00e+00  7.20e+00  1.20e-02    7.2000 >    0.4473   -0.0006    1.8037  694.3902 5155.5681   -0.4123    0.2352 104.16  -1.0  -1.0  0     0.0000    0.0004
20           ?    N    ? P      ? 20180313 0148   19.8675 GAU  9.00e-03 -1.00e+00  6.80e+00  8.00e-03    6.8000 >    0.4900   -0.0039    1.4011  694.3609 5155.7515   -0.4553    0.2352  57.66  -1.0  -1.0  0     0.0000    0.0005
39           ?    N    ? P      ? 20180313 0148   19.8628 GAU  4.00e-03 -1.00e+00  7.01e+00  2.00e-02    7.0100 >    0.4475    0.0340    0.2253  694.3890 5155.5532   -0.4086    0.2382 107.71  -1.0  -1.0  0     0.0000    0.0004
18           ?    N    ? P      ? 20180313 0148   19.8747 GAU  1.04e-02 -1.00e+00  6.45e+00  8.00e-03    6.4500 >    0.4982   -0.0049    1.4588  694.3549 5155.7674   -0.4586    0.2393  53.67  -1.0  -1.0  0     0.0000    0.0005
17           ?    N    ? P      ? 20180313 0148   19.8675 GAU  2.87e-02 -1.00e+00  6.81e+00  1.20e-02    6.8100 >    0.5046   -0.0185    0.7402  694.3461 5155.7815   -0.4621    0.2411  49.75  -1.0  -1.0  0     0.0000    0.0005
41           ?    N    ? P      ? 20180313 0148   19.8472 GAU  1.69e-02 -1.00e+00  6.80e+00  8.00e-03    6.8000 >    0.4514    0.0144    1.1030  694.3901 5155.5386   -0.4053    0.2440 110.89  -1.0  -1.0  0     0.0000    0.0005
16           ?    N    ? P      ? 20180313 0148   19.8930 GAU  1.36e-02 -1.00e+00  6.99e+00  1.20e-02    6.9900 >    0.5133   -0.0017    1.6419  694.3452 5155.7921   -0.4642    0.2475  47.72  -1.0  -1.0  0     0.0000    0.0005
27           ?    N    ? P      ? 20180313 0148   19.8829 GAU  1.97e-02 -1.00e+00  8.21e+00  1.20e-02    8.2100 >    0.4866    0.0149    0.5350  694.4008 5155.6912   -0.4412    0.2475  74.63  -1.0  -1.0  0     0.0000    0.0005
31           ?    N    ? P      ? 20180313 0148   19.8582 GAU  7.84e-03 -1.00e+00  7.79e+00  1.20e-02    7.7900 >    0.4797   -0.0029    0.9571  694.4086 5155.6503   -0.4335    0.2478  84.28  -1.0  -1.0  0     0.0000    0.0005
34           ?    N    ? P      ? 20180313 0148   19.8512 GAU  7.57e-03 -1.00e+00  7.32e+00  1.20e-02    7.3200 >    0.4791   -0.0093    0.9555  694.4145 5155.6153   -0.4263    0.2526  92.35  -1.0  -1.0  0     0.0000    0.0005
22           ?    N    ? P      ? 20180313 0148   19.9067 GAU  1.68e-02 -1.00e+00  7.51e+00  1.20e-02    7.5100 >    0.5043    0.0210    0.5367  694.3985 5155.7265   -0.4488    0.2570  66.89  -1.0  -1.0  0     0.0000    0.0005
37           ?    N    ? P      ? 20180313 0148   19.8534 GAU  6.23e-03 -1.00e+00  7.21e+00  2.40e-02    7.2100 >    0.4867   -0.0147    0.8250  694.4219 5155.5876   -0.4220    0.2626  98.33  -1.0  -1.0  0     0.0000    0.0005
40           ?    N    ? P      ? 20180313 0148   19.8641 GAU  1.25e-02 -1.00e+00  7.29e+00  1.20e-02    7.2900 >    0.4865   -0.0038    1.6735  694.4169 5155.5417   -0.4131    0.2682 108.23  -1.0  -1.0  0     0.0000    0.0005
END_PHASE
END_NLLOC

