NLLOC "./loc/RR.20180313.003405.grid0" "LOCATED" "Location completed."
PUBLIC_ID None
SIGNATURE "   obs:./obs/nll_picks.obs   NLLoc:v7.00.10(30Aug2020)   run:29Apr2022 23h19m19"
COMMENT "Rattlesnake Ridge Slidequake Locations"
GRID  150 250 75  694.15 5155.4 0  0.002 0.002 0.002 PROB_DENSITY
SEARCH OCTREE nInitial 1000 nEvaluated 11712 smallestNodeSide 0.001863/0.003112/0.000925 oct_tree_integral 8.303172e-05 scatter_volume 8.282723e-05
HYPOCENTER  x 694.158 y 5155.78 z 0.0004625  OT 5.78072  ix -1 iy -1 iz -1 MAXIMUM_LIKELIHOOD
GEOGRAPHIC  OT 2018 03 13  00 34 5.780717  Lat 5155.775056 Long 694.158381 Depth 0.000462
QUALITY  Pmax 2.86348e+81 MFmin 172.24 MFmax 172.259 RMS 0.0138517 Nphs 21 Gap 285.765 Dist 0.152235 Mamp  0.69 21 Mdur -9.90 0
VPVSRATIO  VpVsRatio -1  Npair 0  Diff -2e+30
STATISTICS  ExpectX 694.197167 Y 5155.796198 Z 0.071084  CovXX 0.000974026 XY 0.000157516 XZ 0.000947718 YY 0.000373451 YZ 0.000590836 ZZ 0.00177684 EllAz1  205.716 Dip1  29.1317 Len1  0.0172024 Az2  306.075 Dip2  17.8813 Len2  0.0412046 Len3  9.505307e-02
STAT_GEOG  ExpectLat 5155.796198 Long 694.197167 Depth 0.071084
TRANSFORM  NONE
QML_OriginQuality  assocPhCt 21  usedPhCt 21  assocStaCt -1  usedStaCt 21  depthPhCt -1  stdErr 0.0138517  azGap 285.765  secAzGap 287.896  gtLevel -  minDist 0.152235 maxDist 0.320044 medDist 0.200825
QML_OriginUncertainty  horUnc -1  minHorUnc 0.0277432  maxHorUnc 0.048265  azMaxHorUnc 76.1604
QML_ConfidenceEllipsoid  semiMajorAxisLength 0.0950531  semiMinorAxisLength 0.0172024  semiIntermediateAxisLength 0.0412046  majorAxisPlunge 54.8611  majorAxisAzimuth 63.3582  majorAxisRotation 282.016
FOCALMECH  Hyp  5155.775056 694.158381 0.000462 Mech  0 0 0 mf  0 nObs -1
PHASE ID Ins Cmp On Pha  FM Date     HrMn   Sec     Err  ErrMag    Coda      Amp       Per       PriorWt  >   TTpred    Res       Weight    StaLoc(X  Y         Z)        SDist    SAzim  RAz  RDip RQual    Tcorr       TTerr
5            ?    N    ? P      ? 20180313 0034    6.1955 GAU  1.53e-02 -1.00e+00  7.80e+00  1.20e-02    7.8000 >    0.2856    0.1291    0.0047  694.2898 5155.8520   -0.4475    0.1522  59.66  -1.0  -1.0  0     0.0000    0.0003
13           ?    N    ? P      ? 20180313 0034    6.1813 GAU  2.17e-02 -1.00e+00  8.04e+00  2.00e-02    8.0400 >    0.3057    0.0949    0.0337  694.3062 5155.8390   -0.4568    0.1611  66.60  -1.0  -1.0  0     0.0000    0.0003
15           ?    N    ? P      ? 20180313 0034    6.1138 GAU  8.37e-03 -1.00e+00  9.68e+00  2.40e-02    9.6800 >    0.3147    0.0183    1.1055  694.3206 5155.8107   -0.4609    0.1661  77.61  -1.0  -1.0  0     0.0000    0.0003
8            ?    N    ? P      ? 20180313 0034    6.1084 GAU  1.08e-02 -1.00e+00  7.22e+00  1.20e-02    7.2200 >    0.3364   -0.0087    1.4668  694.3223 5155.8450   -0.4648    0.1782  66.89  -1.0  -1.0  0     0.0000    0.0003
2            ?    N    ? P      ? 20180313 0034    6.1232 GAU  1.18e-02 -1.00e+00  7.27e+00  1.20e-02    7.2700 >    0.3380    0.0045    2.0393  694.3150 5155.8647   -0.4623    0.1804  60.22  -1.0  -1.0  0     0.0000    0.0003
12           ?    N    ? P      ? 20180313 0034    6.1118 GAU  1.43e-02 -1.00e+00  8.25e+00  1.20e-02    8.2500 >    0.3424   -0.0114    0.9812  694.3356 5155.8197   -0.4663    0.1828  75.85  -1.0  -1.0  0     0.0000    0.0003
10           ?    N    ? P      ? 20180313 0034    6.1177 GAU  1.23e-02 -1.00e+00  7.53e+00  1.20e-02    7.5300 >    0.3453   -0.0083    1.1998  694.3329 5155.8329   -0.4673    0.1839  71.67  -1.0  -1.0  0     0.0000    0.0003
16           ?    N    ? P      ? 20180313 0034    6.1310 GAU  6.90e-03 -1.00e+00  8.60e+00  1.20e-02    8.6000 >    0.3463    0.0039    1.1331  694.3452 5155.7921   -0.4642    0.1876  84.78  -1.0  -1.0  0     0.0000    0.0003
17           ?    N    ? P      ? 20180313 0034    6.1241 GAU  9.85e-03 -1.00e+00  7.80e+00  8.00e-03    7.8000 >    0.3444   -0.0010    1.0886  694.3461 5155.7815   -0.4621    0.1879  88.04  -1.0  -1.0  0     0.0000    0.0003
18           ?    N    ? P      ? 20180313 0034    6.1232 GAU  1.08e-02 -1.00e+00  6.55e+00  1.20e-02    6.5500 >    0.3532   -0.0107    0.9986  694.3549 5155.7674   -0.4586    0.1967  92.23  -1.0  -1.0  0     0.0000    0.0004
6            ?    N    ? P      ? 20180313 0034    6.1906 GAU  1.53e-02 -1.00e+00  7.05e+00  1.20e-02    7.0500 >    0.3734    0.0365    0.7214  694.3446 5155.8502   -0.4728    0.2008  68.04  -1.0  -1.0  0     0.0000    0.0004
20           ?    N    ? P      ? 20180313 0034    6.1365 GAU  1.33e-02 -1.00e+00  6.63e+00  8.00e-03    6.6300 >    0.3603   -0.0045    1.3040  694.3609 5155.7515   -0.4553    0.2038  96.64  -1.0  -1.0  0     0.0000    0.0004
103          ?    N    ? P      ? 20180313 0034    6.1498 GAU  1.18e-02 -1.00e+00  6.44e+00  8.00e-03    6.4400 >    0.3741   -0.0050    0.9803  694.3644 5155.7952   -0.4662    0.2070  84.42  -1.0  -1.0  0     0.0000    0.0004
21           ?    N    ? P      ? 20180313 0034    6.1488 GAU  2.86e-02 -1.00e+00  6.69e+00  1.20e-02    6.6900 >    0.3644    0.0037    1.0866  694.3642 5155.7391   -0.4517    0.2089  99.90  -1.0  -1.0  0     0.0000    0.0004
105          ?    N    ? P      ? 20180313 0034    6.1862 GAU  2.26e-02 -1.00e+00  6.74e+00  1.20e-02    6.7400 >    0.3967    0.0087    2.2365  694.3764 5155.6832   -0.4382    0.2366 112.84  -1.0  -1.0  0     0.0000    0.0004
22           ?    N    ? P      ? 20180313 0034    6.2261 GAU  1.43e-02 -1.00e+00  5.84e+00  8.00e-03    5.8400 >    0.4139    0.0315    0.9063  694.3985 5155.7265   -0.4488    0.2450 101.42  -1.0  -1.0  0     0.0000    0.0004
32           ?    N    ? P      ? 20180313 0034    6.6110 GAU  2.66e-02 -1.00e+00  5.83e+00  8.00e-03    5.8300 >    0.4204    0.4099    0.0014  694.3777 5155.6456   -0.4297    0.2547 120.56  -1.0  -1.0  0     0.0000    0.0004
35           ?    N    ? P      ? 20180313 0034    6.5620 GAU  2.56e-02 -1.00e+00  6.76e+00  1.20e-02    6.7600 >    0.4480    0.3332    0.0014  694.3818 5155.6141   -0.4216    0.2753 125.77  -1.0  -1.0  0     0.0000    0.0004
36           ?    N    ? P      ? 20180313 0034    5.9922 GAU  1.58e-02 -1.00e+00  7.46e+00  1.20e-02    7.4600 >    0.4743   -0.2628    0.0043  694.3865 5155.5904   -0.4164    0.2935 128.99  -1.0  -1.0  0     0.0000    0.0005
38           ?    N    ? P      ? 20180313 0034    5.9892 GAU  1.28e-02 -1.00e+00  6.04e+00  1.20e-02    6.0400 >    0.4997   -0.2913    0.0043  694.3902 5155.5681   -0.4123    0.3107 131.76  -1.0  -1.0  0     0.0000    0.0005
39           ?    N    ? P      ? 20180313 0034    6.2910 GAU  2.41e-02 -1.00e+00  6.19e+00  8.00e-03    6.1900 >    0.5134   -0.0031    3.7022  694.3890 5155.5532   -0.4086    0.3200 133.89  -1.0  -1.0  0     0.0000    0.0005
END_PHASE
END_NLLOC

