NLLOC "./loc/RR.20180313.020900.grid0" "LOCATED" "Location completed."
PUBLIC_ID None
SIGNATURE "   obs:./obs/nll_picks.obs   NLLoc:v7.00.10(30Aug2020)   run:29Apr2022 23h20m48"
COMMENT "Rattlesnake Ridge Slidequake Locations"
GRID  150 250 75  694.15 5155.4 0  0.002 0.002 0.002 PROB_DENSITY
SEARCH OCTREE nInitial 1000 nEvaluated 6008 smallestNodeSide 0.001863/0.003112/0.000925 oct_tree_integral 2.055905e-05 scatter_volume 2.055905e-05
HYPOCENTER  x 694.296 y 5155.63 z 0.100362  OT 0.0544114  ix -1 iy -1 iz -1 MAXIMUM_LIKELIHOOD
GEOGRAPHIC  OT 2018 03 13  02 09 0.054411  Lat 5155.631881 Long 694.296206 Depth 0.100362
QUALITY  Pmax 5.84343e+103 MFmin 253.538 MFmax 253.587 RMS 0.00811328 Nphs 23 Gap 243.37 Dist 0.0507029 Mamp  0.58 23 Mdur -9.90 0
VPVSRATIO  VpVsRatio -1  Npair 0  Diff -2e+30
STATISTICS  ExpectX 694.278093 Y 5155.624724 Z 0.080351  CovXX 0.000643216 XY 0.000226715 XZ 0.000543109 YY 0.00010561 YZ 0.000264923 ZZ 0.00107374 EllAz1  165.418 Dip1  6.45188 Len1  0.00743861 Az2  260.159 Dip2  36.163 Len2  0.0314196 Len3  7.342443e-02
STAT_GEOG  ExpectLat 5155.624724 Long 694.278093 Depth 0.080351
TRANSFORM  NONE
QML_OriginQuality  assocPhCt 23  usedPhCt 23  assocStaCt -1  usedStaCt 23  depthPhCt -1  stdErr 0.00811328  azGap 243.37  secAzGap 248.613  gtLevel -  minDist 0.0507029 maxDist 0.150632 medDist 0.113926
QML_OriginUncertainty  horUnc -1  minHorUnc 0.00723639  maxHorUnc 0.0408648  azMaxHorUnc 69.9274
QML_ConfidenceEllipsoid  semiMajorAxisLength 0.0734244  semiMinorAxisLength 0.00743861  semiIntermediateAxisLength 0.0314196  majorAxisPlunge 53.0808  majorAxisAzimuth 66.7614  majorAxisRotation 325.622
FOCALMECH  Hyp  5155.631881 694.296206 0.100362 Mech  0 0 0 mf  0 nObs -1
PHASE ID Ins Cmp On Pha  FM Date     HrMn   Sec     Err  ErrMag    Coda      Amp       Per       PriorWt  >   TTpred    Res       Weight    StaLoc(X  Y         Z)        SDist    SAzim  RAz  RDip RQual    Tcorr       TTerr
106          ?    N    ? P      ? 20180313 0209    0.3838 GAU  1.32e-02 -1.00e+00  7.25e+00  6.00e-02    7.2500 >    0.1888    0.1406    0.0012  694.3120 5155.6801   -0.4360    0.0507  18.17  -1.0  -1.0  0     0.0000    0.0002
33           ?    N    ? P      ? 20180313 0209    0.2527 GAU  2.45e-03 -1.00e+00  1.06e+01  1.20e-02   10.6000 >    0.2001   -0.0018    1.0308  694.3775 5155.6293   -0.4252    0.0814  91.80  -1.0  -1.0  0     0.0000    0.0002
32           ?    N    ? P      ? 20180313 0209    0.2545 GAU  3.79e-03 -1.00e+00  9.83e+00  6.80e-02    9.8300 >    0.2066   -0.0065    0.6319  694.3777 5155.6456   -0.4297    0.0826  80.46  -1.0  -1.0  0     0.0000    0.0002
30           ?    N    ? P      ? 20180313 0209    0.2708 GAU  8.47e-03 -1.00e+00  9.44e+00  1.20e-02    9.4400 >    0.2147    0.0017    0.9256  694.3775 5155.6619   -0.4333    0.0866  69.72  -1.0  -1.0  0     0.0000    0.0002
35           ?    N    ? P      ? 20180313 0209    0.2619 GAU  3.13e-03 -1.00e+00  1.00e+01  1.60e-02   10.0000 >    0.2016    0.0059    1.0787  694.3818 5155.6141   -0.4216    0.0874 101.73  -1.0  -1.0  0     0.0000    0.0002
28           ?    N    ? P      ? 20180313 0209    0.2868 GAU  5.35e-03 -1.00e+00  9.14e+00  1.20e-02    9.1400 >    0.2222    0.0102    1.0129  694.3767 5155.6745   -0.4362    0.0910  62.12  -1.0  -1.0  0     0.0000    0.0002
105          ?    N    ? P      ? 20180313 0209    0.2989 GAU  5.36e-03 -1.00e+00  9.21e+00  1.20e-02    9.2100 >    0.2284    0.0161    0.7490  694.3764 5155.6832   -0.4382    0.0952  57.37  -1.0  -1.0  0     0.0000    0.0002
36           ?    N    ? P      ? 20180313 0209    0.2683 GAU  4.24e-03 -1.00e+00  8.93e+00  3.20e-02    8.9300 >    0.2092    0.0047    1.2187  694.3865 5155.5904   -0.4164    0.0994 114.69  -1.0  -1.0  0     0.0000    0.0002
26           ?    N    ? P      ? 20180313 0209    0.2904 GAU  6.24e-03 -1.00e+00  8.06e+00  1.20e-02    8.0600 >    0.2368   -0.0008    1.1608  694.3783 5155.6910   -0.4400    0.1012  54.25  -1.0  -1.0  0     0.0000    0.0002
25           ?    N    ? P      ? 20180313 0209    0.3247 GAU  8.03e-03 -1.00e+00  7.74e+00  8.00e-03    7.7400 >    0.2457    0.0246    0.3935  694.3684 5155.7091   -0.4438    0.1057  43.08  -1.0  -1.0  0     0.0000    0.0002
38           ?    N    ? P      ? 20180313 0209    0.2770 GAU  2.67e-03 -1.00e+00  7.35e+00  1.20e-02    7.3500 >    0.2221    0.0005    1.4177  694.3902 5155.5681   -0.4123    0.1135 124.17  -1.0  -1.0  0     0.0000    0.0002
31           ?    N    ? P      ? 20180313 0209    0.3100 GAU  5.36e-03 -1.00e+00  7.93e+00  1.20e-02    7.9300 >    0.2432    0.0124    0.8076  694.4086 5155.6503   -0.4335    0.1139  80.67  -1.0  -1.0  0     0.0000    0.0002
23           ?    N    ? P      ? 20180313 0209    0.3143 GAU  7.81e-03 -1.00e+00  7.91e+00  1.20e-02    7.9100 >    0.2599   -0.0000    1.5211  694.3677 5155.7226   -0.4473    0.1155  38.25  -1.0  -1.0  0     0.0000    0.0003
34           ?    N    ? P      ? 20180313 0209    0.3163 GAU  8.03e-03 -1.00e+00  7.97e+00  1.60e-02    7.9700 >    0.2428    0.0190    0.6217  694.4145 5155.6153   -0.4263    0.1195  97.99  -1.0  -1.0  0     0.0000    0.0002
27           ?    N    ? P      ? 20180313 0209    0.3372 GAU  1.20e-02 -1.00e+00  6.75e+00  8.00e-03    6.7500 >    0.2582    0.0246    0.3834  694.4008 5155.6912   -0.4412    0.1203  60.42  -1.0  -1.0  0     0.0000    0.0003
39           ?    N    ? P      ? 20180313 0209    0.2951 GAU  5.58e-03 -1.00e+00  7.92e+00  3.20e-02    7.9200 >    0.2292    0.0115    1.4625  694.3890 5155.5532   -0.4086    0.1217 130.30  -1.0  -1.0  0     0.0000    0.0002
21           ?    N    ? P      ? 20180313 0209    0.3350 GAU  6.24e-03 -1.00e+00  6.79e+00  8.00e-03    6.7900 >    0.2771    0.0035    1.8976  694.3642 5155.7391   -0.4517    0.1270  32.36  -1.0  -1.0  0     0.0000    0.0003
41           ?    N    ? P      ? 20180313 0209    0.3080 GAU  4.68e-03 -1.00e+00  7.06e+00  1.20e-02    7.0600 >    0.2403    0.0133    1.5001  694.3901 5155.5386   -0.4053    0.1323 134.80  -1.0  -1.0  0     0.0000    0.0002
37           ?    N    ? P      ? 20180313 0209    0.3087 GAU  5.36e-03 -1.00e+00  8.08e+00  8.00e-03    8.0800 >    0.2556   -0.0014    1.2308  694.4219 5155.5876   -0.4220    0.1333 109.40  -1.0  -1.0  0     0.0000    0.0003
20           ?    N    ? P      ? 20180313 0209    0.3310 GAU  1.92e-02 -1.00e+00  6.19e+00  1.60e-02    6.1900 >    0.2905   -0.0139    0.7128  694.3609 5155.7515   -0.4553    0.1359  28.39  -1.0  -1.0  0     0.0000    0.0003
22           ?    N    ? P      ? 20180313 0209    0.4086 GAU  2.59e-02 -1.00e+00  6.77e+00  8.00e-03    6.7700 >    0.2878    0.0664    0.0614  694.3985 5155.7265   -0.4488    0.1394  47.22  -1.0  -1.0  0     0.0000    0.0003
18           ?    N    ? P      ? 20180313 0209    0.3671 GAU  1.43e-02 -1.00e+00  6.54e+00  1.20e-02    6.5400 >    0.3071    0.0056    1.5709  694.3549 5155.7674   -0.4586    0.1477  23.41  -1.0  -1.0  0     0.0000    0.0003
40           ?    N    ? P      ? 20180313 0209    0.3223 GAU  6.02e-03 -1.00e+00  7.68e+00  1.20e-02    7.6800 >    0.2708   -0.0029    1.6094  694.4169 5155.5417   -0.4131    0.1506 126.77  -1.0  -1.0  0     0.0000    0.0003
END_PHASE
END_NLLOC

