NLLOC "./loc/RR.20180313.015357.grid0" "LOCATED" "Location completed."
PUBLIC_ID None
SIGNATURE "   obs:./obs/nll_picks.obs   NLLoc:v7.00.10(30Aug2020)   run:29Apr2022 23h20m37"
COMMENT "Rattlesnake Ridge Slidequake Locations"
GRID  150 250 75  694.15 5155.4 0  0.002 0.002 0.002 PROB_DENSITY
SEARCH OCTREE nInitial 1000 nEvaluated 1416 smallestNodeSide 0.001863/0.003112/0.000925 oct_tree_integral 9.231768e-07 scatter_volume 9.226578e-07
HYPOCENTER  x 694.412 y 5155.83 z 0.0430125  OT 57.3592  ix -1 iy -1 iz -1 MAXIMUM_LIKELIHOOD
GEOGRAPHIC  OT 2018 03 13  01 53 57.359237  Lat 5155.827969 Long 694.411681 Depth 0.043013
QUALITY  Pmax 1.67427e+120 MFmin 354.706 MFmax 354.777 RMS 0.00888445 Nphs 26 Gap 253.767 Dist 0.0575655 Mamp  0.47 26 Mdur -9.90 0
VPVSRATIO  VpVsRatio -1  Npair 0  Diff -2e+30
STATISTICS  ExpectX 694.423643 Y 5155.834929 Z 0.041226  CovXX 0.000149557 XY 8.40045e-05 XZ -2.06972e-05 YY 6.12699e-05 YZ -1.52289e-05 ZZ 3.30479e-05 EllAz1  329.789 Dip1  6.86431 Len1  0.00601105 Az2  278.207 Dip2  -79.0359 Len2  0.0102047 Len3  2.684416e-02
STAT_GEOG  ExpectLat 5155.834929 Long 694.423643 Depth 0.041226
TRANSFORM  NONE
QML_OriginQuality  assocPhCt 26  usedPhCt 26  assocStaCt -1  usedStaCt 26  depthPhCt -1  stdErr 0.00888445  azGap 253.767  secAzGap 256.615  gtLevel -  minDist 0.0575655 maxDist 0.171973 medDist 0.104428
QML_OriginUncertainty  horUnc -1  minHorUnc 0.00491815  maxHorUnc 0.0214642  azMaxHorUnc 58.8608
QML_ConfidenceEllipsoid  semiMajorAxisLength 0.0268442  semiMinorAxisLength 0.00601105  semiIntermediateAxisLength 0.0102047  majorAxisPlunge -8.50807  majorAxisAzimuth 58.7575  majorAxisRotation 172.744
FOCALMECH  Hyp  5155.827969 694.411681 0.043013 Mech  0 0 0 mf  0 nObs -1
PHASE ID Ins Cmp On Pha  FM Date     HrMn   Sec     Err  ErrMag    Coda      Amp       Per       PriorWt  >   TTpred    Res       Weight    StaLoc(X  Y         Z)        SDist    SAzim  RAz  RDip RQual    Tcorr       TTerr
103          ?    N    ? P      ? 20180313 0153   57.5225 GAU  1.02e-02 -1.00e+00  7.57e+00  2.80e-02    7.5700 >    0.1124    0.0509    0.0560  694.3644 5155.7952   -0.4662    0.0576 235.29  -1.0  -1.0  0     0.0000    0.0001
6            ?    N    ? P      ? 20180313 0153   57.5364 GAU  2.72e-03 -1.00e+00  8.44e+00  1.20e-02    8.4400 >    0.1349    0.0423    0.0551  694.3446 5155.8502   -0.4728    0.0706 288.32  -1.0  -1.0  0     0.0000    0.0001
16           ?    N    ? P      ? 20180313 0153   57.5097 GAU  3.20e-03 -1.00e+00  9.72e+00  8.00e-03    9.7200 >    0.1357    0.0147    0.3178  694.3452 5155.7921   -0.4642    0.0755 241.67  -1.0  -1.0  0     0.0000    0.0001
12           ?    N    ? P      ? 20180313 0153   57.5018 GAU  4.66e-03 -1.00e+00  9.64e+00  1.20e-02    9.6400 >    0.1381    0.0044    1.1860  694.3356 5155.8197   -0.4663    0.0765 263.82  -1.0  -1.0  0     0.0000    0.0001
10           ?    N    ? P      ? 20180313 0153   57.5015 GAU  4.94e-03 -1.00e+00  9.15e+00  1.20e-02    9.1500 >    0.1422    0.0001    1.3350  694.3329 5155.8329   -0.4673    0.0789 273.57  -1.0  -1.0  0     0.0000    0.0001
17           ?    N    ? P      ? 20180313 0153   57.5003 GAU  2.29e-03 -1.00e+00  8.71e+00  8.00e-03    8.7100 >    0.1412   -0.0002    1.5021  694.3461 5155.7815   -0.4621    0.0804 234.65  -1.0  -1.0  0     0.0000    0.0001
18           ?    N    ? P      ? 20180313 0153   57.5113 GAU  2.91e-03 -1.00e+00  7.46e+00  6.00e-02    7.4600 >    0.1430    0.0091    0.7557  694.3549 5155.7674   -0.4586    0.0830 223.16  -1.0  -1.0  0     0.0000    0.0001
8            ?    N    ? P      ? 20180313 0153   57.4960 GAU  4.07e-03 -1.00e+00  8.41e+00  1.60e-02    8.4100 >    0.1575   -0.0207    0.4302  694.3223 5155.8450   -0.4648    0.0910 280.79  -1.0  -1.0  0     0.0000    0.0002
20           ?    N    ? P      ? 20180313 0153   57.5123 GAU  3.94e-03 -1.00e+00  7.80e+00  1.20e-02    7.8000 >    0.1543   -0.0013    1.4505  694.3609 5155.7515   -0.4553    0.0918 213.60  -1.0  -1.0  0     0.0000    0.0002
15           ?    N    ? P      ? 20180313 0153   57.4908 GAU  3.49e-03 -1.00e+00  1.15e+01  1.20e-02   11.5000 >    0.1580   -0.0264    0.3137  694.3206 5155.8107   -0.4609    0.0927 259.26  -1.0  -1.0  0     0.0000    0.0002
21           ?    N    ? P      ? 20180313 0153   57.5217 GAU  7.90e-03 -1.00e+00  7.58e+00  1.20e-02    7.5800 >    0.1667   -0.0042    1.1255  694.3642 5155.7391   -0.4517    0.1008 208.14  -1.0  -1.0  0     0.0000    0.0002
22           ?    N    ? P      ? 20180313 0153   57.5901 GAU  1.10e-02 -1.00e+00  7.42e+00  2.80e-02    7.4200 >    0.1682    0.0626    0.0523  694.3985 5155.7265   -0.4488    0.1023 187.40  -1.0  -1.0  0     0.0000    0.0002
2            ?    N    ? P      ? 20180313 0153   57.5096 GAU  4.08e-03 -1.00e+00  8.29e+00  1.20e-02    8.2900 >    0.1742   -0.0238    0.4257  694.3150 5155.8647   -0.4623    0.1034 290.79  -1.0  -1.0  0     0.0000    0.0002
4            ?    N    ? P      ? 20180313 0153   57.5173 GAU  4.53e-03 -1.00e+00  8.48e+00  1.60e-02    8.4800 >    0.1753   -0.0172    0.5556  694.3090 5155.8520   -0.4586    0.1054 283.19  -1.0  -1.0  0     0.0000    0.0002
13           ?    N    ? P      ? 20180313 0153   57.5329 GAU  3.78e-03 -1.00e+00  9.69e+00  2.80e-02    9.6900 >    0.1757   -0.0021    1.3745  694.3062 5155.8390   -0.4568    0.1060 275.99  -1.0  -1.0  0     0.0000    0.0002
23           ?    N    ? P      ? 20180313 0153   57.5298 GAU  5.19e-03 -1.00e+00  7.57e+00  1.20e-02    7.5700 >    0.1862   -0.0156    0.7396  694.3677 5155.7226   -0.4473    0.1142 202.65  -1.0  -1.0  0     0.0000    0.0002
5            ?    N    ? P      ? 20180313 0153   57.5504 GAU  5.90e-03 -1.00e+00  8.31e+00  5.60e-02    8.3100 >    0.1996   -0.0084    0.9715  694.2898 5155.8520   -0.4475    0.1243 281.13  -1.0  -1.0  0     0.0000    0.0002
25           ?    N    ? P      ? 20180313 0153   57.5564 GAU  8.94e-03 -1.00e+00  7.99e+00  1.20e-02    7.9900 >    0.2047   -0.0075    1.2518  694.3684 5155.7091   -0.4438    0.1265 200.00  -1.0  -1.0  0     0.0000    0.0002
27           ?    N    ? P      ? 20180313 0153   57.5892 GAU  1.35e-02 -1.00e+00  6.69e+00  8.00e-03    6.6900 >    0.2218    0.0082    1.1672  694.4008 5155.6912   -0.4412    0.1372 184.56  -1.0  -1.0  0     0.0000    0.0002
26           ?    N    ? P      ? 20180313 0153   57.5605 GAU  9.77e-03 -1.00e+00  7.46e+00  1.20e-02    7.4600 >    0.2274   -0.0261    0.6992  694.3783 5155.6910   -0.4400    0.1410 193.69  -1.0  -1.0  0     0.0000    0.0002
7            ?    N    ? P      ? 20180313 0153   57.5913 GAU  3.17e-03 -1.00e+00  8.54e+00  1.20e-02    8.5400 >    0.2258    0.0063    1.2568  694.2704 5155.8450   -0.4359    0.1423 276.88  -1.0  -1.0  0     0.0000    0.0002
1            ?    N    ? P      ? 20180313 0153   57.5953 GAU  4.53e-03 -1.00e+00  7.87e+00  1.20e-02    7.8700 >    0.2300    0.0061    1.4156  694.2735 5155.8721   -0.4381    0.1450 287.73  -1.0  -1.0  0     0.0000    0.0002
105          ?    N    ? P      ? 20180313 0153   57.5988 GAU  4.78e-03 -1.00e+00  7.45e+00  7.20e-02    7.4500 >    0.2397   -0.0001    2.2591  694.3764 5155.6832   -0.4382    0.1490 193.70  -1.0  -1.0  0     0.0000    0.0002
9            ?    N    ? P      ? 20180313 0153   57.5990 GAU  5.24e-03 -1.00e+00  9.10e+00  1.20e-02    9.1000 >    0.2410   -0.0013    1.6133  694.2594 5155.8351   -0.4296    0.1525 272.67  -1.0  -1.0  0     0.0000    0.0002
28           ?    N    ? P      ? 20180313 0153   57.6212 GAU  9.36e-03 -1.00e+00  6.68e+00  1.20e-02    6.6800 >    0.2530    0.0090    1.3361  694.3767 5155.6745   -0.4362    0.1574 192.84  -1.0  -1.0  0     0.0000    0.0003
3            ?    N    ? P      ? 20180313 0153   57.6302 GAU  2.27e-03 -1.00e+00  8.12e+00  1.20e-02    8.1200 >    0.2709    0.0001    2.3539  694.2426 5155.8595   -0.4214    0.1720 280.55  -1.0  -1.0  0     0.0000    0.0003
END_PHASE
END_NLLOC

