NLLOC "./loc/RR.20180313.001005.grid0" "LOCATED" "Location completed."
PUBLIC_ID None
SIGNATURE "   obs:./obs/nll_picks.obs   NLLoc:v7.00.10(30Aug2020)   run:29Apr2022 23h18m12"
COMMENT "Rattlesnake Ridge Slidequake Locations"
GRID  150 250 75  694.15 5155.4 0  0.002 0.002 0.002 PROB_DENSITY
SEARCH OCTREE nInitial 1000 nEvaluated 20016 smallestNodeSide 0.003725/0.006225/0.001850 oct_tree_integral 6.146371e-04 scatter_volume 6.146371e-04
HYPOCENTER  x 694.303 y 5155.54 z 0.07215  OT 5.23433  ix -1 iy -1 iz -1 MAXIMUM_LIKELIHOOD
GEOGRAPHIC  OT 2018 03 13  00 10 5.234328  Lat 5155.543175 Long 694.302725 Depth 0.072150
QUALITY  Pmax 1.35932e+52 MFmin 76.0192 MFmax 76.0297 RMS 0.00607503 Nphs 14 Gap 281.901 Dist 0.0868762 Mamp  0.52 14 Mdur -9.90 0
VPVSRATIO  VpVsRatio -1  Npair 0  Diff -2e+30
STATISTICS  ExpectX 694.248937 Y 5155.509074 Z 0.088302  CovXX 0.00328088 XY 0.0014994 XZ 0.000257461 YY 0.00111155 YZ -0.000132669 ZZ 0.00159185 EllAz1  152.467 Dip1  -10.4003 Len1  0.0326744 Az2  353.677 Dip2  -78.8622 Len2  0.0757005 Len3  1.196926e-01
STAT_GEOG  ExpectLat 5155.509074 Long 694.248937 Depth 0.088302
TRANSFORM  NONE
QML_OriginQuality  assocPhCt 14  usedPhCt 14  assocStaCt -1  usedStaCt 14  depthPhCt -1  stdErr 0.00607503  azGap 281.901  secAzGap 296.422  gtLevel -  minDist 0.0868762 maxDist 0.150682 medDist 0.114125
QML_OriginUncertainty  horUnc -1  minHorUnc 0.0281945  maxHorUnc 0.0964762  azMaxHorUnc 62.941
QML_ConfidenceEllipsoid  semiMajorAxisLength 0.119693  semiMinorAxisLength 0.0326744  semiIntermediateAxisLength 0.0757005  majorAxisPlunge 3.94154  majorAxisAzimuth 63.1912  majorAxisRotation 349.477
FOCALMECH  Hyp  5155.543175 694.302725 0.072150 Mech  0 0 0 mf  0 nObs -1
PHASE ID Ins Cmp On Pha  FM Date     HrMn   Sec     Err  ErrMag    Coda      Amp       Per       PriorWt  >   TTpred    Res       Weight    StaLoc(X  Y         Z)        SDist    SAzim  RAz  RDip RQual    Tcorr       TTerr
39           ?    N    ? P      ? 20180313 0010    5.4400 GAU  7.50e-03 -1.00e+00  1.07e+01  8.00e-03   10.7000 >    0.1995    0.0062    1.1153  694.3890 5155.5532   -0.4086    0.0869  83.39  -1.0  -1.0  0     0.0000    0.0002
41           ?    N    ? P      ? 20180313 0010    5.4305 GAU  7.50e-03 -1.00e+00  8.77e+00  1.60e-02    8.7700 >    0.1971   -0.0009    1.3618  694.3901 5155.5386   -0.4053    0.0875  92.97  -1.0  -1.0  0     0.0000    0.0002
42           ?    N    ? P      ? 20180313 0010    5.4214 GAU  1.03e-02 -1.00e+00  8.91e+00  8.00e-03    8.9100 >    0.1919   -0.0049    1.9015  694.3873 5155.5165   -0.3983    0.0887 107.49  -1.0  -1.0  0     0.0000    0.0002
38           ?    N    ? P      ? 20180313 0010    5.4408 GAU  6.71e-03 -1.00e+00  8.49e+00  1.20e-02    8.4900 >    0.2075   -0.0010    0.9052  694.3902 5155.5681   -0.4123    0.0909  74.08  -1.0  -1.0  0     0.0000    0.0002
36           ?    N    ? P      ? 20180313 0010    5.4447 GAU  1.15e-02 -1.00e+00  7.71e+00  6.00e-02    7.7100 >    0.2174   -0.0071    0.7328  694.3865 5155.5904   -0.4164    0.0962  60.62  -1.0  -1.0  0     0.0000    0.0002
35           ?    N    ? P      ? 20180313 0010    5.4495 GAU  3.75e-02 -1.00e+00  8.14e+00  8.00e-03    8.1400 >    0.2338   -0.0186    0.4363  694.3818 5155.6141   -0.4216    0.1062  48.09  -1.0  -1.0  0     0.0000    0.0002
33           ?    N    ? P      ? 20180313 0010    5.4716 GAU  2.65e-02 -1.00e+00  7.42e+00  1.20e-02    7.4200 >    0.2467   -0.0095    0.7285  694.3775 5155.6293   -0.4252    0.1141  40.96  -1.0  -1.0  0     0.0000    0.0002
40           ?    N    ? P      ? 20180313 0010    5.4747 GAU  2.41e-02 -1.00e+00  7.72e+00  2.00e-02    7.7200 >    0.2358    0.0046    0.9446  694.4169 5155.5417   -0.4131    0.1142  90.73  -1.0  -1.0  0     0.0000    0.0002
32           ?    N    ? P      ? 20180313 0010    5.5051 GAU  2.45e-02 -1.00e+00  7.73e+00  8.00e-03    7.7300 >    0.2657    0.0050    1.0402  694.3777 5155.6456   -0.4297    0.1269  36.21  -1.0  -1.0  0     0.0000    0.0003
37           ?    N    ? P      ? 20180313 0010    5.4988 GAU  1.18e-02 -1.00e+00  6.71e+00  1.20e-02    6.7100 >    0.2592    0.0053    0.8661  694.4219 5155.5876   -0.4220    0.1272  69.56  -1.0  -1.0  0     0.0000    0.0003
34           ?    N    ? P      ? 20180313 0010    5.5000 GAU  1.70e-02 -1.00e+00  7.37e+00  1.20e-02    7.3700 >    0.2701   -0.0045    0.9019  694.4145 5155.6153   -0.4263    0.1330  57.18  -1.0  -1.0  0     0.0000    0.0003
30           ?    N    ? P      ? 20180313 0010    5.5300 GAU  3.43e-02 -1.00e+00  7.50e+00  2.80e-02    7.5000 >    0.2849    0.0108    0.9593  694.3775 5155.6619   -0.4333    0.1403  32.19  -1.0  -1.0  0     0.0000    0.0003
31           ?    N    ? P      ? 20180313 0010    5.5099 GAU  2.76e-02 -1.00e+00  6.42e+00  8.00e-03    6.4200 >    0.2977   -0.0221    0.7465  694.4086 5155.6503   -0.4335    0.1507  44.66  -1.0  -1.0  0     0.0000    0.0003
28           ?    N    ? P      ? 20180313 0010    5.5395 GAU  2.80e-02 -1.00e+00  7.17e+00  1.20e-02    7.1700 >    0.3001    0.0051    1.3598  694.3767 5155.6745   -0.4362    0.1507  29.39  -1.0  -1.0  0     0.0000    0.0003
END_PHASE
END_NLLOC

