NLLOC "./loc/RR.20180313.005607.grid0" "LOCATED" "Location completed."
PUBLIC_ID None
SIGNATURE "   obs:./obs/nll_picks.obs   NLLoc:v7.00.10(30Aug2020)   run:29Apr2022 23h19m41"
COMMENT "Rattlesnake Ridge Slidequake Locations"
GRID  150 250 75  694.15 5155.4 0  0.002 0.002 0.002 PROB_DENSITY
SEARCH OCTREE nInitial 1000 nEvaluated 2664 smallestNodeSide 0.001863/0.003112/0.000925 oct_tree_integral 4.798055e-06 scatter_volume 4.798055e-06
HYPOCENTER  x 694.364 y 5155.65 z 0.132275  OT 7.57243  ix -1 iy -1 iz -1 MAXIMUM_LIKELIHOOD
GEOGRAPHIC  OT 2018 03 13  00 56 7.572426  Lat 5155.645887 Long 694.364188 Depth 0.132275
QUALITY  Pmax 6.6453e+123 MFmin 288.649 MFmax 288.688 RMS 0.00640634 Nphs 27 Gap 133.345 Dist 0.0135042 Mamp  0.60 27 Mdur -9.90 0
VPVSRATIO  VpVsRatio -1  Npair 0  Diff -2e+30
STATISTICS  ExpectX 694.357603 Y 5155.643715 Z 0.127870  CovXX 0.000516916 XY 4.22578e-05 XZ -1.60822e-05 YY 1.87775e-05 YZ 1.7475e-05 ZZ 0.000122814 EllAz1  354.906 Dip1  -9.64821 Len1  0.00651613 Az2  187.405 Dip2  -80.1221 Len2  0.0210454 Len3  4.288542e-02
STAT_GEOG  ExpectLat 5155.643715 Long 694.357603 Depth 0.127870
TRANSFORM  NONE
QML_OriginQuality  assocPhCt 27  usedPhCt 27  assocStaCt -1  usedStaCt 27  depthPhCt -1  stdErr 0.00640634  azGap 133.345  secAzGap 175.297  gtLevel -  minDist 0.0135042 maxDist 0.170476 medDist 0.0767456
QML_OriginUncertainty  horUnc -1  minHorUnc 0.00591622  maxHorUnc 0.034599  azMaxHorUnc 85.1854
QML_ConfidenceEllipsoid  semiMajorAxisLength 0.0428854  semiMinorAxisLength 0.00651613  semiIntermediateAxisLength 0.0210454  majorAxisPlunge -2.09757  majorAxisAzimuth 85.2632  majorAxisRotation 189.68
FOCALMECH  Hyp  5155.645887 694.364188 0.132275 Mech  0 0 0 mf  0 nObs -1
PHASE ID Ins Cmp On Pha  FM Date     HrMn   Sec     Err  ErrMag    Coda      Amp       Per       PriorWt  >   TTpred    Res       Weight    StaLoc(X  Y         Z)        SDist    SAzim  RAz  RDip RQual    Tcorr       TTerr
32           ?    N    ? P      ? 20180313 0056    7.7699 GAU  3.35e-03 -1.00e+00  1.02e+01  2.80e-02   10.2000 >    0.2028   -0.0053    1.1978  694.3777 5155.6456   -0.4297    0.0135  91.34  -1.0  -1.0  0     0.0000    0.0002
30           ?    N    ? P      ? 20180313 0056    7.7845 GAU  3.73e-03 -1.00e+00  1.03e+01  1.20e-02   10.3000 >    0.2096    0.0025    1.2251  694.3775 5155.6619   -0.4333    0.0208  39.65  -1.0  -1.0  0     0.0000    0.0002
33           ?    N    ? P      ? 20180313 0056    7.7603 GAU  3.35e-03 -1.00e+00  1.01e+01  1.20e-02   10.1000 >    0.1980   -0.0101    0.8054  694.3775 5155.6293   -0.4252    0.0213 141.17  -1.0  -1.0  0     0.0000    0.0002
28           ?    N    ? P      ? 20180313 0056    7.7901 GAU  4.09e-03 -1.00e+00  9.52e+00  6.00e-02    9.5200 >    0.2169    0.0008    1.3751  694.3767 5155.6745   -0.4362    0.0312  23.62  -1.0  -1.0  0     0.0000    0.0002
35           ?    N    ? P      ? 20180313 0056    7.7733 GAU  3.73e-03 -1.00e+00  1.05e+01  1.20e-02   10.5000 >    0.1974    0.0034    1.2121  694.3818 5155.6141   -0.4216    0.0363 151.04  -1.0  -1.0  0     0.0000    0.0002
105          ?    N    ? P      ? 20180313 0056    7.7945 GAU  4.10e-03 -1.00e+00  1.00e+01  8.00e-03   10.0000 >    0.2224   -0.0003    1.5848  694.3764 5155.6832   -0.4382    0.0393  18.11  -1.0  -1.0  0     0.0000    0.0002
31           ?    N    ? P      ? 20180313 0056    7.8016 GAU  4.47e-03 -1.00e+00  8.20e+00  2.00e-02    8.2000 >    0.2178    0.0113    0.5902  694.4086 5155.6503   -0.4335    0.0447  84.27  -1.0  -1.0  0     0.0000    0.0002
26           ?    N    ? P      ? 20180313 0056    7.7882 GAU  6.71e-03 -1.00e+00  8.51e+00  1.20e-02    8.5100 >    0.2287   -0.0129    0.7947  694.3783 5155.6910   -0.4400    0.0472  17.38  -1.0  -1.0  0     0.0000    0.0002
27           ?    N    ? P      ? 20180313 0056    7.8046 GAU  6.71e-03 -1.00e+00  8.00e+00  1.20e-02    8.0000 >    0.2356   -0.0034    1.4235  694.4008 5155.6912   -0.4412    0.0583  38.90  -1.0  -1.0  0     0.0000    0.0002
34           ?    N    ? P      ? 20180313 0056    7.8422 GAU  3.54e-02 -1.00e+00  8.62e+00  1.20e-02    8.6200 >    0.2158    0.0540    0.1928  694.4145 5155.6153   -0.4263    0.0589 121.31  -1.0  -1.0  0     0.0000    0.0002
36           ?    N    ? P      ? 20180313 0056    7.7714 GAU  3.35e-03 -1.00e+00  7.83e+00  3.60e-02    7.8300 >    0.2031   -0.0041    1.2985  694.3865 5155.5904   -0.4164    0.0599 158.09  -1.0  -1.0  0     0.0000    0.0002
106          ?    N    ? P      ? 20180313 0056    7.8493 GAU  2.09e-02 -1.00e+00  8.70e+00  1.20e-02    8.7000 >    0.2311    0.0458    0.1901  694.3120 5155.6801   -0.4360    0.0624 303.22  -1.0  -1.0  0     0.0000    0.0002
25           ?    N    ? P      ? 20180313 0056    7.8117 GAU  1.08e-02 -1.00e+00  7.83e+00  2.00e-02    7.8300 >    0.2422   -0.0030    1.3167  694.3684 5155.7091   -0.4438    0.0634   3.84  -1.0  -1.0  0     0.0000    0.0002
23           ?    N    ? P      ? 20180313 0056    7.8329 GAU  7.45e-03 -1.00e+00  8.24e+00  8.00e-03    8.2400 >    0.2555    0.0049    1.6157  694.3677 5155.7226   -0.4473    0.0767   2.62  -1.0  -1.0  0     0.0000    0.0003
38           ?    N    ? P      ? 20180313 0056    7.7804 GAU  2.61e-03 -1.00e+00  7.63e+00  4.00e-02    7.6300 >    0.2146   -0.0066    1.4014  694.3902 5155.5681   -0.4123    0.0820 161.54  -1.0  -1.0  0     0.0000    0.0002
37           ?    N    ? P      ? 20180313 0056    7.7994 GAU  3.73e-03 -1.00e+00  7.13e+00  1.20e-02    7.1300 >    0.2266    0.0004    1.5859  694.4219 5155.5876   -0.4220    0.0820 135.27  -1.0  -1.0  0     0.0000    0.0002
22           ?    N    ? P      ? 20180313 0056    7.8415 GAU  3.17e-02 -1.00e+00  6.87e+00  8.00e-03    6.8700 >    0.2652    0.0039    0.6497  694.3985 5155.7265   -0.4488    0.0877  23.05  -1.0  -1.0  0     0.0000    0.0003
39           ?    N    ? P      ? 20180313 0056    7.8024 GAU  5.22e-03 -1.00e+00  7.66e+00  1.20e-02    7.6600 >    0.2235    0.0065    1.4809  694.3890 5155.5532   -0.4086    0.0960 165.00  -1.0  -1.0  0     0.0000    0.0002
20           ?    N    ? P      ? 20180313 0056    7.8698 GAU  3.76e-02 -1.00e+00  7.22e+00  2.40e-02    7.2200 >    0.2877    0.0097    0.6889  694.3609 5155.7515   -0.4553    0.1056 358.19  -1.0  -1.0  0     0.0000    0.0003
41           ?    N    ? P      ? 20180313 0056    7.8091 GAU  7.45e-03 -1.00e+00  6.73e+00  1.60e-02    6.7300 >    0.2344    0.0023    1.7748  694.3901 5155.5386   -0.4053    0.1103 166.41  -1.0  -1.0  0     0.0000    0.0002
40           ?    N    ? P      ? 20180313 0056    7.8154 GAU  5.59e-03 -1.00e+00  7.80e+00  2.00e-02    7.8000 >    0.2495   -0.0065    1.9001  694.4169 5155.5417   -0.4131    0.1167 153.17  -1.0  -1.0  0     0.0000    0.0002
18           ?    N    ? P      ? 20180313 0056    7.8266 GAU  1.53e-02 -1.00e+00  6.35e+00  2.00e-02    6.3500 >    0.3063   -0.0521    0.0301  694.3549 5155.7674   -0.4586    0.1219 355.62  -1.0  -1.0  0     0.0000    0.0003
42           ?    N    ? P      ? 20180313 0056    7.8262 GAU  1.19e-02 -1.00e+00  6.26e+00  6.40e-02    6.2600 >    0.2518    0.0020    1.6821  694.3873 5155.5165   -0.3983    0.1314 169.88  -1.0  -1.0  0     0.0000    0.0003
17           ?    N    ? P      ? 20180313 0056    7.8460 GAU  2.06e-02 -1.00e+00  6.70e+00  8.00e-03    6.7000 >    0.3242   -0.0507    0.1249  694.3461 5155.7815   -0.4621    0.1368 352.42  -1.0  -1.0  0     0.0000    0.0003
16           ?    N    ? P      ? 20180313 0056    7.8847 GAU  2.87e-02 -1.00e+00  6.63e+00  8.00e-03    6.6300 >    0.3367   -0.0244    0.8473  694.3452 5155.7921   -0.4642    0.1475 352.60  -1.0  -1.0  0     0.0000    0.0003
103          ?    N    ? P      ? 20180313 0056    7.8446 GAU  1.62e-02 -1.00e+00  6.14e+00  1.20e-02    6.1400 >    0.3401   -0.0679    0.0112  694.3644 5155.7952   -0.4662    0.1493   0.07  -1.0  -1.0  0     0.0000    0.0003
15           ?    N    ? P      ? 20180313 0056    7.7018 GAU  1.24e-02 -1.00e+00  7.27e+00  1.20e-02    7.2700 >    0.3546   -0.2252    0.0000  694.3206 5155.8107   -0.4609    0.1705 345.17  -1.0  -1.0  0     0.0000    0.0004
END_PHASE
END_NLLOC

