NLLOC "./loc/RR.20180313.000048.grid0" "LOCATED" "Location completed."
PUBLIC_ID None
SIGNATURE "   obs:./obs/nll_picks.obs   NLLoc:v7.00.10(30Aug2020)   run:29Apr2022 23h16m00"
COMMENT "Rattlesnake Ridge Slidequake Locations"
GRID  150 250 75  694.15 5155.4 0  0.002 0.002 0.002 PROB_DENSITY
SEARCH OCTREE nInitial 1000 nEvaluated 15472 smallestNodeSide 0.001863/0.003112/0.000925 oct_tree_integral 8.961112e-05 scatter_volume 8.961112e-05
HYPOCENTER  x 694.334 y 5155.78 z 0.060125  OT 48.2816  ix -1 iy -1 iz -1 MAXIMUM_LIKELIHOOD
GEOGRAPHIC  OT 2018 03 13  00 00 48.281589  Lat 5155.782837 Long 694.334388 Depth 0.060125
QUALITY  Pmax 6.91236e+56 MFmin 99.3342 MFmax 99.3492 RMS 0.0115075 Nphs 15 Gap 171.941 Dist 0.0118368 Mamp  0.26 15 Mdur -9.90 0
VPVSRATIO  VpVsRatio -1  Npair 0  Diff -2e+30
STATISTICS  ExpectX 694.273614 Y 5155.771166 Z 0.057873  CovXX 0.00315434 XY 0.00071486 XZ 0.000686319 YY 0.000263252 YZ 0.000371139 ZZ 0.00116935 EllAz1  169.706 Dip1  12.2418 Len1  0.0134934 Az2  292.86 Dip2  68.3596 Len2  0.0586858 Len3  1.120974e-01
STAT_GEOG  ExpectLat 5155.771166 Long 694.273614 Depth 0.057873
TRANSFORM  NONE
QML_OriginQuality  assocPhCt 15  usedPhCt 15  assocStaCt -1  usedStaCt 15  depthPhCt -1  stdErr 0.0115075  azGap 171.941  secAzGap 178.166  gtLevel -  minDist 0.0118368 maxDist 0.0853187 medDist 0.0500685
QML_OriginUncertainty  horUnc -1  minHorUnc 0.0148711  maxHorUnc 0.0874032  azMaxHorUnc 76.8432
QML_ConfidenceEllipsoid  semiMajorAxisLength 0.112097  semiMinorAxisLength 0.0134934  semiIntermediateAxisLength 0.0586858  majorAxisPlunge 17.5613  majorAxisAzimuth 75.769  majorAxisRotation 15.5837
FOCALMECH  Hyp  5155.782837 694.334388 0.060125 Mech  0 0 0 mf  0 nObs -1
PHASE ID Ins Cmp On Pha  FM Date     HrMn   Sec     Err  ErrMag    Coda      Amp       Per       PriorWt  >   TTpred    Res       Weight    StaLoc(X  Y         Z)        SDist    SAzim  RAz  RDip RQual    Tcorr       TTerr
17           ?    N    ? P      ? 20180313 0000   48.3790 GAU  1.30e-02 -1.00e+00  8.55e+00  1.20e-02    8.5500 >    0.0990   -0.0016    0.7258  694.3461 5155.7815   -0.4621    0.0118  96.60  -1.0  -1.0  0     0.0000    0.0001
16           ?    N    ? P      ? 20180313 0000   48.3832 GAU  1.03e-02 -1.00e+00  9.50e+00  1.20e-02    9.5000 >    0.1031   -0.0015    0.7776  694.3452 5155.7921   -0.4642    0.0142  49.31  -1.0  -1.0  0     0.0000    0.0001
18           ?    N    ? P      ? 20180313 0000   48.3852 GAU  9.80e-03 -1.00e+00  7.73e+00  8.00e-03    7.7300 >    0.1005    0.0031    0.8492  694.3549 5155.7674   -0.4586    0.0257 126.96  -1.0  -1.0  0     0.0000    0.0001
15           ?    N    ? P      ? 20180313 0000   48.3940 GAU  6.86e-03 -1.00e+00  8.87e+00  8.00e-03    8.8700 >    0.1069    0.0055    1.0141  694.3206 5155.8107   -0.4609    0.0311 333.61  -1.0  -1.0  0     0.0000    0.0001
103          ?    N    ? P      ? 20180313 0000   48.4192 GAU  1.00e-02 -1.00e+00  7.30e+00  2.00e-02    7.3000 >    0.1156    0.0220    0.4962  694.3644 5155.7952   -0.4662    0.0324  67.61  -1.0  -1.0  0     0.0000    0.0001
12           ?    N    ? P      ? 20180313 0000   48.3925 GAU  8.82e-03 -1.00e+00  8.96e+00  8.00e-03    8.9600 >    0.1192   -0.0082    0.9071  694.3356 5155.8197   -0.4663    0.0369   1.93  -1.0  -1.0  0     0.0000    0.0001
20           ?    N    ? P      ? 20180313 0000   48.3898 GAU  1.05e-02 -1.00e+00  7.35e+00  1.20e-02    7.3500 >    0.1081    0.0001    1.1072  694.3609 5155.7515   -0.4553    0.0410 139.84  -1.0  -1.0  0     0.0000    0.0001
10           ?    N    ? P      ? 20180313 0000   48.4026 GAU  7.11e-03 -1.00e+00  7.55e+00  7.60e-02    7.5500 >    0.1319   -0.0108    0.9686  694.3329 5155.8329   -0.4673    0.0501 358.30  -1.0  -1.0  0     0.0000    0.0001
13           ?    N    ? P      ? 20180313 0000   48.4506 GAU  1.89e-02 -1.00e+00  7.93e+00  1.20e-02    7.9300 >    0.1331    0.0359    0.4925  694.3062 5155.8390   -0.4568    0.0629 333.38  -1.0  -1.0  0     0.0000    0.0001
8            ?    N    ? P      ? 20180313 0000   48.3999 GAU  1.27e-02 -1.00e+00  6.62e+00  1.20e-02    6.6200 >    0.1429   -0.0246    0.5968  694.3223 5155.8450   -0.4648    0.0633 349.00  -1.0  -1.0  0     0.0000    0.0001
6            ?    N    ? P      ? 20180313 0000   48.4401 GAU  1.27e-02 -1.00e+00  7.59e+00  1.20e-02    7.5900 >    0.1570    0.0015    1.3899  694.3446 5155.8502   -0.4728    0.0681   8.65  -1.0  -1.0  0     0.0000    0.0002
23           ?    N    ? P      ? 20180313 0000   48.4148 GAU  1.64e-02 -1.00e+00  7.15e+00  1.20e-02    7.1500 >    0.1318    0.0014    1.5236  694.3677 5155.7226   -0.4473    0.0689 151.08  -1.0  -1.0  0     0.0000    0.0001
25           ?    N    ? P      ? 20180313 0000   48.4106 GAU  1.32e-02 -1.00e+00  6.51e+00  8.00e-03    6.5100 >    0.1458   -0.0168    1.4597  694.3684 5155.7091   -0.4438    0.0812 155.21  -1.0  -1.0  0     0.0000    0.0001
5            ?    N    ? P      ? 20180313 0000   48.4464 GAU  2.21e-02 -1.00e+00  7.72e+00  1.60e-02    7.7200 >    0.1493    0.0155    1.3132  694.2898 5155.8520   -0.4475    0.0823 327.15  -1.0  -1.0  0     0.0000    0.0001
22           ?    N    ? P      ? 20180313 0000   48.4535 GAU  1.74e-02 -1.00e+00  6.86e+00  1.20e-02    6.8600 >    0.1556    0.0163    1.3785  694.3985 5155.7265   -0.4488    0.0853 131.28  -1.0  -1.0  0     0.0000    0.0002
END_PHASE
END_NLLOC

