NLLOC "./loc/RR.20180313.020537.grid0" "REJECTED" "WARNING: max prob location on grid boundary 31, rejecting location."
PUBLIC_ID None
SIGNATURE "   obs:./obs/nll_picks.obs   NLLoc:v7.00.10(30Aug2020)   run:29Apr2022 23h20m43"
COMMENT "Rattlesnake Ridge Slidequake Locations"
GRID  150 250 75  694.15 5155.4 0  0.002 0.002 0.002 PROB_DENSITY
SEARCH OCTREE nInitial 1000 nEvaluated 1752 smallestNodeSide 0.001863/0.003112/0.000925 oct_tree_integral 2.538140e-06 scatter_volume 2.538140e-06
HYPOCENTER  x 694.155 y 5155.7 z 0.147537  OT 37.2965  ix -1 iy -1 iz -1 MAXIMUM_LIKELIHOOD
GEOGRAPHIC  OT 2018 03 13  02 05 37.296529  Lat 5155.697244 Long 694.154656 Depth 0.147537
QUALITY  Pmax 2.28063e+196 MFmin 614.036 MFmax 614.777 RMS 0.00818642 Nphs 39 Gap 260.626 Dist 0.158297 Mamp  0.88 39 Mdur -9.90 0
VPVSRATIO  VpVsRatio -1  Npair 0  Diff -2e+30
STATISTICS  ExpectX 694.162203 Y 5155.695109 Z 0.136834  CovXX 8.24677e-05 XY -2.75119e-06 XZ 1.26007e-05 YY 1.57642e-05 YZ 1.37468e-05 ZZ 9.38356e-05 EllAz1  184.153 Dip1  10.2625 Len1  0.00679216 Az2  279.943 Dip2  29.1275 Len2  0.01636 Len3  1.908441e-02
STAT_GEOG  ExpectLat 5155.695109 Long 694.162203 Depth 0.136834
TRANSFORM  NONE
QML_OriginQuality  assocPhCt 39  usedPhCt 39  assocStaCt -1  usedStaCt 39  depthPhCt -1  stdErr 0.00818642  azGap 260.626  secAzGap 266.362  gtLevel -  minDist 0.158297 maxDist 0.304871 medDist 0.223734
QML_OriginUncertainty  horUnc -1  minHorUnc 0.00599976  maxHorUnc 0.0137817  azMaxHorUnc 92.3578
QML_ConfidenceEllipsoid  semiMajorAxisLength 0.0190844  semiMinorAxisLength 0.00679216  semiIntermediateAxisLength 0.01636  majorAxisPlunge 58.7794  majorAxisAzimuth 76.7722  majorAxisRotation 321.652
FOCALMECH  Hyp  5155.697244 694.154656 0.147537 Mech  0 0 0 mf  0 nObs -1
PHASE ID Ins Cmp On Pha  FM Date     HrMn   Sec     Err  ErrMag    Coda      Amp       Per       PriorWt  >   TTpred    Res       Weight    StaLoc(X  Y         Z)        SDist    SAzim  RAz  RDip RQual    Tcorr       TTerr
106          ?    N    ? P      ? 20180313 0205   37.7357 GAU  5.17e-03 -1.00e+00  9.32e+00  1.60e-02    9.3200 >    0.4001    0.0390    0.2296  694.3120 5155.6801   -0.4360    0.1583  96.23  -1.0  -1.0  0     0.0000    0.0004
9            ?    N    ? P      ? 20180313 0205   37.8523 GAU  8.05e-03 -1.00e+00  9.09e+00  1.20e-02    9.0900 >    0.4092    0.1466    0.0052  694.2594 5155.8351   -0.4296    0.1731  37.22  -1.0  -1.0  0     0.0000    0.0004
3            ?    N    ? P      ? 20180313 0205   37.8008 GAU  1.34e-02 -1.00e+00  6.66e+00  2.80e-02    6.6600 >    0.4110    0.0933    0.0075  694.2426 5155.8595   -0.4214    0.1845  28.47  -1.0  -1.0  0     0.0000    0.0004
15           ?    N    ? P      ? 20180313 0205   37.7987 GAU  5.58e-03 -1.00e+00  7.43e+00  1.20e-02    7.4300 >    0.4672    0.0350    0.1493  694.3206 5155.8107   -0.4609    0.2010  55.64  -1.0  -1.0  0     0.0000    0.0005
5            ?    N    ? P      ? 20180313 0205   37.8809 GAU  7.41e-03 -1.00e+00  8.33e+00  1.20e-02    8.3300 >    0.4581    0.1262    0.0031  694.2898 5155.8520   -0.4475    0.2054  41.13  -1.0  -1.0  0     0.0000    0.0005
13           ?    N    ? P      ? 20180313 0205   37.8340 GAU  1.41e-02 -1.00e+00  6.76e+00  1.20e-02    6.7600 >    0.4702    0.0673    0.0197  694.3062 5155.8390   -0.4568    0.2075  46.91  -1.0  -1.0  0     0.0000    0.0005
17           ?    N    ? P      ? 20180313 0205   37.7822 GAU  2.09e-03 -1.00e+00  8.51e+00  1.20e-02    8.5100 >    0.4736    0.0121    0.9002  694.3461 5155.7815   -0.4621    0.2092  66.26  -1.0  -1.0  0     0.0000    0.0005
1            ?    N    ? P      ? 20180313 0205   37.9170 GAU  1.48e-02 -1.00e+00  7.64e+00  1.20e-02    7.6400 >    0.4540    0.1665    0.0036  694.2735 5155.8721   -0.4381    0.2115  34.20  -1.0  -1.0  0     0.0000    0.0005
18           ?    N    ? P      ? 20180313 0205   37.7704 GAU  3.71e-03 -1.00e+00  8.59e+00  2.40e-02    8.5900 >    0.4712    0.0027    1.4526  694.3549 5155.7674   -0.4586    0.2122  70.69  -1.0  -1.0  0     0.0000    0.0005
16           ?    N    ? P      ? 20180313 0205   37.7822 GAU  4.88e-03 -1.00e+00  8.69e+00  8.00e-03    8.6900 >    0.4797    0.0060    1.4272  694.3452 5155.7921   -0.4642    0.2129  63.53  -1.0  -1.0  0     0.0000    0.0005
20           ?    N    ? P      ? 20180313 0205   37.7622 GAU  1.63e-03 -1.00e+00  8.66e+00  2.40e-02    8.6600 >    0.4676   -0.0019    1.4522  694.3609 5155.7515   -0.4553    0.2132  75.26  -1.0  -1.0  0     0.0000    0.0005
21           ?    N    ? P      ? 20180313 0205   37.7613 GAU  1.63e-03 -1.00e+00  8.21e+00  8.00e-03    8.2100 >    0.4641    0.0007    1.4076  694.3642 5155.7391   -0.4517    0.2137  78.70  -1.0  -1.0  0     0.0000    0.0005
25           ?    N    ? P      ? 20180313 0205   37.7745 GAU  5.11e-03 -1.00e+00  9.09e+00  2.80e-02    9.0900 >    0.4554    0.0225    0.2018  694.3684 5155.7091   -0.4438    0.2141  86.82  -1.0  -1.0  0     0.0000    0.0005
23           ?    N    ? P      ? 20180313 0205   37.7608 GAU  2.10e-03 -1.00e+00  9.95e+00  8.00e-03    9.9500 >    0.4596    0.0046    1.3544  694.3677 5155.7226   -0.4473    0.2145  83.22  -1.0  -1.0  0     0.0000    0.0005
12           ?    N    ? P      ? 20180313 0205   37.7891 GAU  3.60e-03 -1.00e+00  8.09e+00  8.00e-03    8.0900 >    0.4888    0.0038    1.8250  694.3356 5155.8197   -0.4663    0.2185  55.91  -1.0  -1.0  0     0.0000    0.0005
4            ?    N    ? P      ? 20180313 0205   37.8239 GAU  5.83e-03 -1.00e+00  7.57e+00  1.20e-02    7.5700 >    0.4826    0.0447    0.1245  694.3090 5155.8520   -0.4586    0.2186  44.92  -1.0  -1.0  0     0.0000    0.0005
105          ?    N    ? P      ? 20180313 0205   37.7466 GAU  6.89e-03 -1.00e+00  1.01e+01  1.20e-02   10.1000 >    0.4573   -0.0073    1.0557  694.3764 5155.6832   -0.4382    0.2222  93.61  -1.0  -1.0  0     0.0000    0.0005
28           ?    N    ? P      ? 20180313 0205   37.7578 GAU  2.79e-03 -1.00e+00  9.98e+00  8.00e-03    9.9800 >    0.4565    0.0048    1.4243  694.3767 5155.6745   -0.4362    0.2232  95.86  -1.0  -1.0  0     0.0000    0.0005
8            ?    N    ? P      ? 20180313 0205   37.7885 GAU  8.61e-03 -1.00e+00  6.79e+00  1.20e-02    6.7900 >    0.4934   -0.0015    1.7113  694.3223 5155.8450   -0.4648    0.2235  48.61  -1.0  -1.0  0     0.0000    0.0005
26           ?    N    ? P      ? 20180313 0205   37.7532 GAU  2.32e-03 -1.00e+00  8.88e+00  1.20e-02    8.8800 >    0.4606   -0.0040    1.2455  694.3783 5155.6910   -0.4400    0.2237  91.61  -1.0  -1.0  0     0.0000    0.0005
10           ?    N    ? P      ? 20180313 0205   37.7896 GAU  3.29e-03 -1.00e+00  7.66e+00  4.00e-02    7.6600 >    0.4956   -0.0025    1.9449  694.3329 5155.8329   -0.4673    0.2240  52.73  -1.0  -1.0  0     0.0000    0.0005
30           ?    N    ? P      ? 20180313 0205   37.7608 GAU  9.07e-03 -1.00e+00  8.77e+00  8.00e-03    8.7700 >    0.4555    0.0088    0.9309  694.3775 5155.6619   -0.4333    0.2256  99.01  -1.0  -1.0  0     0.0000    0.0005
32           ?    N    ? P      ? 20180313 0205   37.7462 GAU  6.07e-03 -1.00e+00  9.72e+00  8.00e-03    9.7200 >    0.4547   -0.0051    1.2447  694.3777 5155.6456   -0.4297    0.2289 103.04  -1.0  -1.0  0     0.0000    0.0005
103          ?    N    ? P      ? 20180313 0205   37.7707 GAU  4.60e-03 -1.00e+00  8.28e+00  1.20e-02    8.2800 >    0.4976   -0.0235    0.3441  694.3644 5155.7952   -0.4662    0.2315  64.96  -1.0  -1.0  0     0.0000    0.0005
2            ?    N    ? P      ? 20180313 0205   37.7800 GAU  8.33e-03 -1.00e+00  6.90e+00  4.80e-02    6.9000 >    0.4995   -0.0160    1.1579  694.3150 5155.8647   -0.4623    0.2318  43.76  -1.0  -1.0  0     0.0000    0.0005
33           ?    N    ? P      ? 20180313 0205   37.7523 GAU  5.60e-03 -1.00e+00  9.27e+00  1.20e-02    9.2700 >    0.4550    0.0008    1.6076  694.3775 5155.6293   -0.4252    0.2330 106.95  -1.0  -1.0  0     0.0000    0.0005
35           ?    N    ? P      ? 20180313 0205   37.7695 GAU  4.21e-03 -1.00e+00  9.63e+00  1.20e-02    9.6300 >    0.4603    0.0127    0.8037  694.3818 5155.6141   -0.4216    0.2418 110.10  -1.0  -1.0  0     0.0000    0.0005
6            ?    N    ? P      ? 20180313 0205   37.8161 GAU  6.32e-03 -1.00e+00  7.96e+00  1.20e-02    7.9600 >    0.5199   -0.0003    2.0192  694.3446 5155.8502   -0.4728    0.2439  51.17  -1.0  -1.0  0     0.0000    0.0005
22           ?    N    ? P      ? 20180313 0205   37.7718 GAU  5.58e-03 -1.00e+00  7.86e+00  1.20e-02    7.8600 >    0.4906   -0.0153    0.7019  694.3985 5155.7265   -0.4488    0.2456  83.15  -1.0  -1.0  0     0.0000    0.0005
27           ?    N    ? P      ? 20180313 0205   37.7685 GAU  2.32e-03 -1.00e+00  7.38e+00  2.00e-02    7.3800 >    0.4839   -0.0119    0.6516  694.4008 5155.6912   -0.4412    0.2462  91.40  -1.0  -1.0  0     0.0000    0.0005
36           ?    N    ? P      ? 20180313 0205   37.7667 GAU  3.74e-03 -1.00e+00  8.29e+00  1.20e-02    8.2900 >    0.4697    0.0004    2.0963  694.3865 5155.5904   -0.4164    0.2553 114.75  -1.0  -1.0  0     0.0000    0.0005
31           ?    N    ? P      ? 20180313 0205   37.7699 GAU  2.32e-03 -1.00e+00  8.10e+00  2.40e-02    8.1000 >    0.4887   -0.0154    0.5209  694.4086 5155.6503   -0.4335    0.2583 100.46  -1.0  -1.0  0     0.0000    0.0005
38           ?    N    ? P      ? 20180313 0205   37.7665 GAU  6.77e-03 -1.00e+00  7.31e+00  1.20e-02    7.3100 >    0.4819   -0.0119    1.0296  694.3902 5155.5681   -0.4123    0.2686 118.74  -1.0  -1.0  0     0.0000    0.0005
34           ?    N    ? P      ? 20180313 0205   37.7833 GAU  4.43e-03 -1.00e+00  8.34e+00  1.20e-02    8.3400 >    0.4984   -0.0116    0.7712  694.4145 5155.6153   -0.4263    0.2725 107.51  -1.0  -1.0  0     0.0000    0.0005
39           ?    N    ? P      ? 20180313 0205   37.7920 GAU  6.07e-03 -1.00e+00  7.87e+00  4.00e-02    7.8700 >    0.4865    0.0090    1.4569  694.3890 5155.5532   -0.4086    0.2751 121.58  -1.0  -1.0  0     0.0000    0.0005
41           ?    N    ? P      ? 20180313 0205   37.7983 GAU  8.04e-03 -1.00e+00  7.33e+00  1.20e-02    7.3300 >    0.4944    0.0073    1.5925  694.3901 5155.5386   -0.4053    0.2839 123.97  -1.0  -1.0  0     0.0000    0.0005
37           ?    N    ? P      ? 20180313 0205   37.8106 GAU  1.45e-02 -1.00e+00  7.71e+00  8.00e-03    7.7100 >    0.5136    0.0005    1.1845  694.4219 5155.5876   -0.4220    0.2889 112.31  -1.0  -1.0  0     0.0000    0.0005
42           ?    N    ? P      ? 20180313 0205   37.7954 GAU  1.55e-02 -1.00e+00  6.46e+00  1.20e-02    6.4600 >    0.5022   -0.0033    1.3758  694.3873 5155.5165   -0.3983    0.2946 127.84  -1.0  -1.0  0     0.0000    0.0005
40           ?    N    ? P      ? 20180313 0205   37.8144 GAU  8.05e-03 -1.00e+00  7.94e+00  1.20e-02    7.9400 >    0.5263   -0.0084    1.5656  694.4169 5155.5417   -0.4131    0.3049 120.67  -1.0  -1.0  0     0.0000    0.0005
END_PHASE
END_NLLOC

