NLLOC "./loc/RR.20180313.020902.grid0" "REJECTED" "WARNING: max prob location on grid boundary 31, rejecting location."
PUBLIC_ID None
SIGNATURE "   obs:./obs/nll_picks.obs   NLLoc:v7.00.10(30Aug2020)   run:29Apr2022 23h20m48"
COMMENT "Rattlesnake Ridge Slidequake Locations"
GRID  150 250 75  694.15 5155.4 0  0.002 0.002 0.002 PROB_DENSITY
SEARCH OCTREE nInitial 1000 nEvaluated 1776 smallestNodeSide 0.001863/0.003112/0.000925 oct_tree_integral 2.278744e-06 scatter_volume 2.278744e-06
HYPOCENTER  x 694.366 y 5155.74 z 0.1443  OT 2.70461  ix -1 iy -1 iz -1 MAXIMUM_LIKELIHOOD
GEOGRAPHIC  OT 2018 03 13  02 09 2.704607  Lat 5155.736150 Long 694.366050 Depth 0.144300
QUALITY  Pmax 6.69682e+126 MFmin 294.255 MFmax 294.285 RMS 0.00936087 Nphs 28 Gap 108.125 Dist 0.00352107 Mamp  0.61 28 Mdur -9.90 0
VPVSRATIO  VpVsRatio -1  Npair 0  Diff -2e+30
STATISTICS  ExpectX 694.346028 Y 5155.731981 Z 0.137811  CovXX 0.0020563 XY 0.00024427 XZ 9.56419e-05 YY 6.04714e-05 YZ 1.72594e-05 ZZ 6.94108e-05 EllAz1  173.565 Dip1  9.28711 Len1  0.0103046 Az2  336.791 Dip2  80.3078 Len2  0.0152269 Len3  8.590212e-02
STAT_GEOG  ExpectLat 5155.731981 Long 694.346028 Depth 0.137811
TRANSFORM  NONE
QML_OriginQuality  assocPhCt 28  usedPhCt 28  assocStaCt -1  usedStaCt 28  depthPhCt -1  stdErr 0.00936087  azGap 108.125  secAzGap 143.912  gtLevel -  minDist 0.00352107 maxDist 0.158714 medDist 0.0764967
QML_OriginUncertainty  horUnc -1  minHorUnc 0.00844529  maxHorUnc 0.0692622  azMaxHorUnc 83.1228
QML_ConfidenceEllipsoid  semiMajorAxisLength 0.0859021  semiMinorAxisLength 0.0103046  semiIntermediateAxisLength 0.0152269  majorAxisPlunge 2.74845  majorAxisAzimuth 83.1152  majorAxisRotation 9.3401
FOCALMECH  Hyp  5155.736150 694.366050 0.144300 Mech  0 0 0 mf  0 nObs -1
PHASE ID Ins Cmp On Pha  FM Date     HrMn   Sec     Err  ErrMag    Coda      Amp       Per       PriorWt  >   TTpred    Res       Weight    StaLoc(X  Y         Z)        SDist    SAzim  RAz  RDip RQual    Tcorr       TTerr
21           ?    N    ? P      ? 20180313 0209    2.9212 GAU  7.64e-03 -1.00e+00  7.47e+00  1.20e-02    7.4700 >    0.2169   -0.0003    1.0614  694.3642 5155.7391   -0.4517    0.0035 327.63  -1.0  -1.0  0     0.0000    0.0002
23           ?    N    ? P      ? 20180313 0209    2.9234 GAU  6.19e-03 -1.00e+00  8.57e+00  8.00e-03    8.5700 >    0.2112    0.0076    0.7848  694.3677 5155.7226   -0.4473    0.0137 173.11  -1.0  -1.0  0     0.0000    0.0002
20           ?    N    ? P      ? 20180313 0209    2.9270 GAU  6.19e-03 -1.00e+00  6.94e+00  1.20e-02    6.9400 >    0.2233   -0.0009    1.1973  694.3609 5155.7515   -0.4553    0.0162 341.26  -1.0  -1.0  0     0.0000    0.0002
25           ?    N    ? P      ? 20180313 0209    2.9255 GAU  4.00e-03 -1.00e+00  9.10e+00  2.40e-02    9.1000 >    0.2090    0.0119    0.5317  694.3684 5155.7091   -0.4438    0.0271 174.97  -1.0  -1.0  0     0.0000    0.0002
18           ?    N    ? P      ? 20180313 0209    2.9292 GAU  5.46e-03 -1.00e+00  7.09e+00  8.00e-03    7.0900 >    0.2327   -0.0081    1.2738  694.3549 5155.7674   -0.4586    0.0332 340.35  -1.0  -1.0  0     0.0000    0.0002
22           ?    N    ? P      ? 20180313 0209    2.9517 GAU  9.83e-03 -1.00e+00  7.65e+00  8.00e-03    7.6500 >    0.2187    0.0284    0.1245  694.3985 5155.7265   -0.4488    0.0338 106.49  -1.0  -1.0  0     0.0000    0.0002
26           ?    N    ? P      ? 20180313 0209    2.9212 GAU  4.73e-03 -1.00e+00  8.39e+00  1.20e-02    8.3900 >    0.2118    0.0048    1.0048  694.3783 5155.6910   -0.4400    0.0468 164.83  -1.0  -1.0  0     0.0000    0.0002
17           ?    N    ? P      ? 20180313 0209    2.9481 GAU  4.73e-03 -1.00e+00  7.11e+00  1.20e-02    7.1100 >    0.2437   -0.0002    1.7097  694.3461 5155.7815   -0.4621    0.0495 336.29  -1.0  -1.0  0     0.0000    0.0002
105          ?    N    ? P      ? 20180313 0209    2.9245 GAU  5.09e-03 -1.00e+00  9.32e+00  8.00e-03    9.3200 >    0.2129    0.0070    0.9698  694.3764 5155.6832   -0.4382    0.0539 168.93  -1.0  -1.0  0     0.0000    0.0002
27           ?    N    ? P      ? 20180313 0209    2.9536 GAU  4.36e-03 -1.00e+00  7.53e+00  8.00e-03    7.5300 >    0.2183    0.0307    0.0336  694.4008 5155.6912   -0.4412    0.0568 142.27  -1.0  -1.0  0     0.0000    0.0002
103          ?    N    ? P      ? 20180313 0209    2.9463 GAU  4.36e-03 -1.00e+00  6.97e+00  2.80e-02    6.9700 >    0.2537   -0.0120    1.2619  694.3644 5155.7952   -0.4662    0.0591 358.36  -1.0  -1.0  0     0.0000    0.0003
16           ?    N    ? P      ? 20180313 0209    2.9576 GAU  9.10e-03 -1.00e+00  7.19e+00  1.20e-02    7.1900 >    0.2515    0.0015    1.5921  694.3452 5155.7921   -0.4642    0.0597 339.56  -1.0  -1.0  0     0.0000    0.0003
28           ?    N    ? P      ? 20180313 0209    2.9201 GAU  3.64e-03 -1.00e+00  8.78e+00  8.00e-03    8.7800 >    0.2156   -0.0002    1.4025  694.3767 5155.6745   -0.4362    0.0626 170.22  -1.0  -1.0  0     0.0000    0.0002
30           ?    N    ? P      ? 20180313 0209    2.9248 GAU  4.73e-03 -1.00e+00  7.69e+00  1.20e-02    7.6900 >    0.2206   -0.0004    1.4478  694.3775 5155.6619   -0.4333    0.0751 171.25  -1.0  -1.0  0     0.0000    0.0002
106          ?    N    ? P      ? 20180313 0209    2.9208 GAU  2.91e-03 -1.00e+00  8.39e+00  1.20e-02    8.3900 >    0.2257   -0.0095    1.5307  694.3120 5155.6801   -0.4360    0.0779 223.93  -1.0  -1.0  0     0.0000    0.0002
15           ?    N    ? P      ? 20180313 0209    2.9616 GAU  1.09e-02 -1.00e+00  6.32e+00  1.20e-02    6.3200 >    0.2633   -0.0063    1.5895  694.3206 5155.8107   -0.4609    0.0873 328.61  -1.0  -1.0  0     0.0000    0.0003
12           ?    N    ? P      ? 20180313 0209    2.9452 GAU  1.42e-02 -1.00e+00  6.83e+00  1.20e-02    6.8300 >    0.2717   -0.0311    0.4491  694.3356 5155.8197   -0.4663    0.0889 340.00  -1.0  -1.0  0     0.0000    0.0003
32           ?    N    ? P      ? 20180313 0209    2.9284 GAU  4.73e-03 -1.00e+00  8.35e+00  8.00e-03    8.3500 >    0.2299   -0.0061    1.7167  694.3777 5155.6456   -0.4297    0.0913 172.68  -1.0  -1.0  0     0.0000    0.0002
31           ?    N    ? P      ? 20180313 0209    2.9488 GAU  8.37e-03 -1.00e+00  7.40e+00  5.60e-02    7.4000 >    0.2379    0.0063    1.3525  694.4086 5155.6503   -0.4335    0.0958 153.61  -1.0  -1.0  0     0.0000    0.0002
10           ?    N    ? P      ? 20180313 0209    2.9514 GAU  1.46e-02 -1.00e+00  6.33e+00  1.20e-02    6.3300 >    0.2828   -0.0360    0.3624  694.3329 5155.8329   -0.4673    0.1023 341.09  -1.0  -1.0  0     0.0000    0.0003
33           ?    N    ? P      ? 20180313 0209    2.9346 GAU  5.09e-03 -1.00e+00  7.64e+00  1.20e-02    7.6400 >    0.2397   -0.0097    1.6480  694.3775 5155.6293   -0.4252    0.1074 173.87  -1.0  -1.0  0     0.0000    0.0002
6            ?    N    ? P      ? 20180313 0209    3.2700 GAU  3.75e-02 -1.00e+00  6.55e+00  5.20e-02    6.5500 >    0.3011    0.2643    0.0189  694.3446 5155.8502   -0.4728    0.1160 349.36  -1.0  -1.0  0     0.0000    0.0003
35           ?    N    ? P      ? 20180313 0209    2.9172 GAU  3.71e-02 -1.00e+00  8.01e+00  8.00e-03    8.0100 >    0.2522   -0.0396    0.5722  694.3818 5155.6141   -0.4216    0.1230 172.66  -1.0  -1.0  0     0.0000    0.0003
34           ?    N    ? P      ? 20180313 0209    2.9077 GAU  1.16e-02 -1.00e+00  6.90e+00  1.20e-02    6.9000 >    0.2648   -0.0617    0.0926  694.4145 5155.6153   -0.4263    0.1302 158.15  -1.0  -1.0  0     0.0000    0.0003
5            ?    N    ? P      ? 20180313 0209    3.3140 GAU  2.91e-02 -1.00e+00  7.51e+00  1.20e-02    7.5100 >    0.2909    0.3185    0.0057  694.2898 5155.8520   -0.4475    0.1387 326.63  -1.0  -1.0  0     0.0000    0.0003
7            ?    N    ? P      ? 20180313 0209    3.2300 GAU  3.71e-02 -1.00e+00  6.99e+00  8.00e-03    6.9900 >    0.2860    0.2394    0.0141  694.2704 5155.8450   -0.4359    0.1449 318.70  -1.0  -1.0  0     0.0000    0.0003
9            ?    N    ? P      ? 20180313 0209    2.9903 GAU  6.92e-03 -1.00e+00  7.83e+00  1.20e-02    7.8300 >    0.2803    0.0054    3.0337  694.2594 5155.8351   -0.4296    0.1455 312.84  -1.0  -1.0  0     0.0000    0.0003
37           ?    N    ? P      ? 20180313 0209    2.9787 GAU  2.07e-02 -1.00e+00  6.86e+00  8.00e-03    6.8600 >    0.2938   -0.0197    1.2183  694.4219 5155.5876   -0.4220    0.1587 159.39  -1.0  -1.0  0     0.0000    0.0003
END_PHASE
END_NLLOC

