NLLOC "./loc/RR.20180313.013218.grid0" "REJECTED" "WARNING: max prob location on grid boundary 10, rejecting location."
PUBLIC_ID None
SIGNATURE "   obs:./obs/nll_picks.obs   NLLoc:v7.00.10(30Aug2020)   run:29Apr2022 23h20m14"
COMMENT "Rattlesnake Ridge Slidequake Locations"
GRID  150 250 75  694.15 5155.4 0  0.002 0.002 0.002 PROB_DENSITY
SEARCH OCTREE nInitial 1000 nEvaluated 2760 smallestNodeSide 0.001863/0.003112/0.000925 oct_tree_integral 8.842041e-06 scatter_volume 8.827953e-06
HYPOCENTER  x 694.151 y 5155.63 z 0.145687  OT 18.0968  ix -1 iy -1 iz -1 MAXIMUM_LIKELIHOOD
GEOGRAPHIC  OT 2018 03 13  01 32 18.096823  Lat 5155.634994 Long 694.150931 Depth 0.145687
QUALITY  Pmax 1.74932e+134 MFmin 331.671 MFmax 331.874 RMS 0.0065985 Nphs 28 Gap 285.372 Dist 0.16727 Mamp  0.88 28 Mdur -9.90 0
VPVSRATIO  VpVsRatio -1  Npair 0  Diff -2e+30
STATISTICS  ExpectX 694.166740 Y 5155.636156 Z 0.128270  CovXX 0.000177156 XY 3.31363e-05 XZ 3.27191e-05 YY 3.82989e-05 YZ 3.58019e-05 ZZ 0.00031317 EllAz1  168.709 Dip1  5.74773 Len1  0.00994331 Az2  260.293 Dip2  15.3519 Len2  0.0247629 Len3  3.397021e-02
STAT_GEOG  ExpectLat 5155.636156 Long 694.166740 Depth 0.128270
TRANSFORM  NONE
QML_OriginQuality  assocPhCt 28  usedPhCt 28  assocStaCt -1  usedStaCt 28  depthPhCt -1  stdErr 0.0065985  azGap 285.372  secAzGap 294.41  gtLevel -  minDist 0.16727 maxDist 0.289515 medDist 0.243618
QML_OriginUncertainty  horUnc -1  minHorUnc 0.0084162  maxHorUnc 0.0206086  azMaxHorUnc 77.2431
QML_ConfidenceEllipsoid  semiMajorAxisLength 0.0339702  semiMinorAxisLength 0.00994331  semiIntermediateAxisLength 0.0247629  majorAxisPlunge 73.5574  majorAxisAzimuth 58.7678  majorAxisRotation 335.75
FOCALMECH  Hyp  5155.634994 694.150931 0.145687 Mech  0 0 0 mf  0 nObs -1
PHASE ID Ins Cmp On Pha  FM Date     HrMn   Sec     Err  ErrMag    Coda      Amp       Per       PriorWt  >   TTpred    Res       Weight    StaLoc(X  Y         Z)        SDist    SAzim  RAz  RDip RQual    Tcorr       TTerr
106          ?    N    ? P      ? 20180313 0132   18.5893 GAU  7.88e-03 -1.00e+00  7.95e+00  8.00e-03    7.9500 >    0.4137    0.0788    0.0018  694.3120 5155.6801   -0.4360    0.1673  74.37  -1.0  -1.0  0     0.0000    0.0004
33           ?    N    ? P      ? 20180313 0132   18.5464 GAU  7.17e-03 -1.00e+00  9.24e+00  1.60e-02    9.2400 >    0.4545   -0.0049    0.9758  694.3775 5155.6293   -0.4252    0.2267  91.43  -1.0  -1.0  0     0.0000    0.0005
32           ?    N    ? P      ? 20180313 0132   18.5557 GAU  6.37e-03 -1.00e+00  9.81e+00  2.80e-02    9.8100 >    0.4592   -0.0003    1.0319  694.3777 5155.6456   -0.4297    0.2270  87.33  -1.0  -1.0  0     0.0000    0.0005
30           ?    N    ? P      ? 20180313 0132   18.5592 GAU  6.11e-03 -1.00e+00  9.70e+00  4.80e-02    9.7000 >    0.4641   -0.0017    1.0180  694.3775 5155.6619   -0.4333    0.2281  83.22  -1.0  -1.0  0     0.0000    0.0005
28           ?    N    ? P      ? 20180313 0132   18.5674 GAU  6.90e-03 -1.00e+00  9.16e+00  8.00e-03    9.1600 >    0.4682    0.0024    0.9249  694.3767 5155.6745   -0.4362    0.2292  80.08  -1.0  -1.0  0     0.0000    0.0005
25           ?    N    ? P      ? 20180313 0132   18.5915 GAU  8.48e-03 -1.00e+00  8.32e+00  8.00e-03    8.3200 >    0.4770    0.0176    0.4159  694.3684 5155.7091   -0.4438    0.2298  71.18  -1.0  -1.0  0     0.0000    0.0005
105          ?    N    ? P      ? 20180313 0132   18.5734 GAU  3.31e-03 -1.00e+00  9.35e+00  1.20e-02    9.3500 >    0.4713    0.0052    0.9223  694.3764 5155.6832   -0.4382    0.2306  77.92  -1.0  -1.0  0     0.0000    0.0005
35           ?    N    ? P      ? 20180313 0132   18.5597 GAU  4.52e-03 -1.00e+00  9.53e+00  1.20e-02    9.5300 >    0.4560    0.0069    1.0760  694.3818 5155.6141   -0.4216    0.2318  95.17  -1.0  -1.0  0     0.0000    0.0005
23           ?    N    ? P      ? 20180313 0132   18.5900 GAU  5.40e-03 -1.00e+00  8.70e+00  8.00e-03    8.7000 >    0.4848    0.0083    0.8918  694.3677 5155.7226   -0.4473    0.2338  68.00  -1.0  -1.0  0     0.0000    0.0005
26           ?    N    ? P      ? 20180313 0132   18.5780 GAU  5.78e-03 -1.00e+00  8.72e+00  1.20e-02    8.7200 >    0.4768    0.0043    0.9258  694.3783 5155.6910   -0.4400    0.2342  76.17  -1.0  -1.0  0     0.0000    0.0005
21           ?    N    ? P      ? 20180313 0132   18.5896 GAU  5.79e-03 -1.00e+00  7.60e+00  2.40e-02    7.6000 >    0.4933   -0.0005    1.3849  694.3642 5155.7391   -0.4517    0.2373  63.97  -1.0  -1.0  0     0.0000    0.0005
36           ?    N    ? P      ? 20180313 0132   18.5549 GAU  6.64e-03 -1.00e+00  7.99e+00  1.20e-02    7.9900 >    0.4591   -0.0011    1.2733  694.3865 5155.5904   -0.4164    0.2398 100.73  -1.0  -1.0  0     0.0000    0.0005
20           ?    N    ? P      ? 20180313 0132   18.5865 GAU  5.79e-03 -1.00e+00  6.99e+00  1.20e-02    6.9900 >    0.4999   -0.0102    0.9576  694.3609 5155.7515   -0.4553    0.2401  60.97  -1.0  -1.0  0     0.0000    0.0005
18           ?    N    ? P      ? 20180313 0132   18.5946 GAU  6.94e-03 -1.00e+00  6.59e+00  2.80e-02    6.5900 >    0.5070   -0.0092    1.1107  694.3549 5155.7674   -0.4586    0.2432  57.01  -1.0  -1.0  0     0.0000    0.0005
17           ?    N    ? P      ? 20180313 0132   18.6089 GAU  5.01e-03 -1.00e+00  7.15e+00  1.20e-02    7.1500 >    0.5129   -0.0009    1.9388  694.3461 5155.7815   -0.4621    0.2441  53.12  -1.0  -1.0  0     0.0000    0.0005
38           ?    N    ? P      ? 20180313 0132   18.5629 GAU  6.64e-03 -1.00e+00  7.30e+00  2.80e-02    7.3000 >    0.4657    0.0004    1.4644  694.3902 5155.5681   -0.4123    0.2484 105.62  -1.0  -1.0  0     0.0000    0.0005
16           ?    N    ? P      ? 20180313 0132   18.6239 GAU  9.25e-03 -1.00e+00  7.10e+00  8.00e-03    7.1000 >    0.5210    0.0061    1.4920  694.3452 5155.7921   -0.4642    0.2499  51.03  -1.0  -1.0  0     0.0000    0.0005
39           ?    N    ? P      ? 20180313 0132   18.5602 GAU  5.05e-03 -1.00e+00  7.84e+00  1.20e-02    7.8400 >    0.4662   -0.0029    1.7162  694.3890 5155.5532   -0.4086    0.2518 108.97  -1.0  -1.0  0     0.0000    0.0005
27           ?    N    ? P      ? 20180313 0132   18.5877 GAU  5.40e-03 -1.00e+00  8.10e+00  8.00e-03    8.1000 >    0.4998   -0.0090    0.8239  694.4008 5155.6912   -0.4412    0.2561  77.31  -1.0  -1.0  0     0.0000    0.0005
41           ?    N    ? P      ? 20180313 0132   18.5863 GAU  1.51e-02 -1.00e+00  6.97e+00  8.00e-03    6.9700 >    0.4703    0.0191    0.7499  694.3901 5155.5386   -0.4053    0.2579 111.94  -1.0  -1.0  0     0.0000    0.0005
31           ?    N    ? P      ? 20180313 0132   18.5834 GAU  1.06e-02 -1.00e+00  7.83e+00  5.20e-02    7.8300 >    0.4948   -0.0082    0.7180  694.4086 5155.6503   -0.4335    0.2582  86.59  -1.0  -1.0  0     0.0000    0.0005
22           ?    N    ? P      ? 20180313 0132   18.6251 GAU  5.79e-03 -1.00e+00  7.71e+00  8.00e-03    7.7100 >    0.5158    0.0125    0.6342  694.3985 5155.7265   -0.4488    0.2640  69.71  -1.0  -1.0  0     0.0000    0.0005
34           ?    N    ? P      ? 20180313 0132   18.5831 GAU  7.17e-03 -1.00e+00  7.55e+00  1.20e-02    7.5500 >    0.4958   -0.0095    0.8398  694.4145 5155.6153   -0.4263    0.2643  94.28  -1.0  -1.0  0     0.0000    0.0005
42           ?    N    ? P      ? 20180313 0132   18.6033 GAU  1.41e-02 -1.00e+00  6.18e+00  1.20e-02    6.1800 >    0.4730    0.0335    0.2580  694.3873 5155.5165   -0.3983    0.2644 116.62  -1.0  -1.0  0     0.0000    0.0005
103          ?    N    ? P      ? 20180313 0132   18.6120 GAU  1.20e-02 -1.00e+00  6.96e+00  1.20e-02    6.9600 >    0.5386   -0.0234    0.4442  694.3644 5155.7952   -0.4662    0.2669  53.11  -1.0  -1.0  0     0.0000    0.0005
37           ?    N    ? P      ? 20180313 0132   18.5985 GAU  1.89e-02 -1.00e+00  7.34e+00  1.20e-02    7.3400 >    0.5038   -0.0022    0.8217  694.4219 5155.5876   -0.4220    0.2751  99.92  -1.0  -1.0  0     0.0000    0.0005
40           ?    N    ? P      ? 20180313 0132   18.6006 GAU  6.11e-03 -1.00e+00  7.61e+00  1.20e-02    7.6100 >    0.5054   -0.0016    1.8707  694.4169 5155.5417   -0.4131    0.2818 109.33  -1.0  -1.0  0     0.0000    0.0005
6            ?    N    ? P      ? 20180313 0132   18.6702 GAU  1.93e-02 -1.00e+00  6.36e+00  2.00e-02    6.3600 >    0.5712    0.0022    1.3175  694.3446 5155.8502   -0.4728    0.2895  41.99  -1.0  -1.0  0     0.0000    0.0006
END_PHASE
END_NLLOC

