NLLOC "./loc/RR.20180313.003008.grid0" "REJECTED" "WARNING: max prob location on grid boundary 31, rejecting location."
PUBLIC_ID None
SIGNATURE "   obs:./obs/nll_picks.obs   NLLoc:v7.00.10(30Aug2020)   run:29Apr2022 23h19m13"
COMMENT "Rattlesnake Ridge Slidequake Locations"
GRID  150 250 75  694.15 5155.4 0  0.002 0.002 0.002 PROB_DENSITY
SEARCH OCTREE nInitial 1000 nEvaluated 17640 smallestNodeSide 0.001863/0.003112/0.000925 oct_tree_integral 1.232768e-04 scatter_volume 1.232768e-04
HYPOCENTER  x 694.395 y 5155.63 z 0.147537  OT 7.88247  ix -1 iy -1 iz -1 MAXIMUM_LIKELIHOOD
GEOGRAPHIC  OT 2018 03 13  00 30 7.882471  Lat 5155.625656 Long 694.394919 Depth 0.147537
QUALITY  Pmax 5.66268e+53 MFmin 90.4324 MFmax 90.444 RMS 0.143811 Nphs 17 Gap 132.182 Dist 0.0174962 Mamp  0.58 17 Mdur -9.90 0
VPVSRATIO  VpVsRatio -1  Npair 0  Diff -2e+30
STATISTICS  ExpectX 694.351527 Y 5155.611746 Z 0.109447  CovXX 0.00396657 XY 0.00105215 XZ 0.000570297 YY 0.000392255 YZ 0.000237931 ZZ 0.00103764 EllAz1  165.549 Dip1  5.35585 Len1  0.0186067 Az2  282.32 Dip2  78.2423 Len2  0.0573654 Len3  1.241472e-01
STAT_GEOG  ExpectLat 5155.611746 Long 694.351527 Depth 0.109447
TRANSFORM  NONE
QML_OriginQuality  assocPhCt 17  usedPhCt 17  assocStaCt -1  usedStaCt 17  depthPhCt -1  stdErr 0.143811  azGap 132.182  secAzGap 158.911  gtLevel -  minDist 0.0174962 maxDist 0.100649 medDist 0.057739
QML_OriginUncertainty  horUnc -1  minHorUnc 0.0155803  maxHorUnc 0.0989068  azMaxHorUnc 74.7568
QML_ConfidenceEllipsoid  semiMajorAxisLength 0.124147  semiMinorAxisLength 0.0186067  semiIntermediateAxisLength 0.0573654  majorAxisPlunge 10.436  majorAxisAzimuth 74.5596  majorAxisRotation 5.82615
FOCALMECH  Hyp  5155.625656 694.394919 0.147537 Mech  0 0 0 mf  0 nObs -1
PHASE ID Ins Cmp On Pha  FM Date     HrMn   Sec     Err  ErrMag    Coda      Amp       Per       PriorWt  >   TTpred    Res       Weight    StaLoc(X  Y         Z)        SDist    SAzim  RAz  RDip RQual    Tcorr       TTerr
35           ?    N    ? P      ? 20180313 0030    8.8400 GAU  1.24e-02 -1.00e+00  9.36e+00  8.00e-03    9.3600 >    0.2151    0.7424    0.0415  694.3818 5155.6141   -0.4216    0.0175 228.73  -1.0  -1.0  0     0.0000    0.0002
33           ?    N    ? P      ? 20180313 0030    8.8740 GAU  1.48e-02 -1.00e+00  8.48e+00  8.00e-03    8.4800 >    0.2208    0.7707    0.0349  694.3775 5155.6293   -0.4252    0.0178 281.91  -1.0  -1.0  0     0.0000    0.0002
34           ?    N    ? P      ? 20180313 0030    8.1235 GAU  2.32e-02 -1.00e+00  6.85e+00  1.20e-02    6.8500 >    0.2229    0.0182    1.3333  694.4145 5155.6153   -0.4263    0.0222 117.91  -1.0  -1.0  0     0.0000    0.0002
32           ?    N    ? P      ? 20180313 0030    8.8150 GAU  1.48e-02 -1.00e+00  8.57e+00  1.20e-02    8.5700 >    0.2288    0.7038    0.1164  694.3777 5155.6456   -0.4297    0.0263 319.13  -1.0  -1.0  0     0.0000    0.0002
36           ?    N    ? P      ? 20180313 0030    8.8200 GAU  1.63e-02 -1.00e+00  7.60e+00  1.20e-02    7.6000 >    0.2130    0.7245    0.1414  694.3865 5155.5904   -0.4164    0.0363 193.38  -1.0  -1.0  0     0.0000    0.0002
30           ?    N    ? P      ? 20180313 0030    8.1052 GAU  1.58e-02 -1.00e+00  7.17e+00  2.40e-02    7.1700 >    0.2386   -0.0158    1.1625  694.3775 5155.6619   -0.4333    0.0402 334.30  -1.0  -1.0  0     0.0000    0.0002
37           ?    N    ? P      ? 20180313 0030    8.1201 GAU  4.55e-02 -1.00e+00  7.07e+00  8.00e-03    7.0700 >    0.2250    0.0127    1.3543  694.4219 5155.5876   -0.4220    0.0467 144.64  -1.0  -1.0  0     0.0000    0.0002
28           ?    N    ? P      ? 20180313 0030    8.1453 GAU  1.63e-02 -1.00e+00  7.28e+00  8.00e-03    7.2800 >    0.2476    0.0153    1.2458  694.3767 5155.6745   -0.4362    0.0521 339.51  -1.0  -1.0  0     0.0000    0.0002
38           ?    N    ? P      ? 20180313 0030    8.9240 GAU  2.08e-02 -1.00e+00  7.24e+00  1.20e-02    7.2400 >    0.2175    0.8240    0.0220  694.3902 5155.5681   -0.4123    0.0577 184.73  -1.0  -1.0  0     0.0000    0.0002
105          ?    N    ? P      ? 20180313 0030    8.1339 GAU  2.08e-02 -1.00e+00  7.97e+00  1.20e-02    7.9700 >    0.2542   -0.0028    1.4300  694.3764 5155.6832   -0.4382    0.0605 342.17  -1.0  -1.0  0     0.0000    0.0003
26           ?    N    ? P      ? 20180313 0030    8.1235 GAU  6.68e-02 -1.00e+00  6.49e+00  4.40e-02    6.4900 >    0.2608   -0.0198    0.6495  694.3783 5155.6910   -0.4400    0.0674 345.73  -1.0  -1.0  0     0.0000    0.0003
39           ?    N    ? P      ? 20180313 0030    8.9730 GAU  1.78e-02 -1.00e+00  7.10e+00  1.20e-02    7.1000 >    0.2224    0.8682    0.0026  694.3890 5155.5532   -0.4086    0.0727 184.65  -1.0  -1.0  0     0.0000    0.0002
40           ?    N    ? P      ? 20180313 0030    8.1146 GAU  3.12e-02 -1.00e+00  6.99e+00  1.20e-02    6.9900 >    0.2390   -0.0069    2.3588  694.4169 5155.5417   -0.4131    0.0868 165.34  -1.0  -1.0  0     0.0000    0.0002
41           ?    N    ? P      ? 20180313 0030    8.1107 GAU  1.73e-02 -1.00e+00  6.71e+00  4.40e-02    6.7100 >    0.2297   -0.0015    2.9117  694.3901 5155.5386   -0.4053    0.0872 183.17  -1.0  -1.0  0     0.0000    0.0002
25           ?    N    ? P      ? 20180313 0030    8.1764 GAU  3.07e-02 -1.00e+00  7.07e+00  1.20e-02    7.0700 >    0.2782    0.0157    1.3811  694.3684 5155.7091   -0.4438    0.0876 342.39  -1.0  -1.0  0     0.0000    0.0003
106          ?    N    ? P      ? 20180313 0030    8.1799 GAU  4.40e-02 -1.00e+00  6.96e+00  1.20e-02    6.9600 >    0.2772    0.0203    1.3902  694.3120 5155.6801   -0.4360    0.0992 303.27  -1.0  -1.0  0     0.0000    0.0003
23           ?    N    ? P      ? 20180313 0030    8.1512 GAU  3.21e-02 -1.00e+00  7.59e+00  2.80e-02    7.5900 >    0.2923   -0.0236    1.4240  694.3677 5155.7226   -0.4473    0.1006 344.31  -1.0  -1.0  0     0.0000    0.0003
END_PHASE
END_NLLOC

