NLLOC "./loc/RR.20180313.000602.grid0" "LOCATED" "Location completed."
PUBLIC_ID None
SIGNATURE "   obs:./obs/nll_picks.obs   NLLoc:v7.00.10(30Aug2020)   run:29Apr2022 23h17m10"
COMMENT "Rattlesnake Ridge Slidequake Locations"
GRID  150 250 75  694.15 5155.4 0  0.002 0.002 0.002 PROB_DENSITY
SEARCH OCTREE nInitial 1000 nEvaluated 2352 smallestNodeSide 0.001863/0.003112/0.000925 oct_tree_integral 5.978694e-06 scatter_volume 5.977497e-06
HYPOCENTER  x 694.365 y 5155.54 z 0.0004625  OT 2.82751  ix -1 iy -1 iz -1 MAXIMUM_LIKELIHOOD
GEOGRAPHIC  OT 2018 03 13  00 06 2.827506  Lat 5155.535394 Long 694.365119 Depth 0.000462
QUALITY  Pmax 2.24895e+100 MFmin 202.764 MFmax 202.776 RMS 0.0438243 Nphs 25 Gap 209.435 Dist 0.025196 Mamp  0.40 25 Mdur -9.90 0
VPVSRATIO  VpVsRatio -1  Npair 0  Diff -2e+30
STATISTICS  ExpectX 694.376649 Y 5155.526955 Z 0.019779  CovXX 0.000340619 XY 6.80454e-05 XZ 0.000144933 YY 0.000616175 YZ -0.000229894 ZZ 0.000282785 EllAz1  127.215 Dip1  -50.1824 Len1  0.0157913 Az2  254.087 Dip2  -26.5756 Len2  0.0392045 Len3  5.088572e-02
STAT_GEOG  ExpectLat 5155.526955 Long 694.376649 Depth 0.019779
TRANSFORM  NONE
QML_OriginQuality  assocPhCt 25  usedPhCt 25  assocStaCt -1  usedStaCt 25  depthPhCt -1  stdErr 0.0438243  azGap 209.435  secAzGap 256.814  gtLevel -  minDist 0.025196 maxDist 0.246815 medDist 0.127123
QML_OriginUncertainty  horUnc -1  minHorUnc 0.0273292  maxHorUnc 0.038128  azMaxHorUnc 13.1418
QML_ConfidenceEllipsoid  semiMajorAxisLength 0.0508857  semiMinorAxisLength 0.0157913  semiIntermediateAxisLength 0.0392045  majorAxisPlunge 27.2673  majorAxisAzimuth 179.028  majorAxisRotation 251.327
FOCALMECH  Hyp  5155.535394 694.365119 0.000462 Mech  0 0 0 mf  0 nObs -1
PHASE ID Ins Cmp On Pha  FM Date     HrMn   Sec     Err  ErrMag    Coda      Amp       Per       PriorWt  >   TTpred    Res       Weight    StaLoc(X  Y         Z)        SDist    SAzim  RAz  RDip RQual    Tcorr       TTerr
41           ?    N    ? P      ? 20180313 0006    2.8837 GAU  7.51e-03 -1.00e+00  8.42e+00  1.20e-02    8.4200 >    0.0465    0.0097    2.2163  694.3901 5155.5386   -0.4053    0.0252  82.60  -1.0  -1.0  0     0.0000    0.0001
42           ?    N    ? P      ? 20180313 0006    2.8685 GAU  1.30e-02 -1.00e+00  7.50e+00  1.60e-02    7.5000 >    0.0493   -0.0084    2.2826  694.3873 5155.5165   -0.3983    0.0291 130.41  -1.0  -1.0  0     0.0000    0.0001
39           ?    N    ? P      ? 20180313 0006    2.8800 GAU  8.33e-03 -1.00e+00  8.30e+00  2.40e-02    8.3000 >    0.0557   -0.0032    2.3850  694.3890 5155.5532   -0.4086    0.0298  53.36  -1.0  -1.0  0     0.0000    0.0001
38           ?    N    ? P      ? 20180313 0006    2.8825 GAU  5.88e-03 -1.00e+00  8.35e+00  8.00e-03    8.3500 >    0.0754   -0.0204    1.4018  694.3902 5155.5681   -0.4123    0.0412  37.42  -1.0  -1.0  0     0.0000    0.0001
40           ?    N    ? P      ? 20180313 0006    2.9326 GAU  1.83e-02 -1.00e+00  7.31e+00  1.20e-02    7.3100 >    0.0926    0.0125    1.7351  694.4169 5155.5417   -0.4131    0.0521  83.03  -1.0  -1.0  0     0.0000    0.0001
36           ?    N    ? P      ? 20180313 0006    2.8825 GAU  1.12e-02 -1.00e+00  8.07e+00  1.20e-02    8.0700 >    0.1052   -0.0502    0.1934  694.3865 5155.5904   -0.4164    0.0590  21.28  -1.0  -1.0  0     0.0000    0.0001
37           ?    N    ? P      ? 20180313 0006    2.9755 GAU  4.04e-02 -1.00e+00  6.85e+00  8.00e-03    6.8500 >    0.1367    0.0113    1.0143  694.4219 5155.5876   -0.4220    0.0772  47.42  -1.0  -1.0  0     0.0000    0.0001
35           ?    N    ? P      ? 20180313 0006    2.9300 GAU  1.04e-02 -1.00e+00  8.42e+00  1.20e-02    8.4200 >    0.1416   -0.0391    0.4262  694.3818 5155.6141   -0.4216    0.0805  11.94  -1.0  -1.0  0     0.0000    0.0001
34           ?    N    ? P      ? 20180313 0006    3.1108 GAU  1.67e-02 -1.00e+00  6.94e+00  4.40e-02    6.9400 >    0.1651    0.1182    0.0464  694.4145 5155.6153   -0.4263    0.0939  31.73  -1.0  -1.0  0     0.0000    0.0002
33           ?    N    ? P      ? 20180313 0006    3.7750 GAU  1.48e-02 -1.00e+00  9.14e+00  1.20e-02    9.1400 >    0.1661    0.7813    0.0232  694.3775 5155.6293   -0.4252    0.0947   7.52  -1.0  -1.0  0     0.0000    0.0002
32           ?    N    ? P      ? 20180313 0006    3.7880 GAU  1.27e-02 -1.00e+00  9.56e+00  1.20e-02    9.5600 >    0.1939    0.7666    0.0064  694.3777 5155.6456   -0.4297    0.1109   6.51  -1.0  -1.0  0     0.0000    0.0002
31           ?    N    ? P      ? 20180313 0006    3.1442 GAU  2.47e-02 -1.00e+00  8.16e+00  1.60e-02    8.1600 >    0.2141    0.1026    0.0915  694.4086 5155.6503   -0.4335    0.1229  20.73  -1.0  -1.0  0     0.0000    0.0002
30           ?    N    ? P      ? 20180313 0006    3.8460 GAU  1.19e-02 -1.00e+00  9.76e+00  1.20e-02    9.7600 >    0.2212    0.7972    0.0199  694.3775 5155.6619   -0.4333    0.1271   5.58  -1.0  -1.0  0     0.0000    0.0002
28           ?    N    ? P      ? 20180313 0006    3.9820 GAU  1.05e-02 -1.00e+00  9.39e+00  1.20e-02    9.3900 >    0.2422    0.9123    0.0047  694.3767 5155.6745   -0.4362    0.1395   4.75  -1.0  -1.0  0     0.0000    0.0002
105          ?    N    ? P      ? 20180313 0006    3.1012 GAU  1.18e-02 -1.00e+00  9.80e+00  8.00e-03    9.8000 >    0.2568    0.0169    1.2192  694.3764 5155.6832   -0.4382    0.1483   4.36  -1.0  -1.0  0     0.0000    0.0003
106          ?    N    ? P      ? 20180313 0006    3.1580 GAU  2.52e-02 -1.00e+00  8.01e+00  1.60e-02    8.0100 >    0.2649    0.0656    0.3137  694.3120 5155.6801   -0.4360    0.1541 339.84  -1.0  -1.0  0     0.0000    0.0003
26           ?    N    ? P      ? 20180313 0006    3.9950 GAU  1.30e-02 -1.00e+00  7.70e+00  1.20e-02    7.7000 >    0.2700    0.8975    0.0047  694.3783 5155.6910   -0.4400    0.1561   4.84  -1.0  -1.0  0     0.0000    0.0003
27           ?    N    ? P      ? 20180313 0006    3.1144 GAU  1.84e-02 -1.00e+00  7.35e+00  1.20e-02    7.3500 >    0.2759    0.0110    1.2386  694.4008 5155.6912   -0.4412    0.1599  12.89  -1.0  -1.0  0     0.0000    0.0003
25           ?    N    ? P      ? 20180313 0006    3.1270 GAU  1.45e-02 -1.00e+00  7.82e+00  1.20e-02    7.8200 >    0.2995   -0.0000    1.5905  694.3684 5155.7091   -0.4438    0.1738   1.09  -1.0  -1.0  0     0.0000    0.0003
23           ?    N    ? P      ? 20180313 0006    3.1483 GAU  7.64e-03 -1.00e+00  8.43e+00  8.00e-03    8.4300 >    0.3222   -0.0014    1.9507  694.3677 5155.7226   -0.4473    0.1872   0.79  -1.0  -1.0  0     0.0000    0.0003
22           ?    N    ? P      ? 20180313 0006    3.1423 GAU  1.45e-02 -1.00e+00  6.58e+00  8.00e-03    6.5800 >    0.3330   -0.0182    1.4022  694.3985 5155.7265   -0.4488    0.1940   9.91  -1.0  -1.0  0     0.0000    0.0003
21           ?    N    ? P      ? 20180313 0006    3.2084 GAU  2.93e-02 -1.00e+00  7.20e+00  1.20e-02    7.2000 >    0.3504    0.0305    0.8359  694.3642 5155.7391   -0.4517    0.2037 359.73  -1.0  -1.0  0     0.0000    0.0004
20           ?    N    ? P      ? 20180313 0006    3.2167 GAU  2.95e-02 -1.00e+00  6.52e+00  2.40e-02    6.5200 >    0.3716    0.0176    1.0932  694.3609 5155.7515   -0.4553    0.2161 358.87  -1.0  -1.0  0     0.0000    0.0004
18           ?    N    ? P      ? 20180313 0006    3.2100 GAU  1.87e-02 -1.00e+00  5.68e+00  3.60e-02    5.6800 >    0.3985   -0.0160    1.5248  694.3549 5155.7674   -0.4586    0.2322 357.48  -1.0  -1.0  0     0.0000    0.0004
17           ?    N    ? P      ? 20180313 0006    3.2437 GAU  1.38e-02 -1.00e+00  5.85e+00  3.60e-02    5.8500 >    0.4232   -0.0070    1.9799  694.3461 5155.7815   -0.4621    0.2468 355.59  -1.0  -1.0  0     0.0000    0.0004
END_PHASE
END_NLLOC

