NLLOC "./loc/RR.20180313.030335.grid0" "LOCATED" "Location completed."
PUBLIC_ID None
SIGNATURE "   obs:./obs/nll_picks.obs   NLLoc:v7.00.10(30Aug2020)   run:29Apr2022 23h21m16"
COMMENT "Rattlesnake Ridge Slidequake Locations"
GRID  150 250 75  694.15 5155.4 0  0.002 0.002 0.002 PROB_DENSITY
SEARCH OCTREE nInitial 1000 nEvaluated 5696 smallestNodeSide 0.001863/0.003112/0.000925 oct_tree_integral 2.138010e-05 scatter_volume 2.138010e-05
HYPOCENTER  x 694.274 y 5155.62 z 0.111462  OT 35.3779  ix -1 iy -1 iz -1 MAXIMUM_LIKELIHOOD
GEOGRAPHIC  OT 2018 03 13  03 03 35.377868  Lat 5155.616319 Long 694.273856 Depth 0.111462
QUALITY  Pmax 7.04698e+119 MFmin 281.621 MFmax 281.667 RMS 0.00848492 Nphs 26 Gap 250.743 Dist 0.0742878 Mamp  0.66 26 Mdur -9.90 0
VPVSRATIO  VpVsRatio -1  Npair 0  Diff -2e+30
STATISTICS  ExpectX 694.260287 Y 5155.610612 Z 0.102315  CovXX 0.000590293 XY 0.00021741 XZ 0.000449507 YY 0.000102368 YZ 0.000183205 ZZ 0.000954441 EllAz1  159.975 Dip1  1.1151 Len1  0.00826106 Az2  250.812 Dip2  36.8941 Len2  0.0330096 Len3  6.823779e-02
STAT_GEOG  ExpectLat 5155.610612 Long 694.260287 Depth 0.102315
TRANSFORM  NONE
QML_OriginQuality  assocPhCt 26  usedPhCt 26  assocStaCt -1  usedStaCt 26  depthPhCt -1  stdErr 0.00848492  azGap 250.743  secAzGap 258.333  gtLevel -  minDist 0.0742878 maxDist 0.189727 medDist 0.139407
QML_OriginUncertainty  horUnc -1  minHorUnc 0.00670573  maxHorUnc 0.0393466  azMaxHorUnc 69.1469
QML_ConfidenceEllipsoid  semiMajorAxisLength 0.0682378  semiMinorAxisLength 0.00826106  semiIntermediateAxisLength 0.0330096  majorAxisPlunge 53.0833  majorAxisAzimuth 68.4901  majorAxisRotation 353.359
FOCALMECH  Hyp  5155.616319 694.273856 0.111462 Mech  0 0 0 mf  0 nObs -1
PHASE ID Ins Cmp On Pha  FM Date     HrMn   Sec     Err  ErrMag    Coda      Amp       Per       PriorWt  >   TTpred    Res       Weight    StaLoc(X  Y         Z)        SDist    SAzim  RAz  RDip RQual    Tcorr       TTerr
106          ?    N    ? P      ? 20180313 0303   35.7064 GAU  7.64e-03 -1.00e+00  7.38e+00  2.80e-02    7.3800 >    0.2271    0.1014    0.0084  694.3120 5155.6801   -0.4360    0.0743  30.91  -1.0  -1.0  0     0.0000    0.0002
33           ?    N    ? P      ? 20180313 0303   35.6159 GAU  8.84e-03 -1.00e+00  1.10e+01  1.20e-02   11.0000 >    0.2414   -0.0034    1.0812  694.3775 5155.6293   -0.4252    0.1045  82.85  -1.0  -1.0  0     0.0000    0.0002
32           ?    N    ? P      ? 20180313 0303   35.6202 GAU  5.49e-03 -1.00e+00  9.84e+00  1.20e-02    9.8400 >    0.2494   -0.0071    1.0126  694.3777 5155.6456   -0.4297    0.1079  74.27  -1.0  -1.0  0     0.0000    0.0002
35           ?    N    ? P      ? 20180313 0303   35.6194 GAU  5.26e-03 -1.00e+00  1.12e+01  8.00e-03   11.2000 >    0.2404    0.0011    1.3298  694.3818 5155.6141   -0.4216    0.1079  91.17  -1.0  -1.0  0     0.0000    0.0002
30           ?    N    ? P      ? 20180313 0303   35.6507 GAU  8.84e-03 -1.00e+00  9.23e+00  1.60e-02    9.2300 >    0.2588    0.0140    0.7184  694.3775 5155.6619   -0.4333    0.1132  66.25  -1.0  -1.0  0     0.0000    0.0003
36           ?    N    ? P      ? 20180313 0303   35.6288 GAU  4.06e-03 -1.00e+00  9.71e+00  1.20e-02    9.7100 >    0.2432    0.0077    1.2512  694.3865 5155.5904   -0.4164    0.1156 102.98  -1.0  -1.0  0     0.0000    0.0002
28           ?    N    ? P      ? 20180313 0303   35.6904 GAU  8.36e-03 -1.00e+00  9.56e+00  2.80e-02    9.5600 >    0.2670    0.0455    0.0514  694.3767 5155.6745   -0.4362    0.1181  60.52  -1.0  -1.0  0     0.0000    0.0003
105          ?    N    ? P      ? 20180313 0303   35.6873 GAU  1.43e-02 -1.00e+00  9.70e+00  1.20e-02    9.7000 >    0.2734    0.0360    0.1966  694.3764 5155.6832   -0.4382    0.1224  56.87  -1.0  -1.0  0     0.0000    0.0003
38           ?    N    ? P      ? 20180313 0303   35.6187 GAU  3.59e-03 -1.00e+00  7.97e+00  4.00e-02    7.9700 >    0.2515   -0.0107    0.9543  694.3902 5155.5681   -0.4123    0.1259 112.51  -1.0  -1.0  0     0.0000    0.0003
26           ?    N    ? P      ? 20180313 0303   35.6844 GAU  1.67e-02 -1.00e+00  8.23e+00  1.20e-02    8.2300 >    0.2819    0.0247    0.4373  694.3783 5155.6910   -0.4400    0.1284  54.44  -1.0  -1.0  0     0.0000    0.0003
39           ?    N    ? P      ? 20180313 0303   35.6324 GAU  3.63e-03 -1.00e+00  7.99e+00  1.20e-02    7.9900 >    0.2544    0.0001    1.7081  694.3890 5155.5532   -0.4086    0.1313 118.74  -1.0  -1.0  0     0.0000    0.0003
25           ?    N    ? P      ? 20180313 0303   35.7379 GAU  2.72e-02 -1.00e+00  7.86e+00  1.20e-02    7.8600 >    0.2902    0.0698    0.0705  694.3684 5155.7091   -0.4438    0.1325  45.54  -1.0  -1.0  0     0.0000    0.0003
31           ?    N    ? P      ? 20180313 0303   35.6569 GAU  1.31e-02 -1.00e+00  8.01e+00  5.20e-02    8.0100 >    0.2868   -0.0078    0.7602  694.4086 5155.6503   -0.4335    0.1390  75.83  -1.0  -1.0  0     0.0000    0.0003
41           ?    N    ? P      ? 20180313 0303   35.6470 GAU  9.86e-03 -1.00e+00  7.16e+00  6.80e-02    7.1600 >    0.2622    0.0069    1.4018  694.3901 5155.5386   -0.4053    0.1398 123.75  -1.0  -1.0  0     0.0000    0.0003
34           ?    N    ? P      ? 20180313 0303   35.6815 GAU  1.91e-02 -1.00e+00  9.04e+00  1.60e-02    9.0400 >    0.2820    0.0216    0.5871  694.4145 5155.6153   -0.4263    0.1407  90.42  -1.0  -1.0  0     0.0000    0.0003
23           ?    N    ? P      ? 20180313 0303   35.6854 GAU  1.24e-02 -1.00e+00  7.95e+00  8.00e-03    7.9500 >    0.3041    0.0034    1.1819  694.3677 5155.7226   -0.4473    0.1417  41.45  -1.0  -1.0  0     0.0000    0.0003
27           ?    N    ? P      ? 20180313 0303   35.6825 GAU  5.73e-03 -1.00e+00  6.82e+00  8.00e-03    6.8200 >    0.3038    0.0009    1.2361  694.4008 5155.6912   -0.4412    0.1474  59.45  -1.0  -1.0  0     0.0000    0.0003
37           ?    N    ? P      ? 20180313 0303   35.6620 GAU  4.30e-03 -1.00e+00  8.43e+00  8.00e-03    8.4300 >    0.2903   -0.0062    1.2372  694.4219 5155.5876   -0.4220    0.1508 100.98  -1.0  -1.0  0     0.0000    0.0003
42           ?    N    ? P      ? 20180313 0303   35.6667 GAU  1.40e-02 -1.00e+00  6.65e+00  1.20e-02    6.6500 >    0.2713    0.0175    1.0892  694.3873 5155.5165   -0.3983    0.1511 131.34  -1.0  -1.0  0     0.0000    0.0003
21           ?    N    ? P      ? 20180313 0303   35.6978 GAU  1.00e-02 -1.00e+00  6.66e+00  1.20e-02    6.6600 >    0.3207   -0.0007    1.3734  694.3642 5155.7391   -0.4517    0.1524  36.33  -1.0  -1.0  0     0.0000    0.0003
20           ?    N    ? P      ? 20180313 0303   35.7253 GAU  5.49e-03 -1.00e+00  6.66e+00  8.00e-03    6.6600 >    0.3332    0.0143    0.9353  694.3609 5155.7515   -0.4553    0.1607  32.77  -1.0  -1.0  0     0.0000    0.0003
40           ?    N    ? P      ? 20180313 0303   35.6765 GAU  1.04e-02 -1.00e+00  8.16e+00  8.00e-03    8.1600 >    0.2963    0.0023    1.5512  694.4169 5155.5417   -0.4131    0.1613 117.55  -1.0  -1.0  0     0.0000    0.0003
22           ?    N    ? P      ? 20180313 0303   35.7183 GAU  9.55e-03 -1.00e+00  6.48e+00  2.00e-02    6.4800 >    0.3332    0.0072    1.1460  694.3985 5155.7265   -0.4488    0.1664  48.51  -1.0  -1.0  0     0.0000    0.0003
18           ?    N    ? P      ? 20180313 0303   35.7214 GAU  9.32e-03 -1.00e+00  6.51e+00  1.20e-02    6.5100 >    0.3486   -0.0050    1.5837  694.3549 5155.7674   -0.4586    0.1715  28.21  -1.0  -1.0  0     0.0000    0.0003
17           ?    N    ? P      ? 20180313 0303   35.7401 GAU  6.92e-03 -1.00e+00  6.63e+00  8.00e-03    6.6300 >    0.3619    0.0003    2.0828  694.3461 5155.7815   -0.4621    0.1803  23.64  -1.0  -1.0  0     0.0000    0.0004
16           ?    N    ? P      ? 20180313 0303   35.7365 GAU  1.19e-02 -1.00e+00  6.77e+00  1.20e-02    6.7700 >    0.3747   -0.0161    1.0144  694.3452 5155.7921   -0.4642    0.1897  22.08  -1.0  -1.0  0     0.0000    0.0004
END_PHASE
END_NLLOC

