NLLOC "./loc/RR.20180313.031754.grid0" "REJECTED" "WARNING: max prob location on grid boundary 10, rejecting location."
PUBLIC_ID None
SIGNATURE "   obs:./obs/nll_picks.obs   NLLoc:v7.00.10(30Aug2020)   run:29Apr2022 23h21m27"
COMMENT "Rattlesnake Ridge Slidequake Locations"
GRID  150 250 75  694.15 5155.4 0  0.002 0.002 0.002 PROB_DENSITY
SEARCH OCTREE nInitial 1000 nEvaluated 4296 smallestNodeSide 0.001863/0.003112/0.000925 oct_tree_integral 1.446601e-05 scatter_volume 1.444808e-05
HYPOCENTER  x 694.151 y 5155.65 z 0.0467125  OT 54.572  ix -1 iy -1 iz -1 MAXIMUM_LIKELIHOOD
GEOGRAPHIC  OT 2018 03 13  03 17 54.571955  Lat 5155.647444 Long 694.150931 Depth 0.046712
QUALITY  Pmax 2.43917e+99 MFmin 299.499 MFmax 299.624 RMS 0.0873847 Nphs 26 Gap 289.997 Dist 0.164354 Mamp  0.82 26 Mdur -9.90 0
VPVSRATIO  VpVsRatio -1  Npair 0  Diff -2e+30
STATISTICS  ExpectX 694.170014 Y 5155.653291 Z 0.076725  CovXX 0.00029539 XY 4.46782e-05 XZ 0.000245584 YY 8.49612e-05 YZ 0.000259163 ZZ 0.00113936 EllAz1  183.263 Dip1  13.7405 Len1  0.00921092 Az2  276.573 Dip2  13.2869 Len2  0.0286091 Len3  6.679262e-02
STAT_GEOG  ExpectLat 5155.653291 Long 694.170014 Depth 0.076725
TRANSFORM  NONE
QML_OriginQuality  assocPhCt 26  usedPhCt 26  assocStaCt -1  usedStaCt 26  depthPhCt -1  stdErr 0.0873847  azGap 289.997  secAzGap 292.78  gtLevel -  minDist 0.164354 maxDist 0.286188 medDist 0.236112
QML_OriginUncertainty  horUnc -1  minHorUnc 0.0132097  maxHorUnc 0.0264634  azMaxHorUnc 78.496
QML_ConfidenceEllipsoid  semiMajorAxisLength 0.0667926  semiMinorAxisLength 0.00921092  semiIntermediateAxisLength 0.0286091  majorAxisPlunge 70.7002  majorAxisAzimuth 48.976  majorAxisRotation 307.096
FOCALMECH  Hyp  5155.647444 694.150931 0.046712 Mech  0 0 0 mf  0 nObs -1
PHASE ID Ins Cmp On Pha  FM Date     HrMn   Sec     Err  ErrMag    Coda      Amp       Per       PriorWt  >   TTpred    Res       Weight    StaLoc(X  Y         Z)        SDist    SAzim  RAz  RDip RQual    Tcorr       TTerr
106          ?    N    ? P      ? 20180313 0317   55.1440 GAU  7.16e-03 -1.00e+00  7.85e+00  4.80e-02    7.8500 >    0.3284    0.2436    1.4796  694.3120 5155.6801   -0.4360    0.1644  78.56  -1.0  -1.0  0     0.0000    0.0003
25           ?    N    ? P      ? 20180313 0317   54.9989 GAU  4.34e-03 -1.00e+00  9.90e+00  1.20e-02    9.9000 >    0.4110    0.0160    0.9185  694.3684 5155.7091   -0.4438    0.2261  74.17  -1.0  -1.0  0     0.0000    0.0004
32           ?    N    ? P      ? 20180313 0317   54.9661 GAU  8.16e-03 -1.00e+00  9.10e+00  1.20e-02    9.1000 >    0.3998   -0.0057    1.0464  694.3777 5155.6456   -0.4297    0.2268  90.47  -1.0  -1.0  0     0.0000    0.0004
30           ?    N    ? P      ? 20180313 0317   54.9772 GAU  5.33e-03 -1.00e+00  9.39e+00  2.80e-02    9.3900 >    0.4033    0.0019    1.2418  694.3775 5155.6619   -0.4333    0.2270  86.34  -1.0  -1.0  0     0.0000    0.0004
33           ?    N    ? P      ? 20180313 0317   54.9766 GAU  7.00e-03 -1.00e+00  9.22e+00  1.20e-02    9.2200 >    0.3979    0.0068    1.7833  694.3775 5155.6293   -0.4252    0.2273  94.57  -1.0  -1.0  0     0.0000    0.0004
28           ?    N    ? P      ? 20180313 0317   54.9822 GAU  5.00e-03 -1.00e+00  1.04e+01  1.20e-02   10.4000 >    0.4061    0.0042    1.2635  694.3767 5155.6745   -0.4362    0.2274  83.18  -1.0  -1.0  0     0.0000    0.0004
105          ?    N    ? P      ? 20180313 0317   54.9801 GAU  3.16e-03 -1.00e+00  1.08e+01  8.00e-03   10.8000 >    0.4086   -0.0004    1.4313  694.3764 5155.6832   -0.4382    0.2283  80.98  -1.0  -1.0  0     0.0000    0.0004
23           ?    N    ? P      ? 20180313 0317   55.0000 GAU  3.18e-03 -1.00e+00  9.32e+00  2.80e-02    9.3200 >    0.4183    0.0098    1.9056  694.3677 5155.7226   -0.4473    0.2294  70.89  -1.0  -1.0  0     0.0000    0.0004
26           ?    N    ? P      ? 20180313 0317   54.9861 GAU  2.60e-03 -1.00e+00  9.72e+00  1.20e-02    9.7200 >    0.4144   -0.0002    1.5256  694.3783 5155.6910   -0.4400    0.2315  79.16  -1.0  -1.0  0     0.0000    0.0004
21           ?    N    ? P      ? 20180313 0317   55.9300 GAU  7.22e-03 -1.00e+00  8.03e+00  1.20e-02    8.0300 >    0.4259    0.9321    0.0000  694.3642 5155.7391   -0.4517    0.2321  66.73  -1.0  -1.0  0     0.0000    0.0004
35           ?    N    ? P      ? 20180313 0317   54.9900 GAU  9.16e-03 -1.00e+00  8.91e+00  4.00e-02    8.9100 >    0.4026    0.0154    1.4351  694.3818 5155.6141   -0.4216    0.2332  98.22  -1.0  -1.0  0     0.0000    0.0004
20           ?    N    ? P      ? 20180313 0317   54.9997 GAU  5.79e-03 -1.00e+00  7.90e+00  1.20e-02    7.9000 >    0.4316   -0.0039    2.9299  694.3609 5155.7515   -0.4553    0.2343  63.64  -1.0  -1.0  0     0.0000    0.0004
15           ?    N    ? P      ? 20180313 0317   55.4450 GAU  1.30e-02 -1.00e+00  5.42e+00  2.00e-02    5.4200 >    0.4422    0.4308    0.0195  694.3206 5155.8107   -0.4609    0.2354  46.10  -1.0  -1.0  0     0.0000    0.0004
17           ?    N    ? P      ? 20180313 0317   55.1500 GAU  8.39e-03 -1.00e+00  7.72e+00  2.80e-02    7.7200 >    0.4429    0.1352    0.0007  694.3461 5155.7815   -0.4621    0.2368  55.53  -1.0  -1.0  0     0.0000    0.0004
16           ?    N    ? P      ? 20180313 0317   55.4660 GAU  7.52e-03 -1.00e+00  7.89e+00  8.00e-03    7.8900 >    0.4520    0.4421    0.0194  694.3452 5155.7921   -0.4642    0.2422  53.32  -1.0  -1.0  0     0.0000    0.0005
38           ?    N    ? P      ? 20180313 0317   54.9959 GAU  7.32e-03 -1.00e+00  7.14e+00  1.20e-02    7.1400 >    0.4232    0.0007    4.1692  694.3902 5155.5681   -0.4123    0.2520 108.35  -1.0  -1.0  0     0.0000    0.0004
12           ?    N    ? P      ? 20180313 0317   55.2370 GAU  1.36e-02 -1.00e+00  6.20e+00  4.80e-02    6.2000 >    0.4683    0.1967    0.3602  694.3356 5155.8197   -0.4663    0.2526  46.99  -1.0  -1.0  0     0.0000    0.0005
27           ?    N    ? P      ? 20180313 0317   55.6200 GAU  2.00e-03 -1.00e+00  8.44e+00  1.20e-02    8.4400 >    0.4440    0.6041    0.0001  694.4008 5155.6912   -0.4412    0.2537  80.06  -1.0  -1.0  0     0.0000    0.0004
39           ?    N    ? P      ? 20180313 0317   55.7000 GAU  2.35e-02 -1.00e+00  6.77e+00  5.60e-02    6.7700 >    0.4269    0.7011    0.0001  694.3890 5155.5532   -0.4086    0.2561 111.60  -1.0  -1.0  0     0.0000    0.0004
103          ?    N    ? P      ? 20180313 0317   55.2920 GAU  6.94e-03 -1.00e+00  7.38e+00  1.60e-02    7.3800 >    0.4744    0.2456    1.6919  694.3644 5155.7952   -0.4662    0.2596  55.31  -1.0  -1.0  0     0.0000    0.0005
10           ?    N    ? P      ? 20180313 0317   55.3500 GAU  2.56e-02 -1.00e+00  6.10e+00  1.20e-02    6.1000 >    0.4791    0.2989    0.1488  694.3329 5155.8329   -0.4673    0.2598  44.46  -1.0  -1.0  0     0.0000    0.0005
22           ?    N    ? P      ? 20180313 0317   55.1070 GAU  5.78e-03 -1.00e+00  7.59e+00  5.60e-02    7.5900 >    0.4585    0.0765    0.0000  694.3985 5155.7265   -0.4488    0.2599  72.28  -1.0  -1.0  0     0.0000    0.0005
41           ?    N    ? P      ? 20180313 0317   55.1890 GAU  9.32e-03 -1.00e+00  6.57e+00  2.80e-02    6.5700 >    0.4349    0.1822    0.3249  694.3901 5155.5386   -0.4053    0.2628 114.46  -1.0  -1.0  0     0.0000    0.0004
34           ?    N    ? P      ? 20180313 0317   55.5200 GAU  8.66e-03 -1.00e+00  8.17e+00  1.20e-02    8.1700 >    0.4505    0.4976    0.0001  694.4145 5155.6153   -0.4263    0.2655  96.96  -1.0  -1.0  0     0.0000    0.0005
37           ?    N    ? P      ? 20180313 0317   55.2870 GAU  1.81e-02 -1.00e+00  7.53e+00  1.20e-02    7.5300 >    0.4646    0.2505    0.8735  694.4219 5155.5876   -0.4220    0.2775 102.45  -1.0  -1.0  0     0.0000    0.0005
40           ?    N    ? P      ? 20180313 0317   55.2880 GAU  9.66e-03 -1.00e+00  7.17e+00  8.00e-03    7.1700 >    0.4730    0.2430    1.4309  694.4169 5155.5417   -0.4131    0.2862 111.68  -1.0  -1.0  0     0.0000    0.0005
END_PHASE
END_NLLOC

