NLLOC "./loc/RR.20180313.000557.grid0" "REJECTED" "WARNING: max prob location on grid boundary 10, rejecting location."
PUBLIC_ID None
SIGNATURE "   obs:./obs/nll_picks.obs   NLLoc:v7.00.10(30Aug2020)   run:29Apr2022 23h18m40"
COMMENT "Rattlesnake Ridge Slidequake Locations"
GRID  150 250 75  694.15 5155.4 0  0.002 0.002 0.002 PROB_DENSITY
SEARCH OCTREE nInitial 1000 nEvaluated 7936 smallestNodeSide 0.001863/0.003112/0.000925 oct_tree_integral 5.466745e-05 scatter_volume 5.441190e-05
HYPOCENTER  x 694.151 y 5155.7 z 0.147537  OT 56.9324  ix -1 iy -1 iz -1 MAXIMUM_LIKELIHOOD
GEOGRAPHIC  OT 2018 03 13  00 05 56.932448  Lat 5155.703469 Long 694.150931 Depth 0.147537
QUALITY  Pmax 8.56966e+108 MFmin 197.63 MFmax 197.67 RMS 0.0144037 Nphs 25 Gap 280.668 Dist 0.162778 Mamp  0.84 25 Mdur -9.90 0
VPVSRATIO  VpVsRatio -1  Npair 0  Diff -2e+30
STATISTICS  ExpectX 694.175527 Y 5155.700040 Z 0.111233  CovXX 0.00041541 XY 0.000100075 XZ 0.000136325 YY 0.000144545 YZ 0.000194121 ZZ 0.000978113 EllAz1  167.139 Dip1  10.1022 Len1  0.0174459 Az2  260.068 Dip2  16.0048 Len2  0.0372575 Len3  6.113021e-02
STAT_GEOG  ExpectLat 5155.700040 Long 694.175527 Depth 0.111233
TRANSFORM  NONE
QML_OriginQuality  assocPhCt 25  usedPhCt 25  assocStaCt -1  usedStaCt 25  depthPhCt -1  stdErr 0.0144037  azGap 280.668  secAzGap 289.009  gtLevel -  minDist 0.162778 maxDist 0.277944 medDist 0.226376
QML_OriginUncertainty  horUnc -1  minHorUnc 0.01602  maxHorUnc 0.0321132  azMaxHorUnc 71.7692
QML_ConfidenceEllipsoid  semiMajorAxisLength 0.0611302  semiMinorAxisLength 0.0174459  semiIntermediateAxisLength 0.0372575  majorAxisPlunge 70.9264  majorAxisAzimuth 46.1224  majorAxisRotation 321.029
FOCALMECH  Hyp  5155.703469 694.150931 0.147537 Mech  0 0 0 mf  0 nObs -1
PHASE ID Ins Cmp On Pha  FM Date     HrMn   Sec     Err  ErrMag    Coda      Amp       Per       PriorWt  >   TTpred    Res       Weight    StaLoc(X  Y         Z)        SDist    SAzim  RAz  RDip RQual    Tcorr       TTerr
106          ?    N    ? P      ? 20180313 0005   57.4380 GAU  1.05e-02 -1.00e+00  7.81e+00  1.20e-02    7.8100 >    0.4060    0.0995    0.0522  694.3120 5155.6801   -0.4360    0.1628  98.27  -1.0  -1.0  0     0.0000    0.0004
7            ?    N    ? P      ? 20180313 0005   57.3908 GAU  2.84e-02 -1.00e+00  7.94e+00  8.00e-03    7.9400 >    0.4297    0.0286    1.3163  694.2704 5155.8450   -0.4359    0.1852  40.17  -1.0  -1.0  0     0.0000    0.0004
15           ?    N    ? P      ? 20180313 0005   57.4098 GAU  1.81e-02 -1.00e+00  7.12e+00  1.60e-02    7.1200 >    0.4692    0.0082    1.5032  694.3206 5155.8107   -0.4609    0.2007  57.70  -1.0  -1.0  0     0.0000    0.0005
5            ?    N    ? P      ? 20180313 0005   57.3906 GAU  1.49e-02 -1.00e+00  7.63e+00  1.20e-02    7.6300 >    0.4583   -0.0002    2.3643  694.2898 5155.8520   -0.4475    0.2033  43.07  -1.0  -1.0  0     0.0000    0.0005
13           ?    N    ? P      ? 20180313 0005   57.3834 GAU  9.47e-03 -1.00e+00  7.62e+00  1.20e-02    7.6200 >    0.4712   -0.0202    1.4251  694.3062 5155.8390   -0.4568    0.2061  48.88  -1.0  -1.0  0     0.0000    0.0005
17           ?    N    ? P      ? 20180313 0005   57.3937 GAU  3.96e-02 -1.00e+00  7.54e+00  2.80e-02    7.5400 >    0.4766   -0.0153    0.7191  694.3461 5155.7815   -0.4621    0.2102  68.22  -1.0  -1.0  0     0.0000    0.0005
16           ?    N    ? P      ? 20180313 0005   57.4483 GAU  1.87e-02 -1.00e+00  7.63e+00  8.00e-03    7.6300 >    0.4824    0.0334    0.6616  694.3452 5155.7921   -0.4642    0.2135  65.47  -1.0  -1.0  0     0.0000    0.0005
18           ?    N    ? P      ? 20180313 0005   57.4167 GAU  8.32e-03 -1.00e+00  6.78e+00  2.40e-02    6.7800 >    0.4746    0.0096    1.1372  694.3549 5155.7674   -0.4586    0.2137  72.59  -1.0  -1.0  0     0.0000    0.0005
20           ?    N    ? P      ? 20180313 0005   57.4069 GAU  1.18e-02 -1.00e+00  7.02e+00  5.60e-02    7.0200 >    0.4715    0.0030    1.0846  694.3609 5155.7515   -0.4553    0.2153  77.12  -1.0  -1.0  0     0.0000    0.0005
21           ?    N    ? P      ? 20180313 0005   57.5232 GAU  1.49e-02 -1.00e+00  7.52e+00  8.00e-03    7.5200 >    0.4683    0.1224    0.0348  694.3642 5155.7391   -0.4517    0.2162  80.51  -1.0  -1.0  0     0.0000    0.0005
25           ?    N    ? P      ? 20180313 0005   57.4019 GAU  1.02e-02 -1.00e+00  8.43e+00  2.40e-02    8.4300 >    0.4605    0.0090    0.9104  694.3684 5155.7091   -0.4438    0.2176  88.51  -1.0  -1.0  0     0.0000    0.0005
23           ?    N    ? P      ? 20180313 0005   57.4091 GAU  7.19e-03 -1.00e+00  8.60e+00  2.80e-02    8.6000 >    0.4644    0.0123    0.9128  694.3677 5155.7226   -0.4473    0.2176  84.97  -1.0  -1.0  0     0.0000    0.0005
105          ?    N    ? P      ? 20180313 0005   57.3930 GAU  6.55e-03 -1.00e+00  8.66e+00  1.20e-02    8.6600 >    0.4633   -0.0028    0.9928  694.3764 5155.6832   -0.4382    0.2264  95.13  -1.0  -1.0  0     0.0000    0.0005
28           ?    N    ? P      ? 20180313 0005   57.3891 GAU  9.61e-03 -1.00e+00  8.46e+00  4.40e-02    8.4600 >    0.4625   -0.0059    0.9658  694.3767 5155.6745   -0.4362    0.2276  97.32  -1.0  -1.0  0     0.0000    0.0005
26           ?    N    ? P      ? 20180313 0005   57.3873 GAU  9.61e-03 -1.00e+00  8.62e+00  1.20e-02    8.6200 >    0.4665   -0.0117    0.8667  694.3783 5155.6910   -0.4400    0.2277  93.15  -1.0  -1.0  0     0.0000    0.0005
30           ?    N    ? P      ? 20180313 0005   57.3970 GAU  1.92e-02 -1.00e+00  8.10e+00  2.00e-02    8.1000 >    0.4616    0.0030    0.9309  694.3775 5155.6619   -0.4333    0.2303 100.39  -1.0  -1.0  0     0.0000    0.0005
103          ?    N    ? P      ? 20180313 0005   57.4273 GAU  3.10e-02 -1.00e+00  6.82e+00  2.80e-02    6.8200 >    0.5004   -0.0055    0.9551  694.3644 5155.7952   -0.4662    0.2323  66.74  -1.0  -1.0  0     0.0000    0.0005
32           ?    N    ? P      ? 20180313 0005   57.3908 GAU  1.48e-02 -1.00e+00  8.44e+00  1.60e-02    8.4400 >    0.4617   -0.0034    1.1370  694.3777 5155.6456   -0.4297    0.2340 104.32  -1.0  -1.0  0     0.0000    0.0005
33           ?    N    ? P      ? 20180313 0005   57.4044 GAU  1.44e-02 -1.00e+00  8.37e+00  1.20e-02    8.3700 >    0.4623    0.0097    1.3366  694.3775 5155.6293   -0.4252    0.2384 108.12  -1.0  -1.0  0     0.0000    0.0005
35           ?    N    ? P      ? 20180313 0005   57.4017 GAU  2.14e-02 -1.00e+00  8.11e+00  8.00e-03    8.1100 >    0.4678    0.0015    1.3201  694.3818 5155.6141   -0.4216    0.2475 111.16  -1.0  -1.0  0     0.0000    0.0005
22           ?    N    ? P      ? 20180313 0005   57.4648 GAU  2.14e-02 -1.00e+00  6.70e+00  1.20e-02    6.7000 >    0.4952    0.0371    0.4653  694.3985 5155.7265   -0.4488    0.2486  84.67  -1.0  -1.0  0     0.0000    0.0005
27           ?    N    ? P      ? 20180313 0005   57.4096 GAU  9.17e-03 -1.00e+00  6.47e+00  3.60e-02    6.4700 >    0.4897   -0.0125    0.8104  694.4008 5155.6912   -0.4412    0.2502  92.80  -1.0  -1.0  0     0.0000    0.0005
31           ?    N    ? P      ? 20180313 0005   57.4384 GAU  1.96e-02 -1.00e+00  6.77e+00  3.60e-02    6.7700 >    0.4953    0.0106    0.9917  694.4086 5155.6503   -0.4335    0.2631 101.65  -1.0  -1.0  0     0.0000    0.0005
38           ?    N    ? P      ? 20180313 0005   57.4572 GAU  3.49e-02 -1.00e+00  6.08e+00  1.20e-02    6.0800 >    0.4902    0.0345    0.9391  694.3902 5155.5681   -0.4123    0.2749 119.50  -1.0  -1.0  0     0.0000    0.0005
34           ?    N    ? P      ? 20180313 0005   57.4231 GAU  1.75e-02 -1.00e+00  7.44e+00  1.20e-02    7.4400 >    0.5059   -0.0152    1.1670  694.4145 5155.6153   -0.4263    0.2779 108.50  -1.0  -1.0  0     0.0000    0.0005
END_PHASE
END_NLLOC

