NLLOC "./loc/RR.20180313.000226.grid0" "LOCATED" "Location completed."
PUBLIC_ID None
SIGNATURE "   obs:./obs/nll_picks.obs   NLLoc:v7.00.10(30Aug2020)   run:29Apr2022 23h16m12"
COMMENT "Rattlesnake Ridge Slidequake Locations"
GRID  150 250 75  694.15 5155.4 0  0.002 0.002 0.002 PROB_DENSITY
SEARCH OCTREE nInitial 1000 nEvaluated 6280 smallestNodeSide 0.001863/0.003112/0.000925 oct_tree_integral 6.850969e-05 scatter_volume 6.781827e-05
HYPOCENTER  x 694.443 y 5155.47 z 0.0004625  OT 25.976  ix -1 iy -1 iz -1 MAXIMUM_LIKELIHOOD
GEOGRAPHIC  OT 2018 03 13  00 02 25.976017  Lat 5155.466919 Long 694.443344 Depth 0.000462
QUALITY  Pmax 1.72274e+38 MFmin 88.9733 MFmax 88.9938 RMS 0.173447 Nphs 14 Gap 322.222 Dist 0.0748557 Mamp  0.53 14 Mdur -9.90 0
VPVSRATIO  VpVsRatio -1  Npair 0  Diff -2e+30
STATISTICS  ExpectX 694.431492 Y 5155.465069 Z 0.012816  CovXX 0.00014437 XY -8.04407e-05 XZ 1.79483e-05 YY 0.00134732 YZ -7.04313e-05 ZZ 0.00010905 EllAz1  95.6403 Dip1  -70.8306 Len1  0.0188291 Az2  265.034 Dip2  -18.8652 Len2  0.0225097 Len3  6.920553e-02
STAT_GEOG  ExpectLat 5155.465069 Long 694.431492 Depth 0.012816
TRANSFORM  NONE
QML_OriginQuality  assocPhCt 14  usedPhCt 14  assocStaCt -1  usedStaCt 14  depthPhCt -1  stdErr 0.173447  azGap 322.222  secAzGap 334.13  gtLevel -  minDist 0.0748557 maxDist 0.233303 medDist 0.167399
QML_OriginUncertainty  horUnc -1  minHorUnc 0.0178811  maxHorUnc 0.0557778  azMaxHorUnc 176.191
QML_ConfidenceEllipsoid  semiMajorAxisLength 0.0692055  semiMinorAxisLength 0.0188291  semiIntermediateAxisLength 0.0225097  majorAxisPlunge 3.27862  majorAxisAzimuth 176.156  majorAxisRotation 251.218
FOCALMECH  Hyp  5155.466919 694.443344 0.000462 Mech  0 0 0 mf  0 nObs -1
PHASE ID Ins Cmp On Pha  FM Date     HrMn   Sec     Err  ErrMag    Coda      Amp       Per       PriorWt  >   TTpred    Res       Weight    StaLoc(X  Y         Z)        SDist    SAzim  RAz  RDip RQual    Tcorr       TTerr
42           ?    N    ? P      ? 20180313 0002   26.6660 GAU  1.42e-02 -1.00e+00  6.45e+00  8.00e-03    6.4500 >    0.1256    0.5644    0.0509  694.3873 5155.5165   -0.3983    0.0749 311.50  -1.0  -1.0  0     0.0000    0.0001
40           ?    N    ? P      ? 20180313 0002   26.1043 GAU  1.59e-02 -1.00e+00  6.63e+00  1.60e-02    6.6300 >    0.1328   -0.0045    5.1844  694.4169 5155.5417   -0.4131    0.0793 340.51  -1.0  -1.0  0     0.0000    0.0001
41           ?    N    ? P      ? 20180313 0002   26.7620 GAU  1.23e-02 -1.00e+00  7.55e+00  1.20e-02    7.5500 >    0.1490    0.6370    0.2507  694.3901 5155.5386   -0.4053    0.0893 323.41  -1.0  -1.0  0     0.0000    0.0001
39           ?    N    ? P      ? 20180313 0002   26.7790 GAU  6.24e-03 -1.00e+00  8.44e+00  1.20e-02    8.4400 >    0.1702    0.6328    0.1415  694.3890 5155.5532   -0.4086    0.1019 327.80  -1.0  -1.0  0     0.0000    0.0002
38           ?    N    ? P      ? 20180313 0002   26.8230 GAU  1.43e-02 -1.00e+00  6.89e+00  1.20e-02    6.8900 >    0.1909    0.6561    0.0910  694.3902 5155.5681   -0.4123    0.1143 332.27  -1.0  -1.0  0     0.0000    0.0002
36           ?    N    ? P      ? 20180313 0002   26.8310 GAU  3.12e-02 -1.00e+00  7.04e+00  1.20e-02    7.0400 >    0.2271    0.6279    0.3248  694.3865 5155.5904   -0.4164    0.1359 335.28  -1.0  -1.0  0     0.0000    0.0002
35           ?    N    ? P      ? 20180313 0002   26.2862 GAU  1.03e-02 -1.00e+00  7.94e+00  8.00e-03    7.9400 >    0.2672    0.0429    0.2926  694.3818 5155.6141   -0.4216    0.1596 337.30  -1.0  -1.0  0     0.0000    0.0003
33           ?    N    ? P      ? 20180313 0002   26.2766 GAU  1.96e-02 -1.00e+00  7.53e+00  1.20e-02    7.5300 >    0.2942    0.0064    1.2284  694.3775 5155.6293   -0.4252    0.1752 337.94  -1.0  -1.0  0     0.0000    0.0003
31           ?    N    ? P      ? 20180313 0002   26.3949 GAU  2.64e-02 -1.00e+00  6.06e+00  2.40e-02    6.0600 >    0.3144    0.1045    0.0197  694.4086 5155.6503   -0.4335    0.1867 349.28  -1.0  -1.0  0     0.0000    0.0003
32           ?    N    ? P      ? 20180313 0002   26.3042 GAU  2.01e-02 -1.00e+00  7.99e+00  8.00e-03    7.9900 >    0.3200    0.0082    1.0249  694.3777 5155.6456   -0.4297    0.1903 339.82  -1.0  -1.0  0     0.0000    0.0003
30           ?    N    ? P      ? 20180313 0002   26.3240 GAU  1.15e-02 -1.00e+00  8.69e+00  8.00e-03    8.6900 >    0.3463    0.0017    1.4380  694.3775 5155.6619   -0.4333    0.2058 341.33  -1.0  -1.0  0     0.0000    0.0003
28           ?    N    ? P      ? 20180313 0002   26.3541 GAU  1.44e-02 -1.00e+00  7.99e+00  2.80e-02    7.9900 >    0.3669    0.0111    1.3242  694.3767 5155.6745   -0.4362    0.2180 342.19  -1.0  -1.0  0     0.0000    0.0004
105          ?    N    ? P      ? 20180313 0002   26.3383 GAU  1.79e-02 -1.00e+00  8.02e+00  8.00e-03    8.0200 >    0.3811   -0.0188    1.2501  694.3764 5155.6832   -0.4382    0.2264 342.80  -1.0  -1.0  0     0.0000    0.0004
26           ?    N    ? P      ? 20180313 0002   26.3642 GAU  2.79e-02 -1.00e+00  7.00e+00  1.20e-02    7.0000 >    0.3927   -0.0045    1.3788  694.3783 5155.6910   -0.4400    0.2333 343.81  -1.0  -1.0  0     0.0000    0.0004
END_PHASE
END_NLLOC

