NLLOC "./loc/RR.20180313.000728.grid0" "LOCATED" "Location completed."
PUBLIC_ID None
SIGNATURE "   obs:./obs/nll_picks.obs   NLLoc:v7.00.10(30Aug2020)   run:29Apr2022 23h17m42"
COMMENT "Rattlesnake Ridge Slidequake Locations"
GRID  150 250 75  694.15 5155.4 0  0.002 0.002 0.002 PROB_DENSITY
SEARCH OCTREE nInitial 1000 nEvaluated 20000 smallestNodeSide 0.003725/0.006225/0.001850 oct_tree_integral 8.365246e-04 scatter_volume 8.365246e-04
HYPOCENTER  x 694.295 y 5155.57 z 0.00185  OT 28.2945  ix -1 iy -1 iz -1 MAXIMUM_LIKELIHOOD
GEOGRAPHIC  OT 2018 03 13  00 07 28.294451  Lat 5155.568075 Long 694.295275 Depth 0.001850
QUALITY  Pmax 1.6052e+30 MFmin 39.8903 MFmax 39.9094 RMS 0.0130801 Nphs 10 Gap 305.187 Dist 0.0939294 Mamp  0.41 10 Mdur -9.90 0
VPVSRATIO  VpVsRatio -1  Npair 0  Diff -2e+30
STATISTICS  ExpectX 694.231063 Y 5155.510257 Z 0.060967  CovXX 0.00315718 XY 0.00190564 XZ 4.80648e-05 YY 0.00238323 YZ -0.00036834 ZZ 0.00170326 EllAz1  321.654 Dip1  18.0109 Len1  0.0505205 Az2  309.126 Dip2  -71.5792 Len2  0.0795589 Len3  1.291829e-01
STAT_GEOG  ExpectLat 5155.510257 Long 694.231063 Depth 0.060967
TRANSFORM  NONE
QML_OriginQuality  assocPhCt 10  usedPhCt 10  assocStaCt -1  usedStaCt 10  depthPhCt -1  stdErr 0.0130801  azGap 305.187  secAzGap 318.884  gtLevel -  minDist 0.0939294 maxDist 0.140867 medDist 0.118937
QML_OriginUncertainty  horUnc -1  minHorUnc 0.0435779  maxHorUnc 0.104134  azMaxHorUnc 50.7394
QML_ConfidenceEllipsoid  semiMajorAxisLength 0.129183  semiMinorAxisLength 0.0505205  semiIntermediateAxisLength 0.0795589  majorAxisPlunge -3.73739  majorAxisAzimuth 50.4367  majorAxisRotation 161.805
FOCALMECH  Hyp  5155.568075 694.295275 0.001850 Mech  0 0 0 mf  0 nObs -1
PHASE ID Ins Cmp On Pha  FM Date     HrMn   Sec     Err  ErrMag    Coda      Amp       Per       PriorWt  >   TTpred    Res       Weight    StaLoc(X  Y         Z)        SDist    SAzim  RAz  RDip RQual    Tcorr       TTerr
36           ?    N    ? P      ? 20180313 0007   28.4600 GAU  1.51e-02 -1.00e+00  6.50e+00  5.60e-02    6.5000 >    0.1583    0.0072    1.4473  694.3865 5155.5904   -0.4164    0.0939  76.28  -1.0  -1.0  0     0.0000    0.0002
38           ?    N    ? P      ? 20180313 0007   28.4522 GAU  3.25e-02 -1.00e+00  5.51e+00  4.00e-02    5.5100 >    0.1599   -0.0022    1.5652  694.3902 5155.5681   -0.4123    0.0949  89.98  -1.0  -1.0  0     0.0000    0.0002
35           ?    N    ? P      ? 20180313 0007   28.4572 GAU  8.48e-03 -1.00e+00  9.18e+00  8.00e-03    9.1800 >    0.1659   -0.0032    0.9672  694.3818 5155.6141   -0.4216    0.0980  61.97  -1.0  -1.0  0     0.0000    0.0002
33           ?    N    ? P      ? 20180313 0007   28.4603 GAU  8.48e-03 -1.00e+00  9.08e+00  1.20e-02    9.0800 >    0.1745   -0.0086    0.6964  694.3775 5155.6293   -0.4252    0.1025  53.32  -1.0  -1.0  0     0.0000    0.0002
32           ?    N    ? P      ? 20180313 0007   28.4465 GAU  1.16e-02 -1.00e+00  7.76e+00  1.20e-02    7.7600 >    0.1932   -0.0411    0.1869  694.3777 5155.6456   -0.4297    0.1131  46.76  -1.0  -1.0  0     0.0000    0.0002
30           ?    N    ? P      ? 20180313 0007   28.5162 GAU  9.74e-03 -1.00e+00  7.87e+00  1.20e-02    7.8700 >    0.2131    0.0087    1.3180  694.3775 5155.6619   -0.4333    0.1247  41.22  -1.0  -1.0  0     0.0000    0.0002
34           ?    N    ? P      ? 20180313 0007   28.5373 GAU  1.38e-02 -1.00e+00  6.84e+00  1.60e-02    6.8400 >    0.2171    0.0258    0.8094  694.4145 5155.6153   -0.4263    0.1282  68.40  -1.0  -1.0  0     0.0000    0.0002
28           ?    N    ? P      ? 20180313 0007   28.5228 GAU  2.01e-02 -1.00e+00  7.16e+00  8.00e-03    7.1600 >    0.2286   -0.0002    1.4114  694.3767 5155.6745   -0.4362    0.1340  37.42  -1.0  -1.0  0     0.0000    0.0002
31           ?    N    ? P      ? 20180313 0007   28.5674 GAU  2.07e-02 -1.00e+00  6.17e+00  1.20e-02    6.1700 >    0.2381    0.0349    0.5249  694.4086 5155.6503   -0.4335    0.1401  54.03  -1.0  -1.0  0     0.0000    0.0002
105          ?    N    ? P      ? 20180313 0007   28.5470 GAU  4.49e-02 -1.00e+00  7.41e+00  1.20e-02    7.4100 >    0.2404    0.0121    1.0734  694.3764 5155.6832   -0.4382    0.1409  35.16  -1.0  -1.0  0     0.0000    0.0002
END_PHASE
END_NLLOC

