NLLOC "./loc/RR.20180313.000153.grid0" "LOCATED" "Location completed."
PUBLIC_ID None
SIGNATURE "   obs:./obs/nll_picks.obs   NLLoc:v7.00.10(30Aug2020)   run:29Apr2022 23h16m08"
COMMENT "Rattlesnake Ridge Slidequake Locations"
GRID  150 250 75  694.15 5155.4 0  0.002 0.002 0.002 PROB_DENSITY
SEARCH OCTREE nInitial 1000 nEvaluated 20008 smallestNodeSide 0.003725/0.006225/0.001850 oct_tree_integral 6.009244e-04 scatter_volume 6.009244e-04
HYPOCENTER  x 694.282 y 5155.65 z 0.000925  OT 52.9455  ix -1 iy -1 iz -1 MAXIMUM_LIKELIHOOD
GEOGRAPHIC  OT 2018 03 13  00 01 52.945544  Lat 5155.652112 Long 694.282238 Depth 0.000925
QUALITY  Pmax 3.60316e+21 MFmin 27.4297 MFmax 27.4813 RMS 0.00728415 Nphs 8 Gap 307.052 Dist 0.0970529 Mamp  0.36 8 Mdur -9.90 0
VPVSRATIO  VpVsRatio -1  Npair 0  Diff -2e+30
STATISTICS  ExpectX 694.252887 Y 5155.653269 Z 0.073007  CovXX 0.0056075 XY 0.00104105 XZ 0.000781158 YY 0.000591303 YZ 0.000295526 ZZ 0.00186154 EllAz1  169.599 Dip1  5.72929 Len1  0.0361432 Az2  285.982 Dip2  77.2772 Len2  0.0777019 Len3  1.452897e-01
STAT_GEOG  ExpectLat 5155.653269 Long 694.252887 Depth 0.073007
TRANSFORM  NONE
QML_OriginQuality  assocPhCt 8  usedPhCt 8  assocStaCt -1  usedStaCt 8  depthPhCt -1  stdErr 0.00728415  azGap 307.052  secAzGap 333.812  gtLevel -  minDist 0.0970529 maxDist 0.124842 medDist 0.103482
QML_OriginUncertainty  horUnc -1  minHorUnc 0.029712  maxHorUnc 0.115648  azMaxHorUnc 78.7289
QML_ConfidenceEllipsoid  semiMajorAxisLength 0.14529  semiMinorAxisLength 0.0361432  semiIntermediateAxisLength 0.0777019  majorAxisPlunge 11.3212  majorAxisAzimuth 78.4478  majorAxisRotation 6.32755
FOCALMECH  Hyp  5155.652112 694.282238 0.000925 Mech  0 0 0 mf  0 nObs -1
PHASE ID Ins Cmp On Pha  FM Date     HrMn   Sec     Err  ErrMag    Coda      Amp       Per       PriorWt  >   TTpred    Res       Weight    StaLoc(X  Y         Z)        SDist    SAzim  RAz  RDip RQual    Tcorr       TTerr
30           ?    N    ? P      ? 20180313 0001   53.8440 GAU  1.75e-02 -1.00e+00  7.20e+00  8.00e-03    7.2000 >    0.1599    0.7386    0.0000  694.3775 5155.6619   -0.4333    0.0957  84.12  -1.0  -1.0  0     0.0000    0.0002
28           ?    N    ? P      ? 20180313 0001   53.1022 GAU  1.44e-02 -1.00e+00  8.27e+00  1.20e-02    8.2700 >    0.1624   -0.0058    0.8543  694.3767 5155.6745   -0.4362    0.0971  76.69  -1.0  -1.0  0     0.0000    0.0002
33           ?    N    ? P      ? 20180313 0001   53.1094 GAU  2.50e-02 -1.00e+00  7.28e+00  1.20e-02    7.2800 >    0.1632    0.0007    2.4819  694.3775 5155.6293   -0.4252    0.0980 103.45  -1.0  -1.0  0     0.0000    0.0002
105          ?    N    ? P      ? 20180313 0001   53.1054 GAU  1.72e-02 -1.00e+00  7.88e+00  5.20e-02    7.8800 >    0.1662   -0.0064    0.6409  694.3764 5155.6832   -0.4382    0.0992  71.71  -1.0  -1.0  0     0.0000    0.0002
25           ?    N    ? P      ? 20180313 0001   53.1218 GAU  1.37e-02 -1.00e+00  7.11e+00  1.20e-02    7.1100 >    0.1744    0.0018    1.0364  694.3684 5155.7091   -0.4438    0.1033  56.52  -1.0  -1.0  0     0.0000    0.0002
26           ?    N    ? P      ? 20180313 0001   53.1190 GAU  1.51e-02 -1.00e+00  7.55e+00  1.20e-02    7.5500 >    0.1739   -0.0005    0.6839  694.3783 5155.6910   -0.4400    0.1036  67.98  -1.0  -1.0  0     0.0000    0.0002
23           ?    N    ? P      ? 20180313 0001   53.1341 GAU  1.09e-02 -1.00e+00  7.22e+00  8.00e-03    7.2200 >    0.1876    0.0010    1.6989  694.3677 5155.7226   -0.4473    0.1107  50.50  -1.0  -1.0  0     0.0000    0.0002
27           ?    N    ? P      ? 20180313 0001   53.1761 GAU  8.40e-03 -1.00e+00  5.40e+00  2.80e-02    5.4000 >    0.2093    0.0213    0.6037  694.4008 5155.6912   -0.4412    0.1248  71.73  -1.0  -1.0  0     0.0000    0.0002
END_PHASE
END_NLLOC

