NLLOC "./loc/RR.20180313.014454.grid0" "REJECTED" "WARNING: max prob location on grid boundary 31, rejecting location."
PUBLIC_ID None
SIGNATURE "   obs:./obs/nll_picks.obs   NLLoc:v7.00.10(30Aug2020)   run:29Apr2022 23h20m29"
COMMENT "Rattlesnake Ridge Slidequake Locations"
GRID  150 250 75  694.15 5155.4 0  0.002 0.002 0.002 PROB_DENSITY
SEARCH OCTREE nInitial 1000 nEvaluated 4088 smallestNodeSide 0.001863/0.003112/0.000925 oct_tree_integral 1.553094e-05 scatter_volume 1.553094e-05
HYPOCENTER  x 694.225 y 5155.7 z 0.147537  OT 54.1132  ix -1 iy -1 iz -1 MAXIMUM_LIKELIHOOD
GEOGRAPHIC  OT 2018 03 13  01 44 54.113220  Lat 5155.697244 Long 694.225431 Depth 0.147537
QUALITY  Pmax 4.30045e+132 MFmin 292.151 MFmax 292.203 RMS 0.00644666 Nphs 28 Gap 254.483 Dist 0.0882752 Mamp  0.75 28 Mdur -9.90 0
VPVSRATIO  VpVsRatio -1  Npair 0  Diff -2e+30
STATISTICS  ExpectX 694.204882 Y 5155.692502 Z 0.125705  CovXX 0.000647832 XY 0.00011628 XZ 0.00023662 YY 6.118e-05 YZ 9.86384e-05 ZZ 0.000407753 EllAz1  173.381 Dip1  10.5782 Len1  0.0101426 Az2  279.786 Dip2  56.5256 Len2  0.0305651 Len3  5.389886e-02
STAT_GEOG  ExpectLat 5155.692502 Long 694.204882 Depth 0.125705
TRANSFORM  NONE
QML_OriginQuality  assocPhCt 28  usedPhCt 28  assocStaCt -1  usedStaCt 28  depthPhCt -1  stdErr 0.00644666  azGap 254.483  secAzGap 260.05  gtLevel -  minDist 0.0882752 maxDist 0.225018 medDist 0.165665
QML_OriginUncertainty  horUnc -1  minHorUnc 0.00946773  maxHorUnc 0.0392567  azMaxHorUnc 79.1879
QML_ConfidenceEllipsoid  semiMajorAxisLength 0.0538989  semiMinorAxisLength 0.0101426  semiIntermediateAxisLength 0.0305651  majorAxisPlunge 31.3402  majorAxisAzimuth 76.8507  majorAxisRotation 25.6191
FOCALMECH  Hyp  5155.697244 694.225431 0.147537 Mech  0 0 0 mf  0 nObs -1
PHASE ID Ins Cmp On Pha  FM Date     HrMn   Sec     Err  ErrMag    Coda      Amp       Per       PriorWt  >   TTpred    Res       Weight    StaLoc(X  Y         Z)        SDist    SAzim  RAz  RDip RQual    Tcorr       TTerr
106          ?    N    ? P      ? 20180313 0144   54.5104 GAU  8.42e-03 -1.00e+00  7.57e+00  2.40e-02    7.5700 >    0.2893    0.1079    0.0005  694.3120 5155.6801   -0.4360    0.0883 101.23  -1.0  -1.0  0     0.0000    0.0003
25           ?    N    ? P      ? 20180313 0144   54.4598 GAU  8.43e-03 -1.00e+00  8.63e+00  8.00e-03    8.6300 >    0.3410    0.0056    0.8461  694.3684 5155.7091   -0.4438    0.1435  85.25  -1.0  -1.0  0     0.0000    0.0003
23           ?    N    ? P      ? 20180313 0144   54.4687 GAU  6.65e-03 -1.00e+00  9.94e+00  1.20e-02    9.9400 >    0.3460    0.0095    0.8971  694.3677 5155.7226   -0.4473    0.1445  79.91  -1.0  -1.0  0     0.0000    0.0003
21           ?    N    ? P      ? 20180313 0144   54.4647 GAU  7.98e-03 -1.00e+00  8.70e+00  1.60e-02    8.7000 >    0.3517   -0.0002    1.0400  694.3642 5155.7391   -0.4517    0.1449  73.20  -1.0  -1.0  0     0.0000    0.0004
20           ?    N    ? P      ? 20180313 0144   54.4660 GAU  6.65e-03 -1.00e+00  8.11e+00  8.00e-03    8.1100 >    0.3563   -0.0035    1.1063  694.3609 5155.7515   -0.4553    0.1459  68.18  -1.0  -1.0  0     0.0000    0.0004
17           ?    N    ? P      ? 20180313 0144   54.4913 GAU  9.75e-03 -1.00e+00  7.75e+00  1.20e-02    7.7500 >    0.3666    0.0115    1.0372  694.3461 5155.7815   -0.4621    0.1472  55.09  -1.0  -1.0  0     0.0000    0.0004
18           ?    N    ? P      ? 20180313 0144   54.4780 GAU  7.09e-03 -1.00e+00  7.63e+00  8.00e-03    7.6300 >    0.3619    0.0028    1.2743  694.3549 5155.7674   -0.4586    0.1473  61.54  -1.0  -1.0  0     0.0000    0.0004
105          ?    N    ? P      ? 20180313 0144   54.4501 GAU  5.77e-03 -1.00e+00  9.51e+00  5.20e-02    9.5100 >    0.3424   -0.0055    0.8995  694.3764 5155.6832   -0.4382    0.1516  95.30  -1.0  -1.0  0     0.0000    0.0003
16           ?    N    ? P      ? 20180313 0144   54.5033 GAU  1.55e-02 -1.00e+00  7.75e+00  1.20e-02    7.7500 >    0.3742    0.0159    0.8318  694.3452 5155.7921   -0.4642    0.1528  51.61  -1.0  -1.0  0     0.0000    0.0004
28           ?    N    ? P      ? 20180313 0144   54.4501 GAU  6.64e-03 -1.00e+00  8.95e+00  1.20e-02    8.9500 >    0.3416   -0.0047    0.9075  694.3767 5155.6745   -0.4362    0.1530  98.57  -1.0  -1.0  0     0.0000    0.0003
26           ?    N    ? P      ? 20180313 0144   54.4541 GAU  6.20e-03 -1.00e+00  9.36e+00  1.20e-02    9.3600 >    0.3456   -0.0047    0.8874  694.3783 5155.6910   -0.4400    0.1530  92.35  -1.0  -1.0  0     0.0000    0.0003
30           ?    N    ? P      ? 20180313 0144   54.4541 GAU  7.97e-03 -1.00e+00  8.79e+00  8.00e-03    8.7900 >    0.3408    0.0001    0.9959  694.3775 5155.6619   -0.4333    0.1561 103.08  -1.0  -1.0  0     0.0000    0.0003
32           ?    N    ? P      ? 20180313 0144   54.4620 GAU  8.86e-03 -1.00e+00  8.28e+00  8.00e-03    8.2800 >    0.3422    0.0066    0.9866  694.3777 5155.6456   -0.4297    0.1608 108.75  -1.0  -1.0  0     0.0000    0.0003
12           ?    N    ? P      ? 20180313 0144   54.4971 GAU  1.64e-02 -1.00e+00  6.70e+00  1.20e-02    6.7000 >    0.3878   -0.0039    1.1690  694.3356 5155.8197   -0.4663    0.1648  41.98  -1.0  -1.0  0     0.0000    0.0004
33           ?    N    ? P      ? 20180313 0144   54.4678 GAU  1.02e-02 -1.00e+00  7.56e+00  1.20e-02    7.5600 >    0.3431    0.0115    0.8841  694.3775 5155.6293   -0.4252    0.1666 114.06  -1.0  -1.0  0     0.0000    0.0003
5            ?    N    ? P      ? 20180313 0144   54.5494 GAU  9.31e-03 -1.00e+00  7.45e+00  1.60e-02    7.4500 >    0.3699    0.0663    0.0015  694.2898 5155.8520   -0.4475    0.1676  22.58  -1.0  -1.0  0     0.0000    0.0004
103          ?    N    ? P      ? 20180313 0144   54.4904 GAU  9.75e-03 -1.00e+00  7.40e+00  6.40e-02    7.4000 >    0.3910   -0.0139    0.8216  694.3644 5155.7952   -0.4662    0.1700  54.82  -1.0  -1.0  0     0.0000    0.0004
10           ?    N    ? P      ? 20180313 0144   54.5117 GAU  1.33e-02 -1.00e+00  6.32e+00  1.20e-02    6.3200 >    0.3969    0.0015    1.4650  694.3329 5155.8329   -0.4673    0.1731  38.39  -1.0  -1.0  0     0.0000    0.0004
27           ?    N    ? P      ? 20180313 0144   54.4838 GAU  5.77e-03 -1.00e+00  7.64e+00  2.40e-02    7.6400 >    0.3686    0.0020    0.9494  694.4008 5155.6912   -0.4412    0.1755  91.96  -1.0  -1.0  0     0.0000    0.0004
22           ?    N    ? P      ? 20180313 0144   54.4873 GAU  7.54e-03 -1.00e+00  7.75e+00  1.20e-02    7.7500 >    0.3766   -0.0025    0.9568  694.3985 5155.7265   -0.4488    0.1755  80.39  -1.0  -1.0  0     0.0000    0.0004
35           ?    N    ? P      ? 20180313 0144   54.4745 GAU  9.75e-03 -1.00e+00  7.27e+00  2.40e-02    7.2700 >    0.3498    0.0115    0.9898  694.3818 5155.6141   -0.4216    0.1771 118.00  -1.0  -1.0  0     0.0000    0.0003
31           ?    N    ? P      ? 20180313 0144   54.4940 GAU  6.20e-03 -1.00e+00  8.06e+00  1.20e-02    8.0600 >    0.3749    0.0058    1.1225  694.4086 5155.6503   -0.4335    0.1891 104.36  -1.0  -1.0  0     0.0000    0.0004
2            ?    N    ? P      ? 20180313 0144   54.5139 GAU  2.53e-02 -1.00e+00  6.31e+00  5.20e-02    6.3100 >    0.4082   -0.0075    1.0381  694.3150 5155.8647   -0.4623    0.1899  28.14  -1.0  -1.0  0     0.0000    0.0004
36           ?    N    ? P      ? 20180313 0144   54.4793 GAU  1.02e-02 -1.00e+00  6.57e+00  1.20e-02    6.5700 >    0.3632    0.0029    1.4178  694.3865 5155.5904   -0.4164    0.1933 123.57  -1.0  -1.0  0     0.0000    0.0004
6            ?    N    ? P      ? 20180313 0144   54.5365 GAU  1.51e-02 -1.00e+00  7.13e+00  1.20e-02    7.1300 >    0.4227    0.0006    1.5565  694.3446 5155.8502   -0.4728    0.1939  37.94  -1.0  -1.0  0     0.0000    0.0004
34           ?    N    ? P      ? 20180313 0144   54.4922 GAU  7.09e-03 -1.00e+00  7.40e+00  1.20e-02    7.4000 >    0.3869   -0.0080    1.2130  694.4145 5155.6153   -0.4263    0.2061 113.44  -1.0  -1.0  0     0.0000    0.0004
38           ?    N    ? P      ? 20180313 0144   54.4935 GAU  1.55e-02 -1.00e+00  6.14e+00  1.60e-02    6.1400 >    0.3788    0.0014    1.3013  694.3902 5155.5681   -0.4123    0.2093 128.09  -1.0  -1.0  0     0.0000    0.0004
37           ?    N    ? P      ? 20180313 0144   54.5157 GAU  1.20e-02 -1.00e+00  6.68e+00  1.20e-02    6.6800 >    0.4056   -0.0031    1.4036  694.4219 5155.5876   -0.4220    0.2250 119.16  -1.0  -1.0  0     0.0000    0.0004
END_PHASE
END_NLLOC

