NLLOC "./loc/RR.20180313.022732.grid0" "REJECTED" "WARNING: max prob location on grid boundary 31, rejecting location."
PUBLIC_ID None
SIGNATURE "   obs:./obs/nll_picks.obs   NLLoc:v7.00.10(30Aug2020)   run:29Apr2022 23h20m54"
COMMENT "Rattlesnake Ridge Slidequake Locations"
GRID  150 250 75  694.15 5155.4 0  0.002 0.002 0.002 PROB_DENSITY
SEARCH OCTREE nInitial 1000 nEvaluated 3416 smallestNodeSide 0.001863/0.003112/0.000925 oct_tree_integral 7.513812e-06 scatter_volume 7.513812e-06
HYPOCENTER  x 694.38 y 5155.82 z 0.147537  OT 32.7121  ix -1 iy -1 iz -1 MAXIMUM_LIKELIHOOD
GEOGRAPHIC  OT 2018 03 13  02 27 32.712098  Lat 5155.818631 Long 694.380019 Depth 0.147537
QUALITY  Pmax 2.95244e+100 MFmin 243.617 MFmax 243.647 RMS 0.00660443 Nphs 23 Gap 216.945 Dist 0.0281913 Mamp  0.63 23 Mdur -9.90 0
VPVSRATIO  VpVsRatio -1  Npair 0  Diff -2e+30
STATISTICS  ExpectX 694.367100 Y 5155.813803 Z 0.134612  CovXX 0.00253108 XY 0.000855198 XZ 0.000240016 YY 0.000319796 YZ 9.45541e-05 ZZ 0.000131263 EllAz1  161.908 Dip1  8.28755 Len1  0.00956536 Az2  308.278 Dip2  80.0769 Len2  0.0195748 Len3  1.002611e-01
STAT_GEOG  ExpectLat 5155.813803 Long 694.367100 Depth 0.134612
TRANSFORM  NONE
QML_OriginQuality  assocPhCt 23  usedPhCt 23  assocStaCt -1  usedStaCt 23  depthPhCt -1  stdErr 0.00660443  azGap 216.945  secAzGap 223.349  gtLevel -  minDist 0.0281913 maxDist 0.144212 medDist 0.0796773
QML_OriginUncertainty  horUnc -1  minHorUnc 0.00797484  maxHorUnc 0.0805817  azMaxHorUnc 71.1393
QML_ConfidenceEllipsoid  semiMajorAxisLength 0.100261  semiMinorAxisLength 0.00956536  semiIntermediateAxisLength 0.0195748  majorAxisPlunge 5.4193  majorAxisAzimuth 71.1164  majorAxisRotation 8.47406
FOCALMECH  Hyp  5155.818631 694.380019 0.147537 Mech  0 0 0 mf  0 nObs -1
PHASE ID Ins Cmp On Pha  FM Date     HrMn   Sec     Err  ErrMag    Coda      Amp       Per       PriorWt  >   TTpred    Res       Weight    StaLoc(X  Y         Z)        SDist    SAzim  RAz  RDip RQual    Tcorr       TTerr
103          ?    N    ? P      ? 20180313 0227   32.9585 GAU  9.87e-03 -1.00e+00  8.21e+00  1.20e-02    8.2100 >    0.2181    0.0283    0.3190  694.3644 5155.7952   -0.4662    0.0282 213.74  -1.0  -1.0  0     0.0000    0.0002
16           ?    N    ? P      ? 20180313 0227   32.9333 GAU  1.86e-03 -1.00e+00  9.43e+00  2.80e-02    9.4300 >    0.2208    0.0004    1.2616  694.3452 5155.7921   -0.4642    0.0438 232.73  -1.0  -1.0  0     0.0000    0.0002
12           ?    N    ? P      ? 20180313 0227   32.9347 GAU  4.02e-03 -1.00e+00  9.11e+00  8.00e-03    9.1100 >    0.2233   -0.0007    1.5294  694.3356 5155.8197   -0.4663    0.0444 271.43  -1.0  -1.0  0     0.0000    0.0002
6            ?    N    ? P      ? 20180313 0227   32.9679 GAU  7.30e-03 -1.00e+00  7.92e+00  8.00e-03    7.9200 >    0.2335    0.0223    0.5089  694.3446 5155.8502   -0.4728    0.0474 311.71  -1.0  -1.0  0     0.0000    0.0002
10           ?    N    ? P      ? 20180313 0227   32.9376 GAU  8.39e-03 -1.00e+00  7.82e+00  8.00e-03    7.8200 >    0.2270   -0.0015    1.2971  694.3329 5155.8329   -0.4673    0.0492 286.83  -1.0  -1.0  0     0.0000    0.0002
17           ?    N    ? P      ? 20180313 0227   32.9244 GAU  5.22e-03 -1.00e+00  8.83e+00  1.20e-02    8.8300 >    0.2207   -0.0084    0.7938  694.3461 5155.7815   -0.4621    0.0503 222.36  -1.0  -1.0  0     0.0000    0.0002
18           ?    N    ? P      ? 20180313 0227   32.9292 GAU  2.61e-03 -1.00e+00  8.37e+00  2.40e-02    8.3700 >    0.2195   -0.0024    1.2036  694.3549 5155.7674   -0.4586    0.0571 206.13  -1.0  -1.0  0     0.0000    0.0002
15           ?    N    ? P      ? 20180313 0227   32.9370 GAU  2.98e-03 -1.00e+00  8.61e+00  2.40e-02    8.6100 >    0.2239    0.0010    1.5016  694.3206 5155.8107   -0.4609    0.0600 262.39  -1.0  -1.0  0     0.0000    0.0002
8            ?    N    ? P      ? 20180313 0227   32.9365 GAU  5.84e-03 -1.00e+00  7.17e+00  1.20e-02    7.1700 >    0.2308   -0.0064    1.4043  694.3223 5155.8450   -0.4648    0.0635 294.56  -1.0  -1.0  0     0.0000    0.0002
20           ?    N    ? P      ? 20180313 0227   32.9374 GAU  3.35e-03 -1.00e+00  8.38e+00  8.00e-03    8.3800 >    0.2232    0.0021    1.2358  694.3609 5155.7515   -0.4553    0.0698 195.93  -1.0  -1.0  0     0.0000    0.0002
4            ?    N    ? P      ? 20180313 0227   32.9675 GAU  7.66e-03 -1.00e+00  7.44e+00  1.20e-02    7.4400 >    0.2321    0.0233    0.5095  694.3090 5155.8520   -0.4586    0.0785 295.19  -1.0  -1.0  0     0.0000    0.0002
2            ?    N    ? P      ? 20180313 0227   32.9467 GAU  8.02e-03 -1.00e+00  7.23e+00  8.00e-03    7.2300 >    0.2381   -0.0035    1.8413  694.3150 5155.8647   -0.4623    0.0797 305.30  -1.0  -1.0  0     0.0000    0.0002
21           ?    N    ? P      ? 20180313 0227   32.9520 GAU  9.10e-03 -1.00e+00  8.03e+00  8.00e-03    8.0300 >    0.2275    0.0124    0.7455  694.3642 5155.7391   -0.4517    0.0811 191.28  -1.0  -1.0  0     0.0000    0.0002
22           ?    N    ? P      ? 20180313 0227   32.9946 GAU  8.36e-03 -1.00e+00  7.09e+00  8.00e-03    7.0900 >    0.2347    0.0478    0.1175  694.3985 5155.7265   -0.4488    0.0939 168.65  -1.0  -1.0  0     0.0000    0.0002
5            ?    N    ? P      ? 20180313 0227   33.1200 GAU  1.20e-02 -1.00e+00  8.43e+00  1.20e-02    8.4300 >    0.2320    0.1759    0.0001  694.2898 5155.8520   -0.4475    0.0962 290.27  -1.0  -1.0  0     0.0000    0.0002
23           ?    N    ? P      ? 20180313 0227   32.9429 GAU  8.36e-03 -1.00e+00  7.32e+00  8.00e-03    7.3200 >    0.2354   -0.0046    1.2250  694.3677 5155.7226   -0.4473    0.0969 187.31  -1.0  -1.0  0     0.0000    0.0002
25           ?    N    ? P      ? 20180313 0227   32.9668 GAU  7.62e-03 -1.00e+00  7.53e+00  8.00e-03    7.5300 >    0.2441    0.0106    1.0094  694.3684 5155.7091   -0.4438    0.1101 186.04  -1.0  -1.0  0     0.0000    0.0002
7            ?    N    ? P      ? 20180313 0227   33.2440 GAU  1.06e-02 -1.00e+00  7.66e+00  1.20e-02    7.6600 >    0.2358    0.2961    0.0000  694.2704 5155.8450   -0.4359    0.1127 283.53  -1.0  -1.0  0     0.0000    0.0002
9            ?    N    ? P      ? 20180313 0227   32.9708 GAU  3.21e-02 -1.00e+00  7.27e+00  1.20e-02    7.2700 >    0.2391    0.0196    0.8954  694.2594 5155.8351   -0.4296    0.1218 277.76  -1.0  -1.0  0     0.0000    0.0002
26           ?    N    ? P      ? 20180313 0227   32.9660 GAU  4.92e-03 -1.00e+00  6.84e+00  1.20e-02    6.8400 >    0.2583   -0.0044    2.1559  694.3783 5155.6910   -0.4400    0.1277 180.77  -1.0  -1.0  0     0.0000    0.0003
27           ?    N    ? P      ? 20180313 0227   32.9756 GAU  1.30e-02 -1.00e+00  6.04e+00  2.00e-02    6.0400 >    0.2614    0.0021    1.4708  694.4008 5155.6912   -0.4412    0.1291 170.74  -1.0  -1.0  0     0.0000    0.0003
105          ?    N    ? P      ? 20180313 0227   32.9791 GAU  8.61e-03 -1.00e+00  7.49e+00  1.20e-02    7.4900 >    0.2653    0.0018    1.9745  694.3764 5155.6832   -0.4382    0.1354 181.53  -1.0  -1.0  0     0.0000    0.0003
28           ?    N    ? P      ? 20180313 0227   33.2180 GAU  8.60e-03 -1.00e+00  6.97e+00  8.00e-03    6.9700 >    0.2735    0.2324    0.0002  694.3767 5155.6745   -0.4362    0.1442 181.33  -1.0  -1.0  0     0.0000    0.0003
END_PHASE
END_NLLOC

