NLLOC "./loc/RR.20180313.004029.grid0" "LOCATED" "Location completed."
PUBLIC_ID None
SIGNATURE "   obs:./obs/nll_picks.obs   NLLoc:v7.00.10(30Aug2020)   run:29Apr2022 23h19m26"
COMMENT "Rattlesnake Ridge Slidequake Locations"
GRID  150 250 75  694.15 5155.4 0  0.002 0.002 0.002 PROB_DENSITY
SEARCH OCTREE nInitial 1000 nEvaluated 5232 smallestNodeSide 0.001863/0.003112/0.000925 oct_tree_integral 1.898145e-05 scatter_volume 1.896565e-05
HYPOCENTER  x 694.246 y 5155.66 z 0.141987  OT 29.0344  ix -1 iy -1 iz -1 MAXIMUM_LIKELIHOOD
GEOGRAPHIC  OT 2018 03 13  00 40 29.034442  Lat 5155.659894 Long 694.245919 Depth 0.141987
QUALITY  Pmax 3.47471e+125 MFmin 307.687 MFmax 307.751 RMS 0.00887422 Nphs 27 Gap 261.494 Dist 0.069105 Mamp  0.74 27 Mdur -9.90 0
VPVSRATIO  VpVsRatio -1  Npair 0  Diff -2e+30
STATISTICS  ExpectX 694.220924 Y 5155.651808 Z 0.112946  CovXX 0.000863597 XY 0.000165908 XZ 0.000539718 YY 9.00132e-05 YZ 0.000233784 ZZ 0.00123038 EllAz1  174.099 Dip1  8.44569 Len1  0.0115767 Az2  270.195 Dip2  35.5762 Len2  0.0410328 Len3  7.675787e-02
STAT_GEOG  ExpectLat 5155.651808 Long 694.220924 Depth 0.112946
TRANSFORM  NONE
QML_OriginQuality  assocPhCt 27  usedPhCt 27  assocStaCt -1  usedStaCt 27  depthPhCt -1  stdErr 0.00887422  azGap 261.494  secAzGap 266.834  gtLevel -  minDist 0.069105 maxDist 0.207824 medDist 0.156862
QML_OriginUncertainty  horUnc -1  minHorUnc 0.0113422  maxHorUnc 0.0454385  azMaxHorUnc 78.392
QML_ConfidenceEllipsoid  semiMajorAxisLength 0.0767579  semiMinorAxisLength 0.0115767  semiIntermediateAxisLength 0.0410328  majorAxisPlunge 53.1274  majorAxisAzimuth 72.681  majorAxisRotation 317.953
FOCALMECH  Hyp  5155.659894 694.245919 0.141987 Mech  0 0 0 mf  0 nObs -1
PHASE ID Ins Cmp On Pha  FM Date     HrMn   Sec     Err  ErrMag    Coda      Amp       Per       PriorWt  >   TTpred    Res       Weight    StaLoc(X  Y         Z)        SDist    SAzim  RAz  RDip RQual    Tcorr       TTerr
106          ?    N    ? P      ? 20180313 0040   29.3710 GAU  1.07e-02 -1.00e+00  8.67e+00  8.00e-03    8.6700 >    0.2613    0.0753    0.0036  694.3120 5155.6801   -0.4360    0.0691  73.04  -1.0  -1.0  0     0.0000    0.0003
30           ?    N    ? P      ? 20180313 0040   29.3449 GAU  4.09e-03 -1.00e+00  9.55e+00  1.20e-02    9.5500 >    0.3057    0.0048    0.9793  694.3775 5155.6619   -0.4333    0.1316  89.12  -1.0  -1.0  0     0.0000    0.0003
28           ?    N    ? P      ? 20180313 0040   29.3490 GAU  5.34e-03 -1.00e+00  9.09e+00  1.20e-02    9.0900 >    0.3094    0.0052    0.9002  694.3767 5155.6745   -0.4362    0.1316  83.64  -1.0  -1.0  0     0.0000    0.0003
25           ?    N    ? P      ? 20180313 0040   29.3682 GAU  7.83e-03 -1.00e+00  8.33e+00  1.60e-02    8.3300 >    0.3185    0.0152    0.3946  694.3684 5155.7091   -0.4438    0.1320  68.11  -1.0  -1.0  0     0.0000    0.0003
32           ?    N    ? P      ? 20180313 0040   29.3319 GAU  3.92e-03 -1.00e+00  9.69e+00  1.20e-02    9.6900 >    0.3031   -0.0057    0.9741  694.3777 5155.6456   -0.4297    0.1325  96.20  -1.0  -1.0  0     0.0000    0.0003
105          ?    N    ? P      ? 20180313 0040   29.3523 GAU  7.30e-03 -1.00e+00  9.22e+00  2.40e-02    9.2200 >    0.3123    0.0055    0.8502  694.3764 5155.6832   -0.4382    0.1326  79.86  -1.0  -1.0  0     0.0000    0.0003
33           ?    N    ? P      ? 20180313 0040   29.3224 GAU  6.24e-03 -1.00e+00  9.22e+00  1.20e-02    9.2200 >    0.3002   -0.0122    0.8089  694.3775 5155.6293   -0.4252    0.1351 103.08  -1.0  -1.0  0     0.0000    0.0003
26           ?    N    ? P      ? 20180313 0040   29.3527 GAU  4.09e-03 -1.00e+00  8.40e+00  1.20e-02    8.4000 >    0.3176    0.0007    1.1345  694.3783 5155.6910   -0.4400    0.1360  76.79  -1.0  -1.0  0     0.0000    0.0003
23           ?    N    ? P      ? 20180313 0040   29.3664 GAU  8.55e-03 -1.00e+00  8.88e+00  8.00e-03    8.8800 >    0.3271    0.0049    1.0891  694.3677 5155.7226   -0.4473    0.1369  62.77  -1.0  -1.0  0     0.0000    0.0003
21           ?    N    ? P      ? 20180313 0040   29.3888 GAU  1.64e-02 -1.00e+00  7.71e+00  2.40e-02    7.7100 >    0.3370    0.0173    0.5488  694.3642 5155.7391   -0.4517    0.1423  56.18  -1.0  -1.0  0     0.0000    0.0003
35           ?    N    ? P      ? 20180313 0040   29.3361 GAU  4.06e-03 -1.00e+00  9.51e+00  1.20e-02    9.5100 >    0.3047   -0.0030    1.2162  694.3818 5155.6141   -0.4216    0.1434 108.62  -1.0  -1.0  0     0.0000    0.0003
20           ?    N    ? P      ? 20180313 0040   29.3719 GAU  7.66e-03 -1.00e+00  7.07e+00  8.00e-03    7.0700 >    0.3454   -0.0079    1.4518  694.3609 5155.7515   -0.4553    0.1470  51.45  -1.0  -1.0  0     0.0000    0.0003
18           ?    N    ? P      ? 20180313 0040   29.3744 GAU  1.37e-02 -1.00e+00  6.87e+00  1.20e-02    6.8700 >    0.3548   -0.0149    1.1845  694.3549 5155.7674   -0.4586    0.1531  45.38  -1.0  -1.0  0     0.0000    0.0004
36           ?    N    ? P      ? 20180313 0040   29.3413 GAU  6.54e-03 -1.00e+00  8.23e+00  8.00e-03    8.2300 >    0.3135   -0.0066    1.1686  694.3865 5155.5904   -0.4164    0.1569 116.32  -1.0  -1.0  0     0.0000    0.0003
17           ?    N    ? P      ? 20180313 0040   29.3896 GAU  1.10e-02 -1.00e+00  7.08e+00  1.20e-02    7.0800 >    0.3635   -0.0084    1.6571  694.3461 5155.7815   -0.4621    0.1576  39.50  -1.0  -1.0  0     0.0000    0.0004
27           ?    N    ? P      ? 20180313 0040   29.3881 GAU  2.81e-02 -1.00e+00  7.83e+00  8.00e-03    7.8300 >    0.3404    0.0132    0.4440  694.4008 5155.6912   -0.4412    0.1580  78.55  -1.0  -1.0  0     0.0000    0.0003
31           ?    N    ? P      ? 20180313 0040   29.3717 GAU  4.98e-03 -1.00e+00  8.10e+00  1.20e-02    8.1000 >    0.3378   -0.0005    1.0886  694.4086 5155.6503   -0.4335    0.1630  93.36  -1.0  -1.0  0     0.0000    0.0003
16           ?    N    ? P      ? 20180313 0040   29.4036 GAU  1.73e-02 -1.00e+00  6.88e+00  4.80e-02    6.8800 >    0.3732   -0.0041    1.4335  694.3452 5155.7921   -0.4642    0.1653  36.90  -1.0  -1.0  0     0.0000    0.0004
22           ?    N    ? P      ? 20180313 0040   29.3904 GAU  1.41e-02 -1.00e+00  7.29e+00  8.00e-03    7.2900 >    0.3572   -0.0012    1.0079  694.3985 5155.7265   -0.4488    0.1665  66.40  -1.0  -1.0  0     0.0000    0.0004
38           ?    N    ? P      ? 20180313 0040   29.3443 GAU  4.51e-03 -1.00e+00  7.77e+00  1.20e-02    7.7700 >    0.3261   -0.0162    0.8022  694.3902 5155.5681   -0.4123    0.1710 122.47  -1.0  -1.0  0     0.0000    0.0003
34           ?    N    ? P      ? 20180313 0040   29.3566 GAU  6.94e-03 -1.00e+00  7.66e+00  1.60e-02    7.6600 >    0.3431   -0.0210    0.5420  694.4145 5155.6153   -0.4263    0.1744 104.82  -1.0  -1.0  0     0.0000    0.0003
39           ?    N    ? P      ? 20180313 0040   29.3650 GAU  4.96e-03 -1.00e+00  7.80e+00  1.20e-02    7.8000 >    0.3320   -0.0015    1.9057  694.3890 5155.5532   -0.4086    0.1785 126.71  -1.0  -1.0  0     0.0000    0.0003
103          ?    N    ? P      ? 20180313 0040   29.3856 GAU  1.03e-02 -1.00e+00  7.01e+00  8.00e-03    7.0100 >    0.3893   -0.0382    0.3050  694.3644 5155.7952   -0.4662    0.1798  41.20  -1.0  -1.0  0     0.0000    0.0004
41           ?    N    ? P      ? 20180313 0040   29.3805 GAU  7.14e-03 -1.00e+00  7.28e+00  1.20e-02    7.2800 >    0.3412    0.0049    1.7837  694.3901 5155.5386   -0.4053    0.1884 130.06  -1.0  -1.0  0     0.0000    0.0003
37           ?    N    ? P      ? 20180313 0040   29.3677 GAU  7.22e-03 -1.00e+00  7.42e+00  8.00e-03    7.4200 >    0.3578   -0.0246    0.4780  694.4219 5155.5876   -0.4220    0.1903 112.33  -1.0  -1.0  0     0.0000    0.0004
42           ?    N    ? P      ? 20180313 0040   29.3914 GAU  4.43e-03 -1.00e+00  6.67e+00  6.80e-02    6.6700 >    0.3517    0.0053    2.1157  694.3873 5155.5165   -0.3983    0.2013 135.40  -1.0  -1.0  0     0.0000    0.0004
40           ?    N    ? P      ? 20180313 0040   29.3817 GAU  1.13e-02 -1.00e+00  7.98e+00  1.20e-02    7.9800 >    0.3717   -0.0245    0.7323  694.4169 5155.5417   -0.4131    0.2078 124.65  -1.0  -1.0  0     0.0000    0.0004
END_PHASE
END_NLLOC

