NLLOC "./loc/RR.20180313.000656_001.grid0" "LOCATED" "Location completed."
PUBLIC_ID None
SIGNATURE "   obs:./obs/nll_picks.obs   NLLoc:v7.00.10(30Aug2020)   run:29Apr2022 23h17m21"
COMMENT "Rattlesnake Ridge Slidequake Locations"
GRID  150 250 75  694.15 5155.4 0  0.002 0.002 0.002 PROB_DENSITY
SEARCH OCTREE nInitial 1000 nEvaluated 6384 smallestNodeSide 0.001863/0.003112/0.000925 oct_tree_integral 2.772159e-05 scatter_volume 2.753208e-05
HYPOCENTER  x 694.355 y 5155.8 z 0.06105  OT 56.3474  ix -1 iy -1 iz -1 MAXIMUM_LIKELIHOOD
GEOGRAPHIC  OT 2018 03 13  00 06 56.347373  Lat 5155.804625 Long 694.354875 Depth 0.061050
QUALITY  Pmax 1.08984e+129 MFmin 205.984 MFmax 205.988 RMS 0.0132069 Nphs 29 Gap 147.528 Dist 0.0133806 Mamp  0.40 29 Mdur -9.90 0
VPVSRATIO  VpVsRatio -1  Npair 0  Diff -2e+30
STATISTICS  ExpectX 694.386055 Y 5155.824402 Z 0.070645  CovXX 0.0011009 XY 0.000657719 XZ 0.000238288 YY 0.000445802 YZ 0.000216197 ZZ 0.000407499 EllAz1  150.525 Dip1  10.5832 Len1  0.00988256 Az2  274.514 Dip2  71.5192 Len2  0.0343261 Len3  7.498250e-02
STAT_GEOG  ExpectLat 5155.824402 Long 694.386055 Depth 0.070645
TRANSFORM  NONE
QML_OriginQuality  assocPhCt 29  usedPhCt 29  assocStaCt -1  usedStaCt 29  depthPhCt -1  stdErr 0.0132069  azGap 147.528  secAzGap 168.441  gtLevel -  minDist 0.0133806 maxDist 0.25376 medDist 0.0805035
QML_OriginUncertainty  horUnc -1  minHorUnc 0.00942032  maxHorUnc 0.0588954  azMaxHorUnc 58.2368
QML_ConfidenceEllipsoid  semiMajorAxisLength 0.0749825  semiMinorAxisLength 0.00988256  semiIntermediateAxisLength 0.0343261  majorAxisPlunge 14.9726  majorAxisAzimuth 57.6612  majorAxisRotation 12.5977
FOCALMECH  Hyp  5155.804625 694.354875 0.061050 Mech  0 0 0 mf  0 nObs -1
PHASE ID Ins Cmp On Pha  FM Date     HrMn   Sec     Err  ErrMag    Coda      Amp       Per       PriorWt  >   TTpred    Res       Weight    StaLoc(X  Y         Z)        SDist    SAzim  RAz  RDip RQual    Tcorr       TTerr
103          ?    N    ? P      ? 20180313 0006   56.4723 GAU  1.32e-02 -1.00e+00  7.59e+00  8.00e-03    7.5900 >    0.0966    0.0283    0.6118  694.3644 5155.7952   -0.4662    0.0134 134.85  -1.0  -1.0  0     0.0000    0.0001
16           ?    N    ? P      ? 20180313 0006   56.4599 GAU  1.68e-02 -1.00e+00  9.04e+00  6.00e-02    9.0400 >    0.0946    0.0179    0.7670  694.3452 5155.7921   -0.4642    0.0158 217.77  -1.0  -1.0  0     0.0000    0.0001
12           ?    N    ? P      ? 20180313 0006   56.4507 GAU  5.49e-03 -1.00e+00  9.64e+00  1.20e-02    9.6400 >    0.1018    0.0015    1.2070  694.3356 5155.8197   -0.4663    0.0245 308.14  -1.0  -1.0  0     0.0000    0.0001
17           ?    N    ? P      ? 20180313 0006   56.4486 GAU  1.21e-02 -1.00e+00  8.14e+00  1.20e-02    8.1400 >    0.0963    0.0049    0.8899  694.3461 5155.7815   -0.4621    0.0247 200.66  -1.0  -1.0  0     0.0000    0.0001
15           ?    N    ? P      ? 20180313 0006   56.4390 GAU  6.22e-03 -1.00e+00  1.14e+01  8.00e-03   11.4000 >    0.1019   -0.0103    1.1274  694.3206 5155.8107   -0.4609    0.0348 280.02  -1.0  -1.0  0     0.0000    0.0001
10           ?    N    ? P      ? 20180313 0006   56.4533 GAU  1.17e-02 -1.00e+00  9.28e+00  1.20e-02    9.2800 >    0.1113   -0.0054    1.1769  694.3329 5155.8329   -0.4673    0.0358 322.13  -1.0  -1.0  0     0.0000    0.0001
18           ?    N    ? P      ? 20180313 0006   56.4540 GAU  1.54e-02 -1.00e+00  7.87e+00  1.20e-02    7.8700 >    0.1013    0.0053    0.8698  694.3549 5155.7674   -0.4586    0.0372 179.98  -1.0  -1.0  0     0.0000    0.0001
6            ?    N    ? P      ? 20180313 0006   56.4958 GAU  2.42e-02 -1.00e+00  8.41e+00  2.00e-02    8.4100 >    0.1277    0.0207    0.9474  694.3446 5155.8502   -0.4728    0.0467 347.32  -1.0  -1.0  0     0.0000    0.0001
8            ?    N    ? P      ? 20180313 0006   56.4438 GAU  1.54e-02 -1.00e+00  8.62e+00  1.60e-02    8.6200 >    0.1234   -0.0269    0.7638  694.3223 5155.8450   -0.4648    0.0519 321.11  -1.0  -1.0  0     0.0000    0.0001
20           ?    N    ? P      ? 20180313 0006   56.4610 GAU  1.57e-02 -1.00e+00  7.75e+00  1.20e-02    7.7500 >    0.1147   -0.0011    0.9618  694.3609 5155.7515   -0.4553    0.0535 173.58  -1.0  -1.0  0     0.0000    0.0001
13           ?    N    ? P      ? 20180313 0006   56.4760 GAU  1.54e-02 -1.00e+00  9.76e+00  2.40e-02    9.7600 >    0.1230    0.0056    1.2954  694.3062 5155.8390   -0.4568    0.0596 305.27  -1.0  -1.0  0     0.0000    0.0001
4            ?    N    ? P      ? 20180313 0006   56.4778 GAU  2.45e-02 -1.00e+00  8.64e+00  1.60e-02    8.6400 >    0.1324   -0.0020    1.1111  694.3090 5155.8520   -0.4586    0.0659 315.96  -1.0  -1.0  0     0.0000    0.0001
21           ?    N    ? P      ? 20180313 0006   56.4672 GAU  1.90e-02 -1.00e+00  7.79e+00  1.20e-02    7.7900 >    0.1274   -0.0075    0.9696  694.3642 5155.7391   -0.4517    0.0662 171.93  -1.0  -1.0  0     0.0000    0.0001
2            ?    N    ? P      ? 20180313 0006   56.4548 GAU  2.42e-02 -1.00e+00  8.33e+00  1.20e-02    8.3300 >    0.1437   -0.0363    0.6892  694.3150 5155.8647   -0.4623    0.0721 326.41  -1.0  -1.0  0     0.0000    0.0001
5            ?    N    ? P      ? 20180313 0006   56.4947 GAU  3.11e-02 -1.00e+00  9.08e+00  1.20e-02    9.0800 >    0.1421    0.0052    1.0950  694.2898 5155.8520   -0.4475    0.0805 306.02  -1.0  -1.0  0     0.0000    0.0001
23           ?    N    ? P      ? 20180313 0006   56.4895 GAU  1.94e-02 -1.00e+00  7.52e+00  8.00e-03    7.5200 >    0.1468   -0.0047    1.0983  694.3677 5155.7226   -0.4473    0.0831 171.12  -1.0  -1.0  0     0.0000    0.0001
22           ?    N    ? P      ? 20180313 0006   56.5203 GAU  1.57e-02 -1.00e+00  7.64e+00  2.80e-02    7.6400 >    0.1568    0.0161    1.1720  694.3985 5155.7265   -0.4488    0.0894 150.81  -1.0  -1.0  0     0.0000    0.0002
7            ?    N    ? P      ? 20180313 0006   56.5016 GAU  5.78e-02 -1.00e+00  7.37e+00  1.20e-02    7.3700 >    0.1547   -0.0005    0.7106  694.2704 5155.8450   -0.4359    0.0936 295.55  -1.0  -1.0  0     0.0000    0.0002
25           ?    N    ? P      ? 20180313 0006   56.5170 GAU  1.83e-02 -1.00e+00  8.09e+00  1.20e-02    8.0900 >    0.1642    0.0054    1.2985  694.3684 5155.7091   -0.4438    0.0965 171.92  -1.0  -1.0  0     0.0000    0.0002
9            ?    N    ? P      ? 20180313 0006   56.5448 GAU  3.95e-02 -1.00e+00  9.18e+00  3.20e-02    9.1800 >    0.1623    0.0352    0.8537  694.2594 5155.8351   -0.4296    0.1002 287.69  -1.0  -1.0  0     0.0000    0.0002
1            ?    N    ? P      ? 20180313 0006   56.5342 GAU  2.45e-02 -1.00e+00  7.92e+00  1.20e-02    7.9200 >    0.1738    0.0130    1.3928  694.2735 5155.8721   -0.4381    0.1057 309.69  -1.0  -1.0  0     0.0000    0.0002
26           ?    N    ? P      ? 20180313 0006   56.5298 GAU  2.38e-02 -1.00e+00  7.38e+00  1.20e-02    7.3800 >    0.1914   -0.0090    1.2738  694.3783 5155.6910   -0.4400    0.1160 168.35  -1.0  -1.0  0     0.0000    0.0002
27           ?    N    ? P      ? 20180313 0006   56.5434 GAU  2.20e-02 -1.00e+00  6.91e+00  1.20e-02    6.9100 >    0.2015   -0.0055    1.4129  694.4008 5155.6912   -0.4412    0.1223 157.95  -1.0  -1.0  0     0.0000    0.0002
105          ?    N    ? P      ? 20180313 0006   56.5584 GAU  2.67e-02 -1.00e+00  7.32e+00  2.00e-02    7.3200 >    0.2017    0.0093    1.2911  694.3764 5155.6832   -0.4382    0.1233 169.94  -1.0  -1.0  0     0.0000    0.0002
3            ?    N    ? P      ? 20180313 0006   56.5598 GAU  4.58e-02 -1.00e+00  8.23e+00  8.00e-03    8.2300 >    0.1979    0.0145    1.1317  694.2426 5155.8595   -0.4214    0.1249 296.03  -1.0  -1.0  0     0.0000    0.0002
28           ?    N    ? P      ? 20180313 0006   56.5668 GAU  3.44e-02 -1.00e+00  6.75e+00  1.20e-02    6.7500 >    0.2146    0.0049    1.1660  694.3767 5155.6745   -0.4362    0.1320 170.49  -1.0  -1.0  0     0.0000    0.0002
30           ?    N    ? P      ? 20180313 0006   56.5686 GAU  2.75e-02 -1.00e+00  6.85e+00  4.40e-02    6.8500 >    0.2331   -0.0118    1.3706  694.3775 5155.6619   -0.4333    0.1445 171.00  -1.0  -1.0  0     0.0000    0.0002
31           ?    N    ? P      ? 20180313 0006   56.5419 GAU  3.00e-02 -1.00e+00  6.78e+00  1.20e-02    6.7800 >    0.2628   -0.0683    0.3430  694.4086 5155.6503   -0.4335    0.1634 160.79  -1.0  -1.0  0     0.0000    0.0003
39           ?    N    ? P      ? 20180313 0006   56.5672 GAU  2.75e-02 -1.00e+00  7.02e+00  8.00e-03    7.0200 >    0.4015   -0.1817    0.0019  694.3890 5155.5532   -0.4086    0.2538 172.27  -1.0  -1.0  0     0.0000    0.0004
END_PHASE
END_NLLOC

