NLLOC "./loc/RR.20180313.001254.grid0" "REJECTED" "WARNING: max prob location on grid boundary 31, rejecting location."
PUBLIC_ID None
SIGNATURE "   obs:./obs/nll_picks.obs   NLLoc:v7.00.10(30Aug2020)   run:29Apr2022 23h18m37"
COMMENT "Rattlesnake Ridge Slidequake Locations"
GRID  150 250 75  694.15 5155.4 0  0.002 0.002 0.002 PROB_DENSITY
SEARCH OCTREE nInitial 1000 nEvaluated 15112 smallestNodeSide 0.001863/0.003112/0.000925 oct_tree_integral 1.171284e-04 scatter_volume 1.167434e-04
HYPOCENTER  x 694.345 y 5155.76 z 0.147537  OT 54.591  ix -1 iy -1 iz -1 MAXIMUM_LIKELIHOOD
GEOGRAPHIC  OT 2018 03 13  00 12 54.591006  Lat 5155.756381 Long 694.344631 Depth 0.147537
QUALITY  Pmax 5.93936e+57 MFmin 69.7977 MFmax 69.8104 RMS 0.0136529 Nphs 16 Gap 157.758 Dist 0.0150624 Mamp  0.55 16 Mdur -9.90 0
VPVSRATIO  VpVsRatio -1  Npair 0  Diff -2e+30
STATISTICS  ExpectX 694.316080 Y 5155.747604 Z 0.116663  CovXX 0.00465827 XY 0.000577768 XZ 0.000244828 YY 0.000363627 YZ 0.000219208 ZZ 0.00073386 EllAz1  173.748 Dip1  20.3592 Len1  0.0277725 Az2  342.025 Dip2  69.2436 Len2  0.0526155 Len3  1.295304e-01
STAT_GEOG  ExpectLat 5155.747604 Long 694.316080 Depth 0.116663
TRANSFORM  NONE
QML_OriginQuality  assocPhCt 16  usedPhCt 16  assocStaCt -1  usedStaCt 16  depthPhCt -1  stdErr 0.0136529  azGap 157.758  secAzGap 200.064  gtLevel -  minDist 0.0150624 maxDist 0.123849 medDist 0.0572484
QML_OriginUncertainty  horUnc -1  minHorUnc 0.0257039  maxHorUnc 0.104354  azMaxHorUnc 82.4702
QML_ConfidenceEllipsoid  semiMajorAxisLength 0.12953  semiMinorAxisLength 0.0277725  semiIntermediateAxisLength 0.0526155  majorAxisPlunge 3.87109  majorAxisAzimuth 82.3094  majorAxisRotation 20.5799
FOCALMECH  Hyp  5155.756381 694.344631 0.147537 Mech  0 0 0 mf  0 nObs -1
PHASE ID Ins Cmp On Pha  FM Date     HrMn   Sec     Err  ErrMag    Coda      Amp       Per       PriorWt  >   TTpred    Res       Weight    StaLoc(X  Y         Z)        SDist    SAzim  RAz  RDip RQual    Tcorr       TTerr
18           ?    N    ? P      ? 20180313 0012   54.8207 GAU  1.91e-02 -1.00e+00  6.62e+00  2.40e-02    6.6200 >    0.2263    0.0034    1.2285  694.3549 5155.7674   -0.4586    0.0151  42.92  -1.0  -1.0  0     0.0000    0.0002
20           ?    N    ? P      ? 20180313 0012   54.8240 GAU  2.01e-02 -1.00e+00  7.13e+00  5.60e-02    7.1300 >    0.2213    0.0117    0.9140  694.3609 5155.7515   -0.4553    0.0169 106.83  -1.0  -1.0  0     0.0000    0.0002
17           ?    N    ? P      ? 20180313 0012   54.8387 GAU  3.59e-02 -1.00e+00  6.49e+00  4.80e-02    6.4900 >    0.2328    0.0148    1.1114  694.3461 5155.7815   -0.4621    0.0251   3.45  -1.0  -1.0  0     0.0000    0.0002
21           ?    N    ? P      ? 20180313 0012   54.7581 GAU  2.61e-02 -1.00e+00  7.29e+00  8.00e-03    7.2900 >    0.2181   -0.0510    0.3260  694.3642 5155.7391   -0.4517    0.0261 131.46  -1.0  -1.0  0     0.0000    0.0002
16           ?    N    ? P      ? 20180313 0012   54.8235 GAU  3.38e-02 -1.00e+00  6.86e+00  4.80e-02    6.8600 >    0.2389   -0.0064    1.4242  694.3452 5155.7921   -0.4642    0.0357   0.90  -1.0  -1.0  0     0.0000    0.0002
23           ?    N    ? P      ? 20180313 0012   54.8109 GAU  2.12e-02 -1.00e+00  7.42e+00  1.20e-02    7.4200 >    0.2170    0.0029    0.7253  694.3677 5155.7226   -0.4473    0.0409 145.72  -1.0  -1.0  0     0.0000    0.0002
103          ?    N    ? P      ? 20180313 0012   54.8240 GAU  2.34e-02 -1.00e+00  6.67e+00  1.20e-02    6.6700 >    0.2447   -0.0117    1.6274  694.3644 5155.7952   -0.4662    0.0435  26.95  -1.0  -1.0  0     0.0000    0.0002
25           ?    N    ? P      ? 20180313 0012   54.8060 GAU  3.16e-02 -1.00e+00  6.97e+00  2.40e-02    6.9700 >    0.2175   -0.0025    0.6006  694.3684 5155.7091   -0.4438    0.0529 153.27  -1.0  -1.0  0     0.0000    0.0002
22           ?    N    ? P      ? 20180313 0012   54.8790 GAU  3.92e-02 -1.00e+00  6.55e+00  1.60e-02    6.5500 >    0.2294    0.0586    0.3161  694.3985 5155.7265   -0.4488    0.0616 118.98  -1.0  -1.0  0     0.0000    0.0002
26           ?    N    ? P      ? 20180313 0012   54.8158 GAU  2.61e-02 -1.00e+00  7.14e+00  1.20e-02    7.1400 >    0.2259   -0.0011    0.8049  694.3783 5155.6910   -0.4400    0.0736 152.76  -1.0  -1.0  0     0.0000    0.0002
105          ?    N    ? P      ? 20180313 0012   54.8099 GAU  2.01e-02 -1.00e+00  7.62e+00  6.80e-02    7.6200 >    0.2276   -0.0087    0.9842  694.3764 5155.6832   -0.4382    0.0797 156.52  -1.0  -1.0  0     0.0000    0.0002
106          ?    N    ? P      ? 20180313 0012   54.8191 GAU  2.40e-02 -1.00e+00  7.23e+00  1.20e-02    7.2300 >    0.2275    0.0005    1.6139  694.3120 5155.6801   -0.4360    0.0830 203.14  -1.0  -1.0  0     0.0000    0.0002
27           ?    N    ? P      ? 20180313 0012   54.8376 GAU  2.18e-02 -1.00e+00  5.60e+00  8.00e-03    5.6000 >    0.2367    0.0099    0.9055  694.4008 5155.6912   -0.4412    0.0860 139.23  -1.0  -1.0  0     0.0000    0.0002
28           ?    N    ? P      ? 20180313 0012   54.8289 GAU  2.72e-02 -1.00e+00  6.66e+00  8.00e-03    6.6600 >    0.2322    0.0057    0.9431  694.3767 5155.6745   -0.4362    0.0880 158.63  -1.0  -1.0  0     0.0000    0.0002
30           ?    N    ? P      ? 20180313 0012   54.8469 GAU  3.10e-02 -1.00e+00  6.72e+00  1.20e-02    6.7200 >    0.2397    0.0162    1.0171  694.3775 5155.6619   -0.4333    0.1000 160.83  -1.0  -1.0  0     0.0000    0.0002
31           ?    N    ? P      ? 20180313 0012   54.8371 GAU  2.56e-02 -1.00e+00  6.34e+00  1.20e-02    6.3400 >    0.2632   -0.0171    1.4578  694.4086 5155.6503   -0.4335    0.1238 148.89  -1.0  -1.0  0     0.0000    0.0003
END_PHASE
END_NLLOC

