NLLOC "./loc/RR.20180313.000506.grid0" "LOCATED" "Location completed."
PUBLIC_ID None
SIGNATURE "   obs:./obs/nll_picks.obs   NLLoc:v7.00.10(30Aug2020)   run:29Apr2022 23h16m49"
COMMENT "Rattlesnake Ridge Slidequake Locations"
GRID  150 250 75  694.15 5155.4 0  0.002 0.002 0.002 PROB_DENSITY
SEARCH OCTREE nInitial 1000 nEvaluated 8048 smallestNodeSide 0.001863/0.003112/0.000925 oct_tree_integral 4.553682e-05 scatter_volume 4.553682e-05
HYPOCENTER  x 694.386 y 5155.81 z 0.0420875  OT 6.14498  ix -1 iy -1 iz -1 MAXIMUM_LIKELIHOOD
GEOGRAPHIC  OT 2018 03 13  00 05 6.144975  Lat 5155.809294 Long 694.385606 Depth 0.042087
QUALITY  Pmax 7.20748e+99 MFmin 141.495 MFmax 141.502 RMS 0.0175583 Nphs 24 Gap 216.214 Dist 0.0255016 Mamp  0.30 24 Mdur -9.90 0
VPVSRATIO  VpVsRatio -1  Npair 0  Diff -2e+30
STATISTICS  ExpectX 694.398187 Y 5155.817911 Z 0.043753  CovXX 0.000752778 XY 0.000359778 XZ -0.000135773 YY 0.000247099 YZ 2.88479e-05 ZZ 0.000543477 EllAz1  331.306 Dip1  -10.2737 Len1  0.012493 Az2  207.114 Dip2  -72.1235 Len2  0.0433273 Len3  5.843552e-02
STAT_GEOG  ExpectLat 5155.817911 Long 694.398187 Depth 0.043753
TRANSFORM  NONE
QML_OriginQuality  assocPhCt 24  usedPhCt 24  assocStaCt -1  usedStaCt 24  depthPhCt -1  stdErr 0.0175583  azGap 216.214  secAzGap 223.035  gtLevel -  minDist 0.0255016 maxDist 0.135131 medDist 0.0842598
QML_OriginUncertainty  horUnc -1  minHorUnc 0.0117671  maxHorUnc 0.0464893  azMaxHorUnc 62.5491
QML_ConfidenceEllipsoid  semiMajorAxisLength 0.0584355  semiMinorAxisLength 0.012493  semiIntermediateAxisLength 0.0433273  majorAxisPlunge -14.468  majorAxisAzimuth 63.9865  majorAxisRotation 192.086
FOCALMECH  Hyp  5155.809294 694.385606 0.042087 Mech  0 0 0 mf  0 nObs -1
PHASE ID Ins Cmp On Pha  FM Date     HrMn   Sec     Err  ErrMag    Coda      Amp       Per       PriorWt  >   TTpred    Res       Weight    StaLoc(X  Y         Z)        SDist    SAzim  RAz  RDip RQual    Tcorr       TTerr
103          ?    N    ? P      ? 20180313 0005    6.2874 GAU  1.50e-02 -1.00e+00  6.90e+00  1.20e-02    6.9000 >    0.0786    0.0638    0.2456  694.3644 5155.7952   -0.4662    0.0255 236.42  -1.0  -1.0  0     0.0000    0.0001
16           ?    N    ? P      ? 20180313 0005    6.2619 GAU  1.63e-02 -1.00e+00  8.50e+00  1.20e-02    8.5000 >    0.0953    0.0216    0.7898  694.3452 5155.7921   -0.4642    0.0439 246.98  -1.0  -1.0  0     0.0000    0.0001
17           ?    N    ? P      ? 20180313 0005    6.2490 GAU  1.58e-02 -1.00e+00  8.46e+00  1.20e-02    8.4600 >    0.0984    0.0056    0.8775  694.3461 5155.7815   -0.4621    0.0483 234.82  -1.0  -1.0  0     0.0000    0.0001
12           ?    N    ? P      ? 20180313 0005    6.2494 GAU  1.63e-02 -1.00e+00  8.62e+00  6.00e-02    8.6200 >    0.1057   -0.0012    0.9953  694.3356 5155.8197   -0.4663    0.0511 281.80  -1.0  -1.0  0     0.0000    0.0001
18           ?    N    ? P      ? 20180313 0005    6.2507 GAU  1.50e-02 -1.00e+00  7.79e+00  5.60e-02    7.7900 >    0.1000    0.0057    0.9094  694.3549 5155.7674   -0.4586    0.0519 216.26  -1.0  -1.0  0     0.0000    0.0001
10           ?    N    ? P      ? 20180313 0005    6.2594 GAU  1.21e-02 -1.00e+00  7.61e+00  1.20e-02    7.6100 >    0.1150   -0.0005    1.1161  694.3329 5155.8329   -0.4673    0.0577 294.11  -1.0  -1.0  0     0.0000    0.0001
6            ?    N    ? P      ? 20180313 0005    6.2895 GAU  2.63e-02 -1.00e+00  7.26e+00  1.20e-02    7.2600 >    0.1205    0.0240    0.9954  694.3446 5155.8502   -0.4728    0.0579 314.93  -1.0  -1.0  0     0.0000    0.0001
20           ?    N    ? P      ? 20180313 0005    6.2623 GAU  1.50e-02 -1.00e+00  7.41e+00  1.20e-02    7.4100 >    0.1124    0.0050    1.0090  694.3609 5155.7515   -0.4553    0.0629 203.18  -1.0  -1.0  0     0.0000    0.0001
15           ?    N    ? P      ? 20180313 0005    6.2586 GAU  8.76e-03 -1.00e+00  9.27e+00  8.00e-03    9.2700 >    0.1194   -0.0058    1.0346  694.3206 5155.8107   -0.4609    0.0651 271.23  -1.0  -1.0  0     0.0000    0.0001
8            ?    N    ? P      ? 20180313 0005    6.2532 GAU  2.50e-02 -1.00e+00  6.52e+00  1.20e-02    6.5200 >    0.1329   -0.0247    0.7397  694.3223 5155.8450   -0.4648    0.0727 299.43  -1.0  -1.0  0     0.0000    0.0001
21           ?    N    ? P      ? 20180313 0005    6.2615 GAU  2.25e-02 -1.00e+00  7.43e+00  4.00e-02    7.4300 >    0.1260   -0.0094    0.9386  694.3642 5155.7391   -0.4517    0.0734 196.99  -1.0  -1.0  0     0.0000    0.0001
22           ?    N    ? P      ? 20180313 0005    6.3170 GAU  1.71e-02 -1.00e+00  6.61e+00  1.60e-02    6.6100 >    0.1402    0.0318    0.9687  694.3985 5155.7265   -0.4488    0.0837 171.14  -1.0  -1.0  0     0.0000    0.0001
13           ?    N    ? P      ? 20180313 0005    6.2949 GAU  2.42e-02 -1.00e+00  7.72e+00  4.80e-02    7.7200 >    0.1449    0.0050    1.1026  694.3062 5155.8390   -0.4568    0.0848 290.54  -1.0  -1.0  0     0.0000    0.0001
4            ?    N    ? P      ? 20180313 0005    6.3028 GAU  3.38e-02 -1.00e+00  6.78e+00  8.00e-03    6.7800 >    0.1501    0.0077    0.9723  694.3090 5155.8520   -0.4586    0.0877 299.16  -1.0  -1.0  0     0.0000    0.0002
23           ?    N    ? P      ? 20180313 0005    6.3091 GAU  2.84e-02 -1.00e+00  6.99e+00  2.80e-02    6.9900 >    0.1468    0.0173    0.9889  694.3677 5155.7226   -0.4473    0.0886 191.67  -1.0  -1.0  0     0.0000    0.0001
2            ?    N    ? P      ? 20180313 0005    6.2615 GAU  2.84e-02 -1.00e+00  7.23e+00  1.20e-02    7.2300 >    0.1553   -0.0388    0.6797  694.3150 5155.8647   -0.4623    0.0897 308.11  -1.0  -1.0  0     0.0000    0.0002
25           ?    N    ? P      ? 20180313 0005    6.2815 GAU  1.75e-02 -1.00e+00  6.85e+00  1.20e-02    6.8500 >    0.1661   -0.0296    0.7935  694.3684 5155.7091   -0.4438    0.1016 189.73  -1.0  -1.0  0     0.0000    0.0002
5            ?    N    ? P      ? 20180313 0005    6.3357 GAU  2.75e-02 -1.00e+00  7.90e+00  1.20e-02    7.9000 >    0.1707    0.0200    1.2240  694.2898 5155.8520   -0.4475    0.1049 294.00  -1.0  -1.0  0     0.0000    0.0002
26           ?    N    ? P      ? 20180313 0005    6.3491 GAU  2.17e-02 -1.00e+00  6.92e+00  1.20e-02    6.9200 >    0.1924    0.0117    1.5545  694.3783 5155.6910   -0.4400    0.1185 183.53  -1.0  -1.0  0     0.0000    0.0002
27           ?    N    ? P      ? 20180313 0005    6.3370 GAU  2.21e-02 -1.00e+00  5.82e+00  1.20e-02    5.8200 >    0.1934   -0.0014    1.5575  694.4008 5155.6912   -0.4412    0.1190 172.67  -1.0  -1.0  0     0.0000    0.0002
7            ?    N    ? P      ? 20180313 0005    6.4000 GAU  5.59e-02 -1.00e+00  7.69e+00  8.00e-03    7.6900 >    0.1926    0.0624    0.6371  694.2704 5155.8450   -0.4359    0.1206 287.22  -1.0  -1.0  0     0.0000    0.0002
105          ?    N    ? P      ? 20180313 0005    6.3445 GAU  3.63e-02 -1.00e+00  7.07e+00  1.24e-01    7.0700 >    0.2045   -0.0050    1.2883  694.3764 5155.6832   -0.4382    0.1264 184.18  -1.0  -1.0  0     0.0000    0.0002
9            ?    N    ? P      ? 20180313 0005    6.3674 GAU  2.92e-02 -1.00e+00  8.41e+00  1.20e-02    8.4100 >    0.2047    0.0177    1.5220  694.2594 5155.8351   -0.4296    0.1288 281.55  -1.0  -1.0  0     0.0000    0.0002
28           ?    N    ? P      ? 20180313 0005    6.3649 GAU  5.34e-02 -1.00e+00  6.63e+00  8.00e-03    6.6300 >    0.2183    0.0016    1.0600  694.3767 5155.6745   -0.4362    0.1351 183.79  -1.0  -1.0  0     0.0000    0.0002
END_PHASE
END_NLLOC

