NLLOC "./loc/RR.20180313.013232.grid0" "REJECTED" "WARNING: max prob location on grid boundary 10, rejecting location."
PUBLIC_ID None
SIGNATURE "   obs:./obs/nll_picks.obs   NLLoc:v7.00.10(30Aug2020)   run:29Apr2022 23h20m15"
COMMENT "Rattlesnake Ridge Slidequake Locations"
GRID  150 250 75  694.15 5155.4 0  0.002 0.002 0.002 PROB_DENSITY
SEARCH OCTREE nInitial 1000 nEvaluated 3024 smallestNodeSide 0.001863/0.003112/0.000925 oct_tree_integral 9.960523e-06 scatter_volume 9.914334e-06
HYPOCENTER  x 694.151 y 5155.68 z 0.147537  OT 32.2688  ix -1 iy -1 iz -1 MAXIMUM_LIKELIHOOD
GEOGRAPHIC  OT 2018 03 13  01 32 32.268830  Lat 5155.681681 Long 694.150931 Depth 0.147537
QUALITY  Pmax 3.9468e+148 MFmin 350.827 MFmax 350.995 RMS 0.00924443 Nphs 31 Gap 277.919 Dist 0.161094 Mamp  0.88 31 Mdur -9.90 0
VPVSRATIO  VpVsRatio -1  Npair 0  Diff -2e+30
STATISTICS  ExpectX 694.166054 Y 5155.676689 Z 0.125987  CovXX 0.00019634 XY 1.52917e-05 XZ 3.48323e-05 YY 7.71094e-05 YZ 0.000100138 ZZ 0.000398456 EllAz1  177.889 Dip1  15.754 Len1  0.0130544 Az2  270.526 Dip2  9.26273 Len2  0.0259332 Len3  3.910087e-02
STAT_GEOG  ExpectLat 5155.676689 Long 694.166054 Depth 0.125987
TRANSFORM  NONE
QML_OriginQuality  assocPhCt 31  usedPhCt 31  assocStaCt -1  usedStaCt 31  depthPhCt -1  stdErr 0.00924443  azGap 277.919  secAzGap 284.037  gtLevel -  minDist 0.161094 maxDist 0.300525 medDist 0.232557
QML_OriginUncertainty  horUnc -1  minHorUnc 0.0131496  maxHorUnc 0.0213547  azMaxHorUnc 82.8068
QML_ConfidenceEllipsoid  semiMajorAxisLength 0.0391009  semiMinorAxisLength 0.0130544  semiIntermediateAxisLength 0.0259332  majorAxisPlunge 71.6009  majorAxisAzimuth 29.8851  majorAxisRotation 295.395
FOCALMECH  Hyp  5155.681681 694.150931 0.147537 Mech  0 0 0 mf  0 nObs -1
PHASE ID Ins Cmp On Pha  FM Date     HrMn   Sec     Err  ErrMag    Coda      Amp       Per       PriorWt  >   TTpred    Res       Weight    StaLoc(X  Y         Z)        SDist    SAzim  RAz  RDip RQual    Tcorr       TTerr
106          ?    N    ? P      ? 20180313 0132   32.7675 GAU  6.94e-03 -1.00e+00  7.97e+00  1.20e-02    7.9700 >    0.4062    0.0924    0.0005  694.3120 5155.6801   -0.4360    0.1611  90.58  -1.0  -1.0  0     0.0000    0.0004
25           ?    N    ? P      ? 20180313 0132   32.7394 GAU  7.88e-03 -1.00e+00  1.01e+01  2.40e-02   10.1000 >    0.4642    0.0064    0.9415  694.3684 5155.7091   -0.4438    0.2192  82.81  -1.0  -1.0  0     0.0000    0.0005
17           ?    N    ? P      ? 20180313 0132   32.7605 GAU  5.68e-03 -1.00e+00  7.99e+00  2.80e-02    7.9900 >    0.4867    0.0050    1.4567  694.3461 5155.7815   -0.4621    0.2192  62.92  -1.0  -1.0  0     0.0000    0.0005
23           ?    N    ? P      ? 20180313 0132   32.7416 GAU  6.30e-03 -1.00e+00  1.01e+01  1.20e-02   10.1000 >    0.4693    0.0034    1.0776  694.3677 5155.7226   -0.4473    0.2206  79.32  -1.0  -1.0  0     0.0000    0.0005
21           ?    N    ? P      ? 20180313 0132   32.7454 GAU  8.20e-03 -1.00e+00  8.68e+00  2.00e-02    8.6800 >    0.4748    0.0018    1.0840  694.3642 5155.7391   -0.4517    0.2208  74.92  -1.0  -1.0  0     0.0000    0.0005
20           ?    N    ? P      ? 20180313 0132   32.7435 GAU  8.20e-03 -1.00e+00  8.53e+00  8.00e-03    8.5300 >    0.4790   -0.0043    1.1821  694.3609 5155.7515   -0.4553    0.2212  71.61  -1.0  -1.0  0     0.0000    0.0005
18           ?    N    ? P      ? 20180313 0132   32.7526 GAU  4.73e-03 -1.00e+00  7.92e+00  2.40e-02    7.9200 >    0.4835    0.0002    1.4254  694.3549 5155.7674   -0.4586    0.2212  67.20  -1.0  -1.0  0     0.0000    0.0005
16           ?    N    ? P      ? 20180313 0132   32.7816 GAU  6.62e-03 -1.00e+00  7.88e+00  8.00e-03    7.8800 >    0.4933    0.0195    0.7566  694.3452 5155.7921   -0.4642    0.2235  60.38  -1.0  -1.0  0     0.0000    0.0005
105          ?    N    ? P      ? 20180313 0132   32.7312 GAU  5.36e-03 -1.00e+00  1.05e+01  5.20e-02   10.5000 >    0.4638   -0.0014    1.0885  694.3764 5155.6832   -0.4382    0.2255  89.60  -1.0  -1.0  0     0.0000    0.0005
28           ?    N    ? P      ? 20180313 0132   32.7249 GAU  9.15e-03 -1.00e+00  9.64e+00  1.20e-02    9.6400 >    0.4626   -0.0065    0.9322  694.3767 5155.6745   -0.4362    0.2259  91.83  -1.0  -1.0  0     0.0000    0.0005
30           ?    N    ? P      ? 20180313 0132   32.7252 GAU  8.83e-03 -1.00e+00  9.18e+00  8.00e-03    9.1800 >    0.4613   -0.0050    0.9755  694.3775 5155.6619   -0.4333    0.2274  94.99  -1.0  -1.0  0     0.0000    0.0005
26           ?    N    ? P      ? 20180313 0132   32.7302 GAU  6.30e-03 -1.00e+00  9.82e+00  1.20e-02    9.8200 >    0.4680   -0.0066    0.9721  694.3783 5155.6910   -0.4400    0.2276  87.66  -1.0  -1.0  0     0.0000    0.0005
32           ?    N    ? P      ? 20180313 0132   32.7284 GAU  1.07e-02 -1.00e+00  8.73e+00  1.20e-02    8.7300 >    0.4595    0.0001    1.0024  694.3777 5155.6456   -0.4297    0.2296  99.05  -1.0  -1.0  0     0.0000    0.0005
12           ?    N    ? P      ? 20180313 0132   32.7697 GAU  1.04e-02 -1.00e+00  6.66e+00  8.00e-03    6.6600 >    0.5038   -0.0030    1.6242  694.3356 5155.8197   -0.4663    0.2306  53.22  -1.0  -1.0  0     0.0000    0.0005
4            ?    N    ? P      ? 20180313 0132   32.8081 GAU  1.48e-02 -1.00e+00  6.22e+00  4.00e-02    6.2200 >    0.4995    0.0397    0.2652  694.3090 5155.8520   -0.4586    0.2324  42.86  -1.0  -1.0  0     0.0000    0.0005
33           ?    N    ? P      ? 20180313 0132   32.7378 GAU  9.46e-03 -1.00e+00  8.33e+00  1.20e-02    8.3300 >    0.4576    0.0114    0.8687  694.3775 5155.6293   -0.4252    0.2326 103.01  -1.0  -1.0  0     0.0000    0.0005
10           ?    N    ? P      ? 20180313 0132   32.7741 GAU  1.04e-02 -1.00e+00  6.33e+00  8.00e-03    6.3300 >    0.5111   -0.0058    1.6412  694.3329 5155.8329   -0.4673    0.2366  50.28  -1.0  -1.0  0     0.0000    0.0005
35           ?    N    ? P      ? 20180313 0132   32.7488 GAU  9.15e-03 -1.00e+00  7.93e+00  8.00e-03    7.9300 >    0.4622    0.0177    0.6650  694.3818 5155.6141   -0.4216    0.2405 106.31  -1.0  -1.0  0     0.0000    0.0005
103          ?    N    ? P      ? 20180313 0132   32.7627 GAU  6.62e-03 -1.00e+00  7.24e+00  1.20e-02    7.2400 >    0.5111   -0.0173    0.8849  694.3644 5155.7952   -0.4662    0.2417  61.99  -1.0  -1.0  0     0.0000    0.0005
27           ?    N    ? P      ? 20180313 0132   32.7561 GAU  7.57e-03 -1.00e+00  7.83e+00  2.00e-02    7.8300 >    0.4912   -0.0039    0.9489  694.4008 5155.6912   -0.4412    0.2500  87.81  -1.0  -1.0  0     0.0000    0.0005
22           ?    N    ? P      ? 20180313 0132   32.7930 GAU  1.29e-02 -1.00e+00  8.39e+00  1.20e-02    8.3900 >    0.5004    0.0238    0.4976  694.3985 5155.7265   -0.4488    0.2516  79.73  -1.0  -1.0  0     0.0000    0.0005
36           ?    N    ? P      ? 20180313 0132   32.7504 GAU  1.26e-02 -1.00e+00  6.83e+00  1.20e-02    6.8300 >    0.4706    0.0110    0.9919  694.3865 5155.5904   -0.4164    0.2527 111.19  -1.0  -1.0  0     0.0000    0.0005
6            ?    N    ? P      ? 20180313 0132   32.7851 GAU  1.83e-02 -1.00e+00  6.69e+00  2.00e-02    6.6900 >    0.5358   -0.0196    1.0025  694.3446 5155.8502   -0.4728    0.2567  48.98  -1.0  -1.0  0     0.0000    0.0005
31           ?    N    ? P      ? 20180313 0132   32.7589 GAU  1.10e-02 -1.00e+00  7.86e+00  1.60e-02    7.8600 >    0.4942   -0.0042    0.9785  694.4086 5155.6503   -0.4335    0.2596  96.93  -1.0  -1.0  0     0.0000    0.0005
38           ?    N    ? P      ? 20180313 0132   32.7526 GAU  6.62e-03 -1.00e+00  6.83e+00  1.20e-02    6.8300 >    0.4807    0.0031    1.7446  694.3902 5155.5681   -0.4123    0.2648 115.40  -1.0  -1.0  0     0.0000    0.0005
39           ?    N    ? P      ? 20180313 0132   32.7403 GAU  8.19e-03 -1.00e+00  7.52e+00  8.00e-03    7.5200 >    0.4844   -0.0129    1.3174  694.3890 5155.5532   -0.4086    0.2706 118.36  -1.0  -1.0  0     0.0000    0.0005
34           ?    N    ? P      ? 20180313 0132   32.7593 GAU  1.39e-02 -1.00e+00  7.90e+00  1.20e-02    7.9000 >    0.5006   -0.0102    0.9821  694.4145 5155.6153   -0.4263    0.2718 104.14  -1.0  -1.0  0     0.0000    0.0005
41           ?    N    ? P      ? 20180313 0132   32.7456 GAU  1.02e-02 -1.00e+00  6.57e+00  1.20e-02    6.5700 >    0.4914   -0.0146    1.1999  694.3901 5155.5386   -0.4053    0.2787 120.88  -1.0  -1.0  0     0.0000    0.0005
37           ?    N    ? P      ? 20180313 0132   32.7810 GAU  1.42e-02 -1.00e+00  7.15e+00  1.20e-02    7.1500 >    0.5149   -0.0028    1.2520  694.4219 5155.5876   -0.4220    0.2869 109.15  -1.0  -1.0  0     0.0000    0.0005
42           ?    N    ? P      ? 20180313 0132   32.7202 GAU  1.69e-02 -1.00e+00  6.13e+00  1.20e-02    6.1300 >    0.4976   -0.0463    0.1507  694.3873 5155.5165   -0.3983    0.2883 124.94  -1.0  -1.0  0     0.0000    0.0005
40           ?    N    ? P      ? 20180313 0132   32.8091 GAU  1.07e-02 -1.00e+00  6.78e+00  7.20e-02    6.7800 >    0.5240    0.0162    1.0896  694.4169 5155.5417   -0.4131    0.3005 117.76  -1.0  -1.0  0     0.0000    0.0005
END_PHASE
END_NLLOC

