NLLOC "./loc/RR.20180313.033822.grid0" "LOCATED" "Location completed."
PUBLIC_ID None
SIGNATURE "   obs:./obs/nll_picks.obs   NLLoc:v7.00.10(30Aug2020)   run:29Apr2022 23h21m33"
COMMENT "Rattlesnake Ridge Slidequake Locations"
GRID  150 250 75  694.15 5155.4 0  0.002 0.002 0.002 PROB_DENSITY
SEARCH OCTREE nInitial 1000 nEvaluated 11296 smallestNodeSide 0.001863/0.003112/0.000925 oct_tree_integral 6.161665e-05 scatter_volume 6.161665e-05
HYPOCENTER  x 694.301 y 5155.59 z 0.130425  OT 22.1089  ix -1 iy -1 iz -1 MAXIMUM_LIKELIHOOD
GEOGRAPHIC  OT 2018 03 13  03 38 22.108943  Lat 5155.589863 Long 694.300862 Depth 0.130425
QUALITY  Pmax 2.64625e+104 MFmin 239.675 MFmax 239.711 RMS 0.0082691 Nphs 24 Gap 236.732 Dist 0.0844633 Mamp  0.65 24 Mdur -9.90 0
VPVSRATIO  VpVsRatio -1  Npair 0  Diff -2e+30
STATISTICS  ExpectX 694.227253 Y 5155.564169 Z 0.111857  CovXX 0.00255864 XY 0.000896017 XZ 0.000515658 YY 0.000417737 YZ 0.000236772 ZZ 0.000959602 EllAz1  160.747 Dip1  3.51797 Len1  0.0177615 Az2  263.427 Dip2  74.3539 Len2  0.0534242 Len3  1.035587e-01
STAT_GEOG  ExpectLat 5155.564169 Long 694.227253 Depth 0.111857
TRANSFORM  NONE
QML_OriginQuality  assocPhCt 24  usedPhCt 24  assocStaCt -1  usedStaCt 24  depthPhCt -1  stdErr 0.0082691  azGap 236.732  secAzGap 247.195  gtLevel -  minDist 0.0844633 maxDist 0.207063 medDist 0.11828
QML_OriginUncertainty  horUnc -1  minHorUnc 0.0145643  maxHorUnc 0.0814466  azMaxHorUnc 70.0346
QML_ConfidenceEllipsoid  semiMajorAxisLength 0.103559  semiMinorAxisLength 0.0177615  semiIntermediateAxisLength 0.0534242  majorAxisPlunge 15.2256  majorAxisAzimuth 69.7886  majorAxisRotation 4.22757
FOCALMECH  Hyp  5155.589863 694.300862 0.130425 Mech  0 0 0 mf  0 nObs -1
PHASE ID Ins Cmp On Pha  FM Date     HrMn   Sec     Err  ErrMag    Coda      Amp       Per       PriorWt  >   TTpred    Res       Weight    StaLoc(X  Y         Z)        SDist    SAzim  RAz  RDip RQual    Tcorr       TTerr
35           ?    N    ? P      ? 20180313 0338   22.3559 GAU  5.75e-03 -1.00e+00  9.61e+00  8.00e-03    9.6100 >    0.2453    0.0016    1.3628  694.3818 5155.6141   -0.4216    0.0845  73.31  -1.0  -1.0  0     0.0000    0.0002
36           ?    N    ? P      ? 20180313 0338   22.3457 GAU  4.47e-03 -1.00e+00  9.63e+00  1.20e-02    9.6300 >    0.2399   -0.0032    1.2147  694.3865 5155.5904   -0.4164    0.0857  89.67  -1.0  -1.0  0     0.0000    0.0002
33           ?    N    ? P      ? 20180313 0338   22.3604 GAU  7.66e-03 -1.00e+00  8.42e+00  1.20e-02    8.4200 >    0.2517   -0.0003    1.2678  694.3775 5155.6293   -0.4252    0.0862  62.76  -1.0  -1.0  0     0.0000    0.0003
106          ?    N    ? P      ? 20180313 0338   22.4588 GAU  3.26e-02 -1.00e+00  7.28e+00  1.20e-02    7.2800 >    0.2685    0.0814    0.1153  694.3120 5155.6801   -0.4360    0.0909   7.05  -1.0  -1.0  0     0.0000    0.0003
38           ?    N    ? P      ? 20180313 0338   22.3441 GAU  8.63e-03 -1.00e+00  9.11e+00  1.20e-02    9.1100 >    0.2409   -0.0057    1.1288  694.3902 5155.5681   -0.4123    0.0919 103.69  -1.0  -1.0  0     0.0000    0.0002
32           ?    N    ? P      ? 20180313 0338   22.3991 GAU  9.26e-03 -1.00e+00  9.19e+00  1.20e-02    9.1900 >    0.2640    0.0261    0.3031  694.3777 5155.6456   -0.4297    0.0949  54.05  -1.0  -1.0  0     0.0000    0.0003
39           ?    N    ? P      ? 20180313 0338   22.3470 GAU  3.19e-03 -1.00e+00  9.13e+00  1.60e-02    9.1300 >    0.2397   -0.0016    1.5948  694.3890 5155.5532   -0.4086    0.0955 112.60  -1.0  -1.0  0     0.0000    0.0002
41           ?    N    ? P      ? 20180313 0338   22.3564 GAU  8.67e-03 -1.00e+00  8.38e+00  1.20e-02    8.3800 >    0.2429    0.0046    1.5470  694.3901 5155.5386   -0.4053    0.1029 119.86  -1.0  -1.0  0     0.0000    0.0002
30           ?    N    ? P      ? 20180313 0338   22.4326 GAU  5.11e-03 -1.00e+00  8.60e+00  1.20e-02    8.6000 >    0.2767    0.0470    0.0242  694.3775 5155.6619   -0.4333    0.1052  46.76  -1.0  -1.0  0     0.0000    0.0003
42           ?    N    ? P      ? 20180313 0338   22.3655 GAU  9.58e-03 -1.00e+00  8.02e+00  8.00e-03    8.0200 >    0.2462    0.0104    1.6796  694.3873 5155.5165   -0.3983    0.1133 130.32  -1.0  -1.0  0     0.0000    0.0002
28           ?    N    ? P      ? 20180313 0338   22.4722 GAU  9.58e-03 -1.00e+00  8.12e+00  2.80e-02    8.1200 >    0.2877    0.0756    0.0235  694.3767 5155.6745   -0.4362    0.1136  41.87  -1.0  -1.0  0     0.0000    0.0003
34           ?    N    ? P      ? 20180313 0338   22.3748 GAU  3.16e-02 -1.00e+00  8.34e+00  8.00e-03    8.3400 >    0.2794   -0.0135    0.6204  694.4145 5155.6153   -0.4263    0.1165  77.39  -1.0  -1.0  0     0.0000    0.0003
105          ?    N    ? P      ? 20180313 0338   22.4272 GAU  7.34e-03 -1.00e+00  8.38e+00  1.20e-02    8.3800 >    0.2958    0.0225    0.4438  694.3764 5155.6832   -0.4382    0.1201  38.97  -1.0  -1.0  0     0.0000    0.0003
37           ?    N    ? P      ? 20180313 0338   22.3955 GAU  9.58e-03 -1.00e+00  8.40e+00  1.20e-02    8.4000 >    0.2794    0.0071    1.1593  694.4219 5155.5876   -0.4220    0.1211  91.07  -1.0  -1.0  0     0.0000    0.0003
31           ?    N    ? P      ? 20180313 0338   22.4118 GAU  2.20e-02 -1.00e+00  7.38e+00  8.00e-03    7.3800 >    0.2938    0.0090    0.7413  694.4086 5155.6503   -0.4335    0.1236  60.70  -1.0  -1.0  0     0.0000    0.0003
40           ?    N    ? P      ? 20180313 0338   22.3844 GAU  2.87e-03 -1.00e+00  9.57e+00  1.20e-02    9.5700 >    0.2747    0.0007    2.0345  694.4169 5155.5417   -0.4131    0.1256 112.54  -1.0  -1.0  0     0.0000    0.0003
26           ?    N    ? P      ? 20180313 0338   22.4268 GAU  1.09e-02 -1.00e+00  7.21e+00  6.80e-02    7.2100 >    0.3048    0.0130    1.1236  694.3783 5155.6910   -0.4400    0.1274  37.45  -1.0  -1.0  0     0.0000    0.0003
25           ?    N    ? P      ? 20180313 0338   22.4297 GAU  1.12e-02 -1.00e+00  6.95e+00  8.00e-03    6.9500 >    0.3181    0.0027    1.8136  694.3684 5155.7091   -0.4438    0.1371  29.53  -1.0  -1.0  0     0.0000    0.0003
27           ?    N    ? P      ? 20180313 0338   22.4099 GAU  1.63e-02 -1.00e+00  6.11e+00  8.40e-02    6.1100 >    0.3203   -0.0194    0.6827  694.4008 5155.6912   -0.4412    0.1424  44.58  -1.0  -1.0  0     0.0000    0.0003
23           ?    N    ? P      ? 20180313 0338   22.4224 GAU  1.15e-02 -1.00e+00  7.01e+00  1.20e-02    7.0100 >    0.3332   -0.0198    0.7172  694.3677 5155.7226   -0.4473    0.1486  26.73  -1.0  -1.0  0     0.0000    0.0003
22           ?    N    ? P      ? 20180313 0338   22.4003 GAU  1.18e-02 -1.00e+00  5.80e+00  8.00e-03    5.8000 >    0.3550   -0.0637    0.0506  694.3985 5155.7265   -0.4488    0.1680  35.54  -1.0  -1.0  0     0.0000    0.0004
20           ?    N    ? P      ? 20180313 0338   22.4786 GAU  7.02e-03 -1.00e+00  6.55e+00  8.00e-03    6.5500 >    0.3668    0.0029    2.9608  694.3609 5155.7515   -0.4553    0.1724  20.36  -1.0  -1.0  0     0.0000    0.0004
18           ?    N    ? P      ? 20180313 0338   22.4767 GAU  1.53e-02 -1.00e+00  5.80e+00  8.00e-03    5.8000 >    0.3845   -0.0167    1.2188  694.3549 5155.7674   -0.4586    0.1856  16.92  -1.0  -1.0  0     0.0000    0.0004
16           ?    N    ? P      ? 20180313 0338   22.4773 GAU  1.15e-02 -1.00e+00  6.25e+00  1.20e-02    6.2500 >    0.4128   -0.0445    0.1718  694.3452 5155.7921   -0.4642    0.2071  12.36  -1.0  -1.0  0     0.0000    0.0004
END_PHASE
END_NLLOC

