NLLOC "./loc/RR.20180313.000401.grid0" "LOCATED" "Location completed."
PUBLIC_ID None
SIGNATURE "   obs:./obs/nll_picks.obs   NLLoc:v7.00.10(30Aug2020)   run:29Apr2022 23h16m30"
COMMENT "Rattlesnake Ridge Slidequake Locations"
GRID  150 250 75  694.15 5155.4 0  0.002 0.002 0.002 PROB_DENSITY
SEARCH OCTREE nInitial 1000 nEvaluated 20016 smallestNodeSide 0.003725/0.006225/0.001850 oct_tree_integral 2.653683e-04 scatter_volume 2.653489e-04
HYPOCENTER  x 694.338 y 5155.7 z 0.000925  OT 1.61215  ix -1 iy -1 iz -1 MAXIMUM_LIKELIHOOD
GEOGRAPHIC  OT 2018 03 13  00 04 1.612151  Lat 5155.701912 Long 694.338113 Depth 0.000925
QUALITY  Pmax 1.22323e+32 MFmin 46.1249 MFmax 46.159 RMS 0.0150789 Nphs 10 Gap 225.393 Dist 0.031162 Mamp  0.03 10 Mdur -9.90 0
VPVSRATIO  VpVsRatio -1  Npair 0  Diff -2e+30
STATISTICS  ExpectX 694.329262 Y 5155.686072 Z 0.064737  CovXX 0.00706141 XY 0.00322646 XZ -0.000361442 YY 0.00273514 YZ -0.000315151 ZZ 0.00169799 EllAz1  152.471 Dip1  -9.10364 Len1  0.0593095 Az2  309.667 Dip2  -80.1391 Len2  0.0771143 Len3  1.763844e-01
STAT_GEOG  ExpectLat 5155.686072 Long 694.329262 Depth 0.064737
TRANSFORM  NONE
QML_OriginQuality  assocPhCt 10  usedPhCt 10  assocStaCt -1  usedStaCt 10  depthPhCt -1  stdErr 0.0150789  azGap 225.393  secAzGap 239.043  gtLevel -  minDist 0.031162 maxDist 0.110182 medDist 0.0509362
QML_OriginUncertainty  horUnc -1  minHorUnc 0.0482878  maxHorUnc 0.142128  azMaxHorUnc 61.9196
QML_ConfidenceEllipsoid  semiMajorAxisLength 0.176384  semiMinorAxisLength 0.0593095  semiIntermediateAxisLength 0.0771143  majorAxisPlunge -3.75775  majorAxisAzimuth 61.8676  majorAxisRotation 350.799
FOCALMECH  Hyp  5155.701912 694.338113 0.000925 Mech  0 0 0 mf  0 nObs -1
PHASE ID Ins Cmp On Pha  FM Date     HrMn   Sec     Err  ErrMag    Coda      Amp       Per       PriorWt  >   TTpred    Res       Weight    StaLoc(X  Y         Z)        SDist    SAzim  RAz  RDip RQual    Tcorr       TTerr
25           ?    N    ? P      ? 20180313 0004    1.6832 GAU  2.23e-02 -1.00e+00  7.81e+00  8.00e-03    7.8100 >    0.0526    0.0184    0.6327  694.3684 5155.7091   -0.4438    0.0312  76.63  -1.0  -1.0  0     0.0000    0.0001
23           ?    N    ? P      ? 20180313 0004    1.6870 GAU  1.96e-02 -1.00e+00  7.84e+00  8.00e-03    7.8400 >    0.0615    0.0133    0.6702  694.3677 5155.7226   -0.4473    0.0361  55.09  -1.0  -1.0  0     0.0000    0.0001
26           ?    N    ? P      ? 20180313 0004    1.6788 GAU  1.90e-02 -1.00e+00  7.24e+00  1.20e-02    7.2400 >    0.0697   -0.0031    0.9020  694.3783 5155.6910   -0.4400    0.0417 105.23  -1.0  -1.0  0     0.0000    0.0001
105          ?    N    ? P      ? 20180313 0004    1.6805 GAU  2.07e-02 -1.00e+00  7.80e+00  8.00e-03    7.8000 >    0.0713   -0.0030    1.0272  694.3764 5155.6832   -0.4382    0.0426 116.00  -1.0  -1.0  0     0.0000    0.0001
28           ?    N    ? P      ? 20180313 0004    1.6875 GAU  2.01e-02 -1.00e+00  6.78e+00  8.00e-03    6.7800 >    0.0794   -0.0040    1.1190  694.3767 5155.6745   -0.4362    0.0473 125.44  -1.0  -1.0  0     0.0000    0.0001
20           ?    N    ? P      ? 20180313 0004    1.6979 GAU  1.63e-02 -1.00e+00  6.44e+00  4.40e-02    6.4400 >    0.0947   -0.0089    0.8855  694.3609 5155.7515   -0.4553    0.0545  24.65  -1.0  -1.0  0     0.0000    0.0001
27           ?    N    ? P      ? 20180313 0004    1.7240 GAU  2.72e-02 -1.00e+00  5.66e+00  1.20e-02    5.6600 >    0.1062    0.0057    0.8701  694.4008 5155.6912   -0.4412    0.0636  99.66  -1.0  -1.0  0     0.0000    0.0001
17           ?    N    ? P      ? 20180313 0004    1.7202 GAU  2.99e-02 -1.00e+00  6.06e+00  1.20e-02    6.0600 >    0.1386   -0.0305    0.8082  694.3461 5155.7815   -0.4621    0.0800   5.77  -1.0  -1.0  0     0.0000    0.0001
16           ?    N    ? P      ? 20180313 0004    1.7490 GAU  2.72e-02 -1.00e+00  6.04e+00  1.20e-02    6.0400 >    0.1563   -0.0195    1.2139  694.3452 5155.7921   -0.4642    0.0905   4.49  -1.0  -1.0  0     0.0000    0.0002
15           ?    N    ? P      ? 20180313 0004    1.8208 GAU  2.39e-02 -1.00e+00  6.81e+00  8.00e-03    6.8100 >    0.1857    0.0229    1.8714  694.3206 5155.8107   -0.4609    0.1102 350.84  -1.0  -1.0  0     0.0000    0.0002
END_PHASE
END_NLLOC

