NLLOC "./loc/RR.20180313.004625.grid0" "LOCATED" "Location completed."
PUBLIC_ID None
SIGNATURE "   obs:./obs/nll_picks.obs   NLLoc:v7.00.10(30Aug2020)   run:29Apr2022 23h19m31"
COMMENT "Rattlesnake Ridge Slidequake Locations"
GRID  150 250 75  694.15 5155.4 0  0.002 0.002 0.002 PROB_DENSITY
SEARCH OCTREE nInitial 1000 nEvaluated 8016 smallestNodeSide 0.001863/0.003112/0.000925 oct_tree_integral 2.771763e-05 scatter_volume 2.767397e-05
HYPOCENTER  x 694.333 y 5155.63 z 0.107763  OT 24.9714  ix -1 iy -1 iz -1 MAXIMUM_LIKELIHOOD
GEOGRAPHIC  OT 2018 03 13  00 46 24.971436  Lat 5155.625656 Long 694.333456 Depth 0.107763
QUALITY  Pmax 1.89326e+85 MFmin 190.828 MFmax 190.875 RMS 0.00767266 Nphs 20 Gap 195.965 Dist 0.0442154 Mamp  0.50 20 Mdur -9.90 0
VPVSRATIO  VpVsRatio -1  Npair 0  Diff -2e+30
STATISTICS  ExpectX 694.319999 Y 5155.621899 Z 0.106463  CovXX 0.00166908 XY 0.000333262 XZ -6.84282e-05 YY 9.6543e-05 YZ 3.1862e-05 ZZ 0.000552989 EllAz1  348.342 Dip1  -4.87503 Len1  0.00939532 Az2  199.504 Dip2  -84.3079 Len2  0.0442106 Len3  7.836993e-02
STAT_GEOG  ExpectLat 5155.621899 Long 694.319999 Depth 0.106463
TRANSFORM  NONE
QML_OriginQuality  assocPhCt 20  usedPhCt 20  assocStaCt -1  usedStaCt 20  depthPhCt -1  stdErr 0.00767266  azGap 195.965  secAzGap 232.618  gtLevel -  minDist 0.0442154 maxDist 0.12004 medDist 0.0800064
QML_OriginUncertainty  horUnc -1  minHorUnc 0.00814324  maxHorUnc 0.063203  azMaxHorUnc 78.5151
QML_ConfidenceEllipsoid  semiMajorAxisLength 0.0783699  semiMinorAxisLength 0.00939532  semiIntermediateAxisLength 0.0442106  majorAxisPlunge -2.93119  majorAxisAzimuth 78.592  majorAxisRotation 184.907
FOCALMECH  Hyp  5155.625656 694.333456 0.107763 Mech  0 0 0 mf  0 nObs -1
PHASE ID Ins Cmp On Pha  FM Date     HrMn   Sec     Err  ErrMag    Coda      Amp       Per       PriorWt  >   TTpred    Res       Weight    StaLoc(X  Y         Z)        SDist    SAzim  RAz  RDip RQual    Tcorr       TTerr
33           ?    N    ? P      ? 20180313 0046   25.1454 GAU  3.98e-03 -1.00e+00  9.84e+00  1.20e-02    9.8400 >    0.1814   -0.0075    0.7974  694.3775 5155.6293   -0.4252    0.0442  85.24  -1.0  -1.0  0     0.0000    0.0002
32           ?    N    ? P      ? 20180313 0046   25.1515 GAU  3.77e-03 -1.00e+00  9.14e+00  1.20e-02    9.1400 >    0.1900   -0.0099    0.5596  694.3777 5155.6456   -0.4297    0.0485  65.76  -1.0  -1.0  0     0.0000    0.0002
35           ?    N    ? P      ? 20180313 0046   25.1598 GAU  3.35e-03 -1.00e+00  1.03e+01  8.00e-03   10.3000 >    0.1794    0.0089    1.0064  694.3818 5155.6141   -0.4216    0.0497 103.44  -1.0  -1.0  0     0.0000    0.0002
30           ?    N    ? P      ? 20180313 0046   25.1726 GAU  1.07e-02 -1.00e+00  8.30e+00  8.00e-03    8.3000 >    0.2004    0.0008    0.8266  694.3775 5155.6619   -0.4333    0.0570  50.52  -1.0  -1.0  0     0.0000    0.0002
106          ?    N    ? P      ? 20180313 0046   25.2557 GAU  1.55e-02 -1.00e+00  6.91e+00  1.20e-02    6.9100 >    0.2044    0.0798    0.0054  694.3120 5155.6801   -0.4360    0.0585 338.49  -1.0  -1.0  0     0.0000    0.0002
36           ?    N    ? P      ? 20180313 0046   25.1550 GAU  3.56e-03 -1.00e+00  8.50e+00  1.20e-02    8.5000 >    0.1830    0.0006    1.4388  694.3865 5155.5904   -0.4164    0.0637 123.63  -1.0  -1.0  0     0.0000    0.0002
28           ?    N    ? P      ? 20180313 0046   25.1887 GAU  1.34e-02 -1.00e+00  8.48e+00  1.20e-02    8.4800 >    0.2098    0.0075    0.7986  694.3767 5155.6745   -0.4362    0.0652  41.53  -1.0  -1.0  0     0.0000    0.0002
105          ?    N    ? P      ? 20180313 0046   25.1950 GAU  9.21e-03 -1.00e+00  8.34e+00  1.20e-02    8.3400 >    0.2173    0.0063    1.0616  694.3764 5155.6832   -0.4382    0.0718  36.72  -1.0  -1.0  0     0.0000    0.0002
31           ?    N    ? P      ? 20180313 0046   25.1661 GAU  3.06e-02 -1.00e+00  6.21e+00  1.60e-02    6.2100 >    0.2174   -0.0227    0.2754  694.4086 5155.6503   -0.4335    0.0791  71.82  -1.0  -1.0  0     0.0000    0.0002
26           ?    N    ? P      ? 20180313 0046   25.1929 GAU  4.19e-03 -1.00e+00  6.90e+00  3.60e-02    6.9000 >    0.2256   -0.0041    1.1570  694.3783 5155.6910   -0.4400    0.0792  34.47  -1.0  -1.0  0     0.0000    0.0002
38           ?    N    ? P      ? 20180313 0046   25.1648 GAU  2.51e-03 -1.00e+00  6.40e+00  7.60e-02    6.4000 >    0.1935   -0.0001    1.6386  694.3902 5155.5681   -0.4123    0.0808 135.42  -1.0  -1.0  0     0.0000    0.0002
34           ?    N    ? P      ? 20180313 0046   25.2057 GAU  1.11e-02 -1.00e+00  7.94e+00  1.60e-02    7.9400 >    0.2113    0.0230    0.4488  694.4145 5155.6153   -0.4263    0.0817  97.30  -1.0  -1.0  0     0.0000    0.0002
25           ?    N    ? P      ? 20180313 0046   25.2283 GAU  4.39e-03 -1.00e+00  6.87e+00  4.00e-02    6.8700 >    0.2403    0.0166    0.7809  694.3684 5155.7091   -0.4438    0.0905  22.74  -1.0  -1.0  0     0.0000    0.0002
39           ?    N    ? P      ? 20180313 0046   25.1823 GAU  5.31e-03 -1.00e+00  7.27e+00  1.20e-02    7.2700 >    0.2004    0.0104    1.6070  694.3890 5155.5532   -0.4086    0.0913 142.53  -1.0  -1.0  0     0.0000    0.0002
27           ?    N    ? P      ? 20180313 0046   25.2157 GAU  4.39e-03 -1.00e+00  5.86e+00  4.40e-02    5.8600 >    0.2399    0.0044    1.2416  694.4008 5155.6912   -0.4412    0.0940  45.75  -1.0  -1.0  0     0.0000    0.0002
37           ?    N    ? P      ? 20180313 0046   25.2017 GAU  6.70e-03 -1.00e+00  6.97e+00  1.20e-02    6.9700 >    0.2205    0.0098    1.1984  694.4219 5155.5876   -0.4220    0.0963 113.28  -1.0  -1.0  0     0.0000    0.0002
23           ?    N    ? P      ? 20180313 0046   25.2270 GAU  6.91e-03 -1.00e+00  7.21e+00  1.20e-02    7.2100 >    0.2559   -0.0003    1.8272  694.3677 5155.7226   -0.4473    0.1028  19.46  -1.0  -1.0  0     0.0000    0.0003
21           ?    N    ? P      ? 20180313 0046   25.2567 GAU  2.99e-02 -1.00e+00  6.71e+00  8.00e-03    6.7100 >    0.2754    0.0099    0.8595  694.3642 5155.7391   -0.4517    0.1175  15.14  -1.0  -1.0  0     0.0000    0.0003
40           ?    N    ? P      ? 20180313 0046   25.1995 GAU  6.13e-03 -1.00e+00  6.62e+00  1.20e-02    6.6200 >    0.2357   -0.0076    1.8024  694.4169 5155.5417   -0.4131    0.1183 135.18  -1.0  -1.0  0     0.0000    0.0002
22           ?    N    ? P      ? 20180313 0046   25.2297 GAU  2.09e-02 -1.00e+00  5.32e+00  4.80e-02    5.3200 >    0.2741   -0.0158    0.6688  694.3985 5155.7265   -0.4488    0.1200  32.81  -1.0  -1.0  0     0.0000    0.0003
END_PHASE
END_NLLOC

