NLLOC "./loc/RR.20180313.024744.grid0" "REJECTED" "WARNING: max prob location on grid boundary 31, rejecting location."
PUBLIC_ID None
SIGNATURE "   obs:./obs/nll_picks.obs   NLLoc:v7.00.10(30Aug2020)   run:29Apr2022 23h21m09"
COMMENT "Rattlesnake Ridge Slidequake Locations"
GRID  150 250 75  694.15 5155.4 0  0.002 0.002 0.002 PROB_DENSITY
SEARCH OCTREE nInitial 1000 nEvaluated 4168 smallestNodeSide 0.001863/0.003112/0.000925 oct_tree_integral 1.710278e-05 scatter_volume 1.705238e-05
HYPOCENTER  x 694.222 y 5155.7 z 0.147537  OT 44.5349  ix -1 iy -1 iz -1 MAXIMUM_LIKELIHOOD
GEOGRAPHIC  OT 2018 03 13  02 47 44.534886  Lat 5155.697244 Long 694.221706 Depth 0.147537
QUALITY  Pmax 1.74436e+128 MFmin 290.122 MFmax 290.2 RMS 0.0071052 Nphs 27 Gap 269.639 Dist 0.0919318 Mamp  0.79 27 Mdur -9.90 0
VPVSRATIO  VpVsRatio -1  Npair 0  Diff -2e+30
STATISTICS  ExpectX 694.195749 Y 5155.690476 Z 0.121612  CovXX 0.000503016 XY 5.90122e-05 XZ 0.000200258 YY 5.93174e-05 YZ 0.00011658 ZZ 0.00051854 EllAz1  178.366 Dip1  12.8091 Len1  0.0104807 Az2  279.817 Dip2  41.1286 Len2  0.0333635 Len3  5.091671e-02
STAT_GEOG  ExpectLat 5155.690476 Long 694.195749 Depth 0.121612
TRANSFORM  NONE
QML_OriginQuality  assocPhCt 27  usedPhCt 27  assocStaCt -1  usedStaCt 27  depthPhCt -1  stdErr 0.0071052  azGap 269.639  secAzGap 279.178  gtLevel -  minDist 0.0919318 maxDist 0.249556 medDist 0.16728
QML_OriginUncertainty  horUnc -1  minHorUnc 0.0108943  maxHorUnc 0.0342736  azMaxHorUnc 82.5521
QML_ConfidenceEllipsoid  semiMajorAxisLength 0.0509167  semiMinorAxisLength 0.0104807  semiIntermediateAxisLength 0.0333635  majorAxisPlunge 46.0436  majorAxisAzimuth 74.7271  majorAxisRotation 276.167
FOCALMECH  Hyp  5155.697244 694.221706 0.147537 Mech  0 0 0 mf  0 nObs -1
PHASE ID Ins Cmp On Pha  FM Date     HrMn   Sec     Err  ErrMag    Coda      Amp       Per       PriorWt  >   TTpred    Res       Weight    StaLoc(X  Y         Z)        SDist    SAzim  RAz  RDip RQual    Tcorr       TTerr
106          ?    N    ? P      ? 20180313 0247   44.9198 GAU  5.57e-03 -1.00e+00  8.14e+00  1.20e-02    8.1400 >    0.2949    0.0900    0.0002  694.3120 5155.6801   -0.4360    0.0919 100.78  -1.0  -1.0  0     0.0000    0.0003
25           ?    N    ? P      ? 20180313 0247   44.8953 GAU  1.05e-02 -1.00e+00  9.31e+00  2.40e-02    9.3100 >    0.3470    0.0134    0.6787  694.3684 5155.7091   -0.4438    0.1472  85.37  -1.0  -1.0  0     0.0000    0.0003
23           ?    N    ? P      ? 20180313 0247   44.8928 GAU  6.53e-03 -1.00e+00  1.02e+01  2.00e-02   10.2000 >    0.3519    0.0060    1.0259  694.3677 5155.7226   -0.4473    0.1482  80.16  -1.0  -1.0  0     0.0000    0.0004
21           ?    N    ? P      ? 20180313 0247   44.8890 GAU  6.28e-03 -1.00e+00  9.25e+00  1.20e-02    9.2500 >    0.3575   -0.0034    0.9961  694.3642 5155.7391   -0.4517    0.1485  73.62  -1.0  -1.0  0     0.0000    0.0004
20           ?    N    ? P      ? 20180313 0247   44.8978 GAU  4.52e-03 -1.00e+00  8.81e+00  6.40e-02    8.8100 >    0.3620    0.0009    1.2434  694.3609 5155.7515   -0.4553    0.1493  68.71  -1.0  -1.0  0     0.0000    0.0004
17           ?    N    ? P      ? 20180313 0247   44.9141 GAU  7.28e-03 -1.00e+00  8.29e+00  2.80e-02    8.2900 >    0.3719    0.0073    1.4634  694.3461 5155.7815   -0.4621    0.1503  55.91  -1.0  -1.0  0     0.0000    0.0004
18           ?    N    ? P      ? 20180313 0247   44.9008 GAU  5.02e-03 -1.00e+00  7.99e+00  1.20e-02    7.9900 >    0.3675   -0.0016    1.2864  694.3549 5155.7674   -0.4586    0.1505  62.22  -1.0  -1.0  0     0.0000    0.0004
105          ?    N    ? P      ? 20180313 0247   44.8935 GAU  3.26e-03 -1.00e+00  1.02e+01  5.60e-02   10.2000 >    0.3484    0.0102    0.8735  694.3764 5155.6832   -0.4382    0.1553  95.17  -1.0  -1.0  0     0.0000    0.0003
16           ?    N    ? P      ? 20180313 0247   44.9309 GAU  1.00e-02 -1.00e+00  8.31e+00  1.20e-02    8.3100 >    0.3795    0.0165    1.0638  694.3452 5155.7921   -0.4642    0.1557  52.46  -1.0  -1.0  0     0.0000    0.0004
28           ?    N    ? P      ? 20180313 0247   44.8808 GAU  3.34e-03 -1.00e+00  9.20e+00  5.60e-02    9.2000 >    0.3476   -0.0017    1.0196  694.3767 5155.6745   -0.4362    0.1566  98.36  -1.0  -1.0  0     0.0000    0.0003
26           ?    N    ? P      ? 20180313 0247   44.8832 GAU  5.02e-03 -1.00e+00  9.14e+00  1.20e-02    9.1400 >    0.3516   -0.0033    0.8712  694.3783 5155.6910   -0.4400    0.1567  92.29  -1.0  -1.0  0     0.0000    0.0004
30           ?    N    ? P      ? 20180313 0247   44.8825 GAU  7.24e-03 -1.00e+00  9.22e+00  8.00e-03    9.2200 >    0.3467    0.0009    0.9936  694.3775 5155.6619   -0.4333    0.1597 102.78  -1.0  -1.0  0     0.0000    0.0003
32           ?    N    ? P      ? 20180313 0247   44.8864 GAU  5.57e-03 -1.00e+00  8.59e+00  1.20e-02    8.5900 >    0.3480    0.0035    1.1543  694.3777 5155.6456   -0.4297    0.1643 108.33  -1.0  -1.0  0     0.0000    0.0003
12           ?    N    ? P      ? 20180313 0247   44.9336 GAU  5.36e-03 -1.00e+00  7.03e+00  1.20e-02    7.0300 >    0.3928    0.0059    1.9743  694.3356 5155.8197   -0.4663    0.1673  42.92  -1.0  -1.0  0     0.0000    0.0004
33           ?    N    ? P      ? 20180313 0247   44.8947 GAU  5.01e-03 -1.00e+00  8.20e+00  1.20e-02    8.2000 >    0.3489    0.0109    0.9847  694.3775 5155.6293   -0.4252    0.1700 113.55  -1.0  -1.0  0     0.0000    0.0003
103          ?    N    ? P      ? 20180313 0247   44.9254 GAU  4.51e-03 -1.00e+00  8.03e+00  6.40e-02    8.0300 >    0.3964   -0.0059    1.3451  694.3644 5155.7952   -0.4662    0.1730  55.53  -1.0  -1.0  0     0.0000    0.0004
27           ?    N    ? P      ? 20180313 0247   44.9206 GAU  1.08e-02 -1.00e+00  8.77e+00  1.20e-02    8.7700 >    0.3746    0.0111    0.7337  694.4008 5155.6912   -0.4412    0.1792  91.92  -1.0  -1.0  0     0.0000    0.0004
22           ?    N    ? P      ? 20180313 0247   44.9277 GAU  9.79e-03 -1.00e+00  8.56e+00  1.20e-02    8.5600 >    0.3826    0.0102    0.8621  694.3985 5155.7265   -0.4488    0.1792  80.59  -1.0  -1.0  0     0.0000    0.0004
35           ?    N    ? P      ? 20180313 0247   44.9008 GAU  1.45e-02 -1.00e+00  8.03e+00  1.20e-02    8.0300 >    0.3555    0.0104    0.8742  694.3818 5155.6141   -0.4216    0.1804 117.45  -1.0  -1.0  0     0.0000    0.0004
31           ?    N    ? P      ? 20180313 0247   44.9120 GAU  1.56e-02 -1.00e+00  8.44e+00  2.00e-02    8.4400 >    0.3808   -0.0037    0.7234  694.4086 5155.6503   -0.4335    0.1927 104.08  -1.0  -1.0  0     0.0000    0.0004
36           ?    N    ? P      ? 20180313 0247   44.9214 GAU  1.62e-02 -1.00e+00  7.07e+00  1.20e-02    7.0700 >    0.3686    0.0179    0.7482  694.3865 5155.5904   -0.4164    0.1964 122.96  -1.0  -1.0  0     0.0000    0.0004
34           ?    N    ? P      ? 20180313 0247   44.9192 GAU  9.46e-03 -1.00e+00  8.13e+00  1.20e-02    8.1300 >    0.3928   -0.0084    0.9010  694.4145 5155.6153   -0.4263    0.2095 113.03  -1.0  -1.0  0     0.0000    0.0004
38           ?    N    ? P      ? 20180313 0247   44.9187 GAU  1.34e-02 -1.00e+00  6.83e+00  1.20e-02    6.8300 >    0.3841   -0.0002    1.2766  694.3902 5155.5681   -0.4123    0.2122 127.47  -1.0  -1.0  0     0.0000    0.0004
39           ?    N    ? P      ? 20180313 0247   44.9337 GAU  1.62e-02 -1.00e+00  6.61e+00  2.40e-02    6.6100 >    0.3910    0.0078    1.2172  694.3890 5155.5532   -0.4086    0.2208 130.73  -1.0  -1.0  0     0.0000    0.0004
37           ?    N    ? P      ? 20180313 0247   44.9432 GAU  2.34e-02 -1.00e+00  7.06e+00  1.20e-02    7.0600 >    0.4111   -0.0028    0.7813  694.4219 5155.5876   -0.4220    0.2283 118.71  -1.0  -1.0  0     0.0000    0.0004
41           ?    N    ? P      ? 20180313 0247   44.9248 GAU  2.95e-02 -1.00e+00  6.21e+00  1.60e-02    6.2100 >    0.4014   -0.0114    0.7152  694.3901 5155.5386   -0.4053    0.2313 133.28  -1.0  -1.0  0     0.0000    0.0004
40           ?    N    ? P      ? 20180313 0247   44.9604 GAU  1.73e-02 -1.00e+00  6.88e+00  1.20e-02    6.8800 >    0.4307   -0.0052    1.1931  694.4169 5155.5417   -0.4131    0.2496 128.55  -1.0  -1.0  0     0.0000    0.0004
END_PHASE
END_NLLOC

