NLLOC "./loc/RR.20180313.000718.grid0" "LOCATED" "Location completed."
PUBLIC_ID None
SIGNATURE "   obs:./obs/nll_picks.obs   NLLoc:v7.00.10(30Aug2020)   run:29Apr2022 23h17m32"
COMMENT "Rattlesnake Ridge Slidequake Locations"
GRID  150 250 75  694.15 5155.4 0  0.002 0.002 0.002 PROB_DENSITY
SEARCH OCTREE nInitial 1000 nEvaluated 13584 smallestNodeSide 0.001863/0.003112/0.000925 oct_tree_integral 8.746559e-05 scatter_volume 8.677877e-05
HYPOCENTER  x 694.353 y 5155.8 z 0.054575  OT 18.403  ix -1 iy -1 iz -1 MAXIMUM_LIKELIHOOD
GEOGRAPHIC  OT 2018 03 13  00 07 18.402986  Lat 5155.801513 Long 694.353012 Depth 0.054575
QUALITY  Pmax 1.37722e+59 MFmin 85.2118 MFmax 85.223 RMS 0.0166925 Nphs 16 Gap 128.905 Dist 0.0122195 Mamp  0.21 16 Mdur -9.90 0
VPVSRATIO  VpVsRatio -1  Npair 0  Diff -2e+30
STATISTICS  ExpectX 694.382818 Y 5155.820626 Z 0.070360  CovXX 0.00209882 XY 0.000947123 XZ 0.00037259 YY 0.000549061 YZ 0.000304637 ZZ 0.000922155 EllAz1  156.316 Dip1  8.75417 Len1  0.0170546 Az2  275.633 Dip2  72.5417 Len2  0.0536354 Len3  9.713191e-02
STAT_GEOG  ExpectLat 5155.820626 Long 694.382818 Depth 0.070360
TRANSFORM  NONE
QML_OriginQuality  assocPhCt 16  usedPhCt 16  assocStaCt -1  usedStaCt 16  depthPhCt -1  stdErr 0.0166925  azGap 128.905  secAzGap 176.888  gtLevel -  minDist 0.0122195 maxDist 0.113396 medDist 0.0500099
QML_OriginUncertainty  horUnc -1  minHorUnc 0.0151828  maxHorUnc 0.0765481  azMaxHorUnc 64.644
QML_ConfidenceEllipsoid  semiMajorAxisLength 0.0971319  semiMinorAxisLength 0.0170546  semiIntermediateAxisLength 0.0536354  majorAxisPlunge 14.9835  majorAxisAzimuth 63.9541  majorAxisRotation 10.4349
FOCALMECH  Hyp  5155.801513 694.353012 0.054575 Mech  0 0 0 mf  0 nObs -1
PHASE ID Ins Cmp On Pha  FM Date     HrMn   Sec     Err  ErrMag    Coda      Amp       Per       PriorWt  >   TTpred    Res       Weight    StaLoc(X  Y         Z)        SDist    SAzim  RAz  RDip RQual    Tcorr       TTerr
16           ?    N    ? P      ? 20180313 0007   18.5093 GAU  1.08e-02 -1.00e+00  7.98e+00  5.60e-02    7.9800 >    0.0847    0.0216    0.6828  694.3452 5155.7921   -0.4642    0.0122 219.80  -1.0  -1.0  0     0.0000    0.0001
103          ?    N    ? P      ? 20180313 0007   18.5640 GAU  1.32e-02 -1.00e+00  7.17e+00  8.00e-03    7.1700 >    0.0882    0.0728    0.1655  694.3644 5155.7952   -0.4662    0.0130 119.13  -1.0  -1.0  0     0.0000    0.0001
17           ?    N    ? P      ? 20180313 0007   18.5134 GAU  1.29e-02 -1.00e+00  7.53e+00  1.20e-02    7.5300 >    0.0862    0.0242    0.6617  694.3461 5155.7815   -0.4621    0.0212 198.92  -1.0  -1.0  0     0.0000    0.0001
12           ?    N    ? P      ? 20180313 0007   18.5002 GAU  1.22e-02 -1.00e+00  8.16e+00  8.00e-03    8.1600 >    0.0944    0.0028    0.9138  694.3356 5155.8197   -0.4663    0.0252 316.35  -1.0  -1.0  0     0.0000    0.0001
15           ?    N    ? P      ? 20180313 0007   18.4943 GAU  6.96e-03 -1.00e+00  9.00e+00  1.20e-02    9.0000 >    0.0937   -0.0024    0.9548  694.3206 5155.8107   -0.4609    0.0337 285.79  -1.0  -1.0  0     0.0000    0.0001
18           ?    N    ? P      ? 20180313 0007   18.4995 GAU  1.98e-02 -1.00e+00  6.85e+00  6.80e-02    6.8500 >    0.0917    0.0048    0.8914  694.3549 5155.7674   -0.4586    0.0342 176.85  -1.0  -1.0  0     0.0000    0.0001
10           ?    N    ? P      ? 20180313 0007   18.5054 GAU  1.39e-02 -1.00e+00  7.81e+00  6.40e-02    7.8100 >    0.1053   -0.0029    0.9872  694.3329 5155.8329   -0.4673    0.0373 327.34  -1.0  -1.0  0     0.0000    0.0001
6            ?    N    ? P      ? 20180313 0007   18.5580 GAU  2.96e-02 -1.00e+00  7.21e+00  1.20e-02    7.2100 >    0.1239    0.0312    0.8412  694.3446 5155.8502   -0.4728    0.0494 350.23  -1.0  -1.0  0     0.0000    0.0001
20           ?    N    ? P      ? 20180313 0007   18.5169 GAU  1.36e-02 -1.00e+00  6.85e+00  2.00e-02    6.8500 >    0.1059    0.0080    1.2734  694.3609 5155.7515   -0.4553    0.0506 171.10  -1.0  -1.0  0     0.0000    0.0001
8            ?    N    ? P      ? 20180313 0007   18.4974 GAU  1.78e-02 -1.00e+00  7.25e+00  1.20e-02    7.2500 >    0.1188   -0.0244    0.6653  694.3223 5155.8450   -0.4648    0.0532 324.77  -1.0  -1.0  0     0.0000    0.0001
13           ?    N    ? P      ? 20180313 0007   18.5267 GAU  2.19e-02 -1.00e+00  7.37e+00  1.20e-02    7.3700 >    0.1186    0.0051    1.0675  694.3062 5155.8390   -0.4568    0.0600 308.73  -1.0  -1.0  0     0.0000    0.0001
21           ?    N    ? P      ? 20180313 0007   18.5211 GAU  1.71e-02 -1.00e+00  6.42e+00  6.00e-02    6.4200 >    0.1192   -0.0011    1.3987  694.3642 5155.7391   -0.4517    0.0634 169.86  -1.0  -1.0  0     0.0000    0.0001
23           ?    N    ? P      ? 20180313 0007   18.5253 GAU  1.98e-02 -1.00e+00  6.55e+00  8.00e-03    6.5500 >    0.1397   -0.0173    1.3082  694.3677 5155.7226   -0.4473    0.0803 169.47  -1.0  -1.0  0     0.0000    0.0001
5            ?    N    ? P      ? 20180313 0007   18.5622 GAU  4.21e-02 -1.00e+00  7.73e+00  1.20e-02    7.7300 >    0.1397    0.0195    1.0231  694.2898 5155.8520   -0.4475    0.0809 308.58  -1.0  -1.0  0     0.0000    0.0001
7            ?    N    ? P      ? 20180313 0007   18.5727 GAU  2.40e-02 -1.00e+00  7.06e+00  6.00e-02    7.0600 >    0.1527    0.0170    1.5986  694.2704 5155.8450   -0.4359    0.0934 297.77  -1.0  -1.0  0     0.0000    0.0002
26           ?    N    ? P      ? 20180313 0007   18.6197 GAU  3.76e-02 -1.00e+00  6.51e+00  1.20e-02    6.5100 >    0.1861    0.0306    1.5669  694.3783 5155.6910   -0.4400    0.1134 167.11  -1.0  -1.0  0     0.0000    0.0002
END_PHASE
END_NLLOC

