NLLOC "./loc/RR.20180313.024258.grid0" "REJECTED" "WARNING: max prob location on grid boundary 31, rejecting location."
PUBLIC_ID None
SIGNATURE "   obs:./obs/nll_picks.obs   NLLoc:v7.00.10(30Aug2020)   run:29Apr2022 23h21m03"
COMMENT "Rattlesnake Ridge Slidequake Locations"
GRID  150 250 75  694.15 5155.4 0  0.002 0.002 0.002 PROB_DENSITY
SEARCH OCTREE nInitial 1000 nEvaluated 8776 smallestNodeSide 0.001863/0.003112/0.000925 oct_tree_integral 5.904665e-05 scatter_volume 5.904665e-05
HYPOCENTER  x 694.197 y 5155.71 z 0.147075  OT 58.5573  ix -1 iy -1 iz -1 MAXIMUM_LIKELIHOOD
GEOGRAPHIC  OT 2018 03 13  02 42 58.557310  Lat 5155.708137 Long 694.196562 Depth 0.147075
QUALITY  Pmax 9.4401e+88 MFmin 189.938 MFmax 189.988 RMS 0.019516 Nphs 22 Gap 284.392 Dist 0.118821 Mamp  0.78 22 Mdur -9.90 0
VPVSRATIO  VpVsRatio -1  Npair 0  Diff -2e+30
STATISTICS  ExpectX 694.185588 Y 5155.700426 Z 0.112869  CovXX 0.000623142 XY 3.81916e-05 XZ 0.000189197 YY 0.000105496 YZ 0.00022409 ZZ 0.000905882 EllAz1  181.196 Dip1  14.8631 Len1  0.0128544 Az2  277.694 Dip2  23.0954 Len2  0.0435211 Len3  6.091419e-02
STAT_GEOG  ExpectLat 5155.700426 Long 694.185588 Depth 0.112869
TRANSFORM  NONE
QML_OriginQuality  assocPhCt 22  usedPhCt 22  assocStaCt -1  usedStaCt 22  depthPhCt -1  stdErr 0.019516  azGap 284.392  secAzGap 288.609  gtLevel -  minDist 0.118821 maxDist 0.255577 medDist 0.182051
QML_OriginUncertainty  horUnc -1  minHorUnc 0.0153686  maxHorUnc 0.037943  azMaxHorUnc 85.803
QML_ConfidenceEllipsoid  semiMajorAxisLength 0.0609142  semiMinorAxisLength 0.0128544  semiIntermediateAxisLength 0.0435211  majorAxisPlunge 62.0508  majorAxisAzimuth 61.1828  majorAxisRotation 310.609
FOCALMECH  Hyp  5155.708137 694.196562 0.147075 Mech  0 0 0 mf  0 nObs -1
PHASE ID Ins Cmp On Pha  FM Date     HrMn   Sec     Err  ErrMag    Coda      Amp       Per       PriorWt  >   TTpred    Res       Weight    StaLoc(X  Y         Z)        SDist    SAzim  RAz  RDip RQual    Tcorr       TTerr
106          ?    N    ? P      ? 20180313 0242   58.9676 GAU  1.08e-02 -1.00e+00  8.08e+00  1.20e-02    8.0800 >    0.3325    0.0778    0.0070  694.3120 5155.6801   -0.4360    0.1188 103.67  -1.0  -1.0  0     0.0000    0.0003
15           ?    N    ? P      ? 20180313 0242   58.8679 GAU  5.09e-03 -1.00e+00  8.20e+00  1.20e-02    8.2000 >    0.3983   -0.0877    0.0127  694.3206 5155.8107   -0.4609    0.1609  50.41  -1.0  -1.0  0     0.0000    0.0004
17           ?    N    ? P      ? 20180313 0242   58.9648 GAU  1.70e-02 -1.00e+00  7.65e+00  1.20e-02    7.6500 >    0.4030    0.0045    1.5366  694.3461 5155.7815   -0.4621    0.1666  63.88  -1.0  -1.0  0     0.0000    0.0004
18           ?    N    ? P      ? 20180313 0242   58.9602 GAU  6.79e-03 -1.00e+00  7.39e+00  4.00e-02    7.3900 >    0.4002    0.0027    1.7892  694.3549 5155.7674   -0.4586    0.1691  69.48  -1.0  -1.0  0     0.0000    0.0004
20           ?    N    ? P      ? 20180313 0242   58.9534 GAU  6.79e-03 -1.00e+00  7.70e+00  8.00e-03    7.7000 >    0.3965   -0.0004    1.4165  694.3609 5155.7515   -0.4553    0.1699  75.22  -1.0  -1.0  0     0.0000    0.0004
21           ?    N    ? P      ? 20180313 0242   58.9455 GAU  7.92e-03 -1.00e+00  7.71e+00  2.40e-02    7.7100 >    0.3931   -0.0049    1.0551  694.3642 5155.7391   -0.4517    0.1704  79.53  -1.0  -1.0  0     0.0000    0.0004
16           ?    N    ? P      ? 20180313 0242   58.9670 GAU  2.49e-02 -1.00e+00  7.51e+00  2.80e-02    7.5100 >    0.4094    0.0003    1.3713  694.3452 5155.7921   -0.4642    0.1707  60.53  -1.0  -1.0  0     0.0000    0.0004
23           ?    N    ? P      ? 20180313 0242   58.9478 GAU  7.93e-03 -1.00e+00  8.58e+00  1.20e-02    8.5800 >    0.3890    0.0015    1.0371  694.3677 5155.7226   -0.4473    0.1717  85.18  -1.0  -1.0  0     0.0000    0.0004
25           ?    N    ? P      ? 20180313 0242   58.9500 GAU  5.66e-03 -1.00e+00  8.62e+00  8.00e-03    8.6200 >    0.3850    0.0077    0.9453  694.3684 5155.7091   -0.4438    0.1719  89.67  -1.0  -1.0  0     0.0000    0.0004
12           ?    N    ? P      ? 20180313 0242   58.8951 GAU  9.62e-03 -1.00e+00  6.52e+00  1.20e-02    6.5200 >    0.4197   -0.0819    0.0190  694.3356 5155.8197   -0.4663    0.1783  51.25  -1.0  -1.0  0     0.0000    0.0004
105          ?    N    ? P      ? 20180313 0242   58.9454 GAU  3.41e-03 -1.00e+00  8.90e+00  1.20e-02    8.9000 >    0.3884   -0.0003    1.5540  694.3764 5155.6832   -0.4382    0.1816  97.88  -1.0  -1.0  0     0.0000    0.0004
26           ?    N    ? P      ? 20180313 0242   58.9483 GAU  3.96e-03 -1.00e+00  7.85e+00  2.40e-02    7.8500 >    0.3915   -0.0005    1.3033  694.3783 5155.6910   -0.4400    0.1825  95.40  -1.0  -1.0  0     0.0000    0.0004
28           ?    N    ? P      ? 20180313 0242   58.9608 GAU  1.31e-02 -1.00e+00  8.35e+00  8.00e-03    8.3500 >    0.3877    0.0158    0.8037  694.3767 5155.6745   -0.4362    0.1832 100.59  -1.0  -1.0  0     0.0000    0.0004
30           ?    N    ? P      ? 20180313 0242   58.9824 GAU  1.19e-02 -1.00e+00  8.03e+00  8.00e-03    8.0300 >    0.3879    0.0371    0.1919  694.3775 5155.6619   -0.4333    0.1867 104.33  -1.0  -1.0  0     0.0000    0.0004
103          ?    N    ? P      ? 20180313 0242   58.9682 GAU  1.47e-02 -1.00e+00  7.05e+00  1.20e-02    7.0500 >    0.4270   -0.0161    1.2044  694.3644 5155.7952   -0.4662    0.1890  62.58  -1.0  -1.0  0     0.0000    0.0004
22           ?    N    ? P      ? 20180313 0242   58.9682 GAU  1.93e-02 -1.00e+00  6.95e+00  1.20e-02    6.9500 >    0.4199   -0.0090    0.7400  694.3985 5155.7265   -0.4488    0.2028  84.79  -1.0  -1.0  0     0.0000    0.0004
27           ?    N    ? P      ? 20180313 0242   58.9744 GAU  1.42e-02 -1.00e+00  7.02e+00  1.20e-02    7.0200 >    0.4146    0.0024    1.0081  694.4008 5155.6912   -0.4412    0.2049  94.73  -1.0  -1.0  0     0.0000    0.0004
6            ?    N    ? P      ? 20180313 0242   59.2870 GAU  1.30e-02 -1.00e+00  6.88e+00  2.80e-02    6.8800 >    0.4519    0.2778    0.0997  694.3446 5155.8502   -0.4728    0.2052  46.19  -1.0  -1.0  0     0.0000    0.0005
35           ?    N    ? P      ? 20180313 0242   58.9579 GAU  1.93e-02 -1.00e+00  7.58e+00  1.20e-02    7.5800 >    0.3976    0.0029    1.9460  694.3818 5155.6141   -0.4216    0.2077 116.92  -1.0  -1.0  0     0.0000    0.0004
31           ?    N    ? P      ? 20180313 0242   58.9585 GAU  2.22e-02 -1.00e+00  7.31e+00  1.20e-02    7.3100 >    0.4225   -0.0213    0.9506  694.4086 5155.6503   -0.4335    0.2198 105.24  -1.0  -1.0  0     0.0000    0.0004
36           ?    N    ? P      ? 20180313 0242   58.9687 GAU  1.31e-02 -1.00e+00  6.51e+00  5.20e-02    6.5100 >    0.4107    0.0007    2.9089  694.3865 5155.5904   -0.4164    0.2235 121.80  -1.0  -1.0  0     0.0000    0.0004
37           ?    N    ? P      ? 20180313 0242   59.3240 GAU  2.79e-02 -1.00e+00  6.54e+00  2.40e-02    6.5400 >    0.4533    0.3134    0.0997  694.4219 5155.5876   -0.4220    0.2556 118.14  -1.0  -1.0  0     0.0000    0.0005
END_PHASE
END_NLLOC

