NLLOC "./loc/RR.20180313.000106.grid0" "LOCATED" "Location completed."
PUBLIC_ID None
SIGNATURE "   obs:./obs/nll_picks.obs   NLLoc:v7.00.10(30Aug2020)   run:29Apr2022 23h16m03"
COMMENT "Rattlesnake Ridge Slidequake Locations"
GRID  150 250 75  694.15 5155.4 0  0.002 0.002 0.002 PROB_DENSITY
SEARCH OCTREE nInitial 1000 nEvaluated 1520 smallestNodeSide 0.001863/0.003112/0.000925 oct_tree_integral 1.663291e-06 scatter_volume 1.661778e-06
HYPOCENTER  x 694.335 y 5155.8 z 0.0004625  OT 6.10923  ix -1 iy -1 iz -1 MAXIMUM_LIKELIHOOD
GEOGRAPHIC  OT 2018 03 13  00 01 6.109231  Lat 5155.799956 Long 694.335319 Depth 0.000462
QUALITY  Pmax 3.34612e+26 MFmin 47.9738 MFmax 47.9923 RMS 0.0128902 Nphs 10 Gap 153.806 Dist 0.0126004 Mamp -0.23 10 Mdur -9.90 0
VPVSRATIO  VpVsRatio -1  Npair 0  Diff -2e+30
STATISTICS  ExpectX 694.328978 Y 5155.798917 Z 0.007514  CovXX 0.000212099 XY 0.000108326 XZ -6.98416e-05 YY 0.000132736 YZ -3.84336e-05 ZZ 7.97368e-05 EllAz1  123.229 Dip1  48.5173 Len1  0.0128399 Az2  339.616 Dip2  35.4433 Len2  0.0149482 Len3  3.332308e-02
STAT_GEOG  ExpectLat 5155.798917 Long 694.328978 Depth 0.007514
TRANSFORM  NONE
QML_OriginQuality  assocPhCt 10  usedPhCt 10  assocStaCt -1  usedStaCt 10  depthPhCt -1  stdErr 0.0128902  azGap 153.806  secAzGap 171.101  gtLevel -  minDist 0.0126004 maxDist 0.0547944 medDist 0.0312237
QML_OriginUncertainty  horUnc -1  minHorUnc 0.0114552  maxHorUnc 0.0257274  azMaxHorUnc 55.0593
QML_ConfidenceEllipsoid  semiMajorAxisLength 0.0333231  semiMinorAxisLength 0.0128399  semiIntermediateAxisLength 0.0149482  majorAxisPlunge -18.6711  majorAxisAzimuth 55.698  majorAxisRotation 58.3917
FOCALMECH  Hyp  5155.799956 694.335319 0.000462 Mech  0 0 0 mf  0 nObs -1
PHASE ID Ins Cmp On Pha  FM Date     HrMn   Sec     Err  ErrMag    Coda      Amp       Per       PriorWt  >   TTpred    Res       Weight    StaLoc(X  Y         Z)        SDist    SAzim  RAz  RDip RQual    Tcorr       TTerr
16           ?    N    ? P      ? 20180313 0001    6.1285 GAU  1.28e-02 -1.00e+00  7.97e+00  1.20e-02    7.9700 >    0.0212   -0.0019    1.7849  694.3452 5155.7921   -0.4642    0.0126 128.43  -1.0  -1.0  0     0.0000    0.0001
15           ?    N    ? P      ? 20180313 0001    6.1272 GAU  9.21e-03 -1.00e+00  9.97e+00  1.60e-02    9.9700 >    0.0308   -0.0128    1.0490  694.3206 5155.8107   -0.4609    0.0182 306.03  -1.0  -1.0  0     0.0000    0.0001
12           ?    N    ? P      ? 20180313 0001    6.1384 GAU  1.06e-02 -1.00e+00  8.10e+00  1.20e-02    8.1000 >    0.0335   -0.0043    0.8295  694.3356 5155.8197   -0.4663    0.0198   0.90  -1.0  -1.0  0     0.0000    0.0001
17           ?    N    ? P      ? 20180313 0001    6.9120 GAU  1.06e-02 -1.00e+00  7.59e+00  8.00e-03    7.5900 >    0.0359    0.7669    0.0002  694.3461 5155.7815   -0.4621    0.0214 149.63  -1.0  -1.0  0     0.0000    0.0001
103          ?    N    ? P      ? 20180313 0001    6.1705 GAU  1.44e-02 -1.00e+00  6.27e+00  1.20e-02    6.2700 >    0.0494    0.0119    1.9132  694.3644 5155.7952   -0.4662    0.0294  99.32  -1.0  -1.0  0     0.0000    0.0001
10           ?    N    ? P      ? 20180313 0001    6.1474 GAU  7.87e-03 -1.00e+00  7.28e+00  8.00e-03    7.2800 >    0.0555   -0.0173    0.6526  694.3329 5155.8329   -0.4673    0.0330 355.80  -1.0  -1.0  0     0.0000    0.0001
8            ?    N    ? P      ? 20180313 0001    6.1303 GAU  1.82e-02 -1.00e+00  7.12e+00  8.00e-03    7.1200 >    0.0784   -0.0574    0.0653  694.3223 5155.8450   -0.4648    0.0469 343.88  -1.0  -1.0  0     0.0000    0.0001
13           ?    N    ? P      ? 20180313 0001    6.2092 GAU  9.44e-03 -1.00e+00  7.70e+00  1.60e-02    7.7000 >    0.0819    0.0180    1.6750  694.3062 5155.8390   -0.4568    0.0487 323.33  -1.0  -1.0  0     0.0000    0.0001
6            ?    N    ? P      ? 20180313 0001    6.1995 GAU  1.10e-02 -1.00e+00  7.00e+00  2.80e-02    7.0000 >    0.0866    0.0037    2.0301  694.3446 5155.8502   -0.4728    0.0511  10.51  -1.0  -1.0  0     0.0000    0.0001
20           ?    N    ? P      ? 20180313 0001    6.9030 GAU  1.37e-02 -1.00e+00  6.23e+00  8.00e-03    6.2300 >    0.0923    0.7015    0.0002  694.3609 5155.7515   -0.4553    0.0548 152.23  -1.0  -1.0  0     0.0000    0.0001
END_PHASE
END_NLLOC

