NLLOC "./loc/RR.20180313.001355.grid0" "REJECTED" "WARNING: max prob location on grid boundary 31, rejecting location."
PUBLIC_ID None
SIGNATURE "   obs:./obs/nll_picks.obs   NLLoc:v7.00.10(30Aug2020)   run:29Apr2022 23h18m56"
COMMENT "Rattlesnake Ridge Slidequake Locations"
GRID  150 250 75  694.15 5155.4 0  0.002 0.002 0.002 PROB_DENSITY
SEARCH OCTREE nInitial 1000 nEvaluated 12336 smallestNodeSide 0.001863/0.003112/0.000925 oct_tree_integral 7.932444e-05 scatter_volume 7.932444e-05
HYPOCENTER  x 694.387 y 5155.7 z 0.147537  OT 54.9641  ix -1 iy -1 iz -1 MAXIMUM_LIKELIHOOD
GEOGRAPHIC  OT 2018 03 13  00 13 54.964071  Lat 5155.703469 Long 694.387469 Depth 0.147537
QUALITY  Pmax 1.28654e+145 MFmin 229.937 MFmax 229.941 RMS 0.0204915 Nphs 32 Gap 106.987 Dist 0.0154983 Mamp  0.65 32 Mdur -9.90 0
VPVSRATIO  VpVsRatio -1  Npair 0  Diff -2e+30
STATISTICS  ExpectX 694.228253 Y 5155.674646 Z 0.118011  CovXX 0.00627903 XY 0.00107561 XZ 0.000994006 YY 0.000292502 YZ 0.000294128 ZZ 0.000864502 EllAz1  171.903 Dip1  10.937 Len1  0.0170212 Az2  308.179 Dip2  75.0298 Len2  0.0498575 Len3  1.532113e-01
STAT_GEOG  ExpectLat 5155.674646 Long 694.228253 Depth 0.118011
TRANSFORM  NONE
QML_OriginQuality  assocPhCt 32  usedPhCt 32  assocStaCt -1  usedStaCt 32  depthPhCt -1  stdErr 0.0204915  azGap 106.987  secAzGap 146.678  gtLevel -  minDist 0.0154983 maxDist 0.183664 medDist 0.0889067
QML_OriginUncertainty  horUnc -1  minHorUnc 0.0155485  maxHorUnc 0.121954  azMaxHorUnc 80.1172
QML_ConfidenceEllipsoid  semiMajorAxisLength 0.153211  semiMinorAxisLength 0.0170212  semiIntermediateAxisLength 0.0498575  majorAxisPlunge 10.0962  majorAxisAzimuth 79.9315  majorAxisRotation 11.8189
FOCALMECH  Hyp  5155.703469 694.387469 0.147537 Mech  0 0 0 mf  0 nObs -1
PHASE ID Ins Cmp On Pha  FM Date     HrMn   Sec     Err  ErrMag    Coda      Amp       Per       PriorWt  >   TTpred    Res       Weight    StaLoc(X  Y         Z)        SDist    SAzim  RAz  RDip RQual    Tcorr       TTerr
26           ?    N    ? P      ? 20180313 0013   55.1884 GAU  1.73e-02 -1.00e+00  9.10e+00  1.20e-02    9.1000 >    0.2170    0.0073    0.8912  694.3783 5155.6910   -0.4400    0.0155 216.26  -1.0  -1.0  0     0.0000    0.0002
27           ?    N    ? P      ? 20180313 0013   55.2109 GAU  1.68e-02 -1.00e+00  7.92e+00  1.20e-02    7.9200 >    0.2191    0.0278    0.5908  694.4008 5155.6912   -0.4412    0.0181 132.54  -1.0  -1.0  0     0.0000    0.0002
25           ?    N    ? P      ? 20180313 0013   55.2010 GAU  2.36e-02 -1.00e+00  8.98e+00  8.00e-03    8.9800 >    0.2228    0.0142    0.7852  694.3684 5155.7091   -0.4438    0.0199 286.53  -1.0  -1.0  0     0.0000    0.0002
105          ?    N    ? P      ? 20180313 0013   55.1831 GAU  1.73e-02 -1.00e+00  9.63e+00  1.20e-02    9.6300 >    0.2153    0.0037    0.9619  694.3764 5155.6832   -0.4382    0.0231 208.68  -1.0  -1.0  0     0.0000    0.0002
22           ?    N    ? P      ? 20180313 0013   55.2219 GAU  1.94e-02 -1.00e+00  8.01e+00  8.00e-03    8.0100 >    0.2317    0.0262    0.7233  694.3985 5155.7265   -0.4488    0.0256  25.55  -1.0  -1.0  0     0.0000    0.0002
23           ?    N    ? P      ? 20180313 0013   55.1994 GAU  1.57e-02 -1.00e+00  9.21e+00  1.20e-02    9.2100 >    0.2295    0.0058    0.9876  694.3677 5155.7226   -0.4473    0.0275 313.98  -1.0  -1.0  0     0.0000    0.0002
28           ?    N    ? P      ? 20180313 0013   55.1837 GAU  1.89e-02 -1.00e+00  8.38e+00  8.00e-03    8.3800 >    0.2151    0.0045    0.8929  694.3767 5155.6745   -0.4362    0.0310 200.39  -1.0  -1.0  0     0.0000    0.0002
21           ?    N    ? P      ? 20180313 0013   55.2004 GAU  1.68e-02 -1.00e+00  8.11e+00  8.00e-03    8.1100 >    0.2412   -0.0049    1.0310  694.3642 5155.7391   -0.4517    0.0426 326.83  -1.0  -1.0  0     0.0000    0.0002
30           ?    N    ? P      ? 20180313 0013   55.2015 GAU  2.94e-02 -1.00e+00  8.33e+00  8.00e-03    8.3300 >    0.2155    0.0220    0.6566  694.3775 5155.6619   -0.4333    0.0427 193.53  -1.0  -1.0  0     0.0000    0.0002
20           ?    N    ? P      ? 20180313 0013   55.1957 GAU  2.04e-02 -1.00e+00  7.67e+00  2.00e-02    7.6700 >    0.2512   -0.0195    0.9408  694.3609 5155.7515   -0.4553    0.0549 330.99  -1.0  -1.0  0     0.0000    0.0003
31           ?    N    ? P      ? 20180313 0013   55.2141 GAU  1.15e-02 -1.00e+00  7.57e+00  4.80e-02    7.5700 >    0.2225    0.0275    0.6477  694.4086 5155.6503   -0.4335    0.0572 158.28  -1.0  -1.0  0     0.0000    0.0002
32           ?    N    ? P      ? 20180313 0013   55.1858 GAU  2.20e-02 -1.00e+00  8.71e+00  8.00e-03    8.7100 >    0.2188    0.0029    1.0171  694.3777 5155.6456   -0.4297    0.0587 189.59  -1.0  -1.0  0     0.0000    0.0002
18           ?    N    ? P      ? 20180313 0013   55.2104 GAU  1.31e-02 -1.00e+00  7.53e+00  8.00e-03    7.5300 >    0.2651   -0.0188    1.0483  694.3549 5155.7674   -0.4586    0.0718 333.00  -1.0  -1.0  0     0.0000    0.0003
33           ?    N    ? P      ? 20180313 0013   55.1889 GAU  2.62e-02 -1.00e+00  8.45e+00  1.20e-02    8.4500 >    0.2236    0.0013    1.0599  694.3775 5155.6293   -0.4252    0.0748 187.64  -1.0  -1.0  0     0.0000    0.0002
106          ?    N    ? P      ? 20180313 0013   55.2020 GAU  1.62e-02 -1.00e+00  9.39e+00  8.00e-03    9.3900 >    0.2401   -0.0022    1.3672  694.3120 5155.6801   -0.4360    0.0790 252.76  -1.0  -1.0  0     0.0000    0.0002
17           ?    N    ? P      ? 20180313 0013   55.2151 GAU  2.10e-02 -1.00e+00  7.38e+00  1.20e-02    7.3800 >    0.2805   -0.0295    0.8871  694.3461 5155.7815   -0.4621    0.0883 332.09  -1.0  -1.0  0     0.0000    0.0003
35           ?    N    ? P      ? 20180313 0013   55.1354 GAU  9.12e-02 -1.00e+00  7.76e+00  1.20e-02    7.7600 >    0.2303   -0.0590    0.4515  694.3818 5155.6141   -0.4216    0.0895 183.65  -1.0  -1.0  0     0.0000    0.0002
34           ?    N    ? P      ? 20180313 0013   55.2266 GAU  2.20e-02 -1.00e+00  7.59e+00  5.60e-02    7.5900 >    0.2383    0.0242    0.9076  694.4145 5155.6153   -0.4263    0.0922 162.95  -1.0  -1.0  0     0.0000    0.0002
103          ?    N    ? P      ? 20180313 0013   55.2193 GAU  2.72e-02 -1.00e+00  7.07e+00  1.20e-02    7.0700 >    0.2901   -0.0349    0.8212  694.3644 5155.7952   -0.4662    0.0946 345.86  -1.0  -1.0  0     0.0000    0.0003
16           ?    N    ? P      ? 20180313 0013   55.2340 GAU  3.14e-02 -1.00e+00  7.02e+00  1.20e-02    7.0200 >    0.2903   -0.0204    0.9605  694.3452 5155.7921   -0.4642    0.0982 334.50  -1.0  -1.0  0     0.0000    0.0003
36           ?    N    ? P      ? 20180313 0013   55.2654 GAU  8.07e-02 -1.00e+00  6.90e+00  1.24e-01    6.9000 >    0.2463    0.0550    0.4602  694.3865 5155.5904   -0.4164    0.1131 180.48  -1.0  -1.0  0     0.0000    0.0002
37           ?    N    ? P      ? 20180313 0013   55.2172 GAU  2.10e-02 -1.00e+00  6.75e+00  1.20e-02    6.7500 >    0.2608   -0.0077    1.4275  694.4219 5155.5876   -0.4220    0.1209 163.44  -1.0  -1.0  0     0.0000    0.0003
15           ?    N    ? P      ? 20180313 0013   55.2596 GAU  2.46e-02 -1.00e+00  6.80e+00  2.40e-02    6.8000 >    0.3076   -0.0121    1.2676  694.3206 5155.8107   -0.4609    0.1264 328.04  -1.0  -1.0  0     0.0000    0.0003
38           ?    N    ? P      ? 20180313 0013   55.1989 GAU  2.15e-02 -1.00e+00  6.96e+00  2.00e-02    6.9600 >    0.2665   -0.0317    1.1463  694.3902 5155.5681   -0.4123    0.1354 178.86  -1.0  -1.0  0     0.0000    0.0003
10           ?    N    ? P      ? 20180313 0013   55.2418 GAU  1.94e-02 -1.00e+00  6.92e+00  8.00e-03    6.9200 >    0.3284   -0.0507    0.5846  694.3329 5155.8329   -0.4673    0.1404 337.14  -1.0  -1.0  0     0.0000    0.0003
39           ?    N    ? P      ? 20180313 0013   55.2251 GAU  2.46e-02 -1.00e+00  6.93e+00  1.20e-02    6.9300 >    0.2804   -0.0193    1.4236  694.3890 5155.5532   -0.4086    0.1503 179.41  -1.0  -1.0  0     0.0000    0.0003
6            ?    N    ? P      ? 20180313 0013   55.2832 GAU  3.67e-02 -1.00e+00  7.11e+00  1.20e-02    7.1100 >    0.3461   -0.0270    1.1401  694.3446 5155.8502   -0.4728    0.1528 343.72  -1.0  -1.0  0     0.0000    0.0003
40           ?    N    ? P      ? 20180313 0013   55.2366 GAU  2.36e-02 -1.00e+00  7.00e+00  4.40e-02    7.0000 >    0.3016   -0.0291    1.3416  694.4169 5155.5417   -0.4131    0.1644 169.70  -1.0  -1.0  0     0.0000    0.0003
41           ?    N    ? P      ? 20180313 0013   55.2329 GAU  3.25e-02 -1.00e+00  6.66e+00  1.60e-02    6.6600 >    0.2951   -0.0263    1.2643  694.3901 5155.5386   -0.4053    0.1649 179.08  -1.0  -1.0  0     0.0000    0.0003
4            ?    N    ? P      ? 20180313 0013   55.2329 GAU  5.35e-02 -1.00e+00  7.23e+00  8.00e-03    7.2300 >    0.3441   -0.0753    0.5301  694.3090 5155.8520   -0.4586    0.1680 332.17  -1.0  -1.0  0     0.0000    0.0003
5            ?    N    ? P      ? 20180313 0013   55.3220 GAU  1.89e-02 -1.00e+00  8.16e+00  8.00e-03    8.1600 >    0.3421    0.0158    1.9221  694.2898 5155.8520   -0.4475    0.1778 326.66  -1.0  -1.0  0     0.0000    0.0003
9            ?    N    ? P      ? 20180313 0013   55.3115 GAU  2.52e-02 -1.00e+00  8.52e+00  1.20e-02    8.5200 >    0.3320    0.0155    1.8624  694.2594 5155.8351   -0.4296    0.1837 315.77  -1.0  -1.0  0     0.0000    0.0003
END_PHASE
END_NLLOC

