NLLOC "./loc/RR.20180313.020945.grid0" "REJECTED" "WARNING: max prob location on grid boundary 31, rejecting location."
PUBLIC_ID None
SIGNATURE "   obs:./obs/nll_picks.obs   NLLoc:v7.00.10(30Aug2020)   run:29Apr2022 23h20m50"
COMMENT "Rattlesnake Ridge Slidequake Locations"
GRID  150 250 75  694.15 5155.4 0  0.002 0.002 0.002 PROB_DENSITY
SEARCH OCTREE nInitial 1000 nEvaluated 1672 smallestNodeSide 0.001863/0.003112/0.000925 oct_tree_integral 3.197974e-06 scatter_volume 3.197974e-06
HYPOCENTER  x 694.434 y 5155.82 z 0.147537  OT 45.513  ix -1 iy -1 iz -1 MAXIMUM_LIKELIHOOD
GEOGRAPHIC  OT 2018 03 13  02 09 45.513038  Lat 5155.821744 Long 694.434031 Depth 0.147537
QUALITY  Pmax 1.14591e+180 MFmin 450.672 MFmax 450.736 RMS 0.0168508 Nphs 37 Gap 255.322 Dist 0.0745597 Mamp  0.76 37 Mdur -9.90 0
VPVSRATIO  VpVsRatio -1  Npair 0  Diff -2e+30
STATISTICS  ExpectX 694.416385 Y 5155.812013 Z 0.142473  CovXX 0.000507795 XY 0.000185793 XZ 3.4255e-05 YY 0.000102896 YZ 1.73209e-05 ZZ 2.75578e-05 EllAz1  166.586 Dip1  63.3592 Len1  0.00902858 Az2  336.753 Dip2  26.3024 Len2  0.0106947 Len3  4.535558e-02
STAT_GEOG  ExpectLat 5155.812013 Long 694.416385 Depth 0.142473
TRANSFORM  NONE
QML_OriginQuality  assocPhCt 37  usedPhCt 37  assocStaCt -1  usedStaCt 37  depthPhCt -1  stdErr 0.0168508  azGap 255.322  secAzGap 255.869  gtLevel -  minDist 0.0745597 maxDist 0.286493 medDist 0.147401
QML_OriginUncertainty  horUnc -1  minHorUnc 0.00838443  maxHorUnc 0.036528  azMaxHorUnc 68.7283
QML_ConfidenceEllipsoid  semiMajorAxisLength 0.0453556  semiMinorAxisLength 0.00902858  semiIntermediateAxisLength 0.0106947  majorAxisPlunge 3.93669  majorAxisAzimuth 68.7018  majorAxisRotation 63.846
FOCALMECH  Hyp  5155.821744 694.434031 0.147537 Mech  0 0 0 mf  0 nObs -1
PHASE ID Ins Cmp On Pha  FM Date     HrMn   Sec     Err  ErrMag    Coda      Amp       Per       PriorWt  >   TTpred    Res       Weight    StaLoc(X  Y         Z)        SDist    SAzim  RAz  RDip RQual    Tcorr       TTerr
103          ?    N    ? P      ? 20180313 0209   45.7849 GAU  4.96e-03 -1.00e+00  8.32e+00  1.60e-02    8.3200 >    0.2411    0.0308    0.7808  694.3644 5155.7952   -0.4662    0.0746 249.13  -1.0  -1.0  0     0.0000    0.0002
16           ?    N    ? P      ? 20180313 0209   45.7664 GAU  5.42e-03 -1.00e+00  9.54e+00  2.40e-02    9.5400 >    0.2526    0.0008    1.3331  694.3452 5155.7921   -0.4642    0.0936 251.56  -1.0  -1.0  0     0.0000    0.0003
6            ?    N    ? P      ? 20180313 0209   45.8016 GAU  5.42e-03 -1.00e+00  8.09e+00  2.40e-02    8.0900 >    0.2623    0.0263    1.0775  694.3446 5155.8502   -0.4728    0.0938 287.64  -1.0  -1.0  0     0.0000    0.0003
18           ?    N    ? P      ? 20180313 0209   45.7863 GAU  3.61e-03 -1.00e+00  8.76e+00  8.00e-03    8.7600 >    0.2478    0.0255    0.8161  694.3549 5155.7674   -0.4586    0.0960 235.53  -1.0  -1.0  0     0.0000    0.0002
17           ?    N    ? P      ? 20180313 0209   45.7677 GAU  9.48e-03 -1.00e+00  9.33e+00  8.00e-03    9.3300 >    0.2530    0.0017    1.1850  694.3461 5155.7815   -0.4621    0.0967 245.38  -1.0  -1.0  0     0.0000    0.0003
12           ?    N    ? P      ? 20180313 0209   45.7691 GAU  6.32e-03 -1.00e+00  9.41e+00  1.20e-02    9.4100 >    0.2584   -0.0023    1.2573  694.3356 5155.8197   -0.4663    0.0984 268.83  -1.0  -1.0  0     0.0000    0.0003
20           ?    N    ? P      ? 20180313 0209   45.7768 GAU  7.68e-03 -1.00e+00  8.63e+00  2.00e-02    8.6300 >    0.2481    0.0156    0.9504  694.3609 5155.7515   -0.4553    0.1015 226.16  -1.0  -1.0  0     0.0000    0.0002
22           ?    N    ? P      ? 20180313 0209   45.8188 GAU  1.08e-02 -1.00e+00  7.86e+00  1.20e-02    7.8600 >    0.2416    0.0642    0.0925  694.3985 5155.7265   -0.4488    0.1016 200.47  -1.0  -1.0  0     0.0000    0.0002
10           ?    N    ? P      ? 20180313 0209   45.7741 GAU  4.97e-03 -1.00e+00  8.35e+00  8.00e-03    8.3500 >    0.2624   -0.0013    1.2619  694.3329 5155.8329   -0.4673    0.1017 276.29  -1.0  -1.0  0     0.0000    0.0003
21           ?    N    ? P      ? 20180313 0209   45.7750 GAU  1.04e-02 -1.00e+00  8.34e+00  1.20e-02    8.3400 >    0.2509    0.0110    1.1043  694.3642 5155.7391   -0.4517    0.1082 220.22  -1.0  -1.0  0     0.0000    0.0003
15           ?    N    ? P      ? 20180313 0209   45.7357 GAU  9.03e-03 -1.00e+00  9.81e+00  8.00e-03    9.8100 >    0.2658   -0.0432    0.1434  694.3206 5155.8107   -0.4609    0.1140 264.43  -1.0  -1.0  0     0.0000    0.0003
8            ?    N    ? P      ? 20180313 0209   45.7890 GAU  5.42e-03 -1.00e+00  8.01e+00  8.00e-03    8.0100 >    0.2699    0.0061    1.2110  694.3223 5155.8450   -0.4648    0.1141 281.76  -1.0  -1.0  0     0.0000    0.0003
23           ?    N    ? P      ? 20180313 0209   45.7975 GAU  1.40e-02 -1.00e+00  8.67e+00  8.00e-03    8.6700 >    0.2564    0.0280    0.7642  694.3677 5155.7226   -0.4473    0.1193 213.77  -1.0  -1.0  0     0.0000    0.0003
4            ?    N    ? P      ? 20180313 0209   45.7858 GAU  4.07e-03 -1.00e+00  8.00e+00  1.20e-02    8.0000 >    0.2759   -0.0031    1.2896  694.3090 5155.8520   -0.4586    0.1286 283.62  -1.0  -1.0  0     0.0000    0.0003
13           ?    N    ? P      ? 20180313 0209   45.8115 GAU  5.41e-03 -1.00e+00  8.66e+00  1.60e-02    8.6600 >    0.2746    0.0238    1.0662  694.3062 5155.8390   -0.4568    0.1290 277.70  -1.0  -1.0  0     0.0000    0.0003
25           ?    N    ? P      ? 20180313 0209   45.8120 GAU  8.58e-03 -1.00e+00  8.14e+00  5.60e-02    8.1400 >    0.2647    0.0343    0.6003  694.3684 5155.7091   -0.4438    0.1303 210.22  -1.0  -1.0  0     0.0000    0.0003
27           ?    N    ? P      ? 20180313 0209   45.8481 GAU  2.75e-02 -1.00e+00  6.82e+00  8.00e-03    6.8200 >    0.2670    0.0680    0.1709  694.4008 5155.6912   -0.4412    0.1347 194.29  -1.0  -1.0  0     0.0000    0.0003
26           ?    N    ? P      ? 20180313 0209   45.8057 GAU  1.40e-02 -1.00e+00  8.05e+00  1.20e-02    8.0500 >    0.2747    0.0179    1.0913  694.3783 5155.6910   -0.4400    0.1422 203.08  -1.0  -1.0  0     0.0000    0.0003
5            ?    N    ? P      ? 20180313 0209   45.8084 GAU  6.77e-03 -1.00e+00  8.54e+00  2.40e-02    8.5400 >    0.2833    0.0121    1.2195  694.2898 5155.8520   -0.4475    0.1474 281.83  -1.0  -1.0  0     0.0000    0.0003
105          ?    N    ? P      ? 20180313 0209   45.7795 GAU  7.68e-03 -1.00e+00  7.64e+00  8.00e-03    7.6400 >    0.2820   -0.0155    0.6317  694.3764 5155.6832   -0.4382    0.1500 202.59  -1.0  -1.0  0     0.0000    0.0003
28           ?    N    ? P      ? 20180313 0209   45.8192 GAU  2.94e-02 -1.00e+00  6.91e+00  4.80e-02    6.9100 >    0.2900    0.0161    0.7856  694.3767 5155.6745   -0.4362    0.1581 201.27  -1.0  -1.0  0     0.0000    0.0003
7            ?    N    ? P      ? 20180313 0209   45.8061 GAU  5.41e-03 -1.00e+00  8.97e+00  1.60e-02    8.9700 >    0.2937   -0.0007    1.5367  694.2704 5155.8450   -0.4359    0.1653 278.09  -1.0  -1.0  0     0.0000    0.0003
1            ?    N    ? P      ? 20180313 0209   45.7899 GAU  8.13e-03 -1.00e+00  7.19e+00  1.20e-02    7.1900 >    0.2980   -0.0212    0.6063  694.2735 5155.8721   -0.4381    0.1682 287.43  -1.0  -1.0  0     0.0000    0.0003
30           ?    N    ? P      ? 20180313 0209   45.8016 GAU  8.13e-03 -1.00e+00  6.58e+00  1.20e-02    6.5800 >    0.3015   -0.0129    0.7589  694.3775 5155.6619   -0.4333    0.1695 199.49  -1.0  -1.0  0     0.0000    0.0003
9            ?    N    ? P      ? 20180313 0209   45.8377 GAU  8.13e-03 -1.00e+00  1.00e+01  8.00e-03   10.0000 >    0.3005    0.0241    1.4101  694.2594 5155.8351   -0.4296    0.1752 274.37  -1.0  -1.0  0     0.0000    0.0003
32           ?    N    ? P      ? 20180313 0209   45.8296 GAU  9.03e-03 -1.00e+00  7.75e+00  8.00e-03    7.7500 >    0.3183   -0.0017    1.5606  694.3777 5155.6456   -0.4297    0.1850 197.74  -1.0  -1.0  0     0.0000    0.0003
106          ?    N    ? P      ? 20180313 0209   45.8626 GAU  3.39e-02 -1.00e+00  7.21e+00  1.20e-02    7.2100 >    0.3255    0.0241    0.7699  694.3120 5155.6801   -0.4360    0.1870 220.73  -1.0  -1.0  0     0.0000    0.0003
3            ?    N    ? P      ? 20180313 0209   45.8341 GAU  5.42e-03 -1.00e+00  7.64e+00  1.20e-02    7.6400 >    0.3188    0.0022    1.7404  694.2426 5155.8595   -0.4214    0.1951 281.15  -1.0  -1.0  0     0.0000    0.0003
33           ?    N    ? P      ? 20180313 0209   45.8996 GAU  7.68e-03 -1.00e+00  8.61e+00  1.20e-02    8.6100 >    0.3354    0.0512    0.1510  694.3775 5155.6293   -0.4252    0.2005 196.37  -1.0  -1.0  0     0.0000    0.0003
34           ?    N    ? P      ? 20180313 0209   45.8680 GAU  2.39e-02 -1.00e+00  6.75e+00  7.20e-02    6.7500 >    0.3459    0.0091    1.1513  694.4145 5155.6153   -0.4263    0.2074 185.40  -1.0  -1.0  0     0.0000    0.0003
35           ?    N    ? P      ? 20180313 0209   45.9000 GAU  1.08e-02 -1.00e+00  9.49e+00  8.00e-03    9.4900 >    0.3505    0.0365    0.8455  694.3818 5155.6141   -0.4216    0.2141 194.13  -1.0  -1.0  0     0.0000    0.0004
37           ?    N    ? P      ? 20180313 0209   45.9267 GAU  1.22e-02 -1.00e+00  6.77e+00  8.00e-03    6.7700 >    0.3794    0.0343    0.9619  694.4219 5155.5876   -0.4220    0.2345 182.96  -1.0  -1.0  0     0.0000    0.0004
36           ?    N    ? P      ? 20180313 0209   45.9009 GAU  1.99e-02 -1.00e+00  7.73e+00  8.00e-03    7.7300 >    0.3768    0.0110    1.4185  694.3865 5155.5904   -0.4164    0.2362 191.60  -1.0  -1.0  0     0.0000    0.0004
38           ?    N    ? P      ? 20180313 0209   45.9149 GAU  1.13e-02 -1.00e+00  7.11e+00  8.00e-03    7.1100 >    0.4043   -0.0024    1.6263  694.3902 5155.5681   -0.4123    0.2574 189.81  -1.0  -1.0  0     0.0000    0.0004
39           ?    N    ? P      ? 20180313 0209   45.9280 GAU  9.93e-03 -1.00e+00  6.74e+00  1.20e-02    6.7400 >    0.4233   -0.0083    1.3838  694.3890 5155.5532   -0.4086    0.2723 189.51  -1.0  -1.0  0     0.0000    0.0004
40           ?    N    ? P      ? 20180313 0209   45.9574 GAU  8.58e-03 -1.00e+00  7.34e+00  5.60e-02    7.3400 >    0.4386    0.0057    2.0672  694.4169 5155.5417   -0.4131    0.2805 183.51  -1.0  -1.0  0     0.0000    0.0004
41           ?    N    ? P      ? 20180313 0209   45.9059 GAU  1.76e-02 -1.00e+00  6.11e+00  8.00e-03    6.1100 >    0.4419   -0.0490    0.1789  694.3901 5155.5386   -0.4053    0.2865 188.82  -1.0  -1.0  0     0.0000    0.0004
END_PHASE
END_NLLOC

