NLLOC "./loc/RR.20180313.025426.grid0" "REJECTED" "WARNING: max prob location on grid boundary 31, rejecting location."
PUBLIC_ID None
SIGNATURE "   obs:./obs/nll_picks.obs   NLLoc:v7.00.10(30Aug2020)   run:29Apr2022 23h21m13"
COMMENT "Rattlesnake Ridge Slidequake Locations"
GRID  150 250 75  694.15 5155.4 0  0.002 0.002 0.002 PROB_DENSITY
SEARCH OCTREE nInitial 1000 nEvaluated 5232 smallestNodeSide 0.001863/0.003112/0.000925 oct_tree_integral 2.332248e-05 scatter_volume 2.323601e-05
HYPOCENTER  x 694.242 y 5155.62 z 0.147537  OT 26.4387  ix -1 iy -1 iz -1 MAXIMUM_LIKELIHOOD
GEOGRAPHIC  OT 2018 03 13  02 54 26.438732  Lat 5155.622544 Long 694.242194 Depth 0.147537
QUALITY  Pmax 1.31285e+113 MFmin 245.827 MFmax 245.901 RMS 0.012002 Nphs 25 Gap 265.116 Dist 0.0904596 Mamp  0.76 25 Mdur -9.90 0
VPVSRATIO  VpVsRatio -1  Npair 0  Diff -2e+30
STATISTICS  ExpectX 694.216232 Y 5155.614744 Z 0.132393  CovXX 0.00194902 XY 0.000405936 XZ 0.000174164 YY 0.000123664 YZ 4.6095e-05 ZZ 0.00021045 EllAz1  168.303 Dip1  3.24248 Len1  0.0114216 Az2  288.338 Dip2  83.5425 Len2  0.0261272 Len3  8.512563e-02
STAT_GEOG  ExpectLat 5155.614744 Long 694.216232 Depth 0.132393
TRANSFORM  NONE
QML_OriginQuality  assocPhCt 25  usedPhCt 25  assocStaCt -1  usedStaCt 25  depthPhCt -1  stdErr 0.012002  azGap 265.116  secAzGap 271.724  gtLevel -  minDist 0.0904596 maxDist 0.198409 medDist 0.162393
QML_OriginUncertainty  horUnc -1  minHorUnc 0.00928217  maxHorUnc 0.0684179  azMaxHorUnc 78.0108
QML_ConfidenceEllipsoid  semiMajorAxisLength 0.0851256  semiMinorAxisLength 0.0114216  semiIntermediateAxisLength 0.0261272  majorAxisPlunge 5.57845  majorAxisAzimuth 77.9861  majorAxisRotation 3.32054
FOCALMECH  Hyp  5155.622544 694.242194 0.147537 Mech  0 0 0 mf  0 nObs -1
PHASE ID Ins Cmp On Pha  FM Date     HrMn   Sec     Err  ErrMag    Coda      Amp       Per       PriorWt  >   TTpred    Res       Weight    StaLoc(X  Y         Z)        SDist    SAzim  RAz  RDip RQual    Tcorr       TTerr
106          ?    N    ? P      ? 20180313 0254   26.8642 GAU  1.63e-02 -1.00e+00  7.95e+00  3.20e-02    7.9500 >    0.2917    0.1337    0.0184  694.3120 5155.6801   -0.4360    0.0905  50.52  -1.0  -1.0  0     0.0000    0.0003
33           ?    N    ? P      ? 20180313 0254   26.7667 GAU  9.75e-03 -1.00e+00  9.53e+00  4.40e-02    9.5300 >    0.3148    0.0131    0.8975  694.3775 5155.6293   -0.4252    0.1355  87.13  -1.0  -1.0  0     0.0000    0.0003
32           ?    N    ? P      ? 20180313 0254   26.7695 GAU  8.53e-03 -1.00e+00  9.60e+00  8.00e-03    9.6000 >    0.3216    0.0091    0.9486  694.3777 5155.6456   -0.4297    0.1374  80.35  -1.0  -1.0  0     0.0000    0.0003
35           ?    N    ? P      ? 20180313 0254   26.7708 GAU  5.69e-03 -1.00e+00  1.03e+01  1.20e-02   10.3000 >    0.3148    0.0173    0.9914  694.3818 5155.6141   -0.4216    0.1398  93.46  -1.0  -1.0  0     0.0000    0.0003
30           ?    N    ? P      ? 20180313 0254   26.7797 GAU  5.68e-03 -1.00e+00  8.44e+00  2.80e-02    8.4400 >    0.3287    0.0122    0.9102  694.3775 5155.6619   -0.4333    0.1409  73.77  -1.0  -1.0  0     0.0000    0.0003
28           ?    N    ? P      ? 20180313 0254   26.7964 GAU  9.34e-03 -1.00e+00  8.66e+00  8.00e-03    8.6600 >    0.3352    0.0225    0.6086  694.3767 5155.6745   -0.4362    0.1442  68.89  -1.0  -1.0  0     0.0000    0.0003
105          ?    N    ? P      ? 20180313 0254   26.8146 GAU  1.38e-02 -1.00e+00  8.95e+00  1.20e-02    8.9500 >    0.3401    0.0357    0.2910  694.3764 5155.6832   -0.4382    0.1473  65.67  -1.0  -1.0  0     0.0000    0.0003
36           ?    N    ? P      ? 20180313 0254   26.7549 GAU  2.84e-03 -1.00e+00  9.01e+00  8.00e-03    9.0100 >    0.3172   -0.0011    1.2838  694.3865 5155.5904   -0.4164    0.1479 102.57  -1.0  -1.0  0     0.0000    0.0003
26           ?    N    ? P      ? 20180313 0254   26.8000 GAU  1.38e-02 -1.00e+00  7.66e+00  1.20e-02    7.6600 >    0.3471    0.0142    0.8073  694.3783 5155.6910   -0.4400    0.1523  63.31  -1.0  -1.0  0     0.0000    0.0003
25           ?    N    ? P      ? 20180313 0254   26.8167 GAU  1.58e-02 -1.00e+00  7.30e+00  2.80e-02    7.3000 >    0.3519    0.0261    0.5989  694.3684 5155.7091   -0.4438    0.1531  55.56  -1.0  -1.0  0     0.0000    0.0004
38           ?    N    ? P      ? 20180313 0254   26.7663 GAU  5.28e-03 -1.00e+00  8.21e+00  1.20e-02    8.2100 >    0.3241    0.0035    1.4915  694.3902 5155.5681   -0.4123    0.1577 110.20  -1.0  -1.0  0     0.0000    0.0003
23           ?    N    ? P      ? 20180313 0254   26.8232 GAU  1.18e-02 -1.00e+00  8.56e+00  1.20e-02    8.5600 >    0.3633    0.0212    0.9529  694.3677 5155.7226   -0.4473    0.1605  51.45  -1.0  -1.0  0     0.0000    0.0004
39           ?    N    ? P      ? 20180313 0254   26.7785 GAU  4.47e-03 -1.00e+00  8.29e+00  1.20e-02    8.2900 >    0.3251    0.0146    1.6794  694.3890 5155.5532   -0.4086    0.1624 115.29  -1.0  -1.0  0     0.0000    0.0003
21           ?    N    ? P      ? 20180313 0254   26.8317 GAU  8.13e-03 -1.00e+00  7.21e+00  8.00e-03    7.2100 >    0.3761    0.0168    1.3522  694.3642 5155.7391   -0.4517    0.1687  46.29  -1.0  -1.0  0     0.0000    0.0004
31           ?    N    ? P      ? 20180313 0254   26.7988 GAU  7.72e-03 -1.00e+00  7.66e+00  4.80e-02    7.6600 >    0.3565    0.0035    0.9278  694.4086 5155.6503   -0.4335    0.1687  80.52  -1.0  -1.0  0     0.0000    0.0004
41           ?    N    ? P      ? 20180313 0254   26.7874 GAU  6.09e-03 -1.00e+00  7.79e+00  1.20e-02    7.7900 >    0.3308    0.0178    1.6749  694.3901 5155.5386   -0.4053    0.1701 119.56  -1.0  -1.0  0     0.0000    0.0003
34           ?    N    ? P      ? 20180313 0254   26.7716 GAU  4.31e-02 -1.00e+00  8.44e+00  1.60e-02    8.4400 >    0.3536   -0.0207    0.3460  694.4145 5155.6153   -0.4263    0.1725  92.41  -1.0  -1.0  0     0.0000    0.0004
27           ?    N    ? P      ? 20180313 0254   26.8085 GAU  9.34e-03 -1.00e+00  7.63e+00  1.20e-02    7.6300 >    0.3684    0.0013    1.0113  694.4008 5155.6912   -0.4412    0.1728  66.58  -1.0  -1.0  0     0.0000    0.0004
20           ?    N    ? P      ? 20180313 0254   26.8276 GAU  1.30e-02 -1.00e+00  6.69e+00  1.20e-02    6.6900 >    0.3862    0.0027    1.3874  694.3609 5155.7515   -0.4553    0.1752  42.62  -1.0  -1.0  0     0.0000    0.0004
42           ?    N    ? P      ? 20180313 0254   26.8479 GAU  3.82e-02 -1.00e+00  6.63e+00  1.20e-02    6.6300 >    0.3361    0.0730    0.3030  694.3873 5155.5165   -0.3983    0.1797 126.16  -1.0  -1.0  0     0.0000    0.0003
37           ?    N    ? P      ? 20180313 0254   26.8004 GAU  4.47e-03 -1.00e+00  8.53e+00  8.00e-03    8.5300 >    0.3612    0.0005    1.3356  694.4219 5155.5876   -0.4220    0.1831 101.00  -1.0  -1.0  0     0.0000    0.0004
18           ?    N    ? P      ? 20180313 0254   26.8337 GAU  9.34e-03 -1.00e+00  6.80e+00  1.20e-02    6.8000 >    0.3981   -0.0031    1.4865  694.3549 5155.7674   -0.4586    0.1835  37.88  -1.0  -1.0  0     0.0000    0.0004
22           ?    N    ? P      ? 20180313 0254   26.8297 GAU  4.47e-03 -1.00e+00  7.09e+00  2.40e-02    7.0900 >    0.3916   -0.0006    1.4982  694.3985 5155.7265   -0.4488    0.1877  56.36  -1.0  -1.0  0     0.0000    0.0004
40           ?    N    ? P      ? 20180313 0254   26.7988 GAU  8.53e-03 -1.00e+00  8.23e+00  2.00e-02    8.2300 >    0.3641   -0.0040    1.3638  694.4169 5155.5417   -0.4131    0.1925 114.83  -1.0  -1.0  0     0.0000    0.0004
16           ?    N    ? P      ? 20180313 0254   26.8593 GAU  4.14e-02 -1.00e+00  6.74e+00  1.20e-02    6.7400 >    0.4189    0.0017    0.8335  694.3452 5155.7921   -0.4642    0.1984  31.27  -1.0  -1.0  0     0.0000    0.0004
END_PHASE
END_NLLOC

