NLLOC "./loc/RR.20180313.012821.grid0" "REJECTED" "WARNING: max prob location on grid boundary 11, rejecting location."
PUBLIC_ID None
SIGNATURE "   obs:./obs/nll_picks.obs   NLLoc:v7.00.10(30Aug2020)   run:29Apr2022 23h20m09"
COMMENT "Rattlesnake Ridge Slidequake Locations"
GRID  150 250 75  694.15 5155.4 0  0.002 0.002 0.002 PROB_DENSITY
SEARCH OCTREE nInitial 1000 nEvaluated 2480 smallestNodeSide 0.001863/0.003112/0.000925 oct_tree_integral 4.989058e-06 scatter_volume 4.989058e-06
HYPOCENTER  x 694.447 y 5155.85 z 0.0753875  OT 21.0321  ix -1 iy -1 iz -1 MAXIMUM_LIKELIHOOD
GEOGRAPHIC  OT 2018 03 13  01 28 21.032071  Lat 5155.846644 Long 694.447069 Depth 0.075388
QUALITY  Pmax 9.33745e+116 MFmin 270.017 MFmax 270.063 RMS 0.014783 Nphs 26 Gap 269.654 Dist 0.0974077 Mamp  0.69 26 Mdur -9.90 0
VPVSRATIO  VpVsRatio -1  Npair 0  Diff -2e+30
STATISTICS  ExpectX 694.387438 Y 5155.828876 Z 0.082564  CovXX 0.00889914 XY 0.00214617 XZ -5.94837e-05 YY 0.000610024 YZ -4.87164e-05 ZZ 0.000332825 EllAz1  346.368 Dip1  7.59438 Len1  0.0171043 Az2  163.037 Dip2  82.3929 Len2  0.0344769 Len3  1.823760e-01
STAT_GEOG  ExpectLat 5155.828876 Long 694.387438 Depth 0.082564
TRANSFORM  NONE
QML_OriginQuality  assocPhCt 26  usedPhCt 26  assocStaCt -1  usedStaCt 26  depthPhCt -1  stdErr 0.014783  azGap 269.654  secAzGap 272.725  gtLevel -  minDist 0.0974077 maxDist 0.263344 medDist 0.139599
QML_OriginUncertainty  horUnc -1  minHorUnc 0.014171  maxHorUnc 0.147208  azMaxHorUnc 76.3118
QML_ConfidenceEllipsoid  semiMajorAxisLength 0.182376  semiMinorAxisLength 0.0171043  semiIntermediateAxisLength 0.0344769  majorAxisPlunge -0.436969  majorAxisAzimuth 76.3102  majorAxisRotation 172.405
FOCALMECH  Hyp  5155.846644 694.447069 0.075388 Mech  0 0 0 mf  0 nObs -1
PHASE ID Ins Cmp On Pha  FM Date     HrMn   Sec     Err  ErrMag    Coda      Amp       Per       PriorWt  >   TTpred    Res       Weight    StaLoc(X  Y         Z)        SDist    SAzim  RAz  RDip RQual    Tcorr       TTerr
103          ?    N    ? P      ? 20180313 0128   21.2599 GAU  8.57e-03 -1.00e+00  9.48e+00  8.00e-03    9.4800 >    0.1860    0.0418    0.2819  694.3644 5155.7952   -0.4662    0.0974 238.11  -1.0  -1.0  0     0.0000    0.0002
6            ?    N    ? P      ? 20180313 0128   21.2703 GAU  2.73e-03 -1.00e+00  9.56e+00  1.20e-02    9.5600 >    0.1972    0.0410    0.3831  694.3446 5155.8502   -0.4728    0.1025 271.97  -1.0  -1.0  0     0.0000    0.0002
12           ?    N    ? P      ? 20180313 0128   21.2415 GAU  4.70e-03 -1.00e+00  1.12e+01  2.00e-02   11.2000 >    0.2077    0.0018    1.2636  694.3356 5155.8197   -0.4663    0.1146 256.43  -1.0  -1.0  0     0.0000    0.0002
10           ?    N    ? P      ? 20180313 0128   21.2407 GAU  2.97e-03 -1.00e+00  1.04e+01  2.00e-02   10.4000 >    0.2090   -0.0004    1.4463  694.3329 5155.8329   -0.4673    0.1150 263.13  -1.0  -1.0  0     0.0000    0.0002
17           ?    N    ? P      ? 20180313 0128   21.2384 GAU  4.28e-03 -1.00e+00  9.80e+00  1.20e-02    9.8000 >    0.2129   -0.0066    1.1335  694.3461 5155.7815   -0.4621    0.1201 237.15  -1.0  -1.0  0     0.0000    0.0002
18           ?    N    ? P      ? 20180313 0128   21.2446 GAU  3.67e-03 -1.00e+00  8.98e+00  1.20e-02    8.9800 >    0.2124    0.0002    1.4148  694.3549 5155.7674   -0.4586    0.1216 229.32  -1.0  -1.0  0     0.0000    0.0002
8            ?    N    ? P      ? 20180313 0128   21.2325 GAU  4.02e-03 -1.00e+00  9.81e+00  1.60e-02    9.8100 >    0.2198   -0.0194    0.5663  694.3223 5155.8450   -0.4648    0.1248 269.25  -1.0  -1.0  0     0.0000    0.0002
20           ?    N    ? P      ? 20180313 0128   21.2545 GAU  4.08e-03 -1.00e+00  8.70e+00  1.20e-02    8.7000 >    0.2198    0.0027    1.4788  694.3609 5155.7515   -0.4553    0.1284 222.17  -1.0  -1.0  0     0.0000    0.0002
22           ?    N    ? P      ? 20180313 0128   21.2994 GAU  9.68e-03 -1.00e+00  8.64e+00  2.80e-02    8.6400 >    0.2174    0.0499    0.2952  694.3985 5155.7265   -0.4488    0.1295 202.02  -1.0  -1.0  0     0.0000    0.0002
15           ?    N    ? P      ? 20180313 0128   21.2234 GAU  3.47e-03 -1.00e+00  1.27e+01  6.00e-02   12.7000 >    0.2265   -0.0352    0.4270  694.3206 5155.8107   -0.4609    0.1315 254.13  -1.0  -1.0  0     0.0000    0.0002
2            ?    N    ? P      ? 20180313 0128   21.2465 GAU  6.07e-03 -1.00e+00  9.39e+00  8.00e-03    9.3900 >    0.2294   -0.0149    0.8044  694.3150 5155.8647   -0.4623    0.1333 277.77  -1.0  -1.0  0     0.0000    0.0002
21           ?    N    ? P      ? 20180313 0128   21.2613 GAU  7.75e-03 -1.00e+00  8.36e+00  8.00e-03    8.3600 >    0.2281    0.0011    1.4735  694.3642 5155.7391   -0.4517    0.1358 217.63  -1.0  -1.0  0     0.0000    0.0002
4            ?    N    ? P      ? 20180313 0128   21.2471 GAU  5.69e-03 -1.00e+00  9.67e+00  1.20e-02    9.6700 >    0.2335   -0.0184    0.6200  694.3090 5155.8520   -0.4586    0.1381 272.23  -1.0  -1.0  0     0.0000    0.0002
13           ?    N    ? P      ? 20180313 0128   21.2617 GAU  6.92e-03 -1.00e+00  1.05e+01  2.80e-02   10.5000 >    0.2371   -0.0075    1.0726  694.3062 5155.8390   -0.4568    0.1411 266.91  -1.0  -1.0  0     0.0000    0.0002
23           ?    N    ? P      ? 20180313 0128   21.2706 GAU  3.20e-02 -1.00e+00  8.20e+00  8.00e-03    8.2000 >    0.2426   -0.0041    0.8870  694.3677 5155.7226   -0.4473    0.1473 212.61  -1.0  -1.0  0     0.0000    0.0002
5            ?    N    ? P      ? 20180313 0128   21.2858 GAU  5.30e-03 -1.00e+00  1.04e+01  1.20e-02   10.4000 >    0.2542   -0.0005    1.6709  694.2898 5155.8520   -0.4475    0.1574 271.94  -1.0  -1.0  0     0.0000    0.0003
25           ?    N    ? P      ? 20180313 0128   21.2927 GAU  1.86e-02 -1.00e+00  8.97e+00  1.20e-02    8.9700 >    0.2576    0.0030    1.3586  694.3684 5155.7091   -0.4438    0.1584 209.76  -1.0  -1.0  0     0.0000    0.0003
27           ?    N    ? P      ? 20180313 0128   21.2964 GAU  2.83e-02 -1.00e+00  7.79e+00  1.20e-02    7.7900 >    0.2627    0.0016    1.2489  694.4008 5155.6912   -0.4412    0.1621 196.59  -1.0  -1.0  0     0.0000    0.0003
26           ?    N    ? P      ? 20180313 0128   21.2905 GAU  3.44e-02 -1.00e+00  8.23e+00  1.20e-02    8.2300 >    0.2738   -0.0153    1.0131  694.3783 5155.6910   -0.4400    0.1702 203.83  -1.0  -1.0  0     0.0000    0.0003
1            ?    N    ? P      ? 20180313 0128   21.3165 GAU  1.76e-02 -1.00e+00  8.80e+00  1.20e-02    8.8000 >    0.2762    0.0082    1.0843  694.2735 5155.8721   -0.4381    0.1754 278.36  -1.0  -1.0  0     0.0000    0.0003
7            ?    N    ? P      ? 20180313 0128   21.3116 GAU  7.99e-03 -1.00e+00  8.81e+00  2.80e-02    8.8100 >    0.2779    0.0017    1.4698  694.2704 5155.8450   -0.4359    0.1767 269.47  -1.0  -1.0  0     0.0000    0.0003
9            ?    N    ? P      ? 20180313 0128   21.3499 GAU  1.47e-02 -1.00e+00  1.07e+01  3.20e-02   10.7000 >    0.2933    0.0245    0.7184  694.2594 5155.8351   -0.4296    0.1881 266.48  -1.0  -1.0  0     0.0000    0.0003
31           ?    N    ? P      ? 20180313 0128   21.3195 GAU  2.22e-02 -1.00e+00  7.53e+00  1.60e-02    7.5300 >    0.3179   -0.0304    1.1111  694.4086 5155.6503   -0.4335    0.2000 191.08  -1.0  -1.0  0     0.0000    0.0003
3            ?    N    ? P      ? 20180313 0128   21.3469 GAU  1.05e-02 -1.00e+00  9.06e+00  8.00e-03    9.0600 >    0.3157   -0.0009    1.8896  694.2426 5155.8595   -0.4214    0.2049 273.59  -1.0  -1.0  0     0.0000    0.0003
34           ?    N    ? P      ? 20180313 0128   21.3501 GAU  3.68e-02 -1.00e+00  7.15e+00  1.60e-02    7.1500 >    0.3682   -0.0502    0.7025  694.4145 5155.6153   -0.4263    0.2336 188.01  -1.0  -1.0  0     0.0000    0.0004
36           ?    N    ? P      ? 20180313 0128   21.3690 GAU  2.83e-02 -1.00e+00  6.71e+00  1.20e-02    6.7100 >    0.4112   -0.0743    0.1849  694.3865 5155.5904   -0.4164    0.2633 193.29  -1.0  -1.0  0     0.0000    0.0004
END_PHASE
END_NLLOC

