NLLOC "./loc/RR.20180313.004747.grid0" "REJECTED" "WARNING: max prob location on grid boundary 10, rejecting location."
PUBLIC_ID None
SIGNATURE "   obs:./obs/nll_picks.obs   NLLoc:v7.00.10(30Aug2020)   run:29Apr2022 23h19m35"
COMMENT "Rattlesnake Ridge Slidequake Locations"
GRID  150 250 75  694.15 5155.4 0  0.002 0.002 0.002 PROB_DENSITY
SEARCH OCTREE nInitial 1000 nEvaluated 20000 smallestNodeSide 0.003725/0.006225/0.001850 oct_tree_integral 2.081177e-04 scatter_volume 2.069528e-04
HYPOCENTER  x 694.152 y 5155.68 z 0.124875  OT 47.204  ix -1 iy -1 iz -1 MAXIMUM_LIKELIHOOD
GEOGRAPHIC  OT 2018 03 13  00 47 47.203954  Lat 5155.683237 Long 694.151862 Depth 0.124875
QUALITY  Pmax 2.47723e+87 MFmin 152.941 MFmax 152.988 RMS 0.0106562 Nphs 21 Gap 305.916 Dist 0.160186 Mamp  0.84 21 Mdur -9.90 0
VPVSRATIO  VpVsRatio -1  Npair 0  Diff -2e+30
STATISTICS  ExpectX 694.192373 Y 5155.683639 Z 0.095263  CovXX 0.00118712 XY 0.000319938 XZ 0.000264241 YY 0.000264217 YZ 0.000377883 ZZ 0.00142276 EllAz1  166.716 Dip1  13.0559 Len1  0.0186605 Az2  266.25 Dip2  35.5345 Len2  0.0599745 Len3  7.874258e-02
STAT_GEOG  ExpectLat 5155.683639 Long 694.192373 Depth 0.095263
TRANSFORM  NONE
QML_OriginQuality  assocPhCt 21  usedPhCt 21  assocStaCt -1  usedStaCt 21  depthPhCt -1  stdErr 0.0106562  azGap 305.916  secAzGap 310.954  gtLevel -  minDist 0.160186 maxDist 0.2713 medDist 0.224992
QML_OriginUncertainty  horUnc -1  minHorUnc 0.0194308  maxHorUnc 0.0544106  azMaxHorUnc 72.6326
QML_ConfidenceEllipsoid  semiMajorAxisLength 0.0787426  semiMinorAxisLength 0.0186605  semiIntermediateAxisLength 0.0599745  majorAxisPlunge 51.424  majorAxisAzimuth 59.814  majorAxisRotation 299.774
FOCALMECH  Hyp  5155.683237 694.151862 0.124875 Mech  0 0 0 mf  0 nObs -1
PHASE ID Ins Cmp On Pha  FM Date     HrMn   Sec     Err  ErrMag    Coda      Amp       Per       PriorWt  >   TTpred    Res       Weight    StaLoc(X  Y         Z)        SDist    SAzim  RAz  RDip RQual    Tcorr       TTerr
106          ?    N    ? P      ? 20180313 0047   47.6928 GAU  1.25e-02 -1.00e+00  7.11e+00  2.00e-02    7.1100 >    0.3843    0.1045    0.0070  694.3120 5155.6801   -0.4360    0.1602  91.14  -1.0  -1.0  0     0.0000    0.0004
15           ?    N    ? P      ? 20180313 0047   47.6949 GAU  3.01e-02 -1.00e+00  5.96e+00  2.40e-02    5.9600 >    0.4624    0.0286    0.7185  694.3206 5155.8107   -0.4609    0.2114  52.93  -1.0  -1.0  0     0.0000    0.0005
17           ?    N    ? P      ? 20180313 0047   47.6741 GAU  1.14e-02 -1.00e+00  7.82e+00  8.00e-03    7.8200 >    0.4675    0.0027    1.3938  694.3461 5155.7815   -0.4621    0.2177  63.18  -1.0  -1.0  0     0.0000    0.0005
25           ?    N    ? P      ? 20180313 0047   47.6601 GAU  1.30e-02 -1.00e+00  9.80e+00  8.00e-03    9.8000 >    0.4460    0.0101    0.7392  694.3684 5155.7091   -0.4438    0.2181  83.19  -1.0  -1.0  0     0.0000    0.0004
23           ?    N    ? P      ? 20180313 0047   47.6580 GAU  7.79e-03 -1.00e+00  9.87e+00  1.60e-02    9.8700 >    0.4510    0.0031    0.9132  694.3677 5155.7226   -0.4473    0.2194  79.68  -1.0  -1.0  0     0.0000    0.0005
21           ?    N    ? P      ? 20180313 0047   47.6559 GAU  1.09e-02 -1.00e+00  8.48e+00  1.20e-02    8.4800 >    0.4561   -0.0041    0.8618  694.3642 5155.7391   -0.4517    0.2195  75.25  -1.0  -1.0  0     0.0000    0.0005
18           ?    N    ? P      ? 20180313 0047   47.6621 GAU  1.19e-02 -1.00e+00  7.58e+00  1.20e-02    7.5800 >    0.4647   -0.0065    1.0972  694.3549 5155.7674   -0.4586    0.2198  67.48  -1.0  -1.0  0     0.0000    0.0005
20           ?    N    ? P      ? 20180313 0047   47.6554 GAU  1.04e-02 -1.00e+00  8.18e+00  1.20e-02    8.1800 >    0.4603   -0.0088    0.9241  694.3609 5155.7515   -0.4553    0.2198  71.92  -1.0  -1.0  0     0.0000    0.0005
16           ?    N    ? P      ? 20180313 0047   47.6881 GAU  1.40e-02 -1.00e+00  7.84e+00  1.20e-02    7.8400 >    0.4743    0.0099    1.2469  694.3452 5155.7921   -0.4642    0.2219  60.61  -1.0  -1.0  0     0.0000    0.0005
105          ?    N    ? P      ? 20180313 0047   47.6388 GAU  1.25e-02 -1.00e+00  9.43e+00  5.20e-02    9.4300 >    0.4463   -0.0114    1.0168  694.3764 5155.6832   -0.4382    0.2245  90.00  -1.0  -1.0  0     0.0000    0.0004
28           ?    N    ? P      ? 20180313 0047   47.6409 GAU  9.35e-03 -1.00e+00  8.86e+00  3.20e-02    8.8600 >    0.4452   -0.0083    1.2251  694.3767 5155.6745   -0.4362    0.2250  92.24  -1.0  -1.0  0     0.0000    0.0004
26           ?    N    ? P      ? 20180313 0047   47.6450 GAU  7.27e-03 -1.00e+00  9.32e+00  3.20e-02    9.3200 >    0.4506   -0.0096    1.0158  694.3783 5155.6910   -0.4400    0.2266  88.04  -1.0  -1.0  0     0.0000    0.0005
30           ?    N    ? P      ? 20180313 0047   47.6299 GAU  4.83e-02 -1.00e+00  8.64e+00  8.00e-03    8.6400 >    0.4442   -0.0183    0.6118  694.3775 5155.6619   -0.4333    0.2266  95.40  -1.0  -1.0  0     0.0000    0.0004
12           ?    N    ? P      ? 20180313 0047   47.6928 GAU  1.66e-02 -1.00e+00  6.52e+00  2.00e-02    6.5200 >    0.4851    0.0037    1.6764  694.3356 5155.8197   -0.4663    0.2289  53.40  -1.0  -1.0  0     0.0000    0.0005
32           ?    N    ? P      ? 20180313 0047   47.6336 GAU  3.01e-02 -1.00e+00  7.88e+00  1.20e-02    7.8800 >    0.4428   -0.0131    1.0152  694.3777 5155.6456   -0.4297    0.2289  99.47  -1.0  -1.0  0     0.0000    0.0004
10           ?    N    ? P      ? 20180313 0047   47.6684 GAU  1.40e-02 -1.00e+00  6.11e+00  1.20e-02    6.1100 >    0.4926   -0.0282    0.9901  694.3329 5155.8329   -0.4673    0.2349  50.42  -1.0  -1.0  0     0.0000    0.0005
103          ?    N    ? P      ? 20180313 0047   47.6684 GAU  1.61e-02 -1.00e+00  6.93e+00  2.00e-02    6.9300 >    0.4932   -0.0287    0.7249  694.3644 5155.7952   -0.4662    0.2402  62.22  -1.0  -1.0  0     0.0000    0.0005
27           ?    N    ? P      ? 20180313 0047   47.6845 GAU  1.14e-02 -1.00e+00  7.40e+00  3.20e-02    7.4000 >    0.4750    0.0055    0.9722  694.4008 5155.6912   -0.4412    0.2491  88.16  -1.0  -1.0  0     0.0000    0.0005
22           ?    N    ? P      ? 20180313 0047   47.6865 GAU  8.31e-03 -1.00e+00  7.92e+00  1.20e-02    7.9200 >    0.4839   -0.0014    0.9925  694.3985 5155.7265   -0.4488    0.2504  80.04  -1.0  -1.0  0     0.0000    0.0005
31           ?    N    ? P      ? 20180313 0047   47.6881 GAU  6.75e-03 -1.00e+00  8.02e+00  1.60e-02    8.0200 >    0.4791    0.0050    1.8640  694.4086 5155.6503   -0.4335    0.2589  97.30  -1.0  -1.0  0     0.0000    0.0005
34           ?    N    ? P      ? 20180313 0047   47.6592 GAU  3.91e-02 -1.00e+00  7.42e+00  1.20e-02    7.4200 >    0.4868   -0.0316    0.9933  694.4145 5155.6153   -0.4263    0.2713 104.51  -1.0  -1.0  0     0.0000    0.0005
END_PHASE
END_NLLOC

