NLLOC "./loc/RR.20180313.000341.grid0" "LOCATED" "Location completed."
PUBLIC_ID None
SIGNATURE "   obs:./obs/nll_picks.obs   NLLoc:v7.00.10(30Aug2020)   run:29Apr2022 23h16m25"
COMMENT "Rattlesnake Ridge Slidequake Locations"
GRID  150 250 75  694.15 5155.4 0  0.002 0.002 0.002 PROB_DENSITY
SEARCH OCTREE nInitial 1000 nEvaluated 20008 smallestNodeSide 0.003725/0.006225/0.001850 oct_tree_integral 2.745691e-04 scatter_volume 2.745691e-04
HYPOCENTER  x 694.318 y 5155.78 z 0.07955  OT 40.9664  ix -1 iy -1 iz -1 MAXIMUM_LIKELIHOOD
GEOGRAPHIC  OT 2018 03 13  00 03 40.966419  Lat 5155.779725 Long 694.317625 Depth 0.079550
QUALITY  Pmax 4.07418e+54 MFmin 75.1335 MFmax 75.1525 RMS 0.00976144 Nphs 15 Gap 216.773 Dist 0.0302256 Mamp  0.34 15 Mdur -9.90 0
VPVSRATIO  VpVsRatio -1  Npair 0  Diff -2e+30
STATISTICS  ExpectX 694.279598 Y 5155.783783 Z 0.078532  CovXX 0.00421456 XY 0.000582606 XZ 0.000896311 YY 0.000472164 YZ 0.000621851 ZZ 0.00152401 EllAz1  177.191 Dip1  23.1918 Len1  0.0249844 Az2  315.264 Dip2  60.0646 Len2  0.0706776 Len3  1.276885e-01
STAT_GEOG  ExpectLat 5155.783783 Long 694.279598 Depth 0.078532
TRANSFORM  NONE
QML_OriginQuality  assocPhCt 15  usedPhCt 15  assocStaCt -1  usedStaCt 15  depthPhCt -1  stdErr 0.00976144  azGap 216.773  secAzGap 227.382  gtLevel -  minDist 0.0302256 maxDist 0.121425 medDist 0.0617609
QML_OriginUncertainty  horUnc -1  minHorUnc 0.0297018  maxHorUnc 0.099485  azMaxHorUnc 81.3529
QML_ConfidenceEllipsoid  semiMajorAxisLength 0.127688  semiMinorAxisLength 0.0249844  semiIntermediateAxisLength 0.0706776  majorAxisPlunge 17.8479  majorAxisAzimuth 79.2615  majorAxisRotation 29.2299
FOCALMECH  Hyp  5155.779725 694.317625 0.079550 Mech  0 0 0 mf  0 nObs -1
PHASE ID Ins Cmp On Pha  FM Date     HrMn   Sec     Err  ErrMag    Coda      Amp       Per       PriorWt  >   TTpred    Res       Weight    StaLoc(X  Y         Z)        SDist    SAzim  RAz  RDip RQual    Tcorr       TTerr
17           ?    N    ? P      ? 20180313 0003   41.9980 GAU  8.55e-03 -1.00e+00  8.77e+00  8.00e-03    8.7700 >    0.1387    0.8929    0.0000  694.3461 5155.7815   -0.4621    0.0286  86.48  -1.0  -1.0  0     0.0000    0.0001
16           ?    N    ? P      ? 20180313 0003   41.1024 GAU  1.41e-02 -1.00e+00  8.00e+00  1.60e-02    8.0000 >    0.1426   -0.0066    1.0928  694.3452 5155.7921   -0.4642    0.0302  65.78  -1.0  -1.0  0     0.0000    0.0001
15           ?    N    ? P      ? 20180313 0003   41.1227 GAU  2.09e-02 -1.00e+00  7.06e+00  1.20e-02    7.0600 >    0.1379    0.0184    1.1857  694.3206 5155.8107   -0.4609    0.0311   5.43  -1.0  -1.0  0     0.0000    0.0001
18           ?    N    ? P      ? 20180313 0003   41.1041 GAU  1.13e-02 -1.00e+00  7.34e+00  2.40e-02    7.3400 >    0.1399   -0.0022    0.8509  694.3549 5155.7674   -0.4586    0.0392 108.29  -1.0  -1.0  0     0.0000    0.0001
12           ?    N    ? P      ? 20180313 0003   41.1152 GAU  2.79e-02 -1.00e+00  6.85e+00  1.60e-02    6.8500 >    0.1537   -0.0049    1.1414  694.3356 5155.8197   -0.4663    0.0439  24.23  -1.0  -1.0  0     0.0000    0.0002
103          ?    N    ? P      ? 20180313 0003   41.1383 GAU  2.59e-02 -1.00e+00  7.04e+00  1.20e-02    7.0400 >    0.1574    0.0145    0.8175  694.3644 5155.7952   -0.4662    0.0492  71.69  -1.0  -1.0  0     0.0000    0.0002
20           ?    N    ? P      ? 20180313 0003   41.1139 GAU  1.06e-02 -1.00e+00  7.45e+00  2.40e-02    7.4500 >    0.1448    0.0026    0.8444  694.3609 5155.7515   -0.4553    0.0516 123.17  -1.0  -1.0  0     0.0000    0.0001
10           ?    N    ? P      ? 20180313 0003   41.1112 GAU  3.60e-02 -1.00e+00  6.43e+00  2.40e-02    6.4300 >    0.1640   -0.0192    0.9884  694.3329 5155.8329   -0.4673    0.0553  16.03  -1.0  -1.0  0     0.0000    0.0002
21           ?    N    ? P      ? 20180313 0003   41.1180 GAU  1.11e-02 -1.00e+00  7.03e+00  8.00e-03    7.0300 >    0.1502    0.0014    0.8856  694.3642 5155.7391   -0.4517    0.0618 131.10  -1.0  -1.0  0     0.0000    0.0002
6            ?    N    ? P      ? 20180313 0003   41.1678 GAU  3.55e-02 -1.00e+00  6.32e+00  8.00e-03    6.3200 >    0.1892    0.0122    1.3291  694.3446 5155.8502   -0.4728    0.0754  20.98  -1.0  -1.0  0     0.0000    0.0002
23           ?    N    ? P      ? 20180313 0003   41.1305 GAU  2.97e-02 -1.00e+00  7.46e+00  8.00e-03    7.4600 >    0.1604    0.0036    0.8067  694.3677 5155.7226   -0.4473    0.0760 138.79  -1.0  -1.0  0     0.0000    0.0002
25           ?    N    ? P      ? 20180313 0003   41.1411 GAU  1.76e-02 -1.00e+00  6.61e+00  5.20e-02    6.6100 >    0.1703    0.0044    1.1457  694.3684 5155.7091   -0.4438    0.0870 144.26  -1.0  -1.0  0     0.0000    0.0002
26           ?    N    ? P      ? 20180313 0003   41.1871 GAU  3.39e-02 -1.00e+00  6.60e+00  2.80e-02    6.6000 >    0.1938    0.0269    0.9389  694.3783 5155.6910   -0.4400    0.1075 145.64  -1.0  -1.0  0     0.0000    0.0002
105          ?    N    ? P      ? 20180313 0003   41.1584 GAU  1.79e-02 -1.00e+00  7.30e+00  1.20e-02    7.3000 >    0.1999   -0.0080    1.6776  694.3764 5155.6832   -0.4382    0.1130 148.65  -1.0  -1.0  0     0.0000    0.0002
27           ?    N    ? P      ? 20180313 0003   41.1846 GAU  2.74e-02 -1.00e+00  5.53e+00  8.00e-03    5.5300 >    0.2138    0.0044    1.2953  694.4008 5155.6912   -0.4412    0.1214 136.77  -1.0  -1.0  0     0.0000    0.0002
END_PHASE
END_NLLOC

