NLLOC "./loc/RR.20180313.024419.grid0" "REJECTED" "WARNING: max prob location on grid boundary 10, rejecting location."
PUBLIC_ID None
SIGNATURE "   obs:./obs/nll_picks.obs   NLLoc:v7.00.10(30Aug2020)   run:29Apr2022 23h21m07"
COMMENT "Rattlesnake Ridge Slidequake Locations"
GRID  150 250 75  694.15 5155.4 0  0.002 0.002 0.002 PROB_DENSITY
SEARCH OCTREE nInitial 1000 nEvaluated 20008 smallestNodeSide 0.003725/0.006225/0.001850 oct_tree_integral 3.192098e-04 scatter_volume 3.192098e-04
HYPOCENTER  x 694.154 y 5155.56 z 0.14615  OT 19.4316  ix -1 iy -1 iz -1 MAXIMUM_LIKELIHOOD
GEOGRAPHIC  OT 2018 03 13  02 44 19.431609  Lat 5155.555625 Long 694.153725 Depth 0.146150
QUALITY  Pmax 4.73467e+89 MFmin 177.529 MFmax 177.619 RMS 0.0138761 Nphs 22 Gap 304.023 Dist 0.201344 Mamp  0.90 22 Mdur -9.90 0
VPVSRATIO  VpVsRatio -1  Npair 0  Diff -2e+30
STATISTICS  ExpectX 694.194059 Y 5155.570294 Z 0.097503  CovXX 0.00158786 XY 0.000224842 XZ 0.000261366 YY 0.000457564 YZ 0.000269324 ZZ 0.00147472 EllAz1  172.068 Dip1  11.7891 Len1  0.0361146 Az2  275.715 Dip2  48.5055 Len2  0.0669138 Len3  8.151302e-02
STAT_GEOG  ExpectLat 5155.570294 Long 694.194059 Depth 0.097503
TRANSFORM  NONE
QML_OriginQuality  assocPhCt 22  usedPhCt 22  assocStaCt -1  usedStaCt 22  depthPhCt -1  stdErr 0.0138761  azGap 304.023  secAzGap 310.502  gtLevel -  minDist 0.201344 maxDist 0.292096 medDist 0.25943
QML_OriginUncertainty  horUnc -1  minHorUnc 0.0308756  maxHorUnc 0.0612468  azMaxHorUnc 79.1525
QML_ConfidenceEllipsoid  semiMajorAxisLength 0.081513  semiMinorAxisLength 0.0361146  semiIntermediateAxisLength 0.0669138  majorAxisPlunge 39.0693  majorAxisAzimuth 72.3129  majorAxisRotation 53.0004
FOCALMECH  Hyp  5155.555625 694.153725 0.146150 Mech  0 0 0 mf  0 nObs -1
PHASE ID Ins Cmp On Pha  FM Date     HrMn   Sec     Err  ErrMag    Coda      Amp       Per       PriorWt  >   TTpred    Res       Weight    StaLoc(X  Y         Z)        SDist    SAzim  RAz  RDip RQual    Tcorr       TTerr
106          ?    N    ? P      ? 20180313 0244   19.9752 GAU  1.48e-02 -1.00e+00  7.22e+00  1.20e-02    7.2200 >    0.4426    0.1010    0.0455  694.3120 5155.6801   -0.4360    0.2013  51.83  -1.0  -1.0  0     0.0000    0.0004
39           ?    N    ? P      ? 20180313 0244   19.8859 GAU  4.19e-03 -1.00e+00  9.45e+00  1.60e-02    9.4500 >    0.4484    0.0059    1.8652  694.3890 5155.5532   -0.4086    0.2353  90.60  -1.0  -1.0  0     0.0000    0.0004
36           ?    N    ? P      ? 20180313 0244   19.8856 GAU  3.11e-03 -1.00e+00  1.04e+01  1.20e-02   10.4000 >    0.4547   -0.0007    1.1340  694.3865 5155.5904   -0.4164    0.2354  81.52  -1.0  -1.0  0     0.0000    0.0005
35           ?    N    ? P      ? 20180313 0244   19.9004 GAU  3.59e-03 -1.00e+00  9.77e+00  1.20e-02    9.7700 >    0.4589    0.0099    1.2648  694.3818 5155.6141   -0.4216    0.2354  75.61  -1.0  -1.0  0     0.0000    0.0005
33           ?    N    ? P      ? 20180313 0244   19.8968 GAU  1.19e-02 -1.00e+00  8.58e+00  3.20e-02    8.5800 >    0.4631    0.0021    1.0873  694.3775 5155.6293   -0.4252    0.2356  71.77  -1.0  -1.0  0     0.0000    0.0005
38           ?    N    ? P      ? 20180313 0244   19.8825 GAU  3.34e-03 -1.00e+00  9.93e+00  1.20e-02    9.9300 >    0.4531   -0.0022    1.2771  694.3902 5155.5681   -0.4123    0.2368  86.98  -1.0  -1.0  0     0.0000    0.0005
42           ?    N    ? P      ? 20180313 0244   19.9050 GAU  1.14e-02 -1.00e+00  7.51e+00  8.00e-03    7.5100 >    0.4444    0.0290    1.6552  694.3873 5155.5165   -0.3983    0.2368  99.50  -1.0  -1.0  0     0.0000    0.0004
32           ?    N    ? P      ? 20180313 0244   19.9133 GAU  2.79e-02 -1.00e+00  8.69e+00  4.40e-02    8.6900 >    0.4736    0.0081    0.8225  694.3777 5155.6456   -0.4297    0.2414  68.12  -1.0  -1.0  0     0.0000    0.0005
30           ?    N    ? P      ? 20180313 0244   19.9501 GAU  1.50e-02 -1.00e+00  8.09e+00  1.20e-02    8.0900 >    0.4835    0.0350    0.5812  694.3775 5155.6619   -0.4333    0.2477  64.59  -1.0  -1.0  0     0.0000    0.0005
28           ?    N    ? P      ? 20180313 0244   19.9909 GAU  1.00e-02 -1.00e+00  7.79e+00  8.00e-03    7.7900 >    0.4914    0.0679    0.1124  694.3767 5155.6745   -0.4362    0.2526  61.94  -1.0  -1.0  0     0.0000    0.0005
105          ?    N    ? P      ? 20180313 0244   19.9592 GAU  2.17e-02 -1.00e+00  8.84e+00  1.20e-02    8.8400 >    0.4975    0.0301    0.9377  694.3764 5155.6832   -0.4382    0.2566  60.18  -1.0  -1.0  0     0.0000    0.0005
26           ?    N    ? P      ? 20180313 0244   19.9507 GAU  1.09e-02 -1.00e+00  7.22e+00  1.20e-02    7.2200 >    0.5055    0.0136    1.6872  694.3783 5155.6910   -0.4400    0.2622  58.92  -1.0  -1.0  0     0.0000    0.0005
40           ?    N    ? P      ? 20180313 0244   19.9289 GAU  7.77e-03 -1.00e+00  8.99e+00  8.00e-03    8.9900 >    0.4858    0.0115    2.0743  694.4169 5155.5417   -0.4131    0.2635  93.02  -1.0  -1.0  0     0.0000    0.0005
25           ?    N    ? P      ? 20180313 0244   19.9071 GAU  1.38e-02 -1.00e+00  6.58e+00  8.00e-03    6.5800 >    0.5114   -0.0359    0.1413  694.3684 5155.7091   -0.4438    0.2639  54.44  -1.0  -1.0  0     0.0000    0.0005
34           ?    N    ? P      ? 20180313 0244   19.9840 GAU  1.65e-02 -1.00e+00  8.33e+00  4.80e-02    8.3300 >    0.4992    0.0532    0.4145  694.4145 5155.6153   -0.4263    0.2675  77.12  -1.0  -1.0  0     0.0000    0.0005
37           ?    N    ? P      ? 20180313 0244   19.9312 GAU  5.26e-03 -1.00e+00  8.43e+00  1.20e-02    8.4300 >    0.4992    0.0004    1.3191  694.4219 5155.5876   -0.4220    0.2701  83.20  -1.0  -1.0  0     0.0000    0.0005
23           ?    N    ? P      ? 20180313 0244   19.9493 GAU  1.86e-02 -1.00e+00  6.94e+00  2.80e-02    6.9400 >    0.5232   -0.0055    1.6678  694.3677 5155.7226   -0.4473    0.2714  52.04  -1.0  -1.0  0     0.0000    0.0005
31           ?    N    ? P      ? 20180313 0244   19.9716 GAU  1.89e-02 -1.00e+00  7.52e+00  1.20e-02    7.5200 >    0.5097    0.0303    0.7051  694.4086 5155.6503   -0.4335    0.2719  69.61  -1.0  -1.0  0     0.0000    0.0005
21           ?    N    ? P      ? 20180313 0244   19.9877 GAU  2.84e-02 -1.00e+00  6.44e+00  1.20e-02    6.4400 >    0.5364    0.0197    1.5522  694.3642 5155.7391   -0.4517    0.2792  48.91  -1.0  -1.0  0     0.0000    0.0005
27           ?    N    ? P      ? 20180313 0244   19.9909 GAU  3.49e-02 -1.00e+00  6.70e+00  1.20e-02    6.7000 >    0.5273    0.0320    0.7720  694.4008 5155.6912   -0.4412    0.2818  61.24  -1.0  -1.0  0     0.0000    0.0005
20           ?    N    ? P      ? 20180313 0244   19.9388 GAU  2.29e-02 -1.00e+00  6.30e+00  5.60e-02    6.3000 >    0.5459   -0.0387    0.4222  694.3609 5155.7515   -0.4553    0.2851  46.60  -1.0  -1.0  0     0.0000    0.0005
18           ?    N    ? P      ? 20180313 0244   19.9447 GAU  2.79e-02 -1.00e+00  5.72e+00  1.60e-02    5.7200 >    0.5572   -0.0441    0.4616  694.3549 5155.7674   -0.4586    0.2921  43.53  -1.0  -1.0  0     0.0000    0.0006
END_PHASE
END_NLLOC

