NLLOC "./loc/RR.20180313.000553.grid0" "LOCATED" "Location completed."
PUBLIC_ID None
SIGNATURE "   obs:./obs/nll_picks.obs   NLLoc:v7.00.10(30Aug2020)   run:29Apr2022 23h17m04"
COMMENT "Rattlesnake Ridge Slidequake Locations"
GRID  150 250 75  694.15 5155.4 0  0.002 0.002 0.002 PROB_DENSITY
SEARCH OCTREE nInitial 1000 nEvaluated 20008 smallestNodeSide 0.003725/0.006225/0.001850 oct_tree_integral 2.812463e-04 scatter_volume 2.793078e-04
HYPOCENTER  x 694.256 y 5155.61 z 0.052725  OT 53.6268  ix -1 iy -1 iz -1 MAXIMUM_LIKELIHOOD
GEOGRAPHIC  OT 2018 03 13  00 05 53.626847  Lat 5155.608537 Long 694.256162 Depth 0.052725
QUALITY  Pmax 1.20166e+121 MFmin 163.676 MFmax 163.681 RMS 0.0244764 Nphs 29 Gap 260.113 Dist 0.0907448 Mamp  0.61 29 Mdur -9.90 0
VPVSRATIO  VpVsRatio -1  Npair 0  Diff -2e+30
STATISTICS  ExpectX 694.257410 Y 5155.608149 Z 0.076878  CovXX 0.00304564 XY 0.000896295 XZ 0.000953642 YY 0.000378974 YZ 0.000408129 ZZ 0.00176068 EllAz1  164.588 Dip1  4.80827 Len1  0.0184347 Az2  264.093 Dip2  63.0078 Len2  0.0665891 Len3  1.163191e-01
STAT_GEOG  ExpectLat 5155.608149 Long 694.257410 Depth 0.076878
TRANSFORM  NONE
QML_OriginQuality  assocPhCt 29  usedPhCt 29  assocStaCt -1  usedStaCt 29  depthPhCt -1  stdErr 0.0244764  azGap 260.113  secAzGap 265.05  gtLevel -  minDist 0.0907448 maxDist 0.237109 medDist 0.158494
QML_OriginUncertainty  horUnc -1  minHorUnc 0.0155935  maxHorUnc 0.0873697  azMaxHorUnc 73.0451
QML_ConfidenceEllipsoid  semiMajorAxisLength 0.116319  semiMinorAxisLength 0.0184347  semiIntermediateAxisLength 0.0665891  majorAxisPlunge 26.4913  majorAxisAzimuth 72.1848  majorAxisRotation 8.8804
FOCALMECH  Hyp  5155.608537 694.256162 0.052725 Mech  0 0 0 mf  0 nObs -1
PHASE ID Ins Cmp On Pha  FM Date     HrMn   Sec     Err  ErrMag    Coda      Amp       Per       PriorWt  >   TTpred    Res       Weight    StaLoc(X  Y         Z)        SDist    SAzim  RAz  RDip RQual    Tcorr       TTerr
106          ?    N    ? P      ? 20180313 0005   53.9792 GAU  4.45e-02 -1.00e+00  7.77e+00  1.60e-02    7.7700 >    0.1888    0.1636    0.2615  694.3120 5155.6801   -0.4360    0.0907  37.99  -1.0  -1.0  0     0.0000    0.0002
33           ?    N    ? P      ? 20180313 0005   53.8457 GAU  1.19e-02 -1.00e+00  9.37e+00  2.40e-02    9.3700 >    0.2221   -0.0032    1.2096  694.3775 5155.6293   -0.4252    0.1231  80.28  -1.0  -1.0  0     0.0000    0.0002
35           ?    N    ? P      ? 20180313 0005   53.8526 GAU  1.68e-02 -1.00e+00  1.05e+01  8.00e-03   10.5000 >    0.2231    0.0027    1.3350  694.3818 5155.6141   -0.4216    0.1257  87.46  -1.0  -1.0  0     0.0000    0.0002
32           ?    N    ? P      ? 20180313 0005   53.8477 GAU  1.58e-02 -1.00e+00  9.18e+00  1.20e-02    9.1800 >    0.2309   -0.0100    1.0525  694.3777 5155.6456   -0.4297    0.1270  73.05  -1.0  -1.0  0     0.0000    0.0002
36           ?    N    ? P      ? 20180313 0005   53.8516 GAU  1.78e-02 -1.00e+00  8.26e+00  1.20e-02    8.2600 >    0.2285   -0.0037    1.4011  694.3865 5155.5904   -0.4164    0.1316  97.94  -1.0  -1.0  0     0.0000    0.0002
30           ?    N    ? P      ? 20180313 0005   53.8852 GAU  2.57e-02 -1.00e+00  8.96e+00  2.80e-02    8.9600 >    0.2409    0.0174    0.9197  694.3775 5155.6619   -0.4333    0.1325  66.25  -1.0  -1.0  0     0.0000    0.0002
28           ?    N    ? P      ? 20180313 0005   53.8783 GAU  2.87e-02 -1.00e+00  8.32e+00  8.00e-03    8.3200 >    0.2499    0.0015    0.9561  694.3767 5155.6745   -0.4362    0.1374  61.32  -1.0  -1.0  0     0.0000    0.0002
38           ?    N    ? P      ? 20180313 0005   53.8516 GAU  3.56e-02 -1.00e+00  6.84e+00  2.00e-02    6.8400 >    0.2388   -0.0140    1.1675  694.3902 5155.5681   -0.4123    0.1400 106.79  -1.0  -1.0  0     0.0000    0.0002
105          ?    N    ? P      ? 20180313 0005   53.9001 GAU  3.26e-02 -1.00e+00  8.53e+00  1.20e-02    8.5300 >    0.2572    0.0161    0.9084  694.3764 5155.6832   -0.4382    0.1416  58.15  -1.0  -1.0  0     0.0000    0.0003
39           ?    N    ? P      ? 20180313 0005   53.8773 GAU  2.18e-02 -1.00e+00  7.58e+00  1.20e-02    7.5800 >    0.2428    0.0077    1.8238  694.3890 5155.5532   -0.4086    0.1439 112.62  -1.0  -1.0  0     0.0000    0.0002
26           ?    N    ? P      ? 20180313 0005   53.9011 GAU  2.37e-02 -1.00e+00  7.64e+00  4.80e-02    7.6400 >    0.2667    0.0075    1.0930  694.3783 5155.6910   -0.4400    0.1474  55.98  -1.0  -1.0  0     0.0000    0.0003
25           ?    N    ? P      ? 20180313 0005   53.9030 GAU  2.77e-02 -1.00e+00  7.55e+00  8.00e-03    7.5500 >    0.2744    0.0018    1.2083  694.3684 5155.7091   -0.4438    0.1507  48.14  -1.0  -1.0  0     0.0000    0.0003
41           ?    N    ? P      ? 20180313 0005   53.8951 GAU  3.16e-02 -1.00e+00  6.78e+00  1.20e-02    6.7800 >    0.2524    0.0159    1.6315  694.3901 5155.5386   -0.4053    0.1511 117.56  -1.0  -1.0  0     0.0000    0.0003
31           ?    N    ? P      ? 20180313 0005   53.9021 GAU  2.67e-02 -1.00e+00  7.05e+00  8.00e-03    7.0500 >    0.2774   -0.0021    0.9276  694.4086 5155.6503   -0.4335    0.1581  74.66  -1.0  -1.0  0     0.0000    0.0003
34           ?    N    ? P      ? 20180313 0005   53.9119 GAU  2.27e-02 -1.00e+00  8.47e+00  1.20e-02    8.4700 >    0.2740    0.0110    1.2069  694.4145 5155.6153   -0.4263    0.1585  87.56  -1.0  -1.0  0     0.0000    0.0003
23           ?    N    ? P      ? 20180313 0005   53.9367 GAU  3.96e-02 -1.00e+00  7.90e+00  8.00e-03    7.9000 >    0.2890    0.0208    1.0437  694.3677 5155.7226   -0.4473    0.1595  44.37  -1.0  -1.0  0     0.0000    0.0003
27           ?    N    ? P      ? 20180313 0005   53.9396 GAU  3.66e-02 -1.00e+00  6.59e+00  2.40e-02    6.5900 >    0.2944    0.0183    0.8293  694.4008 5155.6912   -0.4412    0.1666  60.23  -1.0  -1.0  0     0.0000    0.0003
37           ?    N    ? P      ? 20180313 0005   53.8595 GAU  5.73e-02 -1.00e+00  7.18e+00  4.80e-02    7.1800 >    0.2848   -0.0521    0.6838  694.4219 5155.5876   -0.4220    0.1671  97.20  -1.0  -1.0  0     0.0000    0.0003
21           ?    N    ? P      ? 20180313 0005   53.8141 GAU  4.75e-02 -1.00e+00  6.72e+00  4.40e-02    6.7200 >    0.3065   -0.1193    0.1391  694.3642 5155.7391   -0.4517    0.1695  39.59  -1.0  -1.0  0     0.0000    0.0003
40           ?    N    ? P      ? 20180313 0005   53.9208 GAU  2.77e-02 -1.00e+00  7.15e+00  1.60e-02    7.1500 >    0.2913    0.0027    1.8514  694.4169 5155.5417   -0.4131    0.1740 112.57  -1.0  -1.0  0     0.0000    0.0003
20           ?    N    ? P      ? 20180313 0005   53.9653 GAU  3.86e-02 -1.00e+00  6.67e+00  2.00e-02    6.6700 >    0.3198    0.0187    1.2688  694.3609 5155.7515   -0.4553    0.1772  36.22  -1.0  -1.0  0     0.0000    0.0003
22           ?    N    ? P      ? 20180313 0005   54.1900 GAU  6.13e-02 -1.00e+00  7.19e+00  8.00e-03    7.1900 >    0.3258    0.2373    0.1044  694.3985 5155.7265   -0.4488    0.1849  50.34  -1.0  -1.0  0     0.0000    0.0003
18           ?    N    ? P      ? 20180313 0005   53.9584 GAU  2.37e-02 -1.00e+00  6.55e+00  2.80e-02    6.5500 >    0.3359   -0.0044    1.9859  694.3549 5155.7674   -0.4586    0.1871  31.86  -1.0  -1.0  0     0.0000    0.0003
17           ?    N    ? P      ? 20180313 0005   53.9792 GAU  4.85e-02 -1.00e+00  7.08e+00  1.20e-02    7.0800 >    0.3495    0.0028    1.5052  694.3461 5155.7815   -0.4621    0.1949  27.49  -1.0  -1.0  0     0.0000    0.0003
16           ?    N    ? P      ? 20180313 0005   53.9772 GAU  5.44e-02 -1.00e+00  7.58e+00  8.00e-03    7.5800 >    0.3636   -0.0133    1.4779  694.3452 5155.7921   -0.4642    0.2040  25.87  -1.0  -1.0  0     0.0000    0.0004
15           ?    N    ? P      ? 20180313 0005   54.1739 GAU  3.96e-02 -1.00e+00  7.14e+00  2.40e-02    7.1400 >    0.3715    0.1756    0.1130  694.3206 5155.8107   -0.4609    0.2122  17.67  -1.0  -1.0  0     0.0000    0.0004
103          ?    N    ? P      ? 20180313 0005   53.9218 GAU  7.61e-02 -1.00e+00  6.26e+00  1.60e-02    6.2600 >    0.3814   -0.0864    0.6003  694.3644 5155.7952   -0.4662    0.2157  30.10  -1.0  -1.0  0     0.0000    0.0004
12           ?    N    ? P      ? 20180313 0005   54.1749 GAU  4.84e-02 -1.00e+00  7.18e+00  6.00e-02    7.1800 >    0.3946    0.1534    0.1543  694.3356 5155.8197   -0.4663    0.2257  20.62  -1.0  -1.0  0     0.0000    0.0004
10           ?    N    ? P      ? 20180313 0005   54.1868 GAU  3.86e-02 -1.00e+00  6.69e+00  1.20e-02    6.6900 >    0.4113    0.1487    0.1404  694.3329 5155.8329   -0.4673    0.2371  18.88  -1.0  -1.0  0     0.0000    0.0004
END_PHASE
END_NLLOC

