NLLOC "./loc/RR.20180313.024103.grid0" "REJECTED" "WARNING: max prob location on grid boundary 31, rejecting location."
PUBLIC_ID None
SIGNATURE "   obs:./obs/nll_picks.obs   NLLoc:v7.00.10(30Aug2020)   run:29Apr2022 23h21m01"
COMMENT "Rattlesnake Ridge Slidequake Locations"
GRID  150 250 75  694.15 5155.4 0  0.002 0.002 0.002 PROB_DENSITY
SEARCH OCTREE nInitial 1000 nEvaluated 2192 smallestNodeSide 0.001863/0.003112/0.000925 oct_tree_integral 6.684224e-06 scatter_volume 6.684224e-06
HYPOCENTER  x 694.17 y 5155.66 z 0.147075  OT 3.31596  ix -1 iy -1 iz -1 MAXIMUM_LIKELIHOOD
GEOGRAPHIC  OT 2018 03 13  02 41 3.315963  Lat 5155.664563 Long 694.170487 Depth 0.147075
QUALITY  Pmax 1.03682e+173 MFmin 470.57 MFmax 470.832 RMS 0.00966723 Nphs 35 Gap 263.202 Dist 0.142375 Mamp  0.88 35 Mdur -9.90 0
VPVSRATIO  VpVsRatio -1  Npair 0  Diff -2e+30
STATISTICS  ExpectX 694.169178 Y 5155.664470 Z 0.134129  CovXX 0.000192933 XY 5.54104e-05 XZ 3.16709e-05 YY 4.02958e-05 YZ 1.57155e-05 ZZ 0.000146727 EllAz1  162.473 Dip1  2.50269 Len1  0.00882775 Az2  258.133 Dip2  66.0968 Len2  0.0215499 Len3  2.826512e-02
STAT_GEOG  ExpectLat 5155.664470 Long 694.169178 Depth 0.134129
TRANSFORM  NONE
QML_OriginQuality  assocPhCt 35  usedPhCt 35  assocStaCt -1  usedStaCt 35  depthPhCt -1  stdErr 0.00966723  azGap 263.202  secAzGap 268.148  gtLevel -  minDist 0.142375 maxDist 0.275313 medDist 0.222138
QML_OriginUncertainty  horUnc -1  minHorUnc 0.00716203  maxHorUnc 0.0220257  azMaxHorUnc 72.0094
QML_ConfidenceEllipsoid  semiMajorAxisLength 0.0282651  semiMinorAxisLength 0.00882775  semiIntermediateAxisLength 0.0215499  majorAxisPlunge 23.7554  majorAxisAzimuth 71.371  majorAxisRotation 4.04478
FOCALMECH  Hyp  5155.664563 694.170487 0.147075 Mech  0 0 0 mf  0 nObs -1
PHASE ID Ins Cmp On Pha  FM Date     HrMn   Sec     Err  ErrMag    Coda      Amp       Per       PriorWt  >   TTpred    Res       Weight    StaLoc(X  Y         Z)        SDist    SAzim  RAz  RDip RQual    Tcorr       TTerr
106          ?    N    ? P      ? 20180313 0241    3.7891 GAU  7.11e-03 -1.00e+00  9.06e+00  8.00e-03    9.0600 >    0.3778    0.0954    0.0272  694.3120 5155.6801   -0.4360    0.1424  83.75  -1.0  -1.0  0     0.0000    0.0004
9            ?    N    ? P      ? 20180313 0241    3.8960 GAU  7.18e-03 -1.00e+00  7.38e+00  1.20e-02    7.3800 >    0.4179    0.1621    0.0000  694.2594 5155.8351   -0.4296    0.1923  27.53  -1.0  -1.0  0     0.0000    0.0004
25           ?    N    ? P      ? 20180313 0241    3.7592 GAU  4.30e-03 -1.00e+00  9.71e+00  1.20e-02    9.7100 >    0.4373    0.0059    0.8873  694.3684 5155.7091   -0.4438    0.2029  77.31  -1.0  -1.0  0     0.0000    0.0004
23           ?    N    ? P      ? 20180313 0241    3.7662 GAU  4.83e-03 -1.00e+00  9.61e+00  1.20e-02    9.6100 >    0.4438    0.0064    0.8746  694.3677 5155.7226   -0.4473    0.2056  73.61  -1.0  -1.0  0     0.0000    0.0004
28           ?    N    ? P      ? 20180313 0241    3.7487 GAU  5.64e-03 -1.00e+00  1.08e+01  2.00e-02   10.8000 >    0.4325    0.0003    1.1944  694.3767 5155.6745   -0.4362    0.2064  87.25  -1.0  -1.0  0     0.0000    0.0004
105          ?    N    ? P      ? 20180313 0241    3.7507 GAU  4.96e-03 -1.00e+00  1.11e+01  5.60e-02   11.1000 >    0.4348   -0.0001    1.2181  694.3764 5155.6832   -0.4382    0.2068  84.82  -1.0  -1.0  0     0.0000    0.0004
30           ?    N    ? P      ? 20180313 0241    3.7406 GAU  5.76e-03 -1.00e+00  1.06e+01  1.20e-02   10.6000 >    0.4298   -0.0052    1.2103  694.3775 5155.6619   -0.4333    0.2070  90.73  -1.0  -1.0  0     0.0000    0.0004
21           ?    N    ? P      ? 20180313 0241    3.7892 GAU  4.56e-03 -1.00e+00  8.35e+00  1.20e-02    8.3500 >    0.4509    0.0223    0.3369  694.3642 5155.7391   -0.4517    0.2075  68.94  -1.0  -1.0  0     0.0000    0.0005
32           ?    N    ? P      ? 20180313 0241    3.7311 GAU  4.44e-03 -1.00e+00  1.03e+01  6.00e-02   10.3000 >    0.4276   -0.0125    0.9536  694.3777 5155.6456   -0.4297    0.2081  95.24  -1.0  -1.0  0     0.0000    0.0004
20           ?    N    ? P      ? 20180313 0241    3.7742 GAU  3.22e-03 -1.00e+00  8.66e+00  2.40e-02    8.6600 >    0.4563    0.0020    1.2575  694.3609 5155.7515   -0.4553    0.2093  65.46  -1.0  -1.0  0     0.0000    0.0005
15           ?    N    ? P      ? 20180313 0241    3.8529 GAU  1.08e-02 -1.00e+00  6.41e+00  1.20e-02    6.4100 >    0.4661    0.0709    0.1177  694.3206 5155.8107   -0.4609    0.2095  45.76  -1.0  -1.0  0     0.0000    0.0005
26           ?    N    ? P      ? 20180313 0241    3.7538 GAU  4.29e-03 -1.00e+00  1.04e+01  1.20e-02   10.4000 >    0.4396   -0.0018    1.2148  694.3783 5155.6910   -0.4400    0.2095  82.76  -1.0  -1.0  0     0.0000    0.0004
33           ?    N    ? P      ? 20180313 0241    3.7401 GAU  3.70e-03 -1.00e+00  1.07e+01  1.20e-02   10.7000 >    0.4247   -0.0005    1.6520  694.3775 5155.6293   -0.4252    0.2100  99.66  -1.0  -1.0  0     0.0000    0.0004
17           ?    N    ? P      ? 20180313 0241    3.7837 GAU  8.99e-03 -1.00e+00  7.76e+00  8.00e-03    7.7600 >    0.4670    0.0007    1.2989  694.3461 5155.7815   -0.4621    0.2110  56.35  -1.0  -1.0  0     0.0000    0.0005
18           ?    N    ? P      ? 20180313 0241    3.7804 GAU  4.83e-03 -1.00e+00  8.06e+00  8.00e-03    8.0600 >    0.4624    0.0020    1.2948  694.3549 5155.7674   -0.4586    0.2111  60.85  -1.0  -1.0  0     0.0000    0.0005
16           ?    N    ? P      ? 20180313 0241    3.7982 GAU  1.68e-02 -1.00e+00  8.08e+00  4.80e-02    8.0800 >    0.4748    0.0074    0.9543  694.3452 5155.7921   -0.4642    0.2163  53.86  -1.0  -1.0  0     0.0000    0.0005
35           ?    N    ? P      ? 20180313 0241    3.7450 GAU  7.02e-03 -1.00e+00  1.02e+01  1.20e-02   10.2000 >    0.4278    0.0013    1.5254  694.3818 5155.6141   -0.4216    0.2172 103.43  -1.0  -1.0  0     0.0000    0.0004
5            ?    N    ? P      ? 20180313 0241    3.8506 GAU  1.12e-02 -1.00e+00  6.58e+00  1.60e-02    6.5800 >    0.4653    0.0694    0.1292  694.2898 5155.8520   -0.4475    0.2221  32.48  -1.0  -1.0  0     0.0000    0.0005
12           ?    N    ? P      ? 20180313 0241    3.8013 GAU  9.42e-03 -1.00e+00  7.03e+00  4.40e-02    7.0300 >    0.4878   -0.0024    1.5723  694.3356 5155.8197   -0.4663    0.2266  46.78  -1.0  -1.0  0     0.0000    0.0005
36           ?    N    ? P      ? 20180313 0241    3.7682 GAU  8.49e-03 -1.00e+00  9.11e+00  1.20e-02    9.1100 >    0.4355    0.0168    0.6401  694.3865 5155.5904   -0.4164    0.2284 108.96  -1.0  -1.0  0     0.0000    0.0004
27           ?    N    ? P      ? 20180313 0241    3.7703 GAU  4.70e-03 -1.00e+00  8.43e+00  2.80e-02    8.4300 >    0.4629   -0.0086    1.0572  694.4008 5155.6912   -0.4412    0.2318  83.39  -1.0  -1.0  0     0.0000    0.0005
103          ?    N    ? P      ? 20180313 0241    3.7849 GAU  1.15e-02 -1.00e+00  7.94e+00  6.00e-02    7.9400 >    0.4922   -0.0232    0.5454  694.3644 5155.7952   -0.4662    0.2338  56.03  -1.0  -1.0  0     0.0000    0.0005
10           ?    N    ? P      ? 20180313 0241    3.8048 GAU  9.42e-03 -1.00e+00  6.73e+00  4.40e-02    6.7300 >    0.4965   -0.0077    1.5468  694.3329 5155.8329   -0.4673    0.2339  43.98  -1.0  -1.0  0     0.0000    0.0005
8            ?    N    ? P      ? 20180313 0241    3.8017 GAU  9.88e-03 -1.00e+00  5.79e+00  1.60e-02    5.7900 >    0.4967   -0.0109    1.3496  694.3223 5155.8450   -0.4648    0.2358  40.08  -1.0  -1.0  0     0.0000    0.0005
22           ?    N    ? P      ? 20180313 0241    3.7730 GAU  6.85e-03 -1.00e+00  8.42e+00  1.20e-02    8.4200 >    0.4746   -0.0176    0.6519  694.3985 5155.7265   -0.4488    0.2363  74.79  -1.0  -1.0  0     0.0000    0.0005
31           ?    N    ? P      ? 20180313 0241    3.7673 GAU  8.55e-03 -1.00e+00  8.02e+00  3.60e-02    8.0200 >    0.4624   -0.0111    0.8850  694.4086 5155.6503   -0.4335    0.2386  93.42  -1.0  -1.0  0     0.0000    0.0005
38           ?    N    ? P      ? 20180313 0241    3.7488 GAU  7.32e-03 -1.00e+00  7.97e+00  1.20e-02    7.9700 >    0.4444   -0.0116    1.3528  694.3902 5155.5681   -0.4123    0.2399 113.70  -1.0  -1.0  0     0.0000    0.0004
39           ?    N    ? P      ? 20180313 0241    3.7854 GAU  1.23e-02 -1.00e+00  8.39e+00  1.20e-02    8.3900 >    0.4475    0.0220    0.5794  694.3890 5155.5532   -0.4086    0.2453 117.01  -1.0  -1.0  0     0.0000    0.0004
2            ?    N    ? P      ? 20180313 0241    3.8201 GAU  8.53e-03 -1.00e+00  6.32e+00  1.20e-02    6.3200 >    0.5054   -0.0013    1.9371  694.3150 5155.8647   -0.4623    0.2468  35.83  -1.0  -1.0  0     0.0000    0.0005
34           ?    N    ? P      ? 20180313 0241    3.7721 GAU  1.33e-03 -1.00e+00  8.96e+00  1.60e-02    8.9600 >    0.4666   -0.0105    1.1534  694.4145 5155.6153   -0.4263    0.2490 101.42  -1.0  -1.0  0     0.0000    0.0005
41           ?    N    ? P      ? 20180313 0241    3.8062 GAU  2.37e-02 -1.00e+00  7.93e+00  1.20e-02    7.9300 >    0.4541    0.0362    0.4343  694.3901 5155.5386   -0.4053    0.2532 119.83  -1.0  -1.0  0     0.0000    0.0005
6            ?    N    ? P      ? 20180313 0241    3.8331 GAU  8.98e-03 -1.00e+00  7.31e+00  1.60e-02    7.3100 >    0.5224   -0.0052    1.8448  694.3446 5155.8502   -0.4728    0.2545  43.18  -1.0  -1.0  0     0.0000    0.0005
42           ?    N    ? P      ? 20180313 0241    3.8364 GAU  7.61e-03 -1.00e+00  7.32e+00  1.20e-02    7.3200 >    0.4598    0.0606    0.1565  694.3873 5155.5165   -0.3983    0.2625 124.33  -1.0  -1.0  0     0.0000    0.0005
37           ?    N    ? P      ? 20180313 0241    3.7974 GAU  1.43e-02 -1.00e+00  8.36e+00  1.20e-02    8.3600 >    0.4797    0.0017    1.2510  694.4219 5155.5876   -0.4220    0.2630 107.02  -1.0  -1.0  0     0.0000    0.0005
40           ?    N    ? P      ? 20180313 0241    3.8033 GAU  1.08e-02 -1.00e+00  8.58e+00  1.20e-02    8.5800 >    0.4870    0.0003    1.8952  694.4169 5155.5417   -0.4131    0.2753 116.50  -1.0  -1.0  0     0.0000    0.0005
END_PHASE
END_NLLOC

