NLLOC "./loc/RR.20180313.005558.grid0" "LOCATED" "Location completed."
PUBLIC_ID None
SIGNATURE "   obs:./obs/nll_picks.obs   NLLoc:v7.00.10(30Aug2020)   run:29Apr2022 23h19m40"
COMMENT "Rattlesnake Ridge Slidequake Locations"
GRID  150 250 75  694.15 5155.4 0  0.002 0.002 0.002 PROB_DENSITY
SEARCH OCTREE nInitial 1000 nEvaluated 3056 smallestNodeSide 0.001863/0.003112/0.000925 oct_tree_integral 7.087522e-06 scatter_volume 7.087522e-06
HYPOCENTER  x 694.272 y 5155.79 z 0.101288  OT 58.7529  ix -1 iy -1 iz -1 MAXIMUM_LIKELIHOOD
GEOGRAPHIC  OT 2018 03 13  00 55 58.752900  Lat 5155.790619 Long 694.271994 Depth 0.101288
QUALITY  Pmax 8.76947e+130 MFmin 341.95 MFmax 341.98 RMS 0.106778 Nphs 32 Gap 186.655 Dist 0.0462226 Mamp  0.59 32 Mdur -9.90 0
VPVSRATIO  VpVsRatio -1  Npair 0  Diff -2e+30
STATISTICS  ExpectX 694.287805 Y 5155.794000 Z 0.104220  CovXX 0.00137604 XY 0.000422162 XZ 0.000633027 YY 0.000160732 YZ 0.000226247 ZZ 0.000416667 EllAz1  170.017 Dip1  15.9417 Len1  0.00856857 Az2  288.811 Dip2  59.3305 Len2  0.019213 Len3  8.033098e-02
STAT_GEOG  ExpectLat 5155.794000 Long 694.287805 Depth 0.104220
TRANSFORM  NONE
QML_OriginQuality  assocPhCt 32  usedPhCt 32  assocStaCt -1  usedStaCt 32  depthPhCt -1  stdErr 0.106778  azGap 186.655  secAzGap 193.911  gtLevel -  minDist 0.0462226 maxDist 0.230701 medDist 0.0932033
QML_OriginUncertainty  horUnc -1  minHorUnc 0.00809305  maxHorUnc 0.0588988  azMaxHorUnc 72.6053
QML_ConfidenceEllipsoid  semiMajorAxisLength 0.080331  semiMinorAxisLength 0.00856857  semiIntermediateAxisLength 0.019213  majorAxisPlunge 25.4565  majorAxisAzimuth 72.2013  majorAxisRotation 26.8605
FOCALMECH  Hyp  5155.790619 694.271994 0.101288 Mech  0 0 0 mf  0 nObs -1
PHASE ID Ins Cmp On Pha  FM Date     HrMn   Sec     Err  ErrMag    Coda      Amp       Per       PriorWt  >   TTpred    Res       Weight    StaLoc(X  Y         Z)        SDist    SAzim  RAz  RDip RQual    Tcorr       TTerr
9            ?    N    ? P      ? 20180313 0055   59.5720 GAU  5.97e-03 -1.00e+00  8.26e+00  1.20e-02    8.2600 >    0.1595    0.6596    0.0336  694.2594 5155.8351   -0.4296    0.0462 344.15  -1.0  -1.0  0     0.0000    0.0002
15           ?    N    ? P      ? 20180313 0055   58.9652 GAU  4.78e-03 -1.00e+00  1.02e+01  2.00e-02   10.2000 >    0.2064    0.0059    1.6343  694.3206 5155.8107   -0.4609    0.0526  67.55  -1.0  -1.0  0     0.0000    0.0002
7            ?    N    ? P      ? 20180313 0055   59.6160 GAU  7.96e-03 -1.00e+00  8.97e+00  1.20e-02    8.9700 >    0.1739    0.6892    0.1281  694.2704 5155.8450   -0.4359    0.0544 358.33  -1.0  -1.0  0     0.0000    0.0002
13           ?    N    ? P      ? 20180313 0055   59.5800 GAU  1.19e-02 -1.00e+00  8.60e+00  3.20e-02    8.6000 >    0.2055    0.6216    0.0038  694.3062 5155.8390   -0.4568    0.0593  35.26  -1.0  -1.0  0     0.0000    0.0002
5            ?    N    ? P      ? 20180313 0055   59.4720 GAU  1.35e-02 -1.00e+00  9.29e+00  1.20e-02    9.2900 >    0.1958    0.5233    0.3599  694.2898 5155.8520   -0.4475    0.0639  16.15  -1.0  -1.0  0     0.0000    0.0002
12           ?    N    ? P      ? 20180313 0055   58.9815 GAU  8.36e-03 -1.00e+00  9.91e+00  8.00e-03    9.9100 >    0.2255    0.0031    1.5946  694.3356 5155.8197   -0.4663    0.0700  65.41  -1.0  -1.0  0     0.0000    0.0002
4            ?    N    ? P      ? 20180313 0055   58.9967 GAU  8.36e-03 -1.00e+00  7.89e+00  1.60e-02    7.8900 >    0.2168    0.0270    0.1168  694.3090 5155.8520   -0.4586    0.0717  31.09  -1.0  -1.0  0     0.0000    0.0002
16           ?    N    ? P      ? 20180313 0055   58.9732 GAU  6.40e-03 -1.00e+00  1.01e+01  1.20e-02   10.1000 >    0.2248   -0.0045    1.4154  694.3452 5155.7921   -0.4642    0.0732  88.82  -1.0  -1.0  0     0.0000    0.0002
8            ?    N    ? P      ? 20180313 0055   58.9736 GAU  5.17e-03 -1.00e+00  7.81e+00  4.80e-02    7.8100 >    0.2270   -0.0063    2.1149  694.3223 5155.8450   -0.4648    0.0741  42.77  -1.0  -1.0  0     0.0000    0.0002
10           ?    N    ? P      ? 20180313 0055   58.9871 GAU  5.97e-03 -1.00e+00  8.79e+00  1.20e-02    8.7900 >    0.2300    0.0042    1.9217  694.3329 5155.8329   -0.4673    0.0741  55.24  -1.0  -1.0  0     0.0000    0.0002
17           ?    N    ? P      ? 20180313 0055   58.9772 GAU  1.04e-02 -1.00e+00  9.81e+00  8.00e-03    9.8100 >    0.2232    0.0011    1.2130  694.3461 5155.7815   -0.4621    0.0747  97.03  -1.0  -1.0  0     0.0000    0.0002
3            ?    N    ? P      ? 20180313 0055   59.1468 GAU  2.07e-02 -1.00e+00  8.57e+00  1.20e-02    8.5700 >    0.1741    0.2198    0.8285  694.2426 5155.8595   -0.4214    0.0748 336.89  -1.0  -1.0  0     0.0000    0.0002
1            ?    N    ? P      ? 20180313 0055   59.1368 GAU  2.35e-02 -1.00e+00  8.69e+00  2.40e-02    8.6900 >    0.1993    0.1846    0.2187  694.2735 5155.8721   -0.4381    0.0815   1.08  -1.0  -1.0  0     0.0000    0.0002
2            ?    N    ? P      ? 20180313 0055   58.9899 GAU  1.19e-02 -1.00e+00  7.92e+00  1.60e-02    7.9200 >    0.2332    0.0038    2.0759  694.3150 5155.8647   -0.4623    0.0856  30.14  -1.0  -1.0  0     0.0000    0.0002
18           ?    N    ? P      ? 20180313 0055   58.9804 GAU  6.40e-03 -1.00e+00  8.69e+00  2.00e-02    8.6900 >    0.2274    0.0001    1.5786  694.3549 5155.7674   -0.4586    0.0861 105.64  -1.0  -1.0  0     0.0000    0.0002
103          ?    N    ? P      ? 20180313 0055   59.1100 GAU  1.31e-02 -1.00e+00  8.95e+00  1.20e-02    8.9500 >    0.2429    0.1142    0.1942  694.3644 5155.7952   -0.4662    0.0925  87.17  -1.0  -1.0  0     0.0000    0.0002
6            ?    N    ? P      ? 20180313 0055   59.2370 GAU  1.23e-02 -1.00e+00  8.27e+00  2.80e-02    8.2700 >    0.2531    0.2310    1.1471  694.3446 5155.8502   -0.4728    0.0939  50.65  -1.0  -1.0  0     0.0000    0.0003
20           ?    N    ? P      ? 20180313 0055   58.9868 GAU  7.20e-03 -1.00e+00  8.61e+00  8.00e-03    8.6100 >    0.2332    0.0007    1.7808  694.3609 5155.7515   -0.4553    0.0971 113.78  -1.0  -1.0  0     0.0000    0.0002
21           ?    N    ? P      ? 20180313 0055   58.9872 GAU  5.19e-03 -1.00e+00  8.35e+00  1.20e-02    8.3500 >    0.2374   -0.0031    2.0671  694.3642 5155.7391   -0.4517    0.1056 119.19  -1.0  -1.0  0     0.0000    0.0002
23           ?    N    ? P      ? 20180313 0055   58.9964 GAU  6.40e-03 -1.00e+00  7.56e+00  4.00e-02    7.5600 >    0.2451   -0.0016    2.4197  694.3677 5155.7226   -0.4473    0.1174 125.42  -1.0  -1.0  0     0.0000    0.0002
25           ?    N    ? P      ? 20180313 0055   59.1320 GAU  8.00e-03 -1.00e+00  7.91e+00  8.00e-03    7.9100 >    0.2517    0.1274    0.1400  694.3684 5155.7091   -0.4438    0.1263 130.20  -1.0  -1.0  0     0.0000    0.0003
22           ?    N    ? P      ? 20180313 0055   59.4560 GAU  8.40e-03 -1.00e+00  7.85e+00  2.40e-02    7.8500 >    0.2742    0.4289    0.0927  694.3985 5155.7265   -0.4488    0.1418 116.86  -1.0  -1.0  0     0.0000    0.0003
26           ?    N    ? P      ? 20180313 0055   59.1600 GAU  7.60e-03 -1.00e+00  7.14e+00  8.00e-03    7.1400 >    0.2713    0.1358    0.1235  694.3783 5155.6910   -0.4400    0.1457 133.15  -1.0  -1.0  0     0.0000    0.0003
105          ?    N    ? P      ? 20180313 0055   59.2680 GAU  7.20e-03 -1.00e+00  7.81e+00  5.60e-02    7.8100 >    0.2747    0.2404    0.6441  694.3764 5155.6832   -0.4382    0.1498 135.80  -1.0  -1.0  0     0.0000    0.0003
28           ?    N    ? P      ? 20180313 0055   59.8590 GAU  4.24e-02 -1.00e+00  7.43e+00  1.20e-02    7.4300 >    0.2819    0.8242    0.0029  694.3767 5155.6745   -0.4362    0.1564 137.97  -1.0  -1.0  0     0.0000    0.0003
27           ?    N    ? P      ? 20180313 0055   59.2800 GAU  6.00e-03 -1.00e+00  6.53e+00  8.00e-03    6.5300 >    0.2936    0.2335    0.7880  694.4008 5155.6912   -0.4412    0.1627 127.65  -1.0  -1.0  0     0.0000    0.0003
30           ?    N    ? P      ? 20180313 0055   59.4320 GAU  1.72e-02 -1.00e+00  6.59e+00  6.40e-02    6.5900 >    0.2928    0.3863    0.0222  694.3775 5155.6619   -0.4333    0.1664 140.66  -1.0  -1.0  0     0.0000    0.0003
33           ?    N    ? P      ? 20180313 0055   59.7950 GAU  3.12e-02 -1.00e+00  6.27e+00  4.80e-02    6.2700 >    0.3224    0.7197    0.1630  694.3775 5155.6293   -0.4252    0.1927 146.81  -1.0  -1.0  0     0.0000    0.0003
31           ?    N    ? P      ? 20180313 0055   59.6110 GAU  1.28e-02 -1.00e+00  6.95e+00  1.20e-02    6.9500 >    0.3315    0.5266    0.3594  694.4086 5155.6503   -0.4335    0.1958 135.75  -1.0  -1.0  0     0.0000    0.0003
35           ?    N    ? P      ? 20180313 0055   59.5030 GAU  3.00e-02 -1.00e+00  6.82e+00  1.20e-02    6.8200 >    0.3406    0.4095    0.1031  694.3818 5155.6141   -0.4216    0.2079 148.12  -1.0  -1.0  0     0.0000    0.0003
34           ?    N    ? P      ? 20180313 0055   59.1227 GAU  6.40e-03 -1.00e+00  6.57e+00  4.00e-02    6.5700 >    0.3689    0.0009    5.8639  694.4145 5155.6153   -0.4263    0.2260 140.90  -1.0  -1.0  0     0.0000    0.0004
36           ?    N    ? P      ? 20180313 0055   59.3480 GAU  1.45e-02 -1.00e+00  5.85e+00  1.20e-02    5.8500 >    0.3699    0.2252    0.8504  694.3865 5155.5904   -0.4164    0.2307 150.24  -1.0  -1.0  0     0.0000    0.0004
END_PHASE
END_NLLOC

