NLLOC "./loc/RR.20180313.000753.grid0" "LOCATED" "Location completed."
PUBLIC_ID None
SIGNATURE "   obs:./obs/nll_picks.obs   NLLoc:v7.00.10(30Aug2020)   run:29Apr2022 23h17m49"
COMMENT "Rattlesnake Ridge Slidequake Locations"
GRID  150 250 75  694.15 5155.4 0  0.002 0.002 0.002 PROB_DENSITY
SEARCH OCTREE nInitial 1000 nEvaluated 13608 smallestNodeSide 0.001863/0.003112/0.000925 oct_tree_integral 8.058048e-05 scatter_volume 8.031146e-05
HYPOCENTER  x 694.352 y 5155.6 z 0.0522625  OT 53.2241  ix -1 iy -1 iz -1 MAXIMUM_LIKELIHOOD
GEOGRAPHIC  OT 2018 03 13  00 07 53.224083  Lat 5155.600756 Long 694.352081 Depth 0.052262
QUALITY  Pmax 3.57332e+60 MFmin 85.105 MFmax 85.1165 RMS 0.0102323 Nphs 16 Gap 184.668 Dist 0.0325549 Mamp  0.25 16 Mdur -9.90 0
VPVSRATIO  VpVsRatio -1  Npair 0  Diff -2e+30
STATISTICS  ExpectX 694.320939 Y 5155.593677 Z 0.066882  CovXX 0.00234161 XY 0.000559492 XZ -1.02044e-05 YY 0.000232953 YZ 9.25024e-05 ZZ 0.00134532 EllAz1  166.045 Dip1  4.19202 Len1  0.0175184 Az2  337.474 Dip2  85.7608 Len2  0.0690821 Len3  9.358376e-02
STAT_GEOG  ExpectLat 5155.593677 Long 694.320939 Depth 0.066882
TRANSFORM  NONE
QML_OriginQuality  assocPhCt 16  usedPhCt 16  assocStaCt -1  usedStaCt 16  depthPhCt -1  stdErr 0.0102323  azGap 184.668  secAzGap 227.9  gtLevel -  minDist 0.0325549 maxDist 0.102768 medDist 0.0686473
QML_OriginUncertainty  horUnc -1  minHorUnc 0.0146802  maxHorUnc 0.0755379  azMaxHorUnc 76.0234
QML_ConfidenceEllipsoid  semiMajorAxisLength 0.0935838  semiMinorAxisLength 0.0175184  semiIntermediateAxisLength 0.0690821  majorAxisPlunge 0.629525  majorAxisAzimuth 75.9991  majorAxisRotation 4.19328
FOCALMECH  Hyp  5155.600756 694.352081 0.052262 Mech  0 0 0 mf  0 nObs -1
PHASE ID Ins Cmp On Pha  FM Date     HrMn   Sec     Err  ErrMag    Coda      Amp       Per       PriorWt  >   TTpred    Res       Weight    StaLoc(X  Y         Z)        SDist    SAzim  RAz  RDip RQual    Tcorr       TTerr
35           ?    N    ? P      ? 20180313 0007   53.3315 GAU  1.26e-02 -1.00e+00  9.09e+00  1.20e-02    9.0900 >    0.1063    0.0012    0.8482  694.3818 5155.6141   -0.4216    0.0326  65.77  -1.0  -1.0  0     0.0000    0.0001
36           ?    N    ? P      ? 20180313 0007   53.3279 GAU  1.26e-02 -1.00e+00  7.58e+00  1.20e-02    7.5800 >    0.1023    0.0015    0.8485  694.3865 5155.5904   -0.4164    0.0360 106.81  -1.0  -1.0  0     0.0000    0.0001
33           ?    N    ? P      ? 20180313 0007   53.3436 GAU  1.12e-02 -1.00e+00  7.98e+00  8.00e-03    7.9800 >    0.1164    0.0032    0.9010  694.3775 5155.6293   -0.4252    0.0383  41.68  -1.0  -1.0  0     0.0000    0.0001
38           ?    N    ? P      ? 20180313 0007   53.3270 GAU  1.44e-02 -1.00e+00  6.97e+00  1.20e-02    6.9700 >    0.1121   -0.0092    1.0302  694.3902 5155.5681   -0.4123    0.0502 130.61  -1.0  -1.0  0     0.0000    0.0001
32           ?    N    ? P      ? 20180313 0007   53.3270 GAU  1.44e-02 -1.00e+00  7.33e+00  8.00e-03    7.3300 >    0.1342   -0.0313    0.4711  694.3777 5155.6456   -0.4297    0.0516  29.74  -1.0  -1.0  0     0.0000    0.0001
39           ?    N    ? P      ? 20180313 0007   53.3445 GAU  1.30e-02 -1.00e+00  7.16e+00  8.00e-03    7.1600 >    0.1207   -0.0002    1.3911  694.3890 5155.5532   -0.4086    0.0602 142.17  -1.0  -1.0  0     0.0000    0.0001
34           ?    N    ? P      ? 20180313 0007   53.3781 GAU  1.70e-02 -1.00e+00  7.28e+00  1.20e-02    7.2800 >    0.1435    0.0105    0.7177  694.4145 5155.6153   -0.4263    0.0641  76.91  -1.0  -1.0  0     0.0000    0.0001
30           ?    N    ? P      ? 20180313 0007   53.3566 GAU  2.24e-02 -1.00e+00  7.15e+00  7.20e-02    7.1500 >    0.1536   -0.0211    0.8035  694.3775 5155.6619   -0.4333    0.0662  22.54  -1.0  -1.0  0     0.0000    0.0002
37           ?    N    ? P      ? 20180313 0007   53.3566 GAU  1.79e-02 -1.00e+00  7.12e+00  8.00e-03    7.1200 >    0.1473   -0.0148    0.8887  694.4219 5155.5876   -0.4220    0.0711 100.67  -1.0  -1.0  0     0.0000    0.0001
41           ?    N    ? P      ? 20180313 0007   53.3598 GAU  1.57e-02 -1.00e+00  5.88e+00  1.60e-02    5.8800 >    0.1346    0.0011    1.4787  694.3901 5155.5386   -0.4053    0.0728 148.53  -1.0  -1.0  0     0.0000    0.0001
31           ?    N    ? P      ? 20180313 0007   53.3947 GAU  1.84e-02 -1.00e+00  6.73e+00  1.20e-02    6.7300 >    0.1640    0.0066    0.8993  694.4086 5155.6503   -0.4335    0.0752  48.75  -1.0  -1.0  0     0.0000    0.0002
28           ?    N    ? P      ? 20180313 0007   53.3755 GAU  2.60e-02 -1.00e+00  6.78e+00  1.20e-02    6.7800 >    0.1700   -0.0186    0.9250  694.3767 5155.6745   -0.4362    0.0777  18.46  -1.0  -1.0  0     0.0000    0.0002
105          ?    N    ? P      ? 20180313 0007   53.4100 GAU  1.93e-02 -1.00e+00  7.16e+00  1.20e-02    7.1600 >    0.1818    0.0041    1.4234  694.3764 5155.6832   -0.4382    0.0860  16.43  -1.0  -1.0  0     0.0000    0.0002
40           ?    N    ? P      ? 20180313 0007   53.3768 GAU  2.20e-02 -1.00e+00  6.76e+00  2.00e-02    6.7600 >    0.1615   -0.0088    1.3923  694.4169 5155.5417   -0.4131    0.0877 132.34  -1.0  -1.0  0     0.0000    0.0002
106          ?    N    ? P      ? 20180313 0007   53.4230 GAU  6.28e-02 -1.00e+00  6.37e+00  1.20e-02    6.3700 >    0.1827    0.0162    0.8490  694.3120 5155.6801   -0.4360    0.0888 333.20  -1.0  -1.0  0     0.0000    0.0002
27           ?    N    ? P      ? 20180313 0007   53.4378 GAU  2.92e-02 -1.00e+00  6.35e+00  1.20e-02    6.3500 >    0.2054    0.0083    1.1322  694.4008 5155.6912   -0.4412    0.1028  28.29  -1.0  -1.0  0     0.0000    0.0002
END_PHASE
END_NLLOC

