NLLOC "./loc/RR.20180313.000302.grid0" "LOCATED" "Location completed."
PUBLIC_ID None
SIGNATURE "   obs:./obs/nll_picks.obs   NLLoc:v7.00.10(30Aug2020)   run:29Apr2022 23h16m14"
COMMENT "Rattlesnake Ridge Slidequake Locations"
GRID  150 250 75  694.15 5155.4 0  0.002 0.002 0.002 PROB_DENSITY
SEARCH OCTREE nInitial 1000 nEvaluated 11056 smallestNodeSide 0.001863/0.003112/0.000925 oct_tree_integral 1.043159e-04 scatter_volume 1.043159e-04
HYPOCENTER  x 694.354 y 5155.86 z 0.101288  OT 2.47361  ix -1 iy -1 iz -1 MAXIMUM_LIKELIHOOD
GEOGRAPHIC  OT 2018 03 13  00 03 2.473610  Lat 5155.862206 Long 694.353944 Depth 0.101288
QUALITY  Pmax 2.94337e+48 MFmin 70.7009 MFmax 70.7132 RMS 0.0127666 Nphs 14 Gap 270.084 Dist 0.0152207 Mamp  0.46 14 Mdur -9.90 0
VPVSRATIO  VpVsRatio -1  Npair 0  Diff -2e+30
STATISTICS  ExpectX 694.359526 Y 5155.851667 Z 0.108801  CovXX 0.000492303 XY 0.000148679 XZ 0.000459778 YY 0.00148456 YZ 0.000186707 ZZ 0.000757164 EllAz1  270.365 Dip1  36.8926 Len1  0.0227198 Az2  308.787 Dip2  -46.2262 Len2  0.0590704 Len3  7.513738e-02
STAT_GEOG  ExpectLat 5155.851667 Long 694.359526 Depth 0.108801
TRANSFORM  NONE
QML_OriginQuality  assocPhCt 14  usedPhCt 14  assocStaCt -1  usedStaCt 14  depthPhCt -1  stdErr 0.0127666  azGap 270.084  secAzGap 286.292  gtLevel -  minDist 0.0152207 maxDist 0.111362 medDist 0.0572184
QML_OriginUncertainty  horUnc -1  minHorUnc 0.0328962  maxHorUnc 0.0588611  azMaxHorUnc 8.34115
QML_ConfidenceEllipsoid  semiMajorAxisLength 0.0751374  semiMinorAxisLength 0.0227198  semiIntermediateAxisLength 0.0590704  majorAxisPlunge 20.111  majorAxisAzimuth 16.3183  majorAxisRotation 132.565
FOCALMECH  Hyp  5155.862206 694.353944 0.101288 Mech  0 0 0 mf  0 nObs -1
PHASE ID Ins Cmp On Pha  FM Date     HrMn   Sec     Err  ErrMag    Coda      Amp       Per       PriorWt  >   TTpred    Res       Weight    StaLoc(X  Y         Z)        SDist    SAzim  RAz  RDip RQual    Tcorr       TTerr
6            ?    N    ? P      ? 20180313 0003    2.6283 GAU  1.65e-02 -1.00e+00  6.25e+00  2.00e-02    6.2500 >    0.1519    0.0028    1.1611  694.3446 5155.8502   -0.4728    0.0152 217.72  -1.0  -1.0  0     0.0000    0.0002
8            ?    N    ? P      ? 20180313 0003    2.6106 GAU  1.00e-02 -1.00e+00  7.05e+00  1.20e-02    7.0500 >    0.1487   -0.0117    0.7391  694.3223 5155.8450   -0.4648    0.0360 241.46  -1.0  -1.0  0     0.0000    0.0001
10           ?    N    ? P      ? 20180313 0003    2.6289 GAU  1.65e-02 -1.00e+00  7.29e+00  8.00e-03    7.2900 >    0.1521    0.0032    0.8979  694.3329 5155.8329   -0.4673    0.0361 215.66  -1.0  -1.0  0     0.0000    0.0002
2            ?    N    ? P      ? 20180313 0003    2.6539 GAU  2.56e-02 -1.00e+00  7.15e+00  1.60e-02    7.1500 >    0.1466    0.0337    0.4137  694.3150 5155.8647   -0.4623    0.0390 273.63  -1.0  -1.0  0     0.0000    0.0001
4            ?    N    ? P      ? 20180313 0003    2.6236 GAU  1.24e-02 -1.00e+00  8.32e+00  1.20e-02    8.3200 >    0.1466    0.0034    0.7889  694.3090 5155.8520   -0.4586    0.0461 257.23  -1.0  -1.0  0     0.0000    0.0001
12           ?    N    ? P      ? 20180313 0003    2.6233 GAU  1.68e-02 -1.00e+00  7.18e+00  1.20e-02    7.1800 >    0.1573   -0.0076    1.0000  694.3356 5155.8197   -0.4663    0.0463 203.33  -1.0  -1.0  0     0.0000    0.0002
13           ?    N    ? P      ? 20180313 0003    2.6227 GAU  1.09e-02 -1.00e+00  9.50e+00  1.20e-02    9.5000 >    0.1496   -0.0005    0.7781  694.3062 5155.8390   -0.4568    0.0531 244.10  -1.0  -1.0  0     0.0000    0.0001
15           ?    N    ? P      ? 20180313 0003    2.6109 GAU  9.12e-03 -1.00e+00  8.95e+00  1.60e-02    8.9500 >    0.1624   -0.0251    0.6588  694.3206 5155.8107   -0.4609    0.0614 212.94  -1.0  -1.0  0     0.0000    0.0002
5            ?    N    ? P      ? 20180313 0003    2.6268 GAU  1.50e-02 -1.00e+00  9.05e+00  1.20e-02    9.0500 >    0.1494    0.0038    0.9147  694.2898 5155.8520   -0.4475    0.0650 260.93  -1.0  -1.0  0     0.0000    0.0001
16           ?    N    ? P      ? 20180313 0003    2.6548 GAU  1.65e-02 -1.00e+00  6.96e+00  2.80e-02    6.9600 >    0.1753    0.0059    1.7718  694.3452 5155.7921   -0.4642    0.0706 187.12  -1.0  -1.0  0     0.0000    0.0002
1            ?    N    ? P      ? 20180313 0003    2.7127 GAU  1.62e-02 -1.00e+00  8.07e+00  1.20e-02    8.0700 >    0.1573    0.0817    0.0217  694.2735 5155.8721   -0.4381    0.0810 277.04  -1.0  -1.0  0     0.0000    0.0002
7            ?    N    ? P      ? 20180313 0003    2.6227 GAU  1.15e-02 -1.00e+00  8.62e+00  8.00e-03    8.6200 >    0.1610   -0.0119    1.4007  694.2704 5155.8450   -0.4359    0.0853 258.36  -1.0  -1.0  0     0.0000    0.0002
9            ?    N    ? P      ? 20180313 0003    2.6606 GAU  1.00e-02 -1.00e+00  8.66e+00  8.00e-03    8.6600 >    0.1728    0.0142    1.5526  694.2594 5155.8351   -0.4296    0.0984 254.00  -1.0  -1.0  0     0.0000    0.0002
3            ?    N    ? P      ? 20180313 0003    2.6439 GAU  2.32e-02 -1.00e+00  7.35e+00  4.00e-02    7.3500 >    0.1856   -0.0153    1.9010  694.2426 5155.8595   -0.4214    0.1114 268.59  -1.0  -1.0  0     0.0000    0.0002
END_PHASE
END_NLLOC

