NLLOC "./loc/RR.20180313.000249.grid0" "REJECTED" "WARNING: max prob location on grid boundary 11, rejecting location."
PUBLIC_ID None
SIGNATURE "   obs:./obs/nll_picks.obs   NLLoc:v7.00.10(30Aug2020)   run:29Apr2022 23h18m38"
COMMENT "Rattlesnake Ridge Slidequake Locations"
GRID  150 250 75  694.15 5155.4 0  0.002 0.002 0.002 PROB_DENSITY
SEARCH OCTREE nInitial 1000 nEvaluated 4696 smallestNodeSide 0.001863/0.003112/0.000925 oct_tree_integral 2.367460e-05 scatter_volume 2.367460e-05
HYPOCENTER  x 694.447 y 5155.86 z 0.145687  OT 49.6001  ix -1 iy -1 iz -1 MAXIMUM_LIKELIHOOD
GEOGRAPHIC  OT 2018 03 13  00 02 49.600116  Lat 5155.862206 Long 694.447069 Depth 0.145687
QUALITY  Pmax 2.10876e+121 MFmin 220.897 MFmax 220.916 RMS 0.0129317 Nphs 27 Gap 281.875 Dist 0.103143 Mamp  0.76 27 Mdur -9.90 0
VPVSRATIO  VpVsRatio -1  Npair 0  Diff -2e+30
STATISTICS  ExpectX 694.411042 Y 5155.838421 Z 0.127946  CovXX 0.000601307 XY 0.000383434 XZ 0.00015904 YY 0.000285577 YZ 0.0001069 ZZ 0.000179098 EllAz1  146.229 Dip1  0.173864 Len1  0.0100795 Az2  236.891 Dip2  75.2779 Len2  0.0213188 Len3  5.662887e-02
STAT_GEOG  ExpectLat 5155.838421 Long 694.411042 Depth 0.127946
TRANSFORM  NONE
QML_OriginQuality  assocPhCt 27  usedPhCt 27  assocStaCt -1  usedStaCt 27  depthPhCt -1  stdErr 0.0129317  azGap 281.875  secAzGap 286.425  gtLevel -  minDist 0.103143 maxDist 0.226755 medDist 0.144092
QML_OriginUncertainty  horUnc -1  minHorUnc 0.00813622  maxHorUnc 0.0444256  azMaxHorUnc 56.1888
QML_ConfidenceEllipsoid  semiMajorAxisLength 0.0566289  semiMinorAxisLength 0.0100795  semiIntermediateAxisLength 0.0213188  majorAxisPlunge 14.721  majorAxisAzimuth 56.1833  majorAxisRotation 0.206423
FOCALMECH  Hyp  5155.862206 694.447069 0.145687 Mech  0 0 0 mf  0 nObs -1
PHASE ID Ins Cmp On Pha  FM Date     HrMn   Sec     Err  ErrMag    Coda      Amp       Per       PriorWt  >   TTpred    Res       Weight    StaLoc(X  Y         Z)        SDist    SAzim  RAz  RDip RQual    Tcorr       TTerr
6            ?    N    ? P      ? 20180313 0002   49.9059 GAU  7.82e-03 -1.00e+00  8.04e+00  8.00e-03    8.0400 >    0.2575    0.0483    0.2432  694.3446 5155.8502   -0.4728    0.1031 263.30  -1.0  -1.0  0     0.0000    0.0003
103          ?    N    ? P      ? 20180313 0002   49.8851 GAU  1.17e-02 -1.00e+00  8.37e+00  1.20e-02    8.3700 >    0.2539    0.0311    0.4839  694.3644 5155.7952   -0.4662    0.1065 230.98  -1.0  -1.0  0     0.0000    0.0003
10           ?    N    ? P      ? 20180313 0002   49.8607 GAU  1.02e-02 -1.00e+00  9.29e+00  8.00e-03    9.2900 >    0.2643   -0.0038    1.0595  694.3329 5155.8329   -0.4673    0.1179 255.60  -1.0  -1.0  0     0.0000    0.0003
12           ?    N    ? P      ? 20180313 0002   49.8646 GAU  8.73e-03 -1.00e+00  9.52e+00  8.00e-03    9.5200 >    0.2653   -0.0008    1.0789  694.3356 5155.8197   -0.4663    0.1193 249.14  -1.0  -1.0  0     0.0000    0.0003
16           ?    N    ? P      ? 20180313 0002   49.8755 GAU  1.59e-02 -1.00e+00  9.37e+00  1.20e-02    9.3700 >    0.2678    0.0076    0.8820  694.3452 5155.7921   -0.4642    0.1237 235.48  -1.0  -1.0  0     0.0000    0.0003
8            ?    N    ? P      ? 20180313 0002   49.8815 GAU  1.90e-02 -1.00e+00  8.72e+00  1.20e-02    8.7200 >    0.2700    0.0114    0.8939  694.3223 5155.8450   -0.4648    0.1259 262.15  -1.0  -1.0  0     0.0000    0.0003
17           ?    N    ? P      ? 20180313 0002   49.8670 GAU  9.33e-03 -1.00e+00  8.95e+00  1.20e-02    8.9500 >    0.2718   -0.0050    1.0120  694.3461 5155.7815   -0.4621    0.1292 231.34  -1.0  -1.0  0     0.0000    0.0003
2            ?    N    ? P      ? 20180313 0002   49.8580 GAU  1.11e-02 -1.00e+00  7.78e+00  1.20e-02    7.7800 >    0.2720   -0.0141    0.9040  694.3150 5155.8647   -0.4623    0.1321 271.07  -1.0  -1.0  0     0.0000    0.0003
18           ?    N    ? P      ? 20180313 0002   49.8710 GAU  8.64e-03 -1.00e+00  7.55e+00  1.20e-02    7.5500 >    0.2711   -0.0002    1.0975  694.3549 5155.7674   -0.4586    0.1322 224.20  -1.0  -1.0  0     0.0000    0.0003
15           ?    N    ? P      ? 20180313 0002   49.8397 GAU  6.62e-03 -1.00e+00  1.17e+01  1.60e-02   11.7000 >    0.2772   -0.0377    0.2231  694.3206 5155.8107   -0.4609    0.1366 247.84  -1.0  -1.0  0     0.0000    0.0003
4            ?    N    ? P      ? 20180313 0002   49.8767 GAU  1.71e-02 -1.00e+00  9.03e+00  1.20e-02    9.0300 >    0.2755    0.0010    1.0307  694.3090 5155.8520   -0.4586    0.1384 265.78  -1.0  -1.0  0     0.0000    0.0003
20           ?    N    ? P      ? 20180313 0002   49.9044 GAU  8.26e-03 -1.00e+00  7.67e+00  1.20e-02    7.6700 >    0.2768    0.0275    0.5364  694.3609 5155.7515   -0.4553    0.1403 217.90  -1.0  -1.0  0     0.0000    0.0003
13           ?    N    ? P      ? 20180313 0002   49.8809 GAU  2.20e-02 -1.00e+00  1.03e+01  1.20e-02   10.3000 >    0.2787    0.0021    0.9046  694.3062 5155.8390   -0.4568    0.1427 260.66  -1.0  -1.0  0     0.0000    0.0003
22           ?    N    ? P      ? 20180313 0002   49.9416 GAU  1.39e-02 -1.00e+00  7.39e+00  1.20e-02    7.3900 >    0.2754    0.0661    0.1283  694.3985 5155.7265   -0.4488    0.1441 199.70  -1.0  -1.0  0     0.0000    0.0003
21           ?    N    ? P      ? 20180313 0002   49.8898 GAU  9.39e-03 -1.00e+00  7.33e+00  8.00e-03    7.3300 >    0.2824    0.0073    1.2334  694.3642 5155.7391   -0.4517    0.1484 213.96  -1.0  -1.0  0     0.0000    0.0003
5            ?    N    ? P      ? 20180313 0002   49.8878 GAU  1.32e-02 -1.00e+00  1.05e+01  1.20e-02   10.5000 >    0.2859    0.0018    1.3005  694.2898 5155.8520   -0.4475    0.1576 266.27  -1.0  -1.0  0     0.0000    0.0003
23           ?    N    ? P      ? 20180313 0002   49.9006 GAU  2.18e-02 -1.00e+00  7.13e+00  6.40e-02    7.1300 >    0.2928    0.0077    1.0283  694.3677 5155.7226   -0.4473    0.1606 209.61  -1.0  -1.0  0     0.0000    0.0003
25           ?    N    ? P      ? 20180313 0002   49.9094 GAU  4.18e-02 -1.00e+00  7.23e+00  1.20e-02    7.2300 >    0.3040    0.0053    0.7575  694.3684 5155.7091   -0.4438    0.1721 207.19  -1.0  -1.0  0     0.0000    0.0003
1            ?    N    ? P      ? 20180313 0002   49.9119 GAU  2.53e-02 -1.00e+00  8.62e+00  2.40e-02    8.6200 >    0.2966    0.0151    1.0858  694.2735 5155.8721   -0.4381    0.1738 273.27  -1.0  -1.0  0     0.0000    0.0003
27           ?    N    ? P      ? 20180313 0002   49.9132 GAU  1.67e-02 -1.00e+00  5.83e+00  8.00e-03    5.8300 >    0.3089    0.0042    1.4845  694.4008 5155.6912   -0.4412    0.1771 195.15  -1.0  -1.0  0     0.0000    0.0003
7            ?    N    ? P      ? 20180313 0002   49.8998 GAU  8.43e-03 -1.00e+00  9.76e+00  1.20e-02    9.7600 >    0.3011   -0.0014    1.5477  694.2704 5155.8450   -0.4359    0.1775 264.44  -1.0  -1.0  0     0.0000    0.0003
26           ?    N    ? P      ? 20180313 0002   49.9147 GAU  1.82e-02 -1.00e+00  7.32e+00  1.20e-02    7.3200 >    0.3172   -0.0026    1.4662  694.3783 5155.6910   -0.4400    0.1845 201.88  -1.0  -1.0  0     0.0000    0.0003
9            ?    N    ? P      ? 20180313 0002   49.9191 GAU  1.81e-02 -1.00e+00  1.01e+01  1.20e-02   10.1000 >    0.3117    0.0073    1.3504  694.2594 5155.8351   -0.4296    0.1897 261.78  -1.0  -1.0  0     0.0000    0.0003
105          ?    N    ? P      ? 20180313 0002   49.9208 GAU  1.82e-02 -1.00e+00  7.74e+00  5.20e-02    7.7400 >    0.3259   -0.0052    1.5409  694.3764 5155.6832   -0.4382    0.1924 201.55  -1.0  -1.0  0     0.0000    0.0003
28           ?    N    ? P      ? 20180313 0002   49.9233 GAU  2.38e-02 -1.00e+00  6.82e+00  1.20e-02    6.8200 >    0.3353   -0.0122    1.2319  694.3767 5155.6745   -0.4362    0.2005 200.55  -1.0  -1.0  0     0.0000    0.0003
3            ?    N    ? P      ? 20180313 0002   49.9362 GAU  1.23e-02 -1.00e+00  7.49e+00  2.40e-02    7.4900 >    0.3253    0.0108    1.5616  694.2426 5155.8595   -0.4214    0.2045 269.23  -1.0  -1.0  0     0.0000    0.0003
106          ?    N    ? P      ? 20180313 0002   49.9688 GAU  4.29e-02 -1.00e+00  6.87e+00  1.20e-02    6.8700 >    0.3696   -0.0009    0.9331  694.3120 5155.6801   -0.4360    0.2268 216.55  -1.0  -1.0  0     0.0000    0.0004
END_PHASE
END_NLLOC

