NLLOC "./loc/RR.20180313.032255.grid0" "REJECTED" "WARNING: max prob location on grid boundary 11, rejecting location."
PUBLIC_ID None
SIGNATURE "   obs:./obs/nll_picks.obs   NLLoc:v7.00.10(30Aug2020)   run:29Apr2022 23h21m28"
COMMENT "Rattlesnake Ridge Slidequake Locations"
GRID  150 250 75  694.15 5155.4 0  0.002 0.002 0.002 PROB_DENSITY
SEARCH OCTREE nInitial 1000 nEvaluated 2688 smallestNodeSide 0.001863/0.003112/0.000925 oct_tree_integral 7.625978e-06 scatter_volume 7.625978e-06
HYPOCENTER  x 694.446 y 5155.83 z 0.061975  OT 55.0826  ix -1 iy -1 iz -1 MAXIMUM_LIKELIHOOD
GEOGRAPHIC  OT 2018 03 13  03 22 55.082592  Lat 5155.832637 Long 694.446137 Depth 0.061975
QUALITY  Pmax 3.64813e+109 MFmin 218.061 MFmax 218.086 RMS 0.0153442 Nphs 25 Gap 274.055 Dist 0.0899437 Mamp  0.54 25 Mdur -9.90 0
VPVSRATIO  VpVsRatio -1  Npair 0  Diff -2e+30
STATISTICS  ExpectX 694.429800 Y 5155.826832 Z 0.065144  CovXX 0.000246461 XY 0.000102946 XZ -5.70298e-05 YY 7.85888e-05 YZ 2.08895e-06 ZZ 0.000220599 EllAz1  333.064 Dip1  -8.09808 Len1  0.00957035 Az2  227.917 Dip2  -61.4298 Len2  0.0264584 Len3  3.368243e-02
STAT_GEOG  ExpectLat 5155.826832 Long 694.429800 Depth 0.065144
TRANSFORM  NONE
QML_OriginQuality  assocPhCt 25  usedPhCt 25  assocStaCt -1  usedStaCt 25  depthPhCt -1  stdErr 0.0153442  azGap 274.055  secAzGap 278.182  gtLevel -  minDist 0.0899437 maxDist 0.205281 medDist 0.135175
QML_OriginUncertainty  horUnc -1  minHorUnc 0.00826465  maxHorUnc 0.0260636  azMaxHorUnc 64.5959
QML_ConfidenceEllipsoid  semiMajorAxisLength 0.0336824  semiMinorAxisLength 0.00957035  semiIntermediateAxisLength 0.0264584  majorAxisPlunge -27.1949  majorAxisAzimuth 67.2566  majorAxisRotation 195.401
FOCALMECH  Hyp  5155.832637 694.446137 0.061975 Mech  0 0 0 mf  0 nObs -1
PHASE ID Ins Cmp On Pha  FM Date     HrMn   Sec     Err  ErrMag    Coda      Amp       Per       PriorWt  >   TTpred    Res       Weight    StaLoc(X  Y         Z)        SDist    SAzim  RAz  RDip RQual    Tcorr       TTerr
103          ?    N    ? P      ? 20180313 0322   55.2987 GAU  7.69e-03 -1.00e+00  7.08e+00  1.20e-02    7.0800 >    0.1671    0.0490    0.0710  694.3644 5155.7952   -0.4662    0.0899 245.39  -1.0  -1.0  0     0.0000    0.0002
16           ?    N    ? P      ? 20180313 0322   55.2710 GAU  5.94e-03 -1.00e+00  8.20e+00  1.20e-02    8.2000 >    0.1917   -0.0033    1.0958  694.3452 5155.7921   -0.4642    0.1088 248.13  -1.0  -1.0  0     0.0000    0.0002
12           ?    N    ? P      ? 20180313 0322   55.2793 GAU  2.85e-03 -1.00e+00  8.70e+00  1.20e-02    8.7000 >    0.1964    0.0003    1.4470  694.3356 5155.8197   -0.4663    0.1113 263.34  -1.0  -1.0  0     0.0000    0.0002
18           ?    N    ? P      ? 20180313 0322   55.2771 GAU  4.62e-03 -1.00e+00  7.50e+00  2.40e-02    7.5000 >    0.1929    0.0016    1.0700  694.3549 5155.7674   -0.4586    0.1122 234.44  -1.0  -1.0  0     0.0000    0.0002
17           ?    N    ? P      ? 20180313 0322   55.2745 GAU  1.25e-02 -1.00e+00  8.11e+00  1.20e-02    8.1100 >    0.1954   -0.0035    0.8988  694.3461 5155.7815   -0.4621    0.1123 242.90  -1.0  -1.0  0     0.0000    0.0002
10           ?    N    ? P      ? 20180313 0322   55.2770 GAU  8.19e-03 -1.00e+00  7.60e+00  6.80e-02    7.6000 >    0.1994   -0.0049    1.2602  694.3329 5155.8329   -0.4673    0.1132 270.12  -1.0  -1.0  0     0.0000    0.0002
22           ?    N    ? P      ? 20180313 0322   55.3442 GAU  1.14e-02 -1.00e+00  7.10e+00  2.80e-02    7.1000 >    0.1938    0.0678    0.0370  694.3985 5155.7265   -0.4488    0.1163 204.18  -1.0  -1.0  0     0.0000    0.0002
20           ?    N    ? P      ? 20180313 0322   55.2837 GAU  7.26e-03 -1.00e+00  7.41e+00  2.40e-02    7.4100 >    0.1991    0.0020    1.0650  694.3609 5155.7515   -0.4553    0.1177 226.42  -1.0  -1.0  0     0.0000    0.0002
21           ?    N    ? P      ? 20180313 0322   55.2714 GAU  2.18e-02 -1.00e+00  7.68e+00  8.00e-03    7.6800 >    0.2073   -0.0185    0.8125  694.3642 5155.7391   -0.4517    0.1244 221.24  -1.0  -1.0  0     0.0000    0.0002
8            ?    N    ? P      ? 20180313 0322   55.2680 GAU  6.71e-03 -1.00e+00  6.84e+00  5.20e-02    6.8400 >    0.2136   -0.0282    0.5196  694.3223 5155.8450   -0.4648    0.1244 275.70  -1.0  -1.0  0     0.0000    0.0002
15           ?    N    ? P      ? 20180313 0322   55.2620 GAU  3.51e-03 -1.00e+00  9.12e+00  1.20e-02    9.1200 >    0.2157   -0.0363    0.5654  694.3206 5155.8107   -0.4609    0.1275 260.09  -1.0  -1.0  0     0.0000    0.0002
2            ?    N    ? P      ? 20180313 0322   55.2834 GAU  1.11e-02 -1.00e+00  6.99e+00  1.20e-02    6.9900 >    0.2264   -0.0256    0.7474  694.3150 5155.8647   -0.4623    0.1350 283.73  -1.0  -1.0  0     0.0000    0.0002
23           ?    N    ? P      ? 20180313 0322   55.3004 GAU  6.81e-03 -1.00e+00  7.10e+00  1.20e-02    7.1000 >    0.2214   -0.0036    1.3766  694.3677 5155.7226   -0.4473    0.1352 215.47  -1.0  -1.0  0     0.0000    0.0002
4            ?    N    ? P      ? 20180313 0322   55.3202 GAU  1.41e-02 -1.00e+00  6.83e+00  7.20e-02    6.8300 >    0.2297    0.0079    1.0518  694.3090 5155.8520   -0.4586    0.1385 278.05  -1.0  -1.0  0     0.0000    0.0002
13           ?    N    ? P      ? 20180313 0322   55.2844 GAU  2.16e-02 -1.00e+00  7.60e+00  1.20e-02    7.6000 >    0.2313   -0.0295    0.6373  694.3062 5155.8390   -0.4568    0.1401 272.62  -1.0  -1.0  0     0.0000    0.0002
25           ?    N    ? P      ? 20180313 0322   55.3090 GAU  3.43e-02 -1.00e+00  6.73e+00  1.20e-02    6.7300 >    0.2366   -0.0102    0.7623  694.3684 5155.7091   -0.4438    0.1459 212.17  -1.0  -1.0  0     0.0000    0.0002
27           ?    N    ? P      ? 20180313 0322   55.3224 GAU  9.89e-03 -1.00e+00  6.16e+00  1.20e-02    6.1600 >    0.2402   -0.0004    1.6749  694.4008 5155.6912   -0.4412    0.1485 197.78  -1.0  -1.0  0     0.0000    0.0002
26           ?    N    ? P      ? 20180313 0322   55.2971 GAU  5.28e-03 -1.00e+00  6.10e+00  1.20e-02    6.1000 >    0.2529   -0.0384    0.8306  694.3783 5155.6910   -0.4400    0.1571 205.59  -1.0  -1.0  0     0.0000    0.0003
5            ?    N    ? P      ? 20180313 0322   55.3380 GAU  1.41e-02 -1.00e+00  8.20e+00  1.20e-02    8.2000 >    0.2525    0.0029    1.3690  694.2898 5155.8520   -0.4475    0.1576 277.05  -1.0  -1.0  0     0.0000    0.0003
105          ?    N    ? P      ? 20180313 0322   55.3442 GAU  2.07e-02 -1.00e+00  6.78e+00  1.20e-02    6.7800 >    0.2645   -0.0029    1.2578  694.3764 5155.6832   -0.4382    0.1649 205.02  -1.0  -1.0  0     0.0000    0.0003
28           ?    N    ? P      ? 20180313 0322   55.3492 GAU  1.08e-02 -1.00e+00  6.70e+00  2.80e-02    6.7000 >    0.2764   -0.0098    1.6543  694.3767 5155.6745   -0.4362    0.1728 203.71  -1.0  -1.0  0     0.0000    0.0003
1            ?    N    ? P      ? 20180313 0322   55.3545 GAU  1.85e-02 -1.00e+00  6.91e+00  4.40e-02    6.9100 >    0.2779   -0.0060    1.3959  694.2735 5155.8721   -0.4381    0.1771 282.89  -1.0  -1.0  0     0.0000    0.0003
30           ?    N    ? P      ? 20180313 0322   55.3925 GAU  1.32e-02 -1.00e+00  6.47e+00  8.00e-03    6.4700 >    0.2934    0.0165    1.0100  694.3775 5155.6619   -0.4333    0.1840 201.91  -1.0  -1.0  0     0.0000    0.0003
9            ?    N    ? P      ? 20180313 0322   55.3336 GAU  5.29e-02 -1.00e+00  7.21e+00  7.60e-02    7.2100 >    0.2915   -0.0405    0.5538  694.2594 5155.8351   -0.4296    0.1868 270.75  -1.0  -1.0  0     0.0000    0.0003
3            ?    N    ? P      ? 20180313 0322   55.4006 GAU  1.56e-02 -1.00e+00  7.47e+00  8.00e-03    7.4700 >    0.3184   -0.0004    1.8360  694.2426 5155.8595   -0.4214    0.2053 277.51  -1.0  -1.0  0     0.0000    0.0003
END_PHASE
END_NLLOC

