NLLOC "./loc/RR.20180313.001231.grid0" "LOCATED" "Location completed."
PUBLIC_ID None
SIGNATURE "   obs:./obs/nll_picks.obs   NLLoc:v7.00.10(30Aug2020)   run:29Apr2022 23h18m34"
COMMENT "Rattlesnake Ridge Slidequake Locations"
GRID  150 250 75  694.15 5155.4 0  0.002 0.002 0.002 PROB_DENSITY
SEARCH OCTREE nInitial 1000 nEvaluated 13016 smallestNodeSide 0.001863/0.003112/0.000925 oct_tree_integral 8.608348e-05 scatter_volume 8.608348e-05
HYPOCENTER  x 694.352 y 5155.64 z 0.116088  OT 31.4793  ix -1 iy -1 iz -1 MAXIMUM_LIKELIHOOD
GEOGRAPHIC  OT 2018 03 13  00 12 31.479276  Lat 5155.638106 Long 694.352081 Depth 0.116088
QUALITY  Pmax 3.62045e+52 MFmin 81.467 MFmax 81.485 RMS 0.00916315 Nphs 14 Gap 159.824 Dist 0.0266729 Mamp  0.49 14 Mdur -9.90 0
VPVSRATIO  VpVsRatio -1  Npair 0  Diff -2e+30
STATISTICS  ExpectX 694.333960 Y 5155.634317 Z 0.108727  CovXX 0.00283739 XY 0.000466001 XZ 0.000440549 YY 0.00016426 YZ 0.000154887 ZZ 0.000853723 EllAz1  171.435 Dip1  6.4264 Len1  0.016426 Az2  288.978 Dip2  76.3105 Len2  0.0519495 Len3  1.031548e-01
STAT_GEOG  ExpectLat 5155.634317 Long 694.333960 Depth 0.108727
TRANSFORM  NONE
QML_OriginQuality  assocPhCt 14  usedPhCt 14  assocStaCt -1  usedStaCt 14  depthPhCt -1  stdErr 0.00916315  azGap 159.824  secAzGap 213.981  gtLevel -  minDist 0.0266729 maxDist 0.0926198 medDist 0.0584428
QML_OriginUncertainty  horUnc -1  minHorUnc 0.0140111  maxHorUnc 0.0818993  azMaxHorUnc 80.3893
QML_ConfidenceEllipsoid  semiMajorAxisLength 0.103155  semiMinorAxisLength 0.016426  semiIntermediateAxisLength 0.0519495  majorAxisPlunge 12.0356  majorAxisAzimuth 80.0592  majorAxisRotation 7.19108
FOCALMECH  Hyp  5155.638106 694.352081 0.116088 Mech  0 0 0 mf  0 nObs -1
PHASE ID Ins Cmp On Pha  FM Date     HrMn   Sec     Err  ErrMag    Coda      Amp       Per       PriorWt  >   TTpred    Res       Weight    StaLoc(X  Y         Z)        SDist    SAzim  RAz  RDip RQual    Tcorr       TTerr
32           ?    N    ? P      ? 20180313 0012   31.6653 GAU  1.53e-02 -1.00e+00  8.46e+00  1.20e-02    8.4600 >    0.1869   -0.0009    0.6921  694.3777 5155.6456   -0.4297    0.0267  73.75  -1.0  -1.0  0     0.0000    0.0002
33           ?    N    ? P      ? 20180313 0012   31.6549 GAU  1.68e-02 -1.00e+00  7.27e+00  1.60e-02    7.2700 >    0.1805   -0.0048    0.7033  694.3775 5155.6293   -0.4252    0.0269 109.04  -1.0  -1.0  0     0.0000    0.0002
30           ?    N    ? P      ? 20180313 0012   31.6776 GAU  1.68e-02 -1.00e+00  8.17e+00  4.40e-02    8.1700 >    0.1947    0.0036    0.6474  694.3775 5155.6619   -0.4333    0.0348  46.84  -1.0  -1.0  0     0.0000    0.0002
35           ?    N    ? P      ? 20180313 0012   31.6618 GAU  2.17e-02 -1.00e+00  8.07e+00  1.20e-02    8.0700 >    0.1792    0.0033    0.8333  694.3818 5155.6141   -0.4216    0.0382 128.94  -1.0  -1.0  0     0.0000    0.0002
28           ?    N    ? P      ? 20180313 0012   31.6934 GAU  1.68e-02 -1.00e+00  8.26e+00  1.20e-02    8.2600 >    0.2032    0.0109    0.6634  694.3767 5155.6745   -0.4362    0.0439  34.09  -1.0  -1.0  0     0.0000    0.0002
105          ?    N    ? P      ? 20180313 0012   31.6875 GAU  1.48e-02 -1.00e+00  8.33e+00  1.20e-02    8.3300 >    0.2096   -0.0014    0.8426  694.3764 5155.6832   -0.4382    0.0513  28.32  -1.0  -1.0  0     0.0000    0.0002
106          ?    N    ? P      ? 20180313 0012   31.6924 GAU  1.97e-02 -1.00e+00  6.76e+00  8.00e-03    6.7600 >    0.2104    0.0027    1.3054  694.3120 5155.6801   -0.4360    0.0580 316.32  -1.0  -1.0  0     0.0000    0.0002
36           ?    N    ? P      ? 20180313 0012   31.6618 GAU  1.38e-02 -1.00e+00  7.50e+00  3.20e-02    7.5000 >    0.1854   -0.0028    1.3898  694.3865 5155.5904   -0.4164    0.0589 144.20  -1.0  -1.0  0     0.0000    0.0002
26           ?    N    ? P      ? 20180313 0012   31.6923 GAU  1.86e-02 -1.00e+00  7.45e+00  1.20e-02    7.4500 >    0.2169   -0.0039    0.8026  694.3783 5155.6910   -0.4400    0.0590  26.38  -1.0  -1.0  0     0.0000    0.0002
27           ?    N    ? P      ? 20180313 0012   31.7095 GAU  1.32e-02 -1.00e+00  6.95e+00  1.20e-02    6.9500 >    0.2272    0.0030    1.0240  694.4008 5155.6912   -0.4412    0.0721  42.51  -1.0  -1.0  0     0.0000    0.0002
25           ?    N    ? P      ? 20180313 0012   31.7291 GAU  1.82e-02 -1.00e+00  7.21e+00  1.20e-02    7.2100 >    0.2318    0.0180    0.8636  694.3684 5155.7091   -0.4438    0.0729  12.97  -1.0  -1.0  0     0.0000    0.0002
38           ?    N    ? P      ? 20180313 0012   31.6687 GAU  1.77e-02 -1.00e+00  6.78e+00  3.20e-02    6.7800 >    0.1978   -0.0084    1.5469  694.3902 5155.5681   -0.4123    0.0797 151.45  -1.0  -1.0  0     0.0000    0.0002
23           ?    N    ? P      ? 20180313 0012   31.7080 GAU  1.86e-02 -1.00e+00  8.12e+00  8.00e-03    8.1200 >    0.2463   -0.0176    1.0979  694.3677 5155.7226   -0.4473    0.0859  10.47  -1.0  -1.0  0     0.0000    0.0002
39           ?    N    ? P      ? 20180313 0012   31.7022 GAU  2.17e-02 -1.00e+00  7.13e+00  8.00e-03    7.1300 >    0.2067    0.0162    1.5877  694.3890 5155.5532   -0.4086    0.0926 156.49  -1.0  -1.0  0     0.0000    0.0002
END_PHASE
END_NLLOC

