NLLOC "./loc/RR.20180313.000950.grid0" "LOCATED" "Location completed."
PUBLIC_ID None
SIGNATURE "   obs:./obs/nll_picks.obs   NLLoc:v7.00.10(30Aug2020)   run:29Apr2022 23h18m02"
COMMENT "Rattlesnake Ridge Slidequake Locations"
GRID  150 250 75  694.15 5155.4 0  0.002 0.002 0.002 PROB_DENSITY
SEARCH OCTREE nInitial 1000 nEvaluated 14352 smallestNodeSide 0.001863/0.003112/0.000925 oct_tree_integral 7.784090e-05 scatter_volume 7.784090e-05
HYPOCENTER  x 694.348 y 5155.61 z 0.0689125  OT 50.4924  ix -1 iy -1 iz -1 MAXIMUM_LIKELIHOOD
GEOGRAPHIC  OT 2018 03 13  00 09 50.492416  Lat 5155.613206 Long 694.348356 Depth 0.068912
QUALITY  Pmax 9.21042e+59 MFmin 94.6129 MFmax 94.6227 RMS 0.0140339 Nphs 16 Gap 223.756 Dist 0.0333218 Mamp  0.31 16 Mdur -9.90 0
VPVSRATIO  VpVsRatio -1  Npair 0  Diff -2e+30
STATISTICS  ExpectX 694.326078 Y 5155.615060 Z 0.072805  CovXX 0.00234585 XY 3.81383e-05 XZ 0.00033209 YY 0.000154107 YZ 0.000325388 ZZ 0.00118187 EllAz1  181.519 Dip1  16.5594 Len1  0.0143498 Az2  315.923 Dip2  66.9771 Len2  0.0646229 Len3  9.281597e-02
STAT_GEOG  ExpectLat 5155.615060 Long 694.326078 Depth 0.072805
TRANSFORM  NONE
QML_OriginQuality  assocPhCt 16  usedPhCt 16  assocStaCt -1  usedStaCt 16  depthPhCt -1  stdErr 0.0140339  azGap 223.756  secAzGap 231.068  gtLevel -  minDist 0.0333218 maxDist 0.104225 medDist 0.0691396
QML_OriginUncertainty  horUnc -1  minHorUnc 0.0187862  maxHorUnc 0.0734641  azMaxHorUnc 89.0034
QML_ConfidenceEllipsoid  semiMajorAxisLength 0.092816  semiMinorAxisLength 0.0143498  semiIntermediateAxisLength 0.0646229  majorAxisPlunge 15.5347  majorAxisAzimuth 86.7774  majorAxisRotation 19.877
FOCALMECH  Hyp  5155.613206 694.348356 0.068912 Mech  0 0 0 mf  0 nObs -1
PHASE ID Ins Cmp On Pha  FM Date     HrMn   Sec     Err  ErrMag    Coda      Amp       Per       PriorWt  >   TTpred    Res       Weight    StaLoc(X  Y         Z)        SDist    SAzim  RAz  RDip RQual    Tcorr       TTerr
33           ?    N    ? P      ? 20180313 0009   50.6250 GAU  9.17e-03 -1.00e+00  7.30e+00  8.00e-03    7.3000 >    0.1295    0.0031    1.0136  694.3775 5155.6293   -0.4252    0.0333  61.07  -1.0  -1.0  0     0.0000    0.0001
35           ?    N    ? P      ? 20180313 0009   50.6132 GAU  1.22e-02 -1.00e+00  7.73e+00  1.20e-02    7.7300 >    0.1237   -0.0029    0.8432  694.3818 5155.6141   -0.4216    0.0334  88.44  -1.0  -1.0  0     0.0000    0.0001
32           ?    N    ? P      ? 20180313 0009   50.6307 GAU  1.05e-02 -1.00e+00  7.18e+00  8.00e-03    7.1800 >    0.1427   -0.0044    1.1198  694.3777 5155.6456   -0.4297    0.0437  42.18  -1.0  -1.0  0     0.0000    0.0001
36           ?    N    ? P      ? 20180313 0009   50.6123 GAU  1.22e-02 -1.00e+00  7.67e+00  1.20e-02    7.6700 >    0.1255   -0.0056    0.8606  694.3865 5155.5904   -0.4164    0.0445 120.91  -1.0  -1.0  0     0.0000    0.0001
30           ?    N    ? P      ? 20180313 0009   50.7216 GAU  1.75e-02 -1.00e+00  7.49e+00  1.20e-02    7.4900 >    0.1582    0.0710    0.1682  694.3775 5155.6619   -0.4333    0.0567  30.87  -1.0  -1.0  0     0.0000    0.0002
38           ?    N    ? P      ? 20180313 0009   50.6246 GAU  1.40e-02 -1.00e+00  6.85e+00  1.20e-02    6.8500 >    0.1378   -0.0057    1.0027  694.3902 5155.5681   -0.4123    0.0615 137.17  -1.0  -1.0  0     0.0000    0.0001
34           ?    N    ? P      ? 20180313 0009   50.6888 GAU  1.27e-02 -1.00e+00  6.68e+00  8.00e-03    6.6800 >    0.1589    0.0374    0.3506  694.4145 5155.6153   -0.4263    0.0662  88.21  -1.0  -1.0  0     0.0000    0.0002
28           ?    N    ? P      ? 20180313 0009   50.6835 GAU  1.44e-02 -1.00e+00  6.71e+00  2.80e-02    6.7100 >    0.1720    0.0191    1.1862  694.3767 5155.6745   -0.4362    0.0675  24.82  -1.0  -1.0  0     0.0000    0.0002
31           ?    N    ? P      ? 20180313 0009   50.6635 GAU  1.88e-02 -1.00e+00  5.96e+00  1.20e-02    5.9600 >    0.1718   -0.0007    0.9556  694.4086 5155.6503   -0.4335    0.0708  58.36  -1.0  -1.0  0     0.0000    0.0002
39           ?    N    ? P      ? 20180313 0009   50.6630 GAU  2.97e-02 -1.00e+00  8.28e+00  8.00e-03    8.2800 >    0.1469    0.0236    0.8795  694.3890 5155.5532   -0.4086    0.0725 145.89  -1.0  -1.0  0     0.0000    0.0001
105          ?    N    ? P      ? 20180313 0009   50.6779 GAU  1.75e-02 -1.00e+00  6.98e+00  1.20e-02    6.9800 >    0.1823    0.0032    1.5935  694.3764 5155.6832   -0.4382    0.0754  21.82  -1.0  -1.0  0     0.0000    0.0002
37           ?    N    ? P      ? 20180313 0009   50.6770 GAU  1.66e-02 -1.00e+00  7.01e+00  8.00e-03    7.0100 >    0.1672    0.0174    0.8349  694.4219 5155.5876   -0.4220    0.0779 109.19  -1.0  -1.0  0     0.0000    0.0002
41           ?    N    ? P      ? 20180313 0009   50.6818 GAU  2.40e-02 -1.00e+00  7.65e+00  1.20e-02    7.6500 >    0.1608    0.0286    1.0028  694.3901 5155.5386   -0.4053    0.0855 150.76  -1.0  -1.0  0     0.0000    0.0002
27           ?    N    ? P      ? 20180313 0009   50.6770 GAU  2.01e-02 -1.00e+00  5.00e+00  1.20e-02    5.0000 >    0.2056   -0.0210    0.9641  694.4008 5155.6912   -0.4412    0.0940  33.89  -1.0  -1.0  0     0.0000    0.0002
40           ?    N    ? P      ? 20180313 0009   50.6447 GAU  3.58e-02 -1.00e+00  6.79e+00  4.40e-02    6.7900 >    0.1854   -0.0332    0.6646  694.4169 5155.5417   -0.4131    0.0990 136.21  -1.0  -1.0  0     0.0000    0.0002
42           ?    N    ? P      ? 20180313 0009   50.6739 GAU  9.18e-03 -1.00e+00  7.74e+00  2.80e-02    7.7400 >    0.1815    0.0000    2.5601  694.3873 5155.5165   -0.3983    0.1042 158.07  -1.0  -1.0  0     0.0000    0.0002
END_PHASE
END_NLLOC

