NLLOC "./loc/RR.20180313.015255.grid0" "REJECTED" "WARNING: max prob location on grid boundary 11, rejecting location."
PUBLIC_ID None
SIGNATURE "   obs:./obs/nll_picks.obs   NLLoc:v7.00.10(30Aug2020)   run:29Apr2022 23h20m37"
COMMENT "Rattlesnake Ridge Slidequake Locations"
GRID  150 250 75  694.15 5155.4 0  0.002 0.002 0.002 PROB_DENSITY
SEARCH OCTREE nInitial 1000 nEvaluated 1408 smallestNodeSide 0.001863/0.003112/0.000925 oct_tree_integral 6.452169e-07 scatter_volume 6.447893e-07
HYPOCENTER  x 694.447 y 5155.85 z 0.111462  OT 55.6921  ix -1 iy -1 iz -1 MAXIMUM_LIKELIHOOD
GEOGRAPHIC  OT 2018 03 13  01 52 55.692146  Lat 5155.849756 Long 694.447069 Depth 0.111462
QUALITY  Pmax 1.65471e+191 MFmin 622.602 MFmax 622.824 RMS 0.010799 Nphs 39 Gap 268.131 Dist 0.0990872 Mamp  0.78 39 Mdur -9.90 0
VPVSRATIO  VpVsRatio -1  Npair 0  Diff -2e+30
STATISTICS  ExpectX 694.439559 Y 5155.845099 Z 0.110378  CovXX 9.07243e-05 XY 5.82545e-05 XZ 3.97689e-06 YY 5.10027e-05 YZ 4.02284e-06 ZZ 2.73201e-05 EllAz1  144.552 Dip1  3.07763 Len1  0.00571887 Az2  99.9315 Dip2  -85.6801 Len2  0.00977652 Len3  2.164371e-02
STAT_GEOG  ExpectLat 5155.845099 Long 694.439559 Depth 0.110378
TRANSFORM  NONE
QML_OriginQuality  assocPhCt 39  usedPhCt 39  assocStaCt -1  usedStaCt 39  depthPhCt -1  stdErr 0.010799  azGap 268.131  secAzGap 269.033  gtLevel -  minDist 0.0990872 maxDist 0.338553 medDist 0.173036
QML_OriginUncertainty  horUnc -1  minHorUnc 0.00462903  maxHorUnc 0.0174512  azMaxHorUnc 54.4129
QML_ConfidenceEllipsoid  semiMajorAxisLength 0.0216437  semiMinorAxisLength 0.00571887  semiIntermediateAxisLength 0.00977652  majorAxisPlunge 3.0285  majorAxisAzimuth 54.3894  majorAxisRotation 3.09921
FOCALMECH  Hyp  5155.849756 694.447069 0.111462 Mech  0 0 0 mf  0 nObs -1
PHASE ID Ins Cmp On Pha  FM Date     HrMn   Sec     Err  ErrMag    Coda      Amp       Per       PriorWt  >   TTpred    Res       Weight    StaLoc(X  Y         Z)        SDist    SAzim  RAz  RDip RQual    Tcorr       TTerr
103          ?    N    ? P      ? 20180313 0152   55.9438 GAU  5.66e-03 -1.00e+00  8.72e+00  1.20e-02    8.7200 >    0.2185    0.0331    0.1997  694.3644 5155.7952   -0.4662    0.0991 236.58  -1.0  -1.0  0     0.0000    0.0002
6            ?    N    ? P      ? 20180313 0152   55.9537 GAU  2.65e-03 -1.00e+00  9.75e+00  1.20e-02    9.7500 >    0.2276    0.0340    0.3202  694.3446 5155.8502   -0.4728    0.1024 270.23  -1.0  -1.0  0     0.0000    0.0002
10           ?    N    ? P      ? 20180313 0152   55.9234 GAU  4.15e-03 -1.00e+00  9.91e+00  2.80e-02    9.9100 >    0.2364   -0.0052    1.5166  694.3329 5155.8329   -0.4673    0.1154 261.59  -1.0  -1.0  0     0.0000    0.0002
12           ?    N    ? P      ? 20180313 0152   55.9208 GAU  4.53e-03 -1.00e+00  1.03e+01  8.00e-03   10.3000 >    0.2353   -0.0066    1.3548  694.3356 5155.8197   -0.4663    0.1154 254.92  -1.0  -1.0  0     0.0000    0.0002
16           ?    N    ? P      ? 20180313 0152   55.9249 GAU  4.15e-03 -1.00e+00  1.05e+01  5.60e-02   10.5000 >    0.2359   -0.0031    1.4209  694.3452 5155.7921   -0.4642    0.1170 240.50  -1.0  -1.0  0     0.0000    0.0002
17           ?    N    ? P      ? 20180313 0152   55.9219 GAU  4.91e-03 -1.00e+00  1.03e+01  8.00e-03   10.3000 >    0.2396   -0.0098    1.1937  694.3461 5155.7815   -0.4621    0.1218 235.92  -1.0  -1.0  0     0.0000    0.0002
18           ?    N    ? P      ? 20180313 0152   55.9268 GAU  5.28e-03 -1.00e+00  9.46e+00  1.20e-02    9.4600 >    0.2385   -0.0038    1.3670  694.3549 5155.7674   -0.4586    0.1236 228.23  -1.0  -1.0  0     0.0000    0.0002
8            ?    N    ? P      ? 20180313 0152   55.9178 GAU  3.78e-03 -1.00e+00  9.40e+00  8.00e-03    9.4000 >    0.2441   -0.0184    0.7148  694.3223 5155.8450   -0.4648    0.1249 267.82  -1.0  -1.0  0     0.0000    0.0002
20           ?    N    ? P      ? 20180313 0152   55.9389 GAU  3.78e-03 -1.00e+00  9.44e+00  2.40e-02    9.4400 >    0.2439    0.0029    1.3705  694.3609 5155.7515   -0.4553    0.1307 221.26  -1.0  -1.0  0     0.0000    0.0002
15           ?    N    ? P      ? 20180313 0152   55.9106 GAU  3.40e-03 -1.00e+00  1.18e+01  6.80e-02   11.8000 >    0.2498   -0.0313    0.4575  694.3206 5155.8107   -0.4609    0.1324 252.84  -1.0  -1.0  0     0.0000    0.0002
22           ?    N    ? P      ? 20180313 0152   55.9710 GAU  5.67e-03 -1.00e+00  9.18e+00  2.80e-02    9.1800 >    0.2407    0.0381    0.2906  694.3985 5155.7265   -0.4488    0.1324 201.51  -1.0  -1.0  0     0.0000    0.0002
2            ?    N    ? P      ? 20180313 0152   55.9307 GAU  1.88e-03 -1.00e+00  9.04e+00  1.20e-02    9.0400 >    0.2507   -0.0121    1.2042  694.3150 5155.8647   -0.4623    0.1329 276.45  -1.0  -1.0  0     0.0000    0.0003
4            ?    N    ? P      ? 20180313 0152   55.9389 GAU  1.51e-03 -1.00e+00  9.15e+00  1.20e-02    9.1500 >    0.2532   -0.0065    1.5843  694.3090 5155.8520   -0.4586    0.1381 270.94  -1.0  -1.0  0     0.0000    0.0003
21           ?    N    ? P      ? 20180313 0152   55.9423 GAU  4.15e-03 -1.00e+00  9.74e+00  8.00e-03    9.7400 >    0.2504   -0.0002    1.5884  694.3642 5155.7391   -0.4517    0.1382 216.85  -1.0  -1.0  0     0.0000    0.0003
13           ?    N    ? P      ? 20180313 0152   55.9503 GAU  3.78e-03 -1.00e+00  1.03e+01  6.40e-02   10.3000 >    0.2564    0.0017    1.7524  694.3062 5155.8390   -0.4568    0.1413 265.65  -1.0  -1.0  0     0.0000    0.0003
23           ?    N    ? P      ? 20180313 0152   55.9563 GAU  5.29e-03 -1.00e+00  9.27e+00  8.00e-03    9.2700 >    0.2619    0.0022    1.5366  694.3677 5155.7226   -0.4473    0.1499 211.96  -1.0  -1.0  0     0.0000    0.0003
5            ?    N    ? P      ? 20180313 0152   55.9653 GAU  3.53e-03 -1.00e+00  1.00e+01  8.00e-03   10.0000 >    0.2680    0.0052    1.5233  694.2898 5155.8520   -0.4475    0.1573 270.80  -1.0  -1.0  0     0.0000    0.0003
25           ?    N    ? P      ? 20180313 0152   55.9820 GAU  7.56e-03 -1.00e+00  8.87e+00  1.20e-02    8.8700 >    0.2744    0.0154    0.4714  694.3684 5155.7091   -0.4438    0.1611 209.21  -1.0  -1.0  0     0.0000    0.0003
27           ?    N    ? P      ? 20180313 0152   55.9710 GAU  4.15e-03 -1.00e+00  8.15e+00  1.20e-02    8.1500 >    0.2790   -0.0001    2.1913  694.4008 5155.6912   -0.4412    0.1651 196.28  -1.0  -1.0  0     0.0000    0.0003
26           ?    N    ? P      ? 20180313 0152   55.9805 GAU  6.05e-03 -1.00e+00  8.77e+00  3.60e-02    8.7700 >    0.2883    0.0001    1.9723  694.3783 5155.6910   -0.4400    0.1730 203.42  -1.0  -1.0  0     0.0000    0.0003
1            ?    N    ? P      ? 20180313 0152   55.9771 GAU  4.47e-03 -1.00e+00  8.96e+00  3.60e-02    8.9600 >    0.2851   -0.0002    2.3217  694.2735 5155.8721   -0.4381    0.1750 277.35  -1.0  -1.0  0     0.0000    0.0003
7            ?    N    ? P      ? 20180313 0152   55.9850 GAU  3.78e-03 -1.00e+00  1.01e+01  1.20e-02   10.1000 >    0.2870    0.0059    1.5113  694.2704 5155.8450   -0.4359    0.1767 268.46  -1.0  -1.0  0     0.0000    0.0003
105          ?    N    ? P      ? 20180313 0152   55.9793 GAU  6.42e-03 -1.00e+00  9.19e+00  8.00e-03    9.1900 >    0.2980   -0.0108    1.8440  694.3764 5155.6832   -0.4382    0.1809 203.00  -1.0  -1.0  0     0.0000    0.0003
9            ?    N    ? P      ? 20180313 0152   55.9831 GAU  5.66e-03 -1.00e+00  1.01e+01  8.00e-03   10.1000 >    0.2997   -0.0088    1.9229  694.2594 5155.8351   -0.4296    0.1883 265.53  -1.0  -1.0  0     0.0000    0.0003
28           ?    N    ? P      ? 20180313 0152   55.9865 GAU  6.80e-03 -1.00e+00  8.66e+00  8.00e-03    8.6600 >    0.3083   -0.0139    1.5291  694.3767 5155.6745   -0.4362    0.1889 201.88  -1.0  -1.0  0     0.0000    0.0003
30           ?    N    ? P      ? 20180313 0152   55.9816 GAU  1.10e-02 -1.00e+00  7.51e+00  1.20e-02    7.5100 >    0.3233   -0.0338    0.3652  694.3775 5155.6619   -0.4333    0.2003 200.33  -1.0  -1.0  0     0.0000    0.0003
31           ?    N    ? P      ? 20180313 0152   55.9820 GAU  5.28e-03 -1.00e+00  7.89e+00  1.20e-02    7.8900 >    0.3275   -0.0377    0.2282  694.4086 5155.6503   -0.4335    0.2031 190.91  -1.0  -1.0  0     0.0000    0.0003
3            ?    N    ? P      ? 20180313 0152   56.2650 GAU  2.12e-03 -1.00e+00  9.67e+00  8.00e-03    9.6700 >    0.3180    0.2548    0.0000  694.2426 5155.8595   -0.4214    0.2047 272.72  -1.0  -1.0  0     0.0000    0.0003
106          ?    N    ? P      ? 20180313 0152   55.9850 GAU  5.28e-03 -1.00e+00  7.37e+00  1.20e-02    7.3700 >    0.3479   -0.0550    0.0464  694.3120 5155.6801   -0.4360    0.2169 218.51  -1.0  -1.0  0     0.0000    0.0003
33           ?    N    ? P      ? 20180313 0152   55.9910 GAU  6.80e-03 -1.00e+00  7.52e+00  1.20e-02    7.5200 >    0.3643   -0.0655    0.0301  694.3775 5155.6293   -0.4252    0.2311 197.51  -1.0  -1.0  0     0.0000    0.0004
34           ?    N    ? P      ? 20180313 0152   56.1640 GAU  7.93e-03 -1.00e+00  7.63e+00  1.20e-02    7.6300 >    0.3735    0.0983    0.0132  694.4145 5155.6153   -0.4263    0.2367 187.90  -1.0  -1.0  0     0.0000    0.0004
35           ?    N    ? P      ? 20180313 0152   56.3900 GAU  6.80e-03 -1.00e+00  7.93e+00  1.20e-02    7.9300 >    0.3819    0.3160    0.0000  694.3818 5155.6141   -0.4216    0.2445 195.49  -1.0  -1.0  0     0.0000    0.0004
37           ?    N    ? P      ? 20180313 0152   56.1900 GAU  3.93e-02 -1.00e+00  6.50e+00  1.20e-02    6.5000 >    0.4115    0.0863    0.1247  694.4219 5155.5876   -0.4220    0.2634 185.48  -1.0  -1.0  0     0.0000    0.0004
36           ?    N    ? P      ? 20180313 0152   56.1070 GAU  1.21e-02 -1.00e+00  7.16e+00  1.20e-02    7.1600 >    0.4122    0.0026    2.0613  694.3865 5155.5904   -0.4164    0.2664 193.14  -1.0  -1.0  0     0.0000    0.0004
38           ?    N    ? P      ? 20180313 0152   56.2200 GAU  1.28e-02 -1.00e+00  6.36e+00  1.20e-02    6.3600 >    0.4420    0.0859    0.0142  694.3902 5155.5681   -0.4123    0.2873 191.42  -1.0  -1.0  0     0.0000    0.0004
39           ?    N    ? P      ? 20180313 0152   56.3520 GAU  8.69e-03 -1.00e+00  6.54e+00  8.00e-03    6.5400 >    0.4627    0.1971    0.0001  694.3890 5155.5532   -0.4086    0.3022 191.07  -1.0  -1.0  0     0.0000    0.0005
40           ?    N    ? P      ? 20180313 0152   56.6580 GAU  1.06e-02 -1.00e+00  6.32e+00  1.60e-02    6.3200 >    0.4770    0.4888    0.0000  694.4169 5155.5417   -0.4131    0.3095 185.60  -1.0  -1.0  0     0.0000    0.0005
41           ?    N    ? P      ? 20180313 0152   56.1924 GAU  3.14e-02 -1.00e+00  6.49e+00  7.20e-02    6.4900 >    0.4826    0.0176    1.0696  694.3901 5155.5386   -0.4053    0.3163 190.38  -1.0  -1.0  0     0.0000    0.0005
42           ?    N    ? P      ? 20180313 0152   56.1882 GAU  1.13e-02 -1.00e+00  7.79e+00  1.60e-02    7.7900 >    0.5135   -0.0174    1.8873  694.3873 5155.5165   -0.3983    0.3386 190.17  -1.0  -1.0  0     0.0000    0.0005
END_PHASE
END_NLLOC

