NLLOC "./loc/RR.20180313.000511.grid0" "LOCATED" "Location completed."
PUBLIC_ID None
SIGNATURE "   obs:./obs/nll_picks.obs   NLLoc:v7.00.10(30Aug2020)   run:29Apr2022 23h16m52"
COMMENT "Rattlesnake Ridge Slidequake Locations"
GRID  150 250 75  694.15 5155.4 0  0.002 0.002 0.002 PROB_DENSITY
SEARCH OCTREE nInitial 1000 nEvaluated 12680 smallestNodeSide 0.001863/0.003112/0.000925 oct_tree_integral 9.009832e-05 scatter_volume 8.946495e-05
HYPOCENTER  x 694.376 y 5155.65 z 0.101288  OT 10.9354  ix -1 iy -1 iz -1 MAXIMUM_LIKELIHOOD
GEOGRAPHIC  OT 2018 03 13  00 05 10.935371  Lat 5155.647444 Long 694.376294 Depth 0.101288
QUALITY  Pmax 5.56067e+58 MFmin 93.1432 MFmax 93.1554 RMS 0.179237 Nphs 18 Gap 120.771 Dist 0.00233396 Mamp  0.40 18 Mdur -9.90 0
VPVSRATIO  VpVsRatio -1  Npair 0  Diff -2e+30
STATISTICS  ExpectX 694.370994 Y 5155.647804 Z 0.103062  CovXX 0.00121284 XY 0.000303988 XZ 0.00034807 YY 0.000209467 YZ 0.000351972 ZZ 0.00116169 EllAz1  169.52 Dip1  14.4119 Len1  0.0147043 Az2  274.385 Dip2  44.9523 Len2  0.0544865 Len3  7.704861e-02
STAT_GEOG  ExpectLat 5155.647804 Long 694.370994 Depth 0.103062
TRANSFORM  NONE
QML_OriginQuality  assocPhCt 18  usedPhCt 18  assocStaCt -1  usedStaCt 18  depthPhCt -1  stdErr 0.179237  azGap 120.771  secAzGap 176.603  gtLevel -  minDist 0.00233396 maxDist 0.113243 medDist 0.0500706
QML_OriginUncertainty  horUnc -1  minHorUnc 0.0169256  maxHorUnc 0.0546335  azMaxHorUnc 74.3934
QML_ConfidenceEllipsoid  semiMajorAxisLength 0.0770486  semiMinorAxisLength 0.0147043  semiIntermediateAxisLength 0.0544865  majorAxisPlunge 41.4896  majorAxisAzimuth 66.3832  majorAxisRotation 70.8648
FOCALMECH  Hyp  5155.647444 694.376294 0.101288 Mech  0 0 0 mf  0 nObs -1
PHASE ID Ins Cmp On Pha  FM Date     HrMn   Sec     Err  ErrMag    Coda      Amp       Per       PriorWt  >   TTpred    Res       Weight    StaLoc(X  Y         Z)        SDist    SAzim  RAz  RDip RQual    Tcorr       TTerr
32           ?    N    ? P      ? 20180313 0005   11.8830 GAU  1.33e-02 -1.00e+00  8.63e+00  8.00e-03    8.6300 >    0.1558    0.7919    0.2360  694.3777 5155.6456   -0.4297    0.0023 143.32  -1.0  -1.0  0     0.0000    0.0002
30           ?    N    ? P      ? 20180313 0005   11.9850 GAU  1.97e-02 -1.00e+00  7.74e+00  1.20e-02    7.7400 >    0.1626    0.8870    0.0024  694.3775 5155.6619   -0.4333    0.0145   4.65  -1.0  -1.0  0     0.0000    0.0002
33           ?    N    ? P      ? 20180313 0005   11.7010 GAU  1.93e-02 -1.00e+00  7.92e+00  1.20e-02    7.9200 >    0.1516    0.6140    0.0000  694.3775 5155.6293   -0.4252    0.0182 176.13  -1.0  -1.0  0     0.0000    0.0002
28           ?    N    ? P      ? 20180313 0005   11.1012 GAU  2.77e-02 -1.00e+00  7.75e+00  8.00e-03    7.7500 >    0.1707   -0.0049    1.0977  694.3767 5155.6745   -0.4362    0.0270   0.83  -1.0  -1.0  0     0.0000    0.0002
31           ?    N    ? P      ? 20180313 0005   11.1190 GAU  1.74e-02 -1.00e+00  6.18e+00  5.20e-02    6.1800 >    0.1689    0.0147    1.1238  694.4086 5155.6503   -0.4335    0.0325  84.87  -1.0  -1.0  0     0.0000    0.0002
35           ?    N    ? P      ? 20180313 0005   11.8600 GAU  1.40e-02 -1.00e+00  8.59e+00  8.00e-03    8.5900 >    0.1525    0.7721    0.0929  694.3818 5155.6141   -0.4216    0.0338 170.67  -1.0  -1.0  0     0.0000    0.0002
105          ?    N    ? P      ? 20180313 0005   11.1133 GAU  1.71e-02 -1.00e+00  7.81e+00  8.00e-03    7.8100 >    0.1771    0.0008    1.4764  694.3764 5155.6832   -0.4382    0.0358   0.17  -1.0  -1.0  0     0.0000    0.0002
26           ?    N    ? P      ? 20180313 0005   11.1050 GAU  5.27e-02 -1.00e+00  6.33e+00  5.60e-02    6.3300 >    0.1840   -0.0144    0.6981  694.3783 5155.6910   -0.4400    0.0436   2.64  -1.0  -1.0  0     0.0000    0.0002
34           ?    N    ? P      ? 20180313 0005   11.1091 GAU  4.32e-02 -1.00e+00  6.49e+00  5.60e-02    6.4900 >    0.1689    0.0048    0.9770  694.4145 5155.6153   -0.4263    0.0500 130.08  -1.0  -1.0  0     0.0000    0.0002
27           ?    N    ? P      ? 20180313 0005   11.1618 GAU  2.69e-02 -1.00e+00  5.76e+00  8.00e-03    5.7600 >    0.1896    0.0369    0.7477  694.4008 5155.6912   -0.4412    0.0502  29.21  -1.0  -1.0  0     0.0000    0.0002
36           ?    N    ? P      ? 20180313 0005   11.8260 GAU  1.14e-02 -1.00e+00  7.41e+00  3.20e-02    7.4100 >    0.1624    0.7282    0.0028  694.3865 5155.5904   -0.4164    0.0580 169.84  -1.0  -1.0  0     0.0000    0.0002
25           ?    N    ? P      ? 20180313 0005   11.1315 GAU  3.68e-02 -1.00e+00  6.43e+00  8.00e-03    6.4300 >    0.2017   -0.0055    1.1589  694.3684 5155.7091   -0.4438    0.0622 352.73  -1.0  -1.0  0     0.0000    0.0002
106          ?    N    ? P      ? 20180313 0005   11.1486 GAU  2.58e-02 -1.00e+00  6.65e+00  2.40e-02    6.6500 >    0.1993    0.0139    1.8578  694.3120 5155.6801   -0.4360    0.0721 296.90  -1.0  -1.0  0     0.0000    0.0002
37           ?    N    ? P      ? 20180313 0005   11.1110 GAU  1.63e-02 -1.00e+00  6.54e+00  8.00e-03    6.5400 >    0.1848   -0.0091    1.8433  694.4219 5155.5876   -0.4220    0.0753 142.67  -1.0  -1.0  0     0.0000    0.0002
23           ?    N    ? P      ? 20180313 0005   11.1353 GAU  2.84e-02 -1.00e+00  7.39e+00  8.00e-03    7.3900 >    0.2168   -0.0169    1.5074  694.3677 5155.7226   -0.4473    0.0756 353.47  -1.0  -1.0  0     0.0000    0.0002
38           ?    N    ? P      ? 20180313 0005   11.9090 GAU  2.35e-02 -1.00e+00  6.69e+00  8.00e-03    6.6900 >    0.1792    0.7944    0.2585  694.3902 5155.5681   -0.4123    0.0805 170.09  -1.0  -1.0  0     0.0000    0.0002
39           ?    N    ? P      ? 20180313 0005   11.1209 GAU  1.78e-02 -1.00e+00  6.77e+00  5.60e-02    6.7700 >    0.1921   -0.0066    2.4429  694.3890 5155.5532   -0.4086    0.0951 172.31  -1.0  -1.0  0     0.0000    0.0002
40           ?    N    ? P      ? 20180313 0005   11.1702 GAU  2.09e-02 -1.00e+00  6.51e+00  1.20e-02    6.5100 >    0.2183    0.0165    2.4765  694.4169 5155.5417   -0.4131    0.1132 159.00  -1.0  -1.0  0     0.0000    0.0002
END_PHASE
END_NLLOC

