NLLOC "./loc/RR.20180313.014749.grid0" "REJECTED" "WARNING: max prob location on grid boundary 10, rejecting location."
PUBLIC_ID None
SIGNATURE "   obs:./obs/nll_picks.obs   NLLoc:v7.00.10(30Aug2020)   run:29Apr2022 23h20m30"
COMMENT "Rattlesnake Ridge Slidequake Locations"
GRID  150 250 75  694.15 5155.4 0  0.002 0.002 0.002 PROB_DENSITY
SEARCH OCTREE nInitial 1000 nEvaluated 2192 smallestNodeSide 0.001863/0.003112/0.000925 oct_tree_integral 5.634744e-06 scatter_volume 5.618243e-06
HYPOCENTER  x 694.151 y 5155.67 z 0.147537  OT 49.3935  ix -1 iy -1 iz -1 MAXIMUM_LIKELIHOOD
GEOGRAPHIC  OT 2018 03 13  01 47 49.393493  Lat 5155.666119 Long 694.150931 Depth 0.147537
QUALITY  Pmax 1.19676e+116 MFmin 277.432 MFmax 277.509 RMS 0.0182095 Nphs 27 Gap 285.166 Dist 0.222882 Mamp  0.86 27 Mdur -9.90 0
VPVSRATIO  VpVsRatio -1  Npair 0  Diff -2e+30
STATISTICS  ExpectX 694.161547 Y 5155.664013 Z 0.126923  CovXX 0.000121877 XY 8.25742e-06 XZ 1.34861e-05 YY 6.09829e-05 YZ 5.76538e-05 ZZ 0.000299736 EllAz1  175.984 Dip1  12.6376 Len1  0.0129414 Az2  267.158 Dip2  5.22131 Len2  0.0206717 Len3  3.329815e-02
STAT_GEOG  ExpectLat 5155.664013 Long 694.161547 Depth 0.126923
TRANSFORM  NONE
QML_OriginQuality  assocPhCt 27  usedPhCt 27  assocStaCt -1  usedStaCt 27  depthPhCt -1  stdErr 0.0182095  azGap 285.166  secAzGap 289.439  gtLevel -  minDist 0.222882 maxDist 0.2936 medDist 0.236623
QML_OriginUncertainty  horUnc -1  minHorUnc 0.0117359  maxHorUnc 0.0168181  azMaxHorUnc 82.413
QML_ConfidenceEllipsoid  semiMajorAxisLength 0.0332982  semiMinorAxisLength 0.0129414  semiIntermediateAxisLength 0.0206717  majorAxisPlunge 76.2931  majorAxisAzimuth 19.1615  majorAxisRotation 290.266
FOCALMECH  Hyp  5155.666119 694.150931 0.147537 Mech  0 0 0 mf  0 nObs -1
PHASE ID Ins Cmp On Pha  FM Date     HrMn   Sec     Err  ErrMag    Coda      Amp       Per       PriorWt  >   TTpred    Res       Weight    StaLoc(X  Y         Z)        SDist    SAzim  RAz  RDip RQual    Tcorr       TTerr
15           ?    N    ? P      ? 20180313 0147   49.8971 GAU  8.59e-03 -1.00e+00  7.40e+00  1.20e-02    7.4000 >    0.4926    0.0110    1.9631  694.3206 5155.8107   -0.4609    0.2229  49.56  -1.0  -1.0  0     0.0000    0.0005
23           ?    N    ? P      ? 20180313 0147   49.9103 GAU  1.06e-02 -1.00e+00  6.80e+00  1.20e-02    6.8000 >    0.4744    0.0425    0.6055  694.3677 5155.7226   -0.4473    0.2240  75.41  -1.0  -1.0  0     0.0000    0.0005
21           ?    N    ? P      ? 20180313 0147   49.9004 GAU  1.32e-02 -1.00e+00  6.77e+00  8.00e-03    6.7700 >    0.4809    0.0260    1.0553  694.3642 5155.7391   -0.4517    0.2254  71.10  -1.0  -1.0  0     0.0000    0.0005
28           ?    N    ? P      ? 20180313 0147   49.9361 GAU  2.38e-02 -1.00e+00  7.63e+00  1.20e-02    7.6300 >    0.4641    0.0785    0.1381  694.3767 5155.6745   -0.4362    0.2259  87.88  -1.0  -1.0  0     0.0000    0.0005
105          ?    N    ? P      ? 20180313 0147   49.9456 GAU  1.29e-02 -1.00e+00  7.97e+00  1.20e-02    7.9700 >    0.4662    0.0859    0.0847  694.3764 5155.6832   -0.4382    0.2261  85.66  -1.0  -1.0  0     0.0000    0.0005
30           ?    N    ? P      ? 20180313 0147   49.9344 GAU  1.82e-02 -1.00e+00  7.55e+00  1.20e-02    7.5500 >    0.4617    0.0792    0.1017  694.3775 5155.6619   -0.4333    0.2266  91.06  -1.0  -1.0  0     0.0000    0.0005
20           ?    N    ? P      ? 20180313 0147   49.9073 GAU  2.01e-02 -1.00e+00  6.22e+00  8.00e-03    6.2200 >    0.4859    0.0280    1.0740  694.3609 5155.7515   -0.4553    0.2266  67.87  -1.0  -1.0  0     0.0000    0.0005
17           ?    N    ? P      ? 20180313 0147   49.8895 GAU  7.59e-03 -1.00e+00  8.50e+00  1.20e-02    8.5000 >    0.4954    0.0007    2.1204  694.3461 5155.7815   -0.4621    0.2268  59.42  -1.0  -1.0  0     0.0000    0.0005
32           ?    N    ? P      ? 20180313 0147   49.9007 GAU  9.58e-03 -1.00e+00  7.20e+00  1.20e-02    7.2000 >    0.4595    0.0477    0.3478  694.3777 5155.6456   -0.4297    0.2277  95.18  -1.0  -1.0  0     0.0000    0.0005
18           ?    N    ? P      ? 20180313 0147   49.9017 GAU  1.06e-02 -1.00e+00  7.01e+00  8.00e-03    7.0100 >    0.4913    0.0169    1.4482  694.3549 5155.7674   -0.4586    0.2277  63.59  -1.0  -1.0  0     0.0000    0.0005
26           ?    N    ? P      ? 20180313 0147   49.9922 GAU  3.10e-02 -1.00e+00  7.07e+00  1.60e-02    7.0700 >    0.4709    0.1278    0.0223  694.3783 5155.6910   -0.4400    0.2287  83.76  -1.0  -1.0  0     0.0000    0.0005
33           ?    N    ? P      ? 20180313 0147   49.8928 GAU  1.29e-02 -1.00e+00  6.90e+00  1.60e-02    6.9000 >    0.4566    0.0428    0.5197  694.3775 5155.6293   -0.4252    0.2296  99.22  -1.0  -1.0  0     0.0000    0.0005
16           ?    N    ? P      ? 20180313 0147   49.8948 GAU  8.26e-03 -1.00e+00  8.25e+00  1.60e-02    8.2500 >    0.5025   -0.0012    2.0079  694.3452 5155.7921   -0.4642    0.2315  57.03  -1.0  -1.0  0     0.0000    0.0005
35           ?    N    ? P      ? 20180313 0147   49.9242 GAU  9.24e-03 -1.00e+00  8.74e+00  1.20e-02    8.7400 >    0.4594    0.0713    0.2539  694.3818 5155.6141   -0.4216    0.2366 102.70  -1.0  -1.0  0     0.0000    0.0005
12           ?    N    ? P      ? 20180313 0147   49.8941 GAU  8.26e-03 -1.00e+00  7.63e+00  8.00e-03    7.6300 >    0.5144   -0.0138    1.1183  694.3356 5155.8197   -0.4663    0.2402  50.25  -1.0  -1.0  0     0.0000    0.0005
10           ?    N    ? P      ? 20180313 0147   49.8954 GAU  8.26e-03 -1.00e+00  6.42e+00  4.40e-02    6.4200 >    0.5223   -0.0204    0.6996  694.3329 5155.8329   -0.4673    0.2468  47.50  -1.0  -1.0  0     0.0000    0.0005
36           ?    N    ? P      ? 20180313 0147   49.8770 GAU  5.62e-03 -1.00e+00  8.61e+00  1.20e-02    8.6100 >    0.4669    0.0166    1.5249  694.3865 5155.5904   -0.4164    0.2475 107.83  -1.0  -1.0  0     0.0000    0.0005
103          ?    N    ? P      ? 20180313 0147   49.9219 GAU  4.66e-02 -1.00e+00  5.73e+00  2.00e-02    5.7300 >    0.5201    0.0083    0.9552  694.3644 5155.7952   -0.4662    0.2494  58.84  -1.0  -1.0  0     0.0000    0.0005
27           ?    N    ? P      ? 20180313 0147   49.9361 GAU  1.65e-02 -1.00e+00  5.26e+00  1.20e-02    5.2600 >    0.4941    0.0485    0.3723  694.4008 5155.6912   -0.4412    0.2511  84.26  -1.0  -1.0  0     0.0000    0.0005
31           ?    N    ? P      ? 20180313 0147   49.9413 GAU  1.72e-02 -1.00e+00  6.29e+00  1.20e-02    6.2900 >    0.4943    0.0535    0.3286  694.4086 5155.6503   -0.4335    0.2582  93.50  -1.0  -1.0  0     0.0000    0.0005
38           ?    N    ? P      ? 20180313 0147   49.8750 GAU  5.62e-03 -1.00e+00  9.36e+00  1.20e-02    9.3600 >    0.4756    0.0059    2.0905  694.3902 5155.5681   -0.4123    0.2585 112.28  -1.0  -1.0  0     0.0000    0.0005
39           ?    N    ? P      ? 20180313 0147   49.8687 GAU  4.62e-03 -1.00e+00  1.02e+01  8.00e-03   10.2000 >    0.4779   -0.0027    2.1585  694.3890 5155.5532   -0.4086    0.2635 115.38  -1.0  -1.0  0     0.0000    0.0005
34           ?    N    ? P      ? 20180313 0147   49.9318 GAU  8.25e-03 -1.00e+00  7.60e+00  1.20e-02    7.6000 >    0.4984    0.0399    0.7071  694.4145 5155.6153   -0.4263    0.2684 100.92  -1.0  -1.0  0     0.0000    0.0005
41           ?    N    ? P      ? 20180313 0147   49.8591 GAU  1.16e-02 -1.00e+00  9.51e+00  1.20e-02    9.5100 >    0.4842   -0.0186    1.2599  694.3901 5155.5386   -0.4053    0.2710 118.06  -1.0  -1.0  0     0.0000    0.0005
42           ?    N    ? P      ? 20180313 0147   49.8456 GAU  2.57e-02 -1.00e+00  8.58e+00  8.00e-03    8.5800 >    0.4892   -0.0371    0.6411  694.3873 5155.5165   -0.3983    0.2797 122.33  -1.0  -1.0  0     0.0000    0.0005
37           ?    N    ? P      ? 20180313 0147   49.9268 GAU  7.26e-03 -1.00e+00  7.34e+00  1.20e-02    7.3400 >    0.5112    0.0221    1.2862  694.4219 5155.5876   -0.4220    0.2821 106.16  -1.0  -1.0  0     0.0000    0.0005
40           ?    N    ? P      ? 20180313 0147   49.9113 GAU  5.61e-03 -1.00e+00  8.52e+00  1.20e-02    8.5200 >    0.5175    0.0003    2.1154  694.4169 5155.5417   -0.4131    0.2936 115.07  -1.0  -1.0  0     0.0000    0.0005
END_PHASE
END_NLLOC

