NLLOC "./loc/RR.20180313.012650.grid0" "LOCATED" "Location completed."
PUBLIC_ID None
SIGNATURE "   obs:./obs/nll_picks.obs   NLLoc:v7.00.10(30Aug2020)   run:29Apr2022 23h20m07"
COMMENT "Rattlesnake Ridge Slidequake Locations"
GRID  150 250 75  694.15 5155.4 0  0.002 0.002 0.002 PROB_DENSITY
SEARCH OCTREE nInitial 1000 nEvaluated 19568 smallestNodeSide 0.001863/0.003112/0.000925 oct_tree_integral 1.358803e-04 scatter_volume 1.357781e-04
HYPOCENTER  x 694.256 y 5155.61 z 0.078625  OT 50.4353  ix -1 iy -1 iz -1 MAXIMUM_LIKELIHOOD
GEOGRAPHIC  OT 2018 03 13  01 26 50.435279  Lat 5155.608537 Long 694.256162 Depth 0.078625
QUALITY  Pmax 2.46476e+106 MFmin 224.255 MFmax 224.29 RMS 0.00960207 Nphs 24 Gap 262.43 Dist 0.0907448 Mamp  0.64 24 Mdur -9.90 0
VPVSRATIO  VpVsRatio -1  Npair 0  Diff -2e+30
STATISTICS  ExpectX 694.222990 Y 5155.600715 Z 0.075660  CovXX 0.00160786 XY 0.000379928 XZ 0.00059427 YY 0.000156354 YZ 0.000321966 ZZ 0.00157814 EllAz1  169.189 Dip1  7.58435 Len1  0.0119062 Az2  267.248 Dip2  46.4762 Len2  0.0594048 Len3  9.015450e-02
STAT_GEOG  ExpectLat 5155.600715 Long 694.222990 Depth 0.075660
TRANSFORM  NONE
QML_OriginQuality  assocPhCt 24  usedPhCt 24  assocStaCt -1  usedStaCt 24  depthPhCt -1  stdErr 0.00960207  azGap 262.43  secAzGap 269.93  gtLevel -  minDist 0.0907448 maxDist 0.215744 medDist 0.150909
QML_OriginUncertainty  horUnc -1  minHorUnc 0.0120301  maxHorUnc 0.0625538  azMaxHorUnc 76.1841
QML_ConfidenceEllipsoid  semiMajorAxisLength 0.0901545  semiMinorAxisLength 0.0119062  semiIntermediateAxisLength 0.0594048  majorAxisPlunge 42.5233  majorAxisAzimuth 72.175  majorAxisRotation 64.6224
FOCALMECH  Hyp  5155.608537 694.256162 0.078625 Mech  0 0 0 mf  0 nObs -1
PHASE ID Ins Cmp On Pha  FM Date     HrMn   Sec     Err  ErrMag    Coda      Amp       Per       PriorWt  >   TTpred    Res       Weight    StaLoc(X  Y         Z)        SDist    SAzim  RAz  RDip RQual    Tcorr       TTerr
106          ?    N    ? P      ? 20180313 0126   50.8114 GAU  1.10e-02 -1.00e+00  7.91e+00  1.60e-02    7.9100 >    0.2134    0.1627    0.0000  694.3120 5155.6801   -0.4360    0.0907  37.99  -1.0  -1.0  0     0.0000    0.0002
33           ?    N    ? P      ? 20180313 0126   50.6693 GAU  4.71e-03 -1.00e+00  1.00e+01  1.20e-02   10.0000 >    0.2394   -0.0054    1.0509  694.3775 5155.6293   -0.4252    0.1231  80.28  -1.0  -1.0  0     0.0000    0.0002
35           ?    N    ? P      ? 20180313 0126   50.6781 GAU  5.97e-03 -1.00e+00  1.07e+01  1.20e-02   10.7000 >    0.2392    0.0036    1.0439  694.3818 5155.6141   -0.4216    0.1257  87.46  -1.0  -1.0  0     0.0000    0.0002
32           ?    N    ? P      ? 20180313 0126   50.6706 GAU  3.46e-03 -1.00e+00  9.29e+00  1.20e-02    9.2900 >    0.2485   -0.0132    0.8085  694.3777 5155.6456   -0.4297    0.1270  73.05  -1.0  -1.0  0     0.0000    0.0002
36           ?    N    ? P      ? 20180313 0126   50.6690 GAU  4.40e-03 -1.00e+00  8.67e+00  1.20e-02    8.6700 >    0.2429   -0.0092    1.1571  694.3865 5155.5904   -0.4164    0.1316  97.94  -1.0  -1.0  0     0.0000    0.0002
30           ?    N    ? P      ? 20180313 0126   50.6882 GAU  9.74e-03 -1.00e+00  8.51e+00  2.80e-02    8.5100 >    0.2582   -0.0053    0.9559  694.3775 5155.6619   -0.4333    0.1325  66.25  -1.0  -1.0  0     0.0000    0.0003
28           ?    N    ? P      ? 20180313 0126   50.6973 GAU  1.07e-02 -1.00e+00  8.34e+00  1.20e-02    8.3400 >    0.2670   -0.0049    1.0170  694.3767 5155.6745   -0.4362    0.1374  61.32  -1.0  -1.0  0     0.0000    0.0003
38           ?    N    ? P      ? 20180313 0126   50.6724 GAU  7.22e-03 -1.00e+00  7.98e+00  1.20e-02    7.9800 >    0.2513   -0.0142    1.1471  694.3902 5155.5681   -0.4123    0.1400 106.79  -1.0  -1.0  0     0.0000    0.0003
105          ?    N    ? P      ? 20180313 0126   50.7331 GAU  2.14e-02 -1.00e+00  8.93e+00  4.00e-02    8.9300 >    0.2739    0.0239    0.3608  694.3764 5155.6832   -0.4382    0.1416  58.15  -1.0  -1.0  0     0.0000    0.0003
39           ?    N    ? P      ? 20180313 0126   50.6907 GAU  4.71e-03 -1.00e+00  8.14e+00  8.00e-03    8.1400 >    0.2539    0.0015    1.6899  694.3890 5155.5532   -0.4086    0.1439 112.62  -1.0  -1.0  0     0.0000    0.0003
26           ?    N    ? P      ? 20180313 0126   50.7127 GAU  1.16e-02 -1.00e+00  7.52e+00  1.20e-02    7.5200 >    0.2830   -0.0056    1.0918  694.3783 5155.6910   -0.4400    0.1474  55.98  -1.0  -1.0  0     0.0000    0.0003
25           ?    N    ? P      ? 20180313 0126   50.7303 GAU  1.10e-02 -1.00e+00  7.35e+00  6.80e-02    7.3500 >    0.2909    0.0042    1.1601  694.3684 5155.7091   -0.4438    0.1507  48.14  -1.0  -1.0  0     0.0000    0.0003
41           ?    N    ? P      ? 20180313 0126   50.7014 GAU  4.71e-03 -1.00e+00  7.50e+00  1.60e-02    7.5000 >    0.2620    0.0041    1.7115  694.3901 5155.5386   -0.4053    0.1511 117.56  -1.0  -1.0  0     0.0000    0.0003
31           ?    N    ? P      ? 20180313 0126   50.7290 GAU  5.34e-03 -1.00e+00  7.74e+00  1.20e-02    7.7400 >    0.2914    0.0024    1.0224  694.4086 5155.6503   -0.4335    0.1581  74.66  -1.0  -1.0  0     0.0000    0.0003
34           ?    N    ? P      ? 20180313 0126   50.7114 GAU  1.35e-02 -1.00e+00  8.03e+00  1.20e-02    8.0300 >    0.2868   -0.0107    0.8309  694.4145 5155.6153   -0.4263    0.1585  87.56  -1.0  -1.0  0     0.0000    0.0003
23           ?    N    ? P      ? 20180313 0126   50.7359 GAU  9.75e-03 -1.00e+00  8.49e+00  8.00e-03    8.4900 >    0.3049   -0.0043    1.7764  694.3677 5155.7226   -0.4473    0.1595  44.37  -1.0  -1.0  0     0.0000    0.0003
42           ?    N    ? P      ? 20180313 0126   50.6756 GAU  1.16e-02 -1.00e+00  6.75e+00  1.20e-02    6.7500 >    0.2711   -0.0308    0.7116  694.3873 5155.5165   -0.3983    0.1602 125.06  -1.0  -1.0  0     0.0000    0.0003
27           ?    N    ? P      ? 20180313 0126   50.7595 GAU  1.26e-02 -1.00e+00  6.91e+00  1.20e-02    6.9100 >    0.3086    0.0157    0.4777  694.4008 5155.6912   -0.4412    0.1666  60.23  -1.0  -1.0  0     0.0000    0.0003
37           ?    N    ? P      ? 20180313 0126   50.7051 GAU  1.54e-02 -1.00e+00  7.80e+00  1.20e-02    7.8000 >    0.2958   -0.0260    0.6610  694.4219 5155.5876   -0.4220    0.1671  97.20  -1.0  -1.0  0     0.0000    0.0003
21           ?    N    ? P      ? 20180313 0126   50.7413 GAU  2.39e-02 -1.00e+00  7.40e+00  8.00e-03    7.4000 >    0.3218   -0.0158    1.0742  694.3642 5155.7391   -0.4517    0.1695  39.59  -1.0  -1.0  0     0.0000    0.0003
40           ?    N    ? P      ? 20180313 0126   50.7300 GAU  6.92e-03 -1.00e+00  7.75e+00  8.00e-03    7.7500 >    0.3000   -0.0052    1.9608  694.4169 5155.5417   -0.4131    0.1740 112.57  -1.0  -1.0  0     0.0000    0.0003
22           ?    N    ? P      ? 20180313 0126   50.7529 GAU  1.79e-02 -1.00e+00  6.87e+00  1.20e-02    6.8700 >    0.3389   -0.0212    0.9567  694.3985 5155.7265   -0.4488    0.1849  50.34  -1.0  -1.0  0     0.0000    0.0003
17           ?    N    ? P      ? 20180313 0126   50.7319 GAU  2.26e-02 -1.00e+00  6.49e+00  1.20e-02    6.4900 >    0.3630   -0.0664    0.1444  694.3461 5155.7815   -0.4621    0.1949  27.49  -1.0  -1.0  0     0.0000    0.0004
103          ?    N    ? P      ? 20180313 0126   50.8167 GAU  3.33e-02 -1.00e+00  6.42e+00  1.20e-02    6.4200 >    0.3934   -0.0120    1.1894  694.3644 5155.7952   -0.4662    0.2157  30.10  -1.0  -1.0  0     0.0000    0.0004
END_PHASE
END_NLLOC

