NLLOC "./loc/RR.20180313.000719.grid0" "REJECTED" "WARNING: max prob location on grid boundary 31, rejecting location."
PUBLIC_ID None
SIGNATURE "   obs:./obs/nll_picks.obs   NLLoc:v7.00.10(30Aug2020)   run:29Apr2022 23h18m41"
COMMENT "Rattlesnake Ridge Slidequake Locations"
GRID  150 250 75  694.15 5155.4 0  0.002 0.002 0.002 PROB_DENSITY
SEARCH OCTREE nInitial 1000 nEvaluated 7744 smallestNodeSide 0.001863/0.003112/0.000925 oct_tree_integral 4.595177e-05 scatter_volume 4.580934e-05
HYPOCENTER  x 694.368 y 5155.65 z 0.147075  OT 19.7273  ix -1 iy -1 iz -1 MAXIMUM_LIKELIHOOD
GEOGRAPHIC  OT 2018 03 13  00 07 19.727338  Lat 5155.645887 Long 694.367913 Depth 0.147075
QUALITY  Pmax 1.61328e+85 MFmin 126.444 MFmax 126.454 RMS 0.0199815 Nphs 22 Gap 133.128 Dist 0.00978059 Mamp  0.60 22 Mdur -9.90 0
VPVSRATIO  VpVsRatio -1  Npair 0  Diff -2e+30
STATISTICS  ExpectX 694.354377 Y 5155.635914 Z 0.115574  CovXX 0.00106809 XY 0.000227543 XZ 0.000199479 YY 0.000179213 YZ 0.000212194 ZZ 0.000808191 EllAz1  169.671 Dip1  13.4719 Len1  0.0174311 Az2  281.359 Dip2  57.0468 Len2  0.0500102 Len3  6.671594e-02
STAT_GEOG  ExpectLat 5155.635914 Long 694.354377 Depth 0.115574
TRANSFORM  NONE
QML_OriginQuality  assocPhCt 22  usedPhCt 22  assocStaCt -1  usedStaCt 22  depthPhCt -1  stdErr 0.0199815  azGap 133.128  secAzGap 185.574  gtLevel -  minDist 0.00978059 maxDist 0.122219 medDist 0.0609009
QML_OriginUncertainty  horUnc -1  minHorUnc 0.0169117  maxHorUnc 0.0508211  azMaxHorUnc 76.4442
QML_ConfidenceEllipsoid  semiMajorAxisLength 0.0667159  semiMinorAxisLength 0.0174311  semiIntermediateAxisLength 0.0500102  majorAxisPlunge 29.4419  majorAxisAzimuth 71.9003  majorAxisRotation 28.2466
FOCALMECH  Hyp  5155.645887 694.367913 0.147075 Mech  0 0 0 mf  0 nObs -1
PHASE ID Ins Cmp On Pha  FM Date     HrMn   Sec     Err  ErrMag    Coda      Amp       Per       PriorWt  >   TTpred    Res       Weight    StaLoc(X  Y         Z)        SDist    SAzim  RAz  RDip RQual    Tcorr       TTerr
32           ?    N    ? P      ? 20180313 0007   19.9336 GAU  1.28e-02 -1.00e+00  8.34e+00  1.20e-02    8.3400 >    0.2216   -0.0154    0.9327  694.3777 5155.6456   -0.4297    0.0098  91.85  -1.0  -1.0  0     0.0000    0.0002
30           ?    N    ? P      ? 20180313 0007   19.9486 GAU  1.96e-02 -1.00e+00  8.60e+00  1.20e-02    8.6000 >    0.2283   -0.0071    1.0729  694.3775 5155.6619   -0.4333    0.0187  30.81  -1.0  -1.0  0     0.0000    0.0002
33           ?    N    ? P      ? 20180313 0007   19.9276 GAU  1.59e-02 -1.00e+00  9.27e+00  1.20e-02    9.2700 >    0.2168   -0.0166    0.9046  694.3775 5155.6293   -0.4252    0.0191 149.88  -1.0  -1.0  0     0.0000    0.0002
28           ?    N    ? P      ? 20180313 0007   19.9750 GAU  1.59e-02 -1.00e+00  7.82e+00  1.20e-02    7.8200 >    0.2351    0.0125    1.1408  694.3767 5155.6745   -0.4362    0.0299  17.07  -1.0  -1.0  0     0.0000    0.0002
35           ?    N    ? P      ? 20180313 0007   19.9600 GAU  1.55e-02 -1.00e+00  8.99e+00  5.60e-02    8.9900 >    0.2155    0.0171    0.8781  694.3818 5155.6141   -0.4216    0.0347 156.44  -1.0  -1.0  0     0.0000    0.0002
105          ?    N    ? P      ? 20180313 0007   19.9800 GAU  1.73e-02 -1.00e+00  8.92e+00  1.20e-02    8.9200 >    0.2404    0.0122    1.3540  694.3764 5155.6832   -0.4382    0.0383  12.80  -1.0  -1.0  0     0.0000    0.0002
31           ?    N    ? P      ? 20180313 0007   19.9609 GAU  1.91e-02 -1.00e+00  7.28e+00  1.20e-02    7.2800 >    0.2344   -0.0009    1.0661  694.4086 5155.6503   -0.4335    0.0410  83.75  -1.0  -1.0  0     0.0000    0.0002
26           ?    N    ? P      ? 20180313 0007   19.9814 GAU  2.87e-02 -1.00e+00  7.42e+00  4.40e-02    7.4200 >    0.2464    0.0077    1.2055  694.3783 5155.6910   -0.4400    0.0463  12.98  -1.0  -1.0  0     0.0000    0.0002
34           ?    N    ? P      ? 20180313 0007   19.9659 GAU  2.51e-02 -1.00e+00  7.30e+00  1.20e-02    7.3000 >    0.2313    0.0073    0.9487  694.4145 5155.6153   -0.4263    0.0558 123.30  -1.0  -1.0  0     0.0000    0.0002
27           ?    N    ? P      ? 20180313 0007   20.2800 GAU  2.00e-02 -1.00e+00  7.51e+00  1.20e-02    7.5100 >    0.2520    0.3007    0.0462  694.4008 5155.6912   -0.4412    0.0560  35.93  -1.0  -1.0  0     0.0000    0.0003
36           ?    N    ? P      ? 20180313 0007   19.9377 GAU  2.23e-02 -1.00e+00  8.10e+00  1.20e-02    8.1000 >    0.2197   -0.0094    1.1440  694.3865 5155.5904   -0.4164    0.0586 161.47  -1.0  -1.0  0     0.0000    0.0002
25           ?    N    ? P      ? 20180313 0007   20.4700 GAU  3.92e-02 -1.00e+00  8.66e+00  1.20e-02    8.6600 >    0.2592    0.4835    0.0002  694.3684 5155.7091   -0.4438    0.0632   0.47  -1.0  -1.0  0     0.0000    0.0003
106          ?    N    ? P      ? 20180313 0007   19.9791 GAU  1.28e-02 -1.00e+00  8.44e+00  2.00e-02    8.4400 >    0.2502    0.0016    2.5116  694.3120 5155.6801   -0.4360    0.0655 301.44  -1.0  -1.0  0     0.0000    0.0003
23           ?    N    ? P      ? 20180313 0007   19.9705 GAU  1.87e-02 -1.00e+00  7.75e+00  3.20e-02    7.7500 >    0.2718   -0.0287    1.6585  694.3677 5155.7226   -0.4473    0.0767 359.84  -1.0  -1.0  0     0.0000    0.0003
37           ?    N    ? P      ? 20180313 0007   19.9778 GAU  2.78e-02 -1.00e+00  7.07e+00  1.20e-02    7.0700 >    0.2407    0.0098    1.1672  694.4219 5155.5876   -0.4220    0.0795 137.18  -1.0  -1.0  0     0.0000    0.0002
38           ?    N    ? P      ? 20180313 0007   19.9340 GAU  2.42e-02 -1.00e+00  7.51e+00  1.20e-02    7.5100 >    0.2296   -0.0229    1.2058  694.3902 5155.5681   -0.4123    0.0809 164.04  -1.0  -1.0  0     0.0000    0.0002
21           ?    N    ? P      ? 20180313 0007   20.1310 GAU  2.87e-02 -1.00e+00  6.29e+00  6.00e-02    6.2900 >    0.2894    0.1143    0.0482  694.3642 5155.7391   -0.4517    0.0933 357.70  -1.0  -1.0  0     0.0000    0.0003
39           ?    N    ? P      ? 20180313 0007   19.9682 GAU  2.00e-02 -1.00e+00  8.10e+00  8.00e-03    8.1000 >    0.2374    0.0035    1.9938  694.3890 5155.5532   -0.4086    0.0951 167.17  -1.0  -1.0  0     0.0000    0.0002
20           ?    N    ? P      ? 20180313 0007   20.8100 GAU  2.81e-02 -1.00e+00  6.31e+00  4.80e-02    6.3100 >    0.3031    0.7795    0.0000  694.3609 5155.7515   -0.4553    0.1058 356.17  -1.0  -1.0  0     0.0000    0.0003
41           ?    N    ? P      ? 20180313 0007   19.9673 GAU  3.83e-02 -1.00e+00  7.50e+00  8.00e-03    7.5000 >    0.2471   -0.0072    1.5819  694.3901 5155.5386   -0.4053    0.1095 168.31  -1.0  -1.0  0     0.0000    0.0002
40           ?    N    ? P      ? 20180313 0007   19.9837 GAU  5.92e-02 -1.00e+00  6.70e+00  1.20e-02    6.7000 >    0.2616   -0.0053    1.0921  694.4169 5155.5417   -0.4131    0.1151 154.82  -1.0  -1.0  0     0.0000    0.0003
18           ?    N    ? P      ? 20180313 0007   20.3130 GAU  5.53e-02 -1.00e+00  6.04e+00  8.00e-03    6.0400 >    0.3208    0.2649    0.0472  694.3549 5155.7674   -0.4586    0.1222 353.88  -1.0  -1.0  0     0.0000    0.0003
END_PHASE
END_NLLOC

