NLLOC "./loc/RR.20180313.021102.grid0" "REJECTED" "WARNING: max prob location on grid boundary 31, rejecting location."
PUBLIC_ID None
SIGNATURE "   obs:./obs/nll_picks.obs   NLLoc:v7.00.10(30Aug2020)   run:29Apr2022 23h20m52"
COMMENT "Rattlesnake Ridge Slidequake Locations"
GRID  150 250 75  694.15 5155.4 0  0.002 0.002 0.002 PROB_DENSITY
SEARCH OCTREE nInitial 1000 nEvaluated 1712 smallestNodeSide 0.001863/0.003112/0.000925 oct_tree_integral 7.703440e-07 scatter_volume 7.692430e-07
HYPOCENTER  x 694.367 y 5155.82 z 0.147537  OT 2.08729  ix -1 iy -1 iz -1 MAXIMUM_LIKELIHOOD
GEOGRAPHIC  OT 2018 03 13  02 11 2.087293  Lat 5155.815519 Long 694.366981 Depth 0.147537
QUALITY  Pmax 1.21177e+117 MFmin 318.479 MFmax 318.531 RMS 0.00713532 Nphs 26 Gap 193.317 Dist 0.0204989 Mamp  0.64 26 Mdur -9.90 0
VPVSRATIO  VpVsRatio -1  Npair 0  Diff -2e+30
STATISTICS  ExpectX 694.354883 Y 5155.811476 Z 0.142131  CovXX 0.00100055 XY 0.000279745 XZ 0.000207845 YY 9.79585e-05 YZ 5.37204e-05 ZZ 9.68303e-05 EllAz1  162.411 Dip1  -8.32089 Len1  0.00786385 Az2  217.972 Dip2  75.4997 Len2  0.0136528 Len3  6.301844e-02
STAT_GEOG  ExpectLat 5155.811476 Long 694.354883 Depth 0.142131
TRANSFORM  NONE
QML_OriginQuality  assocPhCt 26  usedPhCt 26  assocStaCt -1  usedStaCt 26  depthPhCt -1  stdErr 0.00713532  azGap 193.317  secAzGap 207.096  gtLevel -  minDist 0.0204989 maxDist 0.146189 medDist 0.0739977
QML_OriginUncertainty  horUnc -1  minHorUnc 0.00648566  maxHorUnc 0.0498449  azMaxHorUnc 74.1033
QML_ConfidenceEllipsoid  semiMajorAxisLength 0.0630184  semiMinorAxisLength 0.00786385  semiIntermediateAxisLength 0.0136528  majorAxisPlunge 11.7901  majorAxisAzimuth 74.1602  majorAxisRotation 350.737
FOCALMECH  Hyp  5155.815519 694.366981 0.147537 Mech  0 0 0 mf  0 nObs -1
PHASE ID Ins Cmp On Pha  FM Date     HrMn   Sec     Err  ErrMag    Coda      Amp       Per       PriorWt  >   TTpred    Res       Weight    StaLoc(X  Y         Z)        SDist    SAzim  RAz  RDip RQual    Tcorr       TTerr
103          ?    N    ? P      ? 20180313 0211    2.3294 GAU  1.92e-02 -1.00e+00  8.31e+00  1.20e-02    8.3100 >    0.2169    0.0252    0.4378  694.3644 5155.7952   -0.4662    0.0205 187.34  -1.0  -1.0  0     0.0000    0.0002
12           ?    N    ? P      ? 20180313 0211    2.3054 GAU  3.05e-03 -1.00e+00  9.37e+00  8.00e-03    9.3700 >    0.2196   -0.0015    1.9617  694.3356 5155.8197   -0.4663    0.0316 277.66  -1.0  -1.0  0     0.0000    0.0002
16           ?    N    ? P      ? 20180313 0211    2.3266 GAU  7.64e-03 -1.00e+00  9.35e+00  1.20e-02    9.3500 >    0.2168    0.0225    0.2809  694.3452 5155.7921   -0.4642    0.0320 222.97  -1.0  -1.0  0     0.0000    0.0002
10           ?    N    ? P      ? 20180313 0211    2.3112 GAU  6.87e-03 -1.00e+00  8.04e+00  2.40e-02    8.0400 >    0.2234    0.0005    1.6545  694.3329 5155.8329   -0.4673    0.0382 297.00  -1.0  -1.0  0     0.0000    0.0002
17           ?    N    ? P      ? 20180313 0211    2.3177 GAU  5.66e-03 -1.00e+00  8.71e+00  1.20e-02    8.7100 >    0.2174    0.0130    0.5159  694.3461 5155.7815   -0.4621    0.0399 211.47  -1.0  -1.0  0     0.0000    0.0002
6            ?    N    ? P      ? 20180313 0211    2.3479 GAU  9.62e-03 -1.00e+00  8.17e+00  1.20e-02    8.1700 >    0.2319    0.0287    0.3156  694.3446 5155.8502   -0.4728    0.0412 327.18  -1.0  -1.0  0     0.0000    0.0002
15           ?    N    ? P      ? 20180313 0211    2.3059 GAU  2.18e-03 -1.00e+00  9.77e+00  8.00e-03    9.7700 >    0.2177    0.0009    2.1834  694.3206 5155.8107   -0.4609    0.0467 264.06  -1.0  -1.0  0     0.0000    0.0002
18           ?    N    ? P      ? 20180313 0211    2.3081 GAU  2.62e-03 -1.00e+00  8.47e+00  8.00e-03    8.4700 >    0.2169    0.0039    1.1792  694.3549 5155.7674   -0.4586    0.0496 194.11  -1.0  -1.0  0     0.0000    0.0002
8            ?    N    ? P      ? 20180313 0211    2.3112 GAU  4.13e-03 -1.00e+00  7.66e+00  8.00e-03    7.6600 >    0.2263   -0.0024    1.9478  694.3223 5155.8450   -0.4648    0.0535 303.42  -1.0  -1.0  0     0.0000    0.0002
20           ?    N    ? P      ? 20180313 0211    2.3115 GAU  5.23e-03 -1.00e+00  8.09e+00  8.00e-03    8.0900 >    0.2202    0.0040    1.0738  694.3609 5155.7515   -0.4553    0.0643 185.47  -1.0  -1.0  0     0.0000    0.0002
13           ?    N    ? P      ? 20180313 0211    2.3465 GAU  6.41e-03 -1.00e+00  8.01e+00  1.20e-02    8.0100 >    0.2219    0.0373    0.1565  694.3062 5155.8390   -0.4568    0.0652 291.16  -1.0  -1.0  0     0.0000    0.0002
4            ?    N    ? P      ? 20180313 0211    2.3456 GAU  6.41e-03 -1.00e+00  7.83e+00  1.20e-02    7.8300 >    0.2264    0.0319    0.1783  694.3090 5155.8520   -0.4586    0.0685 302.21  -1.0  -1.0  0     0.0000    0.0002
2            ?    N    ? P      ? 20180313 0211    2.3218 GAU  5.50e-03 -1.00e+00  7.74e+00  4.00e-02    7.7400 >    0.2329    0.0016    2.4964  694.3150 5155.8647   -0.4623    0.0715 313.40  -1.0  -1.0  0     0.0000    0.0002
21           ?    N    ? P      ? 20180313 0211    2.3183 GAU  8.50e-03 -1.00e+00  7.80e+00  8.00e-03    7.8000 >    0.2242    0.0068    0.8334  694.3642 5155.7391   -0.4517    0.0764 182.11  -1.0  -1.0  0     0.0000    0.0002
5            ?    N    ? P      ? 20180313 0211    2.3813 GAU  1.47e-02 -1.00e+00  8.16e+00  1.20e-02    8.1600 >    0.2238    0.0702    0.0824  694.2898 5155.8520   -0.4475    0.0854 295.27  -1.0  -1.0  0     0.0000    0.0002
23           ?    N    ? P      ? 20180313 0211    2.3292 GAU  5.02e-03 -1.00e+00  7.98e+00  8.00e-03    7.9800 >    0.2319    0.0100    0.7168  694.3677 5155.7226   -0.4473    0.0930 179.56  -1.0  -1.0  0     0.0000    0.0002
22           ?    N    ? P      ? 20180313 0211    2.3728 GAU  5.45e-03 -1.00e+00  7.50e+00  8.00e-03    7.5000 >    0.2352    0.0503    0.2081  694.3985 5155.7265   -0.4488    0.0944 160.49  -1.0  -1.0  0     0.0000    0.0002
7            ?    N    ? P      ? 20180313 0211    2.4015 GAU  6.41e-03 -1.00e+00  8.69e+00  1.20e-02    8.6900 >    0.2250    0.0892    0.0033  694.2704 5155.8450   -0.4359    0.1010 286.98  -1.0  -1.0  0     0.0000    0.0002
25           ?    N    ? P      ? 20180313 0211    2.3351 GAU  6.98e-03 -1.00e+00  7.39e+00  1.20e-02    7.3900 >    0.2404    0.0074    1.0762  694.3684 5155.7091   -0.4438    0.1064 179.22  -1.0  -1.0  0     0.0000    0.0002
9            ?    N    ? P      ? 20180313 0211    2.4340 GAU  5.96e-03 -1.00e+00  9.24e+00  1.20e-02    9.2400 >    0.2269    0.1198    0.0003  694.2594 5155.8351   -0.4296    0.1094 280.30  -1.0  -1.0  0     0.0000    0.0002
26           ?    N    ? P      ? 20180313 0211    2.3425 GAU  2.18e-03 -1.00e+00  7.24e+00  6.40e-02    7.2400 >    0.2566   -0.0013    2.4000  694.3783 5155.6910   -0.4400    0.1251 174.81  -1.0  -1.0  0     0.0000    0.0003
27           ?    N    ? P      ? 20180313 0211    2.3482 GAU  5.67e-03 -1.00e+00  6.38e+00  1.20e-02    6.3800 >    0.2610   -0.0001    1.8857  694.4008 5155.6912   -0.4412    0.1288 164.78  -1.0  -1.0  0     0.0000    0.0003
3            ?    N    ? P      ? 20180313 0211    2.4895 GAU  1.19e-02 -1.00e+00  7.98e+00  1.60e-02    7.9800 >    0.2440    0.1582    0.0002  694.2426 5155.8595   -0.4214    0.1319 289.46  -1.0  -1.0  0     0.0000    0.0002
105          ?    N    ? P      ? 20180313 0211    2.3519 GAU  5.88e-03 -1.00e+00  7.67e+00  1.20e-02    7.6700 >    0.2629    0.0017    1.9595  694.3764 5155.6832   -0.4382    0.1326 175.93  -1.0  -1.0  0     0.0000    0.0003
28           ?    N    ? P      ? 20180313 0211    2.3558 GAU  8.07e-03 -1.00e+00  6.74e+00  8.00e-03    6.7400 >    0.2713   -0.0028    1.5292  694.3767 5155.6745   -0.4362    0.1414 176.07  -1.0  -1.0  0     0.0000    0.0003
106          ?    N    ? P      ? 20180313 0211    2.3557 GAU  1.64e-02 -1.00e+00  6.05e+00  1.20e-02    6.0500 >    0.2765   -0.0081    0.9233  694.3120 5155.6801   -0.4360    0.1462 202.08  -1.0  -1.0  0     0.0000    0.0003
END_PHASE
END_NLLOC

