NLLOC "./loc/RR.20180313.000050.grid0" "REJECTED" "WARNING: max prob location on grid boundary 31, rejecting location."
PUBLIC_ID None
SIGNATURE "   obs:./obs/nll_picks.obs   NLLoc:v7.00.10(30Aug2020)   run:29Apr2022 23h16m02"
COMMENT "Rattlesnake Ridge Slidequake Locations"
GRID  150 250 75  694.15 5155.4 0  0.002 0.002 0.002 PROB_DENSITY
SEARCH OCTREE nInitial 1000 nEvaluated 11992 smallestNodeSide 0.001863/0.003112/0.000925 oct_tree_integral 8.704209e-05 scatter_volume 8.704209e-05
HYPOCENTER  x 694.19 y 5155.63 z 0.147537  OT 49.9644  ix -1 iy -1 iz -1 MAXIMUM_LIKELIHOOD
GEOGRAPHIC  OT 2018 03 13  00 00 49.964370  Lat 5155.634994 Long 694.190044 Depth 0.147537
QUALITY  Pmax 1.60168e+78 MFmin 144.717 MFmax 144.755 RMS 0.00768147 Nphs 19 Gap 298.874 Dist 0.130031 Mamp  0.79 19 Mdur -9.90 0
VPVSRATIO  VpVsRatio -1  Npair 0  Diff -2e+30
STATISTICS  ExpectX 694.194434 Y 5155.628169 Z 0.109918  CovXX 0.00196296 XY 0.000327358 XZ 0.000434444 YY 0.000165123 YZ 0.000264245 ZZ 0.00113625 EllAz1  172.702 Dip1  10.9967 Len1  0.0158792 Az2  285.697 Dip2  63.5527 Len2  0.0583274 Len3  8.870663e-02
STAT_GEOG  ExpectLat 5155.628169 Long 694.194434 Depth 0.109918
TRANSFORM  NONE
QML_OriginQuality  assocPhCt 19  usedPhCt 19  assocStaCt -1  usedStaCt 19  depthPhCt -1  stdErr 0.00768147  azGap 298.874  secAzGap 303.356  gtLevel -  minDist 0.130031 maxDist 0.24526 medDist 0.198054
QML_OriginUncertainty  horUnc -1  minHorUnc 0.0157148  maxHorUnc 0.0681736  azMaxHorUnc 79.995
QML_ConfidenceEllipsoid  semiMajorAxisLength 0.0887066  semiMinorAxisLength 0.0158792  semiIntermediateAxisLength 0.0583274  majorAxisPlunge 23.7319  majorAxisAzimuth 77.8011  majorAxisRotation 17.4915
FOCALMECH  Hyp  5155.634994 694.190044 0.147537 Mech  0 0 0 mf  0 nObs -1
PHASE ID Ins Cmp On Pha  FM Date     HrMn   Sec     Err  ErrMag    Coda      Amp       Per       PriorWt  >   TTpred    Res       Weight    StaLoc(X  Y         Z)        SDist    SAzim  RAz  RDip RQual    Tcorr       TTerr
106          ?    N    ? P      ? 20180313 0000   50.4003 GAU  8.27e-03 -1.00e+00  7.71e+00  8.00e-03    7.7100 >    0.3543    0.0816    0.0009  694.3120 5155.6801   -0.4360    0.1300  69.72  -1.0  -1.0  0     0.0000    0.0004
33           ?    N    ? P      ? 20180313 0000   50.3586 GAU  1.06e-02 -1.00e+00  8.70e+00  1.20e-02    8.7000 >    0.3921    0.0021    1.0020  694.3775 5155.6293   -0.4252    0.1876  91.73  -1.0  -1.0  0     0.0000    0.0004
32           ?    N    ? P      ? 20180313 0000   50.3485 GAU  1.24e-02 -1.00e+00  8.24e+00  1.20e-02    8.2400 >    0.3970   -0.0129    0.6481  694.3777 5155.6456   -0.4297    0.1879  86.77  -1.0  -1.0  0     0.0000    0.0004
30           ?    N    ? P      ? 20180313 0000   50.3643 GAU  7.62e-03 -1.00e+00  8.20e+00  1.20e-02    8.2000 >    0.4022   -0.0023    0.8814  694.3775 5155.6619   -0.4333    0.1893  81.83  -1.0  -1.0  0     0.0000    0.0004
28           ?    N    ? P      ? 20180313 0000   50.3724 GAU  8.65e-03 -1.00e+00  7.93e+00  8.00e-03    7.9300 >    0.4066    0.0015    0.8835  694.3767 5155.6745   -0.4362    0.1908  78.06  -1.0  -1.0  0     0.0000    0.0004
105          ?    N    ? P      ? 20180313 0000   50.3768 GAU  1.18e-02 -1.00e+00  8.27e+00  8.00e-03    8.2700 >    0.4101    0.0024    0.8663  694.3764 5155.6832   -0.4382    0.1925  75.49  -1.0  -1.0  0     0.0000    0.0004
35           ?    N    ? P      ? 20180313 0000   50.3666 GAU  1.04e-02 -1.00e+00  9.20e+00  1.20e-02    9.2000 >    0.3936    0.0086    1.1005  694.3818 5155.6141   -0.4216    0.1929  96.21  -1.0  -1.0  0     0.0000    0.0004
25           ?    N    ? P      ? 20180313 0000   50.4031 GAU  1.11e-02 -1.00e+00  7.53e+00  2.40e-02    7.5300 >    0.4175    0.0213    0.5700  694.3684 5155.7091   -0.4438    0.1932  67.44  -1.0  -1.0  0     0.0000    0.0004
26           ?    N    ? P      ? 20180313 0000   50.3753 GAU  1.41e-02 -1.00e+00  7.79e+00  1.20e-02    7.7900 >    0.4161   -0.0052    0.8204  694.3783 5155.6910   -0.4400    0.1964  73.44  -1.0  -1.0  0     0.0000    0.0004
23           ?    N    ? P      ? 20180313 0000   50.3911 GAU  7.33e-03 -1.00e+00  7.76e+00  3.20e-02    7.7600 >    0.4258    0.0009    1.5810  694.3677 5155.7226   -0.4473    0.1981  63.76  -1.0  -1.0  0     0.0000    0.0004
36           ?    N    ? P      ? 20180313 0000   50.3645 GAU  1.23e-02 -1.00e+00  7.41e+00  1.20e-02    7.4100 >    0.3973    0.0028    1.3916  694.3865 5155.5904   -0.4164    0.2015 102.80  -1.0  -1.0  0     0.0000    0.0004
20           ?    N    ? P      ? 20180313 0000   50.4067 GAU  1.47e-02 -1.00e+00  6.46e+00  8.00e-03    6.4600 >    0.4430   -0.0007    1.6168  694.3609 5155.7515   -0.4553    0.2067  55.71  -1.0  -1.0  0     0.0000    0.0004
38           ?    N    ? P      ? 20180313 0000   50.3735 GAU  1.88e-02 -1.00e+00  6.48e+00  1.20e-02    6.4800 >    0.4048    0.0043    1.3649  694.3902 5155.5681   -0.4123    0.2110 108.48  -1.0  -1.0  0     0.0000    0.0004
18           ?    N    ? P      ? 20180313 0000   50.4076 GAU  2.27e-02 -1.00e+00  5.77e+00  2.40e-02    5.7700 >    0.4518   -0.0086    1.3363  694.3549 5155.7674   -0.4586    0.2114  51.23  -1.0  -1.0  0     0.0000    0.0005
27           ?    N    ? P      ? 20180313 0000   50.3982 GAU  1.15e-02 -1.00e+00  7.26e+00  8.00e-03    7.2600 >    0.4389   -0.0050    0.9268  694.4008 5155.6912   -0.4412    0.2181  75.05  -1.0  -1.0  0     0.0000    0.0004
31           ?    N    ? P      ? 20180313 0000   50.3885 GAU  8.61e-03 -1.00e+00  6.47e+00  1.20e-02    6.4700 >    0.4326   -0.0085    0.7823  694.4086 5155.6503   -0.4335    0.2191  85.98  -1.0  -1.0  0     0.0000    0.0004
22           ?    N    ? P      ? 20180313 0000   50.4586 GAU  1.05e-02 -1.00e+00  6.87e+00  8.00e-03    6.8700 >    0.4566    0.0376    0.1542  694.3985 5155.7265   -0.4488    0.2277  66.29  -1.0  -1.0  0     0.0000    0.0005
37           ?    N    ? P      ? 20180313 0000   50.3823 GAU  2.22e-02 -1.00e+00  6.80e+00  1.20e-02    6.8000 >    0.4418   -0.0238    0.7425  694.4219 5155.5876   -0.4220    0.2367 101.55  -1.0  -1.0  0     0.0000    0.0004
40           ?    N    ? P      ? 20180313 0000   50.4081 GAU  1.21e-02 -1.00e+00  6.70e+00  1.20e-02    6.7000 >    0.4450   -0.0013    2.3306  694.4169 5155.5417   -0.4131    0.2453 112.35  -1.0  -1.0  0     0.0000    0.0004
END_PHASE
END_NLLOC

