NLLOC "./loc/RR.20180313.000147.grid0" "LOCATED" "Location completed."
PUBLIC_ID None
SIGNATURE "   obs:./obs/nll_picks.obs   NLLoc:v7.00.10(30Aug2020)   run:29Apr2022 23h16m06"
COMMENT "Rattlesnake Ridge Slidequake Locations"
GRID  150 250 75  694.15 5155.4 0  0.002 0.002 0.002 PROB_DENSITY
SEARCH OCTREE nInitial 1000 nEvaluated 15416 smallestNodeSide 0.001863/0.003112/0.000925 oct_tree_integral 1.019701e-04 scatter_volume 1.017063e-04
HYPOCENTER  x 694.334 y 5155.81 z 0.061975  OT 47.4818  ix -1 iy -1 iz -1 MAXIMUM_LIKELIHOOD
GEOGRAPHIC  OT 2018 03 13  00 01 47.481826  Lat 5155.807737 Long 694.334388 Depth 0.061975
QUALITY  Pmax 9.60508e+31 MFmin 55.5604 MFmax 55.5842 RMS 0.00730413 Nphs 10 Gap 126.172 Dist 0.0120626 Mamp  0.20 10 Mdur -9.90 0
VPVSRATIO  VpVsRatio -1  Npair 0  Diff -2e+30
STATISTICS  ExpectX 694.274497 Y 5155.806937 Z 0.094992  CovXX 0.00354392 XY 0.000428018 XZ 0.000152563 YY 0.000294509 YZ 0.000208637 ZZ 0.00115478 EllAz1  173.217 Dip1  11.2277 Len1  0.0266959 Az2  332.354 Dip2  78.0066 Len2  0.0645128 Len3  1.129223e-01
STAT_GEOG  ExpectLat 5155.806937 Long 694.274497 Depth 0.094992
TRANSFORM  NONE
QML_OriginQuality  assocPhCt 10  usedPhCt 10  assocStaCt -1  usedStaCt 10  depthPhCt -1  stdErr 0.00730413  azGap 126.172  secAzGap 162.135  gtLevel -  minDist 0.0120626 maxDist 0.0621763 medDist 0.0306333
QML_OriginUncertainty  horUnc -1  minHorUnc 0.0234494  maxHorUnc 0.0909863  azMaxHorUnc 82.6206
QML_ConfidenceEllipsoid  semiMajorAxisLength 0.112922  semiMinorAxisLength 0.0266959  semiIntermediateAxisLength 0.0645128  majorAxisPlunge 4.1625  majorAxisAzimuth 82.389  majorAxisRotation 11.3746
FOCALMECH  Hyp  5155.807737 694.334388 0.061975 Mech  0 0 0 mf  0 nObs -1
PHASE ID Ins Cmp On Pha  FM Date     HrMn   Sec     Err  ErrMag    Coda      Amp       Per       PriorWt  >   TTpred    Res       Weight    StaLoc(X  Y         Z)        SDist    SAzim  RAz  RDip RQual    Tcorr       TTerr
12           ?    N    ? P      ? 20180313 0001   47.5809 GAU  8.33e-03 -1.00e+00  8.25e+00  8.00e-03    8.2500 >    0.1031   -0.0040    0.9654  694.3356 5155.8197   -0.4663    0.0121   5.91  -1.0  -1.0  0     0.0000    0.0001
15           ?    N    ? P      ? 20180313 0001   47.5820 GAU  9.44e-03 -1.00e+00  8.77e+00  8.00e-03    8.7700 >    0.0953    0.0049    1.0313  694.3206 5155.8107   -0.4609    0.0141 282.05  -1.0  -1.0  0     0.0000    0.0001
16           ?    N    ? P      ? 20180313 0001   47.5948 GAU  6.66e-03 -1.00e+00  8.66e+00  1.20e-02    8.6600 >    0.1027    0.0103    0.5577  694.3452 5155.7921   -0.4642    0.0190 145.32  -1.0  -1.0  0     0.0000    0.0001
10           ?    N    ? P      ? 20180313 0001   47.5829 GAU  1.08e-02 -1.00e+00  7.55e+00  8.00e-03    7.5500 >    0.1101   -0.0091    1.1239  694.3329 5155.8329   -0.4673    0.0252 356.62  -1.0  -1.0  0     0.0000    0.0001
17           ?    N    ? P      ? 20180313 0001   47.5812 GAU  9.71e-03 -1.00e+00  7.95e+00  1.20e-02    7.9500 >    0.1052   -0.0058    0.8743  694.3461 5155.7815   -0.4621    0.0288 155.88  -1.0  -1.0  0     0.0000    0.0001
103          ?    N    ? P      ? 20180313 0001   47.5981 GAU  9.44e-03 -1.00e+00  7.13e+00  1.20e-02    7.1300 >    0.1134    0.0029    0.8667  694.3644 5155.7952   -0.4662    0.0325 112.72  -1.0  -1.0  0     0.0000    0.0001
13           ?    N    ? P      ? 20180313 0001   47.4463 GAU  1.08e-02 -1.00e+00  7.51e+00  2.80e-02    7.5100 >    0.1088   -0.1443    0.0000  694.3062 5155.8390   -0.4568    0.0421 318.01  -1.0  -1.0  0     0.0000    0.0001
6            ?    N    ? P      ? 20180313 0001   47.6127 GAU  1.27e-02 -1.00e+00  7.24e+00  2.80e-02    7.2400 >    0.1311   -0.0002    1.7189  694.3446 5155.8502   -0.4728    0.0436  13.57  -1.0  -1.0  0     0.0000    0.0001
18           ?    N    ? P      ? 20180313 0001   47.5784 GAU  6.94e-03 -1.00e+00  7.12e+00  5.60e-02    7.1200 >    0.1145   -0.0179    0.7191  694.3549 5155.7674   -0.4586    0.0452 153.05  -1.0  -1.0  0     0.0000    0.0001
20           ?    N    ? P      ? 20180313 0001   47.6117 GAU  7.50e-03 -1.00e+00  6.49e+00  4.80e-02    6.4900 >    0.1291    0.0007    2.1425  694.3609 5155.7515   -0.4553    0.0622 154.81  -1.0  -1.0  0     0.0000    0.0001
END_PHASE
END_NLLOC

