NLLOC "./loc/RR.20180313.000815.grid0" "LOCATED" "Location completed."
PUBLIC_ID None
SIGNATURE "   obs:./obs/nll_picks.obs   NLLoc:v7.00.10(30Aug2020)   run:29Apr2022 23h17m53"
COMMENT "Rattlesnake Ridge Slidequake Locations"
GRID  150 250 75  694.15 5155.4 0  0.002 0.002 0.002 PROB_DENSITY
SEARCH OCTREE nInitial 1000 nEvaluated 16904 smallestNodeSide 0.001863/0.003112/0.000925 oct_tree_integral 1.123419e-04 scatter_volume 1.123333e-04
HYPOCENTER  x 694.343 y 5155.57 z 0.0356125  OT 15.5916  ix -1 iy -1 iz -1 MAXIMUM_LIKELIHOOD
GEOGRAPHIC  OT 2018 03 13  00 08 15.591559  Lat 5155.569631 Long 694.342769 Depth 0.035612
QUALITY  Pmax 1.23498e+51 MFmin 75.6922 MFmax 75.7099 RMS 0.00801612 Nphs 14 Gap 237.898 Dist 0.0474115 Mamp  0.23 14 Mdur -9.90 0
VPVSRATIO  VpVsRatio -1  Npair 0  Diff -2e+30
STATISTICS  ExpectX 694.291826 Y 5155.536493 Z 0.062274  CovXX 0.00440267 XY 0.00242726 XZ 6.64518e-05 YY 0.00164104 YZ -0.000131223 ZZ 0.0015585 EllAz1  149.827 Dip1  -6.22978 Len1  0.0274398 Az2  328.761 Dip2  -83.7691 Len2  0.0745522 Len3  1.432650e-01
STAT_GEOG  ExpectLat 5155.536493 Long 694.291826 Depth 0.062274
TRANSFORM  NONE
QML_OriginQuality  assocPhCt 14  usedPhCt 14  assocStaCt -1  usedStaCt 14  depthPhCt -1  stdErr 0.00801612  azGap 237.898  secAzGap 254.713  gtLevel -  minDist 0.0474115 maxDist 0.110176 medDist 0.0742424
QML_OriginUncertainty  horUnc -1  minHorUnc 0.0229663  maxHorUnc 0.115642  azMaxHorUnc 59.8173
QML_ConfidenceEllipsoid  semiMajorAxisLength 0.143265  semiMinorAxisLength 0.0274398  semiIntermediateAxisLength 0.0745522  majorAxisPlunge -0.114952  majorAxisAzimuth 59.8143  majorAxisRotation 353.77
FOCALMECH  Hyp  5155.569631 694.342769 0.035612 Mech  0 0 0 mf  0 nObs -1
PHASE ID Ins Cmp On Pha  FM Date     HrMn   Sec     Err  ErrMag    Coda      Amp       Per       PriorWt  >   TTpred    Res       Weight    StaLoc(X  Y         Z)        SDist    SAzim  RAz  RDip RQual    Tcorr       TTerr
38           ?    N    ? P      ? 20180313 0008   15.6975 GAU  8.98e-03 -1.00e+00  7.52e+00  2.80e-02    7.5200 >    0.1036    0.0023    0.9464  694.3902 5155.5681   -0.4123    0.0474  91.83  -1.0  -1.0  0     0.0000    0.0001
36           ?    N    ? P      ? 20180313 0008   15.6965 GAU  8.04e-03 -1.00e+00  8.27e+00  1.20e-02    8.2700 >    0.1092   -0.0042    0.9162  694.3865 5155.5904   -0.4164    0.0484  64.66  -1.0  -1.0  0     0.0000    0.0001
39           ?    N    ? P      ? 20180313 0008   15.6951 GAU  9.45e-03 -1.00e+00  8.26e+00  8.00e-03    8.2600 >    0.1018    0.0018    1.1943  694.3890 5155.5532   -0.4086    0.0491 109.59  -1.0  -1.0  0     0.0000    0.0001
41           ?    N    ? P      ? 20180313 0008   15.7008 GAU  1.42e-02 -1.00e+00  7.45e+00  4.00e-02    7.4500 >    0.1088    0.0004    1.2662  694.3901 5155.5386   -0.4053    0.0566 123.21  -1.0  -1.0  0     0.0000    0.0001
35           ?    N    ? P      ? 20180313 0008   15.7192 GAU  1.56e-02 -1.00e+00  7.81e+00  8.00e-03    7.8100 >    0.1276    0.0000    0.8927  694.3818 5155.6141   -0.4216    0.0592  41.24  -1.0  -1.0  0     0.0000    0.0001
33           ?    N    ? P      ? 20180313 0008   15.7551 GAU  4.30e-02 -1.00e+00  6.41e+00  2.40e-02    6.4100 >    0.1440    0.0196    0.4563  694.3775 5155.6293   -0.4252    0.0691  30.20  -1.0  -1.0  0     0.0000    0.0001
42           ?    N    ? P      ? 20180313 0008   15.7055 GAU  2.84e-02 -1.00e+00  6.69e+00  1.20e-02    6.6900 >    0.1222   -0.0082    1.2246  694.3873 5155.5165   -0.3983    0.0693 140.03  -1.0  -1.0  0     0.0000    0.0001
40           ?    N    ? P      ? 20180313 0008   15.7372 GAU  8.98e-03 -1.00e+00  7.40e+00  1.20e-02    7.4000 >    0.1466   -0.0010    1.5331  694.4169 5155.5417   -0.4131    0.0792 110.64  -1.0  -1.0  0     0.0000    0.0001
37           ?    N    ? P      ? 20180313 0008   15.7712 GAU  3.55e-02 -1.00e+00  7.34e+00  2.80e-02    7.3400 >    0.1566    0.0230    0.4778  694.4219 5155.5876   -0.4220    0.0812  77.21  -1.0  -1.0  0     0.0000    0.0002
32           ?    N    ? P      ? 20180313 0008   15.7433 GAU  3.50e-02 -1.00e+00  6.75e+00  8.00e-03    6.7500 >    0.1668   -0.0150    0.7079  694.3777 5155.6456   -0.4297    0.0836  24.69  -1.0  -1.0  0     0.0000    0.0002
34           ?    N    ? P      ? 20180313 0008   15.7986 GAU  2.60e-02 -1.00e+00  6.60e+00  1.20e-02    6.6000 >    0.1656    0.0414    0.2738  694.4145 5155.6153   -0.4263    0.0850  57.53  -1.0  -1.0  0     0.0000    0.0002
30           ?    N    ? P      ? 20180313 0008   15.7736 GAU  1.89e-02 -1.00e+00  6.91e+00  1.20e-02    6.9100 >    0.1898   -0.0077    1.4466  694.3775 5155.6619   -0.4333    0.0986  20.61  -1.0  -1.0  0     0.0000    0.0002
31           ?    N    ? P      ? 20180313 0008   15.7485 GAU  1.75e-02 -1.00e+00  6.25e+00  1.20e-02    6.2500 >    0.1976   -0.0406    0.3075  694.4086 5155.6503   -0.4335    0.1042  39.21  -1.0  -1.0  0     0.0000    0.0002
28           ?    N    ? P      ? 20180313 0008   15.8034 GAU  1.09e-02 -1.00e+00  6.73e+00  1.20e-02    6.7300 >    0.2080    0.0038    2.3564  694.3767 5155.6745   -0.4362    0.1102  17.93  -1.0  -1.0  0     0.0000    0.0002
END_PHASE
END_NLLOC

