NLLOC "./loc/RR.20180313.015638.grid0" "REJECTED" "WARNING: max prob location on grid boundary 10, rejecting location."
PUBLIC_ID None
SIGNATURE "   obs:./obs/nll_picks.obs   NLLoc:v7.00.10(30Aug2020)   run:29Apr2022 23h20m38"
COMMENT "Rattlesnake Ridge Slidequake Locations"
GRID  150 250 75  694.15 5155.4 0  0.002 0.002 0.002 PROB_DENSITY
SEARCH OCTREE nInitial 1000 nEvaluated 1392 smallestNodeSide 0.001863/0.003112/0.000925 oct_tree_integral 1.199965e-06 scatter_volume 1.199965e-06
HYPOCENTER  x 694.151 y 5155.72 z 0.147537  OT 38.0188  ix -1 iy -1 iz -1 MAXIMUM_LIKELIHOOD
GEOGRAPHIC  OT 2018 03 13  01 56 38.018797  Lat 5155.719031 Long 694.150931 Depth 0.147537
QUALITY  Pmax 1.95978e+166 MFmin 506.815 MFmax 507.165 RMS 0.0127484 Nphs 35 Gap 276.032 Dist 0.158827 Mamp  0.86 35 Mdur -9.90 0
VPVSRATIO  VpVsRatio -1  Npair 0  Diff -2e+30
STATISTICS  ExpectX 694.158255 Y 5155.717627 Z 0.136436  CovXX 5.59687e-05 XY -1.05e-06 XZ -1.21058e-05 YY 5.08903e-05 YZ 1.83701e-05 ZZ 9.46973e-05 EllAz1  341.664 Dip1  -22.4375 Len1  0.0123556 Az2  248.93 Dip2  -6.58762 Len2  0.0138149 Len3  1.918279e-02
STAT_GEOG  ExpectLat 5155.717627 Long 694.158255 Depth 0.136436
TRANSFORM  NONE
QML_OriginQuality  assocPhCt 35  usedPhCt 35  assocStaCt -1  usedStaCt 35  depthPhCt -1  stdErr 0.0127484  azGap 276.032  secAzGap 278.195  gtLevel -  minDist 0.158827 maxDist 0.301188 medDist 0.22661
QML_OriginUncertainty  horUnc -1  minHorUnc 0.0107967  maxHorUnc 0.011367  azMaxHorUnc 101.233
QML_ConfidenceEllipsoid  semiMajorAxisLength 0.0191828  semiMinorAxisLength 0.0123556  semiIntermediateAxisLength 0.0138149  majorAxisPlunge -66.5128  majorAxisAzimuth 143.518  majorAxisRotation 101.59
FOCALMECH  Hyp  5155.719031 694.150931 0.147537 Mech  0 0 0 mf  0 nObs -1
PHASE ID Ins Cmp On Pha  FM Date     HrMn   Sec     Err  ErrMag    Coda      Amp       Per       PriorWt  >   TTpred    Res       Weight    StaLoc(X  Y         Z)        SDist    SAzim  RAz  RDip RQual    Tcorr       TTerr
9            ?    N    ? P      ? 20180313 0156   38.5498 GAU  6.71e-03 -1.00e+00  8.80e+00  1.20e-02    8.8000 >    0.3974    0.1336    0.0000  694.2594 5155.8351   -0.4296    0.1588  43.06  -1.0  -1.0  0     0.0000    0.0004
106          ?    N    ? P      ? 20180313 0156   38.4778 GAU  4.65e-03 -1.00e+00  8.09e+00  2.00e-02    8.0900 >    0.4060    0.0530    0.0491  694.3120 5155.6801   -0.4360    0.1657 103.60  -1.0  -1.0  0     0.0000    0.0004
7            ?    N    ? P      ? 20180313 0156   38.5127 GAU  8.10e-03 -1.00e+00  8.82e+00  1.20e-02    8.8200 >    0.4177    0.0762    0.0102  694.2704 5155.8450   -0.4359    0.1736  43.48  -1.0  -1.0  0     0.0000    0.0004
5            ?    N    ? P      ? 20180313 0156   38.5024 GAU  6.63e-03 -1.00e+00  9.59e+00  1.20e-02    9.5900 >    0.4467    0.0369    0.3579  694.2898 5155.8520   -0.4475    0.1922  46.24  -1.0  -1.0  0     0.0000    0.0004
15           ?    N    ? P      ? 20180313 0156   38.4572 GAU  8.84e-03 -1.00e+00  1.07e+01  1.20e-02   10.7000 >    0.4608   -0.0224    1.0856  694.3206 5155.8107   -0.4609    0.1928  61.62  -1.0  -1.0  0     0.0000    0.0005
13           ?    N    ? P      ? 20180313 0156   38.4800 GAU  4.07e-03 -1.00e+00  9.50e+00  8.00e-03    9.5000 >    0.4608    0.0004    2.9016  694.3062 5155.8390   -0.4568    0.1963  52.30  -1.0  -1.0  0     0.0000    0.0005
17           ?    N    ? P      ? 20180313 0156   38.5059 GAU  3.02e-03 -1.00e+00  7.78e+00  8.00e-03    7.7800 >    0.4703    0.0168    0.3460  694.3461 5155.7815   -0.4621    0.2050  72.26  -1.0  -1.0  0     0.0000    0.0005
4            ?    N    ? P      ? 20180313 0156   38.4847 GAU  6.63e-03 -1.00e+00  7.53e+00  2.40e-02    7.5300 >    0.4724   -0.0065    1.8231  694.3090 5155.8520   -0.4586    0.2066  49.93  -1.0  -1.0  0     0.0000    0.0005
16           ?    N    ? P      ? 20180313 0156   38.5042 GAU  3.53e-03 -1.00e+00  8.08e+00  8.00e-03    8.0800 >    0.4755    0.0099    0.9799  694.3452 5155.7921   -0.4642    0.2076  69.38  -1.0  -1.0  0     0.0000    0.0005
18           ?    N    ? P      ? 20180313 0156   38.5087 GAU  3.96e-03 -1.00e+00  7.19e+00  8.00e-03    7.1900 >    0.4691    0.0208    0.1470  694.3549 5155.7674   -0.4586    0.2096  76.66  -1.0  -1.0  0     0.0000    0.0005
12           ?    N    ? P      ? 20180313 0156   38.5007 GAU  2.83e-03 -1.00e+00  8.56e+00  8.00e-03    8.5600 >    0.4820   -0.0001    2.6442  694.3356 5155.8197   -0.4663    0.2104  61.40  -1.0  -1.0  0     0.0000    0.0005
20           ?    N    ? P      ? 20180313 0156   38.5008 GAU  5.34e-03 -1.00e+00  7.59e+00  8.00e-03    7.5900 >    0.4671    0.0149    0.3879  694.3609 5155.7515   -0.4553    0.2124  81.21  -1.0  -1.0  0     0.0000    0.0005
8            ?    N    ? P      ? 20180313 0156   38.4731 GAU  4.22e-03 -1.00e+00  8.10e+00  8.00e-03    8.1000 >    0.4843   -0.0300    0.8379  694.3223 5155.8450   -0.4648    0.2127  53.68  -1.0  -1.0  0     0.0000    0.0005
10           ?    N    ? P      ? 20180313 0156   38.4922 GAU  5.66e-03 -1.00e+00  8.43e+00  1.20e-02    8.4300 >    0.4877   -0.0143    1.0565  694.3329 5155.8329   -0.4673    0.2147  57.97  -1.0  -1.0  0     0.0000    0.0005
23           ?    N    ? P      ? 20180313 0156   38.4957 GAU  2.56e-03 -1.00e+00  8.53e+00  8.00e-03    8.5300 >    0.4616    0.0153    0.3803  694.3677 5155.7226   -0.4473    0.2168  89.07  -1.0  -1.0  0     0.0000    0.0005
25           ?    N    ? P      ? 20180313 0156   38.5138 GAU  2.09e-03 -1.00e+00  8.33e+00  7.20e-02    8.3300 >    0.4592    0.0358    0.2874  694.3684 5155.7091   -0.4438    0.2177  92.61  -1.0  -1.0  0     0.0000    0.0005
2            ?    N    ? P      ? 20180313 0156   38.4832 GAU  1.11e-02 -1.00e+00  7.44e+00  1.20e-02    7.4400 >    0.4885   -0.0241    0.9735  694.3150 5155.8647   -0.4623    0.2194  48.40  -1.0  -1.0  0     0.0000    0.0005
103          ?    N    ? P      ? 20180313 0156   38.5039 GAU  2.65e-02 -1.00e+00  7.06e+00  1.20e-02    7.0600 >    0.4936   -0.0085    0.8648  694.3644 5155.7952   -0.4662    0.2266  70.36  -1.0  -1.0  0     0.0000    0.0005
105          ?    N    ? P      ? 20180313 0156   38.4882 GAU  8.14e-03 -1.00e+00  8.49e+00  5.20e-02    8.4900 >    0.4631    0.0063    1.0403  694.3764 5155.6832   -0.4382    0.2283  99.02  -1.0  -1.0  0     0.0000    0.0005
26           ?    N    ? P      ? 20180313 0156   38.4847 GAU  2.32e-03 -1.00e+00  8.16e+00  1.20e-02    8.1600 >    0.4662   -0.0003    1.5857  694.3783 5155.6910   -0.4400    0.2291  97.04  -1.0  -1.0  0     0.0000    0.0005
28           ?    N    ? P      ? 20180313 0156   38.4843 GAU  5.11e-03 -1.00e+00  8.34e+00  8.00e-03    8.3400 >    0.4626    0.0029    1.2728  694.3767 5155.6745   -0.4362    0.2301 101.17  -1.0  -1.0  0     0.0000    0.0005
30           ?    N    ? P      ? 20180313 0156   38.4878 GAU  8.13e-03 -1.00e+00  7.31e+00  8.00e-03    7.3100 >    0.4633    0.0057    1.0963  694.3775 5155.6619   -0.4333    0.2336 104.15  -1.0  -1.0  0     0.0000    0.0005
6            ?    N    ? P      ? 20180313 0156   38.5296 GAU  1.03e-02 -1.00e+00  7.31e+00  2.40e-02    7.3100 >    0.5113   -0.0005    1.7949  694.3446 5155.8502   -0.4728    0.2339  55.90  -1.0  -1.0  0     0.0000    0.0005
32           ?    N    ? P      ? 20180313 0156   38.4847 GAU  4.19e-03 -1.00e+00  8.66e+00  8.00e-03    8.6600 >    0.4650    0.0009    1.6379  694.3777 5155.6456   -0.4297    0.2384 107.95  -1.0  -1.0  0     0.0000    0.0005
33           ?    N    ? P      ? 20180313 0156   38.4836 GAU  5.81e-03 -1.00e+00  8.81e+00  1.20e-02    8.8100 >    0.4660   -0.0012    1.7220  694.3775 5155.6293   -0.4252    0.2437 111.60  -1.0  -1.0  0     0.0000    0.0005
22           ?    N    ? P      ? 20180313 0156   38.5089 GAU  7.44e-03 -1.00e+00  7.01e+00  8.00e-03    7.0100 >    0.4925   -0.0024    1.2454  694.3985 5155.7265   -0.4488    0.2477  88.26  -1.0  -1.0  0     0.0000    0.0005
27           ?    N    ? P      ? 20180313 0156   38.5026 GAU  4.41e-03 -1.00e+00  7.09e+00  2.00e-02    7.0900 >    0.4892   -0.0054    1.2062  694.4008 5155.6912   -0.4412    0.2514  96.34  -1.0  -1.0  0     0.0000    0.0005
35           ?    N    ? P      ? 20180313 0156   38.4940 GAU  5.11e-03 -1.00e+00  8.77e+00  8.00e-03    8.7700 >    0.4722    0.0030    1.8735  694.3818 5155.6141   -0.4216    0.2536 114.44  -1.0  -1.0  0     0.0000    0.0005
31           ?    N    ? P      ? 20180313 0156   38.5050 GAU  1.23e-02 -1.00e+00  7.15e+00  3.60e-02    7.1500 >    0.4978   -0.0116    1.1368  694.4086 5155.6503   -0.4335    0.2667 104.92  -1.0  -1.0  0     0.0000    0.0005
36           ?    N    ? P      ? 20180313 0156   38.4824 GAU  4.65e-03 -1.00e+00  7.43e+00  1.20e-02    7.4300 >    0.4843   -0.0207    0.9838  694.3865 5155.5904   -0.4164    0.2684 118.64  -1.0  -1.0  0     0.0000    0.0005
38           ?    N    ? P      ? 20180313 0156   38.4894 GAU  4.65e-03 -1.00e+00  6.90e+00  1.20e-02    6.9000 >    0.4979   -0.0273    0.8969  694.3902 5155.5681   -0.4123    0.2829 122.25  -1.0  -1.0  0     0.0000    0.0005
34           ?    N    ? P      ? 20180313 0156   38.5131 GAU  1.26e-02 -1.00e+00  7.52e+00  3.20e-02    7.5200 >    0.5100   -0.0157    1.2008  694.4145 5155.6153   -0.4263    0.2833 111.49  -1.0  -1.0  0     0.0000    0.0005
39           ?    N    ? P      ? 20180313 0156   38.4682 GAU  1.05e-02 -1.00e+00  6.60e+00  8.00e-03    6.6000 >    0.5037   -0.0543    0.0814  694.3890 5155.5532   -0.4086    0.2902 124.86  -1.0  -1.0  0     0.0000    0.0005
41           ?    N    ? P      ? 20180313 0156   38.4936 GAU  3.30e-02 -1.00e+00  5.94e+00  1.20e-02    5.9400 >    0.5126   -0.0377    0.6962  694.3901 5155.5386   -0.4053    0.2996 127.02  -1.0  -1.0  0     0.0000    0.0005
37           ?    N    ? P      ? 20180313 0156   38.5078 GAU  7.67e-03 -1.00e+00  6.16e+00  4.00e-02    6.1600 >    0.5272   -0.0382    0.3960  694.4219 5155.5876   -0.4220    0.3012 115.87  -1.0  -1.0  0     0.0000    0.0005
END_PHASE
END_NLLOC

