NLLOC "./loc/RR.20180313.010111.grid0" "REJECTED" "WARNING: max prob location on grid boundary 10, rejecting location."
PUBLIC_ID None
SIGNATURE "   obs:./obs/nll_picks.obs   NLLoc:v7.00.10(30Aug2020)   run:29Apr2022 23h19m46"
COMMENT "Rattlesnake Ridge Slidequake Locations"
GRID  150 250 75  694.15 5155.4 0  0.002 0.002 0.002 PROB_DENSITY
SEARCH OCTREE nInitial 1000 nEvaluated 2320 smallestNodeSide 0.001863/0.003112/0.000925 oct_tree_integral 4.524413e-06 scatter_volume 4.521800e-06
HYPOCENTER  x 694.154 y 5155.61 z 0.14615  OT 11.463  ix -1 iy -1 iz -1 MAXIMUM_LIKELIHOOD
GEOGRAPHIC  OT 2018 03 13  01 01 11.462958  Lat 5155.605425 Long 694.153725 Depth 0.146150
QUALITY  Pmax 4.93847e+136 MFmin 421.24 MFmax 422.929 RMS 0.011786 Nphs 29 Gap 289.485 Dist 0.175003 Mamp  0.88 29 Mdur -9.90 0
VPVSRATIO  VpVsRatio -1  Npair 0  Diff -2e+30
STATISTICS  ExpectX 694.166420 Y 5155.607844 Z 0.130428  CovXX 0.000248085 XY 4.96604e-05 XZ 6.99922e-06 YY 4.27571e-05 YZ -4.6182e-06 ZZ 0.000273022 EllAz1  167.057 Dip1  -1.4377 Len1  0.0104987 Az2  256.531 Dip2  20.0843 Len2  0.0301403 Len3  3.117337e-02
STAT_GEOG  ExpectLat 5155.607844 Long 694.166420 Depth 0.130428
TRANSFORM  NONE
QML_OriginQuality  assocPhCt 29  usedPhCt 29  assocStaCt -1  usedStaCt 29  depthPhCt -1  stdErr 0.011786  azGap 289.485  secAzGap 294.883  gtLevel -  minDist 0.175003 maxDist 0.283509 medDist 0.24932
QML_OriginUncertainty  horUnc -1  minHorUnc 0.00849513  maxHorUnc 0.0244289  azMaxHorUnc 77.0931
QML_ConfidenceEllipsoid  semiMajorAxisLength 0.0311734  semiMinorAxisLength 0.0104987  semiIntermediateAxisLength 0.0301403  majorAxisPlunge -69.8598  majorAxisAzimuth 260.981  majorAxisRotation 174.529
FOCALMECH  Hyp  5155.605425 694.153725 0.146150 Mech  0 0 0 mf  0 nObs -1
PHASE ID Ins Cmp On Pha  FM Date     HrMn   Sec     Err  ErrMag    Coda      Amp       Per       PriorWt  >   TTpred    Res       Weight    StaLoc(X  Y         Z)        SDist    SAzim  RAz  RDip RQual    Tcorr       TTerr
106          ?    N    ? P      ? 20180313 0101   11.9825 GAU  1.54e-02 -1.00e+00  7.51e+00  2.00e-02    7.5100 >    0.4211    0.0984    0.0000  694.3120 5155.6801   -0.4360    0.1750  64.76  -1.0  -1.0  0     0.0000    0.0004
33           ?    N    ? P      ? 20180313 0101   11.9004 GAU  1.47e-03 -1.00e+00  8.88e+00  1.20e-02    8.8800 >    0.4539   -0.0165    1.2552  694.3775 5155.6293   -0.4252    0.2251  83.90  -1.0  -1.0  0     0.0000    0.0005
32           ?    N    ? P      ? 20180313 0101   11.9032 GAU  3.09e-03 -1.00e+00  9.22e+00  8.00e-03    9.2200 >    0.4609   -0.0206    0.9269  694.3777 5155.6456   -0.4297    0.2275  79.84  -1.0  -1.0  0     0.0000    0.0005
35           ?    N    ? P      ? 20180313 0101   11.9161 GAU  6.90e-04 -1.00e+00  1.01e+01  8.00e-03   10.1000 >    0.4530    0.0001    1.4057  694.3818 5155.6141   -0.4216    0.2282  87.82  -1.0  -1.0  0     0.0000    0.0005
30           ?    N    ? P      ? 20180313 0101   11.9282 GAU  1.85e-03 -1.00e+00  8.43e+00  8.00e-03    8.4300 >    0.4675   -0.0022    0.8992  694.3775 5155.6619   -0.4333    0.2308  75.83  -1.0  -1.0  0     0.0000    0.0005
36           ?    N    ? P      ? 20180313 0101   11.8974 GAU  1.73e-03 -1.00e+00  9.08e+00  1.20e-02    9.0800 >    0.4539   -0.0195    1.0908  694.3865 5155.5904   -0.4164    0.2333  93.70  -1.0  -1.0  0     0.0000    0.0005
28           ?    N    ? P      ? 20180313 0101   11.9309 GAU  2.63e-03 -1.00e+00  8.24e+00  8.00e-03    8.2400 >    0.4733   -0.0054    0.6887  694.3767 5155.6745   -0.4362    0.2334  72.80  -1.0  -1.0  0     0.0000    0.0005
105          ?    N    ? P      ? 20180313 0101   11.9411 GAU  1.94e-03 -1.00e+00  8.80e+00  1.20e-02    8.8000 >    0.4779    0.0003    0.9851  694.3764 5155.6832   -0.4382    0.2359  70.74  -1.0  -1.0  0     0.0000    0.0005
25           ?    N    ? P      ? 20180313 0101   11.9646 GAU  3.16e-03 -1.00e+00  7.86e+00  1.20e-02    7.8600 >    0.4865    0.0152    0.5963  694.3684 5155.7091   -0.4438    0.2384  64.22  -1.0  -1.0  0     0.0000    0.0005
38           ?    N    ? P      ? 20180313 0101   11.9028 GAU  2.98e-03 -1.00e+00  8.72e+00  1.20e-02    8.7200 >    0.4571   -0.0173    1.3605  694.3902 5155.5681   -0.4123    0.2394  98.97  -1.0  -1.0  0     0.0000    0.0005
26           ?    N    ? P      ? 20180313 0101   11.9411 GAU  3.69e-03 -1.00e+00  8.01e+00  8.00e-03    8.0100 >    0.4844   -0.0063    0.7430  694.3783 5155.6910   -0.4400    0.2403  69.15  -1.0  -1.0  0     0.0000    0.0005
39           ?    N    ? P      ? 20180313 0101   11.9163 GAU  2.36e-03 -1.00e+00  9.00e+00  8.00e-03    9.0000 >    0.4553   -0.0019    2.3857  694.3890 5155.5532   -0.4086    0.2410 102.52  -1.0  -1.0  0     0.0000    0.0005
23           ?    N    ? P      ? 20180313 0101   11.9597 GAU  2.51e-03 -1.00e+00  8.38e+00  1.20e-02    8.3800 >    0.4959    0.0008    1.2240  694.3677 5155.7226   -0.4473    0.2439  61.30  -1.0  -1.0  0     0.0000    0.0005
41           ?    N    ? P      ? 20180313 0101   11.9353 GAU  1.73e-03 -1.00e+00  8.50e+00  1.20e-02    8.5000 >    0.4583    0.0140    0.6243  694.3901 5155.5386   -0.4053    0.2456 105.78  -1.0  -1.0  0     0.0000    0.0005
21           ?    N    ? P      ? 20180313 0101   11.9690 GAU  7.92e-03 -1.00e+00  7.45e+00  8.00e-03    7.4500 >    0.5062   -0.0002    1.0633  694.3642 5155.7391   -0.4517    0.2493  57.57  -1.0  -1.0  0     0.0000    0.0005
42           ?    N    ? P      ? 20180313 0101   11.9335 GAU  1.30e-02 -1.00e+00  7.03e+00  4.40e-02    7.0300 >    0.4585    0.0121    0.8821  694.3873 5155.5165   -0.3983    0.2499 110.84  -1.0  -1.0  0     0.0000    0.0005
20           ?    N    ? P      ? 20180313 0101   11.9742 GAU  1.44e-02 -1.00e+00  6.96e+00  3.60e-02    6.9600 >    0.5141   -0.0028    1.0853  694.3609 5155.7515   -0.4553    0.2534  54.81  -1.0  -1.0  0     0.0000    0.0005
18           ?    N    ? P      ? 20180313 0101   11.9687 GAU  7.00e-03 -1.00e+00  6.63e+00  2.40e-02    6.6300 >    0.5231   -0.0173    1.5955  694.3549 5155.7674   -0.4586    0.2583  51.16  -1.0  -1.0  0     0.0000    0.0005
31           ?    N    ? P      ? 20180313 0101   11.9534 GAU  1.94e-03 -1.00e+00  7.60e+00  2.00e-02    7.6000 >    0.4968   -0.0064    0.6741  694.4086 5155.6503   -0.4335    0.2588  80.01  -1.0  -1.0  0     0.0000    0.0005
17           ?    N    ? P      ? 20180313 0101   11.9700 GAU  1.55e-02 -1.00e+00  7.06e+00  1.20e-02    7.0600 >    0.5300   -0.0229    1.0496  694.3461 5155.7815   -0.4621    0.2608  47.54  -1.0  -1.0  0     0.0000    0.0005
34           ?    N    ? P      ? 20180313 0101   11.9507 GAU  5.86e-03 -1.00e+00  8.34e+00  2.80e-02    8.3400 >    0.4928   -0.0051    1.1037  694.4145 5155.6153   -0.4263    0.2610  87.84  -1.0  -1.0  0     0.0000    0.0005
27           ?    N    ? P      ? 20180313 0101   11.9591 GAU  3.45e-03 -1.00e+00  6.92e+00  3.20e-02    6.9200 >    0.5068   -0.0106    0.7852  694.4008 5155.6912   -0.4412    0.2615  70.84  -1.0  -1.0  0     0.0000    0.0005
16           ?    N    ? P      ? 20180313 0101   11.9835 GAU  2.24e-02 -1.00e+00  6.49e+00  1.20e-02    6.4900 >    0.5393   -0.0187    1.0035  694.3452 5155.7921   -0.4642    0.2674  45.72  -1.0  -1.0  0     0.0000    0.0005
37           ?    N    ? P      ? 20180313 0101   11.9449 GAU  2.11e-03 -1.00e+00  8.62e+00  1.20e-02    8.6200 >    0.4988   -0.0169    1.3457  694.4219 5155.5876   -0.4220    0.2688  93.80  -1.0  -1.0  0     0.0000    0.0005
40           ?    N    ? P      ? 20180313 0101   11.9420 GAU  3.23e-03 -1.00e+00  8.59e+00  2.00e-02    8.5900 >    0.4941   -0.0151    1.7448  694.4169 5155.5417   -0.4131    0.2708 103.61  -1.0  -1.0  0     0.0000    0.0005
22           ?    N    ? P      ? 20180313 0101   11.9719 GAU  3.70e-03 -1.00e+00  6.59e+00  8.00e-03    6.5900 >    0.5263   -0.0174    1.6646  694.3985 5155.7265   -0.4488    0.2731  63.67  -1.0  -1.0  0     0.0000    0.0005
12           ?    N    ? P      ? 20180313 0101   11.9700 GAU  1.20e-02 -1.00e+00  5.90e+00  6.00e-02    5.9000 >    0.5565   -0.0494    0.0463  694.3356 5155.8197   -0.4663    0.2811  40.32  -1.0  -1.0  0     0.0000    0.0006
103          ?    N    ? P      ? 20180313 0101   11.9915 GAU  2.55e-02 -1.00e+00  6.59e+00  2.40e-02    6.5900 >    0.5561   -0.0276    0.7708  694.3644 5155.7952   -0.4662    0.2835  47.98  -1.0  -1.0  0     0.0000    0.0006
6            ?    N    ? P      ? 20180313 0101   12.4540 GAU  1.75e-02 -1.00e+00  6.33e+00  2.40e-02    6.3300 >    0.5933    0.3977    0.0000  694.3446 5155.8502   -0.4728    0.3104  37.96  -1.0  -1.0  0     0.0000    0.0006
END_PHASE
END_NLLOC

