NLLOC "./loc/RR.20180313.014952.grid0" "REJECTED" "WARNING: max prob location on grid boundary 10, rejecting location."
PUBLIC_ID None
SIGNATURE "   obs:./obs/nll_picks.obs   NLLoc:v7.00.10(30Aug2020)   run:29Apr2022 23h20m32"
COMMENT "Rattlesnake Ridge Slidequake Locations"
GRID  150 250 75  694.15 5155.4 0  0.002 0.002 0.002 PROB_DENSITY
SEARCH OCTREE nInitial 1000 nEvaluated 3840 smallestNodeSide 0.001863/0.003112/0.000925 oct_tree_integral 1.751389e-05 scatter_volume 1.749331e-05
HYPOCENTER  x 694.151 y 5155.65 z 0.147537  OT 52.36  ix -1 iy -1 iz -1 MAXIMUM_LIKELIHOOD
GEOGRAPHIC  OT 2018 03 13  01 49 52.360049  Lat 5155.650556 Long 694.150931 Depth 0.147537
QUALITY  Pmax 8.05831e+116 MFmin 244.824 MFmax 244.918 RMS 0.00917011 Nphs 26 Gap 295.255 Dist 0.163765 Mamp  0.85 26 Mdur -9.90 0
VPVSRATIO  VpVsRatio -1  Npair 0  Diff -2e+30
STATISTICS  ExpectX 694.170650 Y 5155.647963 Z 0.121664  CovXX 0.000314046 XY 3.43956e-05 XZ 6.62424e-05 YY 8.37339e-05 YZ 0.000111041 ZZ 0.000617638 EllAz1  175.08 Dip1  10.655 Len1  0.0145296 Az2  267.496 Dip2  12.6316 Len2  0.0325797 Len3  4.808199e-02
STAT_GEOG  ExpectLat 5155.647963 Long 694.170650 Depth 0.121664
TRANSFORM  NONE
QML_OriginQuality  assocPhCt 26  usedPhCt 26  assocStaCt -1  usedStaCt 26  depthPhCt -1  stdErr 0.00917011  azGap 295.255  secAzGap 301.661  gtLevel -  minDist 0.163765 maxDist 0.287353 medDist 0.235056
QML_OriginUncertainty  horUnc -1  minHorUnc 0.0134546  maxHorUnc 0.02709  azMaxHorUnc 81.6849
QML_ConfidenceEllipsoid  semiMajorAxisLength 0.048082  semiMinorAxisLength 0.0145296  semiIntermediateAxisLength 0.0325797  majorAxisPlunge 73.3592  majorAxisAzimuth 46.0693  majorAxisRotation 314.676
FOCALMECH  Hyp  5155.650556 694.150931 0.147537 Mech  0 0 0 mf  0 nObs -1
PHASE ID Ins Cmp On Pha  FM Date     HrMn   Sec     Err  ErrMag    Coda      Amp       Per       PriorWt  >   TTpred    Res       Weight    StaLoc(X  Y         Z)        SDist    SAzim  RAz  RDip RQual    Tcorr       TTerr
106          ?    N    ? P      ? 20180313 0149   52.8296 GAU  9.46e-03 -1.00e+00  7.94e+00  8.00e-03    7.9400 >    0.4116    0.0580    0.0369  694.3120 5155.6801   -0.4360    0.1638  79.62  -1.0  -1.0  0     0.0000    0.0004
25           ?    N    ? P      ? 20180313 0149   52.8422 GAU  1.69e-02 -1.00e+00  7.91e+00  1.20e-02    7.9100 >    0.4728    0.0094    0.8029  694.3684 5155.7091   -0.4438    0.2252  74.93  -1.0  -1.0  0     0.0000    0.0005
32           ?    N    ? P      ? 20180313 0149   52.8204 GAU  4.87e-03 -1.00e+00  8.85e+00  1.20e-02    8.8500 >    0.4594    0.0010    1.0837  694.3777 5155.6456   -0.4297    0.2268  91.26  -1.0  -1.0  0     0.0000    0.0005
30           ?    N    ? P      ? 20180313 0149   52.8281 GAU  8.60e-03 -1.00e+00  9.07e+00  1.20e-02    9.0700 >    0.4629    0.0052    0.8918  694.3775 5155.6619   -0.4333    0.2268  87.13  -1.0  -1.0  0     0.0000    0.0005
28           ?    N    ? P      ? 20180313 0149   52.8233 GAU  1.58e-02 -1.00e+00  8.56e+00  8.00e-03    8.5600 >    0.4663   -0.0030    0.7499  694.3767 5155.6745   -0.4362    0.2270  83.96  -1.0  -1.0  0     0.0000    0.0005
33           ?    N    ? P      ? 20180313 0149   52.8175 GAU  9.46e-03 -1.00e+00  8.84e+00  1.20e-02    8.8400 >    0.4560    0.0014    1.0298  694.3775 5155.6293   -0.4252    0.2276  95.35  -1.0  -1.0  0     0.0000    0.0005
105          ?    N    ? P      ? 20180313 0149   52.8370 GAU  9.46e-03 -1.00e+00  9.02e+00  8.00e-03    9.0200 >    0.4691    0.0079    0.8665  694.3764 5155.6832   -0.4382    0.2278  81.75  -1.0  -1.0  0     0.0000    0.0005
23           ?    N    ? P      ? 20180313 0149   52.8471 GAU  1.49e-02 -1.00e+00  7.96e+00  8.00e-03    7.9600 >    0.4799    0.0072    0.9951  694.3677 5155.7226   -0.4473    0.2284  71.63  -1.0  -1.0  0     0.0000    0.0005
21           ?    N    ? P      ? 20180313 0149   52.8626 GAU  1.32e-02 -1.00e+00  7.29e+00  8.00e-03    7.2900 >    0.4874    0.0152    0.9406  694.3642 5155.7391   -0.4517    0.2309  67.44  -1.0  -1.0  0     0.0000    0.0005
26           ?    N    ? P      ? 20180313 0149   52.8307 GAU  7.74e-03 -1.00e+00  8.47e+00  1.20e-02    8.4700 >    0.4742   -0.0035    1.0730  694.3783 5155.6910   -0.4400    0.2309  79.92  -1.0  -1.0  0     0.0000    0.0005
20           ?    N    ? P      ? 20180313 0149   52.8494 GAU  6.31e-03 -1.00e+00  6.56e+00  2.40e-02    6.5600 >    0.4931   -0.0037    1.7340  694.3609 5155.7515   -0.4553    0.2329  64.32  -1.0  -1.0  0     0.0000    0.0005
35           ?    N    ? P      ? 20180313 0149   52.8207 GAU  6.30e-03 -1.00e+00  9.36e+00  3.20e-02    9.3600 >    0.4579    0.0028    1.2790  694.3818 5155.6141   -0.4216    0.2337  98.97  -1.0  -1.0  0     0.0000    0.0005
17           ?    N    ? P      ? 20180313 0149   52.8720 GAU  1.52e-02 -1.00e+00  6.40e+00  1.20e-02    6.4000 >    0.5044    0.0076    1.5413  694.3461 5155.7815   -0.4621    0.2351  56.15  -1.0  -1.0  0     0.0000    0.0005
18           ?    N    ? P      ? 20180313 0149   52.8491 GAU  9.46e-03 -1.00e+00  5.70e+00  1.20e-02    5.7000 >    0.4995   -0.0104    1.2154  694.3549 5155.7674   -0.4586    0.2351  60.19  -1.0  -1.0  0     0.0000    0.0005
16           ?    N    ? P      ? 20180313 0149   52.8932 GAU  1.81e-02 -1.00e+00  6.48e+00  4.40e-02    6.4800 >    0.5122    0.0210    1.1162  694.3452 5155.7921   -0.4642    0.2404  53.92  -1.0  -1.0  0     0.0000    0.0005
36           ?    N    ? P      ? 20180313 0149   52.8230 GAU  4.01e-03 -1.00e+00  7.87e+00  1.20e-02    7.8700 >    0.4631   -0.0001    1.6178  694.3865 5155.5904   -0.4164    0.2432 104.33  -1.0  -1.0  0     0.0000    0.0005
12           ?    N    ? P      ? 20180313 0149   52.8479 GAU  1.98e-02 -1.00e+00  5.72e+00  2.80e-02    5.7200 >    0.5252   -0.0373    0.4308  694.3356 5155.8197   -0.4663    0.2505  47.51  -1.0  -1.0  0     0.0000    0.0005
38           ?    N    ? P      ? 20180313 0149   52.8279 GAU  6.60e-03 -1.00e+00  7.23e+00  1.20e-02    7.2300 >    0.4710   -0.0031    1.7366  694.3902 5155.5681   -0.4123    0.2530 109.02  -1.0  -1.0  0     0.0000    0.0005
27           ?    N    ? P      ? 20180313 0149   52.8737 GAU  2.49e-02 -1.00e+00  7.70e+00  8.00e-03    7.7000 >    0.4973    0.0163    0.5617  694.4008 5155.6912   -0.4412    0.2531  80.75  -1.0  -1.0  0     0.0000    0.0005
39           ?    N    ? P      ? 20180313 0149   52.8565 GAU  7.75e-03 -1.00e+00  7.49e+00  1.20e-02    7.4900 >    0.4722    0.0243    0.9318  694.3890 5155.5532   -0.4086    0.2572 112.25  -1.0  -1.0  0     0.0000    0.0005
31           ?    N    ? P      ? 20180313 0149   52.8723 GAU  8.60e-03 -1.00e+00  7.13e+00  1.20e-02    7.1300 >    0.4946    0.0177    0.6073  694.4086 5155.6503   -0.4335    0.2577  90.05  -1.0  -1.0  0     0.0000    0.0005
103          ?    N    ? P      ? 20180313 0149   52.8422 GAU  1.29e-02 -1.00e+00  5.95e+00  1.20e-02    5.9500 >    0.5295   -0.0474    0.0818  694.3644 5155.7952   -0.4662    0.2578  55.88  -1.0  -1.0  0     0.0000    0.0005
22           ?    N    ? P      ? 20180313 0149   52.8628 GAU  2.26e-02 -1.00e+00  6.68e+00  8.00e-03    6.6800 >    0.5107   -0.0079    0.7589  694.3985 5155.7265   -0.4488    0.2590  72.94  -1.0  -1.0  0     0.0000    0.0005
34           ?    N    ? P      ? 20180313 0149   52.8600 GAU  7.17e-03 -1.00e+00  7.83e+00  1.20e-02    7.8300 >    0.4976    0.0024    1.2836  694.4145 5155.6153   -0.4263    0.2659  97.62  -1.0  -1.0  0     0.0000    0.0005
37           ?    N    ? P      ? 20180313 0149   52.8456 GAU  1.00e-02 -1.00e+00  7.07e+00  1.20e-02    7.0700 >    0.5074   -0.0219    0.6388  694.4219 5155.5876   -0.4220    0.2782 103.08  -1.0  -1.0  0     0.0000    0.0005
40           ?    N    ? P      ? 20180313 0149   52.8680 GAU  9.46e-03 -1.00e+00  6.98e+00  8.00e-03    6.9800 >    0.5114   -0.0035    1.9948  694.4169 5155.5417   -0.4131    0.2874 112.26  -1.0  -1.0  0     0.0000    0.0005
END_PHASE
END_NLLOC

