NLLOC "./loc/RR.20180313.014346.grid0" "REJECTED" "WARNING: max prob location on grid boundary 31, rejecting location."
PUBLIC_ID None
SIGNATURE "   obs:./obs/nll_picks.obs   NLLoc:v7.00.10(30Aug2020)   run:29Apr2022 23h20m28"
COMMENT "Rattlesnake Ridge Slidequake Locations"
GRID  150 250 75  694.15 5155.4 0  0.002 0.002 0.002 PROB_DENSITY
SEARCH OCTREE nInitial 1000 nEvaluated 3320 smallestNodeSide 0.001863/0.003112/0.000925 oct_tree_integral 8.745963e-06 scatter_volume 8.745963e-06
HYPOCENTER  x 694.281 y 5155.7 z 0.147537  OT 45.8848  ix -1 iy -1 iz -1 MAXIMUM_LIKELIHOOD
GEOGRAPHIC  OT 2018 03 13  01 43 45.884751  Lat 5155.703469 Long 694.281306 Depth 0.147537
QUALITY  Pmax 2.9397e+138 MFmin 318.975 MFmax 319.031 RMS 0.0132013 Nphs 30 Gap 218.885 Dist 0.0386174 Mamp  0.65 30 Mdur -9.90 0
VPVSRATIO  VpVsRatio -1  Npair 0  Diff -2e+30
STATISTICS  ExpectX 694.265719 Y 5155.695745 Z 0.133011  CovXX 0.00216567 XY 0.000766154 XZ 0.000339408 YY 0.000308632 YZ 0.000129829 ZZ 0.000271365 EllAz1  160.586 Dip1  2.31366 Len1  0.0108011 Az2  264.484 Dip2  80.452 Len2  0.0273846 Len3  9.394477e-02
STAT_GEOG  ExpectLat 5155.695745 Long 694.265719 Depth 0.133011
TRANSFORM  NONE
QML_OriginQuality  assocPhCt 30  usedPhCt 30  assocStaCt -1  usedStaCt 30  depthPhCt -1  stdErr 0.0132013  azGap 218.885  secAzGap 223.947  gtLevel -  minDist 0.0386174 maxDist 0.164689 medDist 0.120785
QML_OriginUncertainty  horUnc -1  minHorUnc 0.00875798  maxHorUnc 0.0749279  azMaxHorUnc 70.2364
QML_ConfidenceEllipsoid  semiMajorAxisLength 0.0939448  semiMinorAxisLength 0.0108011  semiIntermediateAxisLength 0.0273846  majorAxisPlunge 9.25838  majorAxisAzimuth 70.2083  majorAxisRotation 2.47204
FOCALMECH  Hyp  5155.703469 694.281306 0.147537 Mech  0 0 0 mf  0 nObs -1
PHASE ID Ins Cmp On Pha  FM Date     HrMn   Sec     Err  ErrMag    Coda      Amp       Per       PriorWt  >   TTpred    Res       Weight    StaLoc(X  Y         Z)        SDist    SAzim  RAz  RDip RQual    Tcorr       TTerr
106          ?    N    ? P      ? 20180313 0143   46.1609 GAU  9.74e-03 -1.00e+00  7.29e+00  1.20e-02    7.2900 >    0.2240    0.0521    0.3449  694.3120 5155.6801   -0.4360    0.0386 127.32  -1.0  -1.0  0     0.0000    0.0002
25           ?    N    ? P      ? 20180313 0143   46.1547 GAU  6.82e-03 -1.00e+00  7.80e+00  2.80e-02    7.8000 >    0.2627    0.0073    1.0505  694.3684 5155.7091   -0.4438    0.0873  86.29  -1.0  -1.0  0     0.0000    0.0003
23           ?    N    ? P      ? 20180313 0143   46.1495 GAU  6.17e-03 -1.00e+00  8.05e+00  8.00e-03    8.0500 >    0.2680   -0.0033    1.2376  694.3677 5155.7226   -0.4473    0.0885  77.54  -1.0  -1.0  0     0.0000    0.0003
21           ?    N    ? P      ? 20180313 0143   46.1804 GAU  7.15e-03 -1.00e+00  7.79e+00  8.00e-03    7.7900 >    0.2748    0.0208    0.4669  694.3642 5155.7391   -0.4517    0.0902  66.72  -1.0  -1.0  0     0.0000    0.0003
20           ?    N    ? P      ? 20180313 0143   46.1713 GAU  4.55e-03 -1.00e+00  7.54e+00  8.00e-03    7.5400 >    0.2809    0.0057    0.9838  694.3609 5155.7515   -0.4553    0.0929  58.89  -1.0  -1.0  0     0.0000    0.0003
105          ?    N    ? P      ? 20180313 0143   46.1765 GAU  3.90e-03 -1.00e+00  8.60e+00  1.20e-02    8.6000 >    0.2634    0.0283    0.5791  694.3764 5155.6832   -0.4382    0.0972 102.01  -1.0  -1.0  0     0.0000    0.0003
18           ?    N    ? P      ? 20180313 0143   46.1683 GAU  6.82e-03 -1.00e+00  7.61e+00  8.00e-03    7.6100 >    0.2889   -0.0054    1.0161  694.3549 5155.7674   -0.4586    0.0975  49.01  -1.0  -1.0  0     0.0000    0.0003
26           ?    N    ? P      ? 20180313 0143   46.1511 GAU  5.85e-03 -1.00e+00  7.73e+00  1.20e-02    7.7300 >    0.2663   -0.0000    1.5632  694.3783 5155.6910   -0.4400    0.0978  97.34  -1.0  -1.0  0     0.0000    0.0003
28           ?    N    ? P      ? 20180313 0143   46.1417 GAU  8.77e-03 -1.00e+00  7.02e+00  7.20e-02    7.0200 >    0.2627   -0.0057    1.3026  694.3767 5155.6745   -0.4362    0.0997 106.92  -1.0  -1.0  0     0.0000    0.0003
17           ?    N    ? P      ? 20180313 0143   46.1830 GAU  6.49e-03 -1.00e+00  7.63e+00  1.20e-02    7.6300 >    0.2963    0.0019    1.1435  694.3461 5155.7815   -0.4621    0.1014  39.73  -1.0  -1.0  0     0.0000    0.0003
16           ?    N    ? P      ? 20180313 0143   46.1940 GAU  7.15e-03 -1.00e+00  8.79e+00  1.20e-02    8.7900 >    0.3049    0.0043    1.2011  694.3452 5155.7921   -0.4642    0.1093  35.78  -1.0  -1.0  0     0.0000    0.0003
32           ?    N    ? P      ? 20180313 0143   46.1528 GAU  1.27e-02 -1.00e+00  6.79e+00  3.20e-02    6.7900 >    0.2663    0.0017    1.4553  694.3777 5155.6456   -0.4297    0.1124 120.99  -1.0  -1.0  0     0.0000    0.0003
15           ?    N    ? P      ? 20180313 0143   46.2206 GAU  1.04e-02 -1.00e+00  8.25e+00  6.80e-02    8.2500 >    0.3041    0.0317    0.5340  694.3206 5155.8107   -0.4609    0.1142  20.11  -1.0  -1.0  0     0.0000    0.0003
22           ?    N    ? P      ? 20180313 0143   46.2183 GAU  6.81e-03 -1.00e+00  7.55e+00  8.00e-03    7.5500 >    0.2949    0.0386    0.4664  694.3985 5155.7265   -0.4488    0.1194  78.86  -1.0  -1.0  0     0.0000    0.0003
27           ?    N    ? P      ? 20180313 0143   46.1729 GAU  7.47e-03 -1.00e+00  6.53e+00  8.00e-03    6.5300 >    0.2871    0.0010    1.4337  694.4008 5155.6912   -0.4412    0.1201  95.84  -1.0  -1.0  0     0.0000    0.0003
33           ?    N    ? P      ? 20180313 0143   46.1618 GAU  1.46e-02 -1.00e+00  6.66e+00  1.20e-02    6.6600 >    0.2702    0.0068    1.4582  694.3775 5155.6293   -0.4252    0.1215 127.62  -1.0  -1.0  0     0.0000    0.0003
103          ?    N    ? P      ? 20180313 0143   46.2086 GAU  1.66e-02 -1.00e+00  7.03e+00  1.20e-02    7.0300 >    0.3192    0.0047    0.8243  694.3644 5155.7952   -0.4662    0.1237  42.16  -1.0  -1.0  0     0.0000    0.0003
12           ?    N    ? P      ? 20180313 0143   46.2067 GAU  8.12e-03 -1.00e+00  8.19e+00  8.00e-03    8.1900 >    0.3230   -0.0011    1.4110  694.3356 5155.8197   -0.4663    0.1283  25.04  -1.0  -1.0  0     0.0000    0.0003
9            ?    N    ? P      ? 20180313 0143   46.2424 GAU  3.80e-02 -1.00e+00  7.74e+00  1.20e-02    7.7400 >    0.2858    0.0718    0.3128  694.2594 5155.8351   -0.4296    0.1334 350.54  -1.0  -1.0  0     0.0000    0.0003
35           ?    N    ? P      ? 20180313 0143   46.1638 GAU  1.66e-02 -1.00e+00  7.12e+00  1.20e-02    7.1200 >    0.2794   -0.0003    1.5711  694.3818 5155.6141   -0.4216    0.1345 131.65  -1.0  -1.0  0     0.0000    0.0003
13           ?    N    ? P      ? 20180313 0143   46.2602 GAU  1.17e-02 -1.00e+00  7.08e+00  8.00e-03    7.0800 >    0.3203    0.0551    0.2183  694.3062 5155.8390   -0.4568    0.1378  10.41  -1.0  -1.0  0     0.0000    0.0003
31           ?    N    ? P      ? 20180313 0143   46.1771 GAU  1.10e-02 -1.00e+00  6.65e+00  1.20e-02    6.6500 >    0.2959   -0.0035    1.5408  694.4086 5155.6503   -0.4335    0.1380 112.65  -1.0  -1.0  0     0.0000    0.0003
10           ?    N    ? P      ? 20180313 0143   46.2203 GAU  6.17e-03 -1.00e+00  7.48e+00  8.00e-03    7.4800 >    0.3341    0.0014    1.6402  694.3329 5155.8329   -0.4673    0.1393  21.74  -1.0  -1.0  0     0.0000    0.0003
7            ?    N    ? P      ? 20180313 0143   46.2755 GAU  6.17e-03 -1.00e+00  6.36e+00  1.20e-02    6.3600 >    0.3014    0.0894    0.0021  694.2704 5155.8450   -0.4359    0.1420 355.60  -1.0  -1.0  0     0.0000    0.0003
8            ?    N    ? P      ? 20180313 0143   46.2213 GAU  4.55e-03 -1.00e+00  6.04e+00  8.00e-03    6.0400 >    0.3386   -0.0021    1.7123  694.3223 5155.8450   -0.4648    0.1474  16.15  -1.0  -1.0  0     0.0000    0.0003
5            ?    N    ? P      ? 20180313 0143   46.2206 GAU  2.01e-02 -1.00e+00  6.90e+00  1.20e-02    6.9000 >    0.3200    0.0158    1.1334  694.2898 5155.8520   -0.4475    0.1487   3.26  -1.0  -1.0  0     0.0000    0.0003
4            ?    N    ? P      ? 20180313 0143   46.2550 GAU  9.74e-03 -1.00e+00  6.56e+00  1.20e-02    6.5600 >    0.3352    0.0351    0.5544  694.3090 5155.8520   -0.4586    0.1511  10.57  -1.0  -1.0  0     0.0000    0.0003
34           ?    N    ? P      ? 20180313 0143   46.1521 GAU  8.77e-03 -1.00e+00  6.29e+00  1.20e-02    6.2900 >    0.3120   -0.0447    0.0124  694.4145 5155.6153   -0.4263    0.1598 123.51  -1.0  -1.0  0     0.0000    0.0003
6            ?    N    ? P      ? 20180313 0143   46.2424 GAU  9.41e-03 -1.00e+00  7.25e+00  1.20e-02    7.2500 >    0.3594   -0.0018    1.5522  694.3446 5155.8502   -0.4728    0.1598  23.35  -1.0  -1.0  0     0.0000    0.0004
2            ?    N    ? P      ? 20180313 0143   46.2271 GAU  8.44e-03 -1.00e+00  6.95e+00  8.00e-03    6.9500 >    0.3528   -0.0104    1.2777  694.3150 5155.8647   -0.4623    0.1647  11.80  -1.0  -1.0  0     0.0000    0.0004
END_PHASE
END_NLLOC

