NLLOC "./loc/RR.20180313.001112.grid0" "LOCATED" "Location completed."
PUBLIC_ID None
SIGNATURE "   obs:./obs/nll_picks.obs   NLLoc:v7.00.10(30Aug2020)   run:29Apr2022 23h18m26"
COMMENT "Rattlesnake Ridge Slidequake Locations"
GRID  150 250 75  694.15 5155.4 0  0.002 0.002 0.002 PROB_DENSITY
SEARCH OCTREE nInitial 1000 nEvaluated 20008 smallestNodeSide 0.003725/0.006225/0.001850 oct_tree_integral 2.562422e-04 scatter_volume 2.534765e-04
HYPOCENTER  x 694.316 y 5155.7 z 0.084175  OT 12.6542  ix -1 iy -1 iz -1 MAXIMUM_LIKELIHOOD
GEOGRAPHIC  OT 2018 03 13  00 11 12.654186  Lat 5155.695687 Long 694.315762 Depth 0.084175
QUALITY  Pmax 2.81382e+46 MFmin 65.1579 MFmax 65.1751 RMS 0.0085717 Nphs 13 Gap 247.592 Dist 0.054353 Mamp  0.42 13 Mdur -9.90 0
VPVSRATIO  VpVsRatio -1  Npair 0  Diff -2e+30
STATISTICS  ExpectX 694.282808 Y 5155.692432 Z 0.083757  CovXX 0.00353809 XY 0.000605481 XZ 0.000633985 YY 0.00031613 YZ 0.000473518 ZZ 0.00154067 EllAz1  172.835 Dip1  15.2728 Len1  0.019678 Az2  302.177 Dip2  66.6972 Len2  0.0707536 Len3  1.168361e-01
STAT_GEOG  ExpectLat 5155.692432 Long 694.282808 Depth 0.083757
TRANSFORM  NONE
QML_OriginQuality  assocPhCt 13  usedPhCt 13  assocStaCt -1  usedStaCt 13  depthPhCt -1  stdErr 0.0085717  azGap 247.592  secAzGap 257.925  gtLevel -  minDist 0.054353 maxDist 0.127347 medDist 0.0717294
QML_OriginUncertainty  horUnc -1  minHorUnc 0.0217724  maxHorUnc 0.0916006  azMaxHorUnc 79.7007
QML_ConfidenceEllipsoid  semiMajorAxisLength 0.116836  semiMinorAxisLength 0.019678  semiIntermediateAxisLength 0.0707536  majorAxisPlunge 17.1656  majorAxisAzimuth 77.9962  majorAxisRotation 19.153
FOCALMECH  Hyp  5155.695687 694.315762 0.084175 Mech  0 0 0 mf  0 nObs -1
PHASE ID Ins Cmp On Pha  FM Date     HrMn   Sec     Err  ErrMag    Coda      Amp       Per       PriorWt  >   TTpred    Res       Weight    StaLoc(X  Y         Z)        SDist    SAzim  RAz  RDip RQual    Tcorr       TTerr
25           ?    N    ? P      ? 20180313 0011   12.8246 GAU  1.75e-02 -1.00e+00  7.67e+00  8.00e-03    7.6700 >    0.1623    0.0081    0.7890  694.3684 5155.7091   -0.4438    0.0544  75.69  -1.0  -1.0  0     0.0000    0.0002
23           ?    N    ? P      ? 20180313 0011   12.8370 GAU  1.14e-02 -1.00e+00  7.94e+00  8.00e-03    7.9400 >    0.1704    0.0124    1.0134  694.3677 5155.7226   -0.4473    0.0585  62.65  -1.0  -1.0  0     0.0000    0.0002
105          ?    N    ? P      ? 20180313 0011   12.8174 GAU  1.14e-02 -1.00e+00  9.10e+00  8.00e-03    9.1000 >    0.1617    0.0015    0.7738  694.3764 5155.6832   -0.4382    0.0619 101.60  -1.0  -1.0  0     0.0000    0.0002
26           ?    N    ? P      ? 20180313 0011   12.8148 GAU  1.60e-02 -1.00e+00  7.90e+00  1.20e-02    7.9000 >    0.1648   -0.0042    0.6637  694.3783 5155.6910   -0.4400    0.0627  94.31  -1.0  -1.0  0     0.0000    0.0002
28           ?    N    ? P      ? 20180313 0011   12.8169 GAU  1.91e-02 -1.00e+00  9.01e+00  1.20e-02    9.0100 >    0.1619    0.0008    0.6722  694.3767 5155.6745   -0.4362    0.0645 109.21  -1.0  -1.0  0     0.0000    0.0002
30           ?    N    ? P      ? 20180313 0011   12.8133 GAU  2.58e-02 -1.00e+00  8.27e+00  8.00e-03    8.2700 >    0.1642   -0.0051    0.6101  694.3775 5155.6619   -0.4333    0.0703 118.69  -1.0  -1.0  0     0.0000    0.0002
20           ?    N    ? P      ? 20180313 0011   12.8437 GAU  2.01e-02 -1.00e+00  6.59e+00  8.00e-03    6.5900 >    0.1919   -0.0024    1.5166  694.3609 5155.7515   -0.4553    0.0717  38.95  -1.0  -1.0  0     0.0000    0.0002
18           ?    N    ? P      ? 20180313 0011   12.8556 GAU  2.68e-02 -1.00e+00  6.41e+00  8.00e-03    6.4100 >    0.2054   -0.0039    1.6217  694.3549 5155.7674   -0.4586    0.0817  28.61  -1.0  -1.0  0     0.0000    0.0002
27           ?    N    ? P      ? 20180313 0011   12.8354 GAU  1.50e-02 -1.00e+00  6.40e+00  1.20e-02    6.4000 >    0.1889   -0.0077    0.7018  694.4008 5155.6912   -0.4412    0.0851  92.99  -1.0  -1.0  0     0.0000    0.0002
33           ?    N    ? P      ? 20180313 0011   12.8251 GAU  1.08e-02 -1.00e+00  7.12e+00  8.00e-03    7.1200 >    0.1790   -0.0081    1.2872  694.3775 5155.6293   -0.4252    0.0907 137.06  -1.0  -1.0  0     0.0000    0.0002
31           ?    N    ? P      ? 20180313 0011   12.8432 GAU  2.68e-02 -1.00e+00  6.08e+00  3.60e-02    6.0800 >    0.2022   -0.0132    0.6779  694.4086 5155.6503   -0.4335    0.1033 116.02  -1.0  -1.0  0     0.0000    0.0002
35           ?    N    ? P      ? 20180313 0011   12.8669 GAU  2.58e-02 -1.00e+00  7.42e+00  5.20e-02    7.4200 >    0.1940    0.0187    1.1444  694.3818 5155.6141   -0.4216    0.1049 141.02  -1.0  -1.0  0     0.0000    0.0002
34           ?    N    ? P      ? 20180313 0011   12.8906 GAU  2.17e-02 -1.00e+00  7.02e+00  1.20e-02    7.0200 >    0.2279    0.0085    1.5283  694.4145 5155.6153   -0.4263    0.1273 129.15  -1.0  -1.0  0     0.0000    0.0002
END_PHASE
END_NLLOC

