NLLOC "./loc/RR.20180313.014959.grid0" "REJECTED" "WARNING: max prob location on grid boundary 10, rejecting location."
PUBLIC_ID None
SIGNATURE "   obs:./obs/nll_picks.obs   NLLoc:v7.00.10(30Aug2020)   run:29Apr2022 23h20m34"
COMMENT "Rattlesnake Ridge Slidequake Locations"
GRID  150 250 75  694.15 5155.4 0  0.002 0.002 0.002 PROB_DENSITY
SEARCH OCTREE nInitial 1000 nEvaluated 3440 smallestNodeSide 0.001863/0.003112/0.000925 oct_tree_integral 1.701032e-05 scatter_volume 1.701032e-05
HYPOCENTER  x 694.151 y 5155.77 z 0.129038  OT 59.0572  ix -1 iy -1 iz -1 MAXIMUM_LIKELIHOOD
GEOGRAPHIC  OT 2018 03 13  01 49 59.057240  Lat 5155.765719 Long 694.150931 Depth 0.129038
QUALITY  Pmax 2.32361e+109 MFmin 276.063 MFmax 276.2 RMS 0.0182119 Nphs 26 Gap 279.917 Dist 0.128723 Mamp  0.79 26 Mdur -9.90 0
VPVSRATIO  VpVsRatio -1  Npair 0  Diff -2e+30
STATISTICS  ExpectX 694.174598 Y 5155.762171 Z 0.122564  CovXX 0.00223382 XY 0.000551697 XZ -0.000249857 YY 0.000266566 YZ 3.46564e-05 ZZ 0.000429129 EllAz1  163.552 Dip1  17.1671 Len1  0.0180724 Az2  186.293 Dip2  -71.4811 Len2  0.0390279 Len3  9.214871e-02
STAT_GEOG  ExpectLat 5155.762171 Long 694.174598 Depth 0.122564
TRANSFORM  NONE
QML_OriginQuality  assocPhCt 26  usedPhCt 26  assocStaCt -1  usedStaCt 26  depthPhCt -1  stdErr 0.0182119  azGap 279.917  secAzGap 282.918  gtLevel -  minDist 0.128723 maxDist 0.347708 medDist 0.210855
QML_OriginUncertainty  horUnc -1  minHorUnc 0.0167793  maxHorUnc 0.0739549  azMaxHorUnc 75.3564
QML_ConfidenceEllipsoid  semiMajorAxisLength 0.0921487  semiMinorAxisLength 0.0180724  semiIntermediateAxisLength 0.0390279  majorAxisPlunge -6.73691  majorAxisAzimuth 75.643  majorAxisRotation 17.7493
FOCALMECH  Hyp  5155.765719 694.150931 0.129038 Mech  0 0 0 mf  0 nObs -1
PHASE ID Ins Cmp On Pha  FM Date     HrMn   Sec     Err  ErrMag    Coda      Amp       Per       PriorWt  >   TTpred    Res       Weight    StaLoc(X  Y         Z)        SDist    SAzim  RAz  RDip RQual    Tcorr       TTerr
9            ?    N    ? P      ? 20180313 0149   59.6576 GAU  1.20e-02 -1.00e+00  8.29e+00  1.20e-02    8.2900 >    0.3529    0.2474    0.0000  694.2594 5155.8351   -0.4296    0.1287  57.39  -1.0  -1.0  0     0.0000    0.0004
7            ?    N    ? P      ? 20180313 0149   59.5589 GAU  1.73e-02 -1.00e+00  7.06e+00  4.80e-02    7.0600 >    0.3731    0.1286    0.0585  694.2704 5155.8450   -0.4359    0.1434  56.43  -1.0  -1.0  0     0.0000    0.0004
5            ?    N    ? P      ? 20180313 0149   59.5745 GAU  1.00e-02 -1.00e+00  7.92e+00  1.20e-02    7.9200 >    0.4034    0.1139    0.0928  694.2898 5155.8520   -0.4475    0.1634  58.15  -1.0  -1.0  0     0.0000    0.0004
13           ?    N    ? P      ? 20180313 0149   59.5401 GAU  6.76e-03 -1.00e+00  7.40e+00  4.40e-02    7.4000 >    0.4216    0.0613    0.4081  694.3062 5155.8390   -0.4568    0.1717  64.73  -1.0  -1.0  0     0.0000    0.0004
15           ?    N    ? P      ? 20180313 0149   59.5070 GAU  3.92e-03 -1.00e+00  9.32e+00  8.00e-03    9.3200 >    0.4282    0.0215    1.1412  694.3206 5155.8107   -0.4609    0.1755  75.15  -1.0  -1.0  0     0.0000    0.0004
4            ?    N    ? P      ? 20180313 0149   59.5304 GAU  8.23e-03 -1.00e+00  6.83e+00  1.20e-02    6.8300 >    0.4315    0.0417    0.9083  694.3090 5155.8520   -0.4586    0.1801  61.37  -1.0  -1.0  0     0.0000    0.0004
8            ?    N    ? P      ? 20180313 0149   59.5004 GAU  4.70e-03 -1.00e+00  6.68e+00  8.00e-03    6.6800 >    0.4460   -0.0029    1.3946  694.3223 5155.8450   -0.4648    0.1888  65.17  -1.0  -1.0  0     0.0000    0.0004
2            ?    N    ? P      ? 20180313 0149   59.5145 GAU  8.23e-03 -1.00e+00  7.24e+00  8.00e-03    7.2400 >    0.4464    0.0108    1.5927  694.3150 5155.8647   -0.4623    0.1916  58.90  -1.0  -1.0  0     0.0000    0.0004
12           ?    N    ? P      ? 20180313 0149   59.5011 GAU  2.75e-03 -1.00e+00  8.62e+00  8.00e-03    8.6200 >    0.4494   -0.0055    1.1156  694.3356 5155.8197   -0.4663    0.1924  73.70  -1.0  -1.0  0     0.0000    0.0004
10           ?    N    ? P      ? 20180313 0149   59.5110 GAU  2.60e-03 -1.00e+00  7.74e+00  8.00e-03    7.7400 >    0.4524    0.0013    1.3397  694.3329 5155.8329   -0.4673    0.1940  69.74  -1.0  -1.0  0     0.0000    0.0005
17           ?    N    ? P      ? 20180313 0149   59.4975 GAU  6.19e-03 -1.00e+00  7.93e+00  1.20e-02    7.9300 >    0.4456   -0.0053    1.0517  694.3461 5155.7815   -0.4621    0.1958  85.38  -1.0  -1.0  0     0.0000    0.0004
16           ?    N    ? P      ? 20180313 0149   59.5004 GAU  4.56e-03 -1.00e+00  8.11e+00  1.20e-02    8.1100 >    0.4488   -0.0056    1.0110  694.3452 5155.7921   -0.4642    0.1960  82.26  -1.0  -1.0  0     0.0000    0.0004
20           ?    N    ? P      ? 20180313 0149   59.5071 GAU  6.49e-03 -1.00e+00  7.46e+00  6.40e-02    7.4600 >    0.4492    0.0007    1.6380  694.3609 5155.7515   -0.4553    0.2104  93.88  -1.0  -1.0  0     0.0000    0.0004
6            ?    N    ? P      ? 20180313 0149   59.5360 GAU  9.11e-03 -1.00e+00  7.20e+00  2.00e-02    7.2000 >    0.4744    0.0044    1.3682  694.3446 5155.8502   -0.4728    0.2113  66.44  -1.0  -1.0  0     0.0000    0.0005
21           ?    N    ? P      ? 20180313 0149   59.5077 GAU  1.10e-02 -1.00e+00  7.46e+00  1.20e-02    7.4600 >    0.4495    0.0009    1.5708  694.3642 5155.7391   -0.4517    0.2149  97.11  -1.0  -1.0  0     0.0000    0.0004
103          ?    N    ? P      ? 20180313 0149   59.5373 GAU  6.19e-03 -1.00e+00  6.75e+00  8.00e-03    6.7500 >    0.4675    0.0126    0.9962  694.3644 5155.7952   -0.4662    0.2155  82.14  -1.0  -1.0  0     0.0000    0.0005
23           ?    N    ? P      ? 20180313 0149   59.5376 GAU  1.23e-02 -1.00e+00  6.67e+00  8.00e-03    6.6700 >    0.4498    0.0306    0.7919  694.3677 5155.7226   -0.4473    0.2210 101.26  -1.0  -1.0  0     0.0000    0.0004
26           ?    N    ? P      ? 20180313 0149   59.5590 GAU  2.86e-02 -1.00e+00  6.53e+00  8.00e-03    6.5300 >    0.4616    0.0402    0.8853  694.3783 5155.6910   -0.4400    0.2393 108.20  -1.0  -1.0  0     0.0000    0.0005
105          ?    N    ? P      ? 20180313 0149   59.5603 GAU  1.95e-02 -1.00e+00  7.02e+00  1.20e-02    7.0200 >    0.4604    0.0426    0.8079  694.3764 5155.6832   -0.4382    0.2401 110.09  -1.0  -1.0  0     0.0000    0.0005
28           ?    N    ? P      ? 20180313 0149   59.5960 GAU  3.44e-02 -1.00e+00  6.99e+00  1.20e-02    6.9900 >    0.4621    0.0766    0.4948  694.3767 5155.6745   -0.4362    0.2435 112.01  -1.0  -1.0  0     0.0000    0.0005
22           ?    N    ? P      ? 20180313 0149   59.5681 GAU  1.17e-02 -1.00e+00  6.78e+00  8.00e-03    6.7800 >    0.4810    0.0298    0.8958  694.3985 5155.7265   -0.4488    0.2506  98.99  -1.0  -1.0  0     0.0000    0.0005
38           ?    N    ? P      ? 20180313 0149   59.5980 GAU  1.56e-02 -1.00e+00  5.93e+00  1.60e-02    5.9300 >    0.5191    0.0216    2.2993  694.3902 5155.5681   -0.4123    0.3103 129.56  -1.0  -1.0  0     0.0000    0.0005
39           ?    N    ? P      ? 20180313 0149   59.5493 GAU  1.75e-02 -1.00e+00  7.05e+00  1.20e-02    7.0500 >    0.5272   -0.0352    0.5048  694.3890 5155.5532   -0.4086    0.3192 131.76  -1.0  -1.0  0     0.0000    0.0005
41           ?    N    ? P      ? 20180313 0149   59.5350 GAU  9.74e-03 -1.00e+00  6.37e+00  1.60e-02    6.3700 >    0.5385   -0.0608    0.0023  694.3901 5155.5386   -0.4053    0.3298 133.51  -1.0  -1.0  0     0.0000    0.0005
42           ?    N    ? P      ? 20180313 0149   59.5148 GAU  9.09e-03 -1.00e+00  7.69e+00  1.20e-02    7.6900 >    0.5516   -0.0940    0.0007  694.3873 5155.5165   -0.3983    0.3435 136.52  -1.0  -1.0  0     0.0000    0.0006
40           ?    N    ? P      ? 20180313 0149   59.6220 GAU  1.23e-02 -1.00e+00  6.69e+00  8.00e-03    6.6900 >    0.5668   -0.0020    3.6297  694.4169 5155.5417   -0.4131    0.3477 130.11  -1.0  -1.0  0     0.0000    0.0006
END_PHASE
END_NLLOC

