NLLOC "./loc/RR.20180313.004036.grid0" "LOCATED" "Location completed."
PUBLIC_ID None
SIGNATURE "   obs:./obs/nll_picks.obs   NLLoc:v7.00.10(30Aug2020)   run:29Apr2022 23h19m29"
COMMENT "Rattlesnake Ridge Slidequake Locations"
GRID  150 250 75  694.15 5155.4 0  0.002 0.002 0.002 PROB_DENSITY
SEARCH OCTREE nInitial 1000 nEvaluated 8736 smallestNodeSide 0.001863/0.003112/0.000925 oct_tree_integral 5.069396e-05 scatter_volume 5.069396e-05
HYPOCENTER  x 694.227 y 5155.63 z 0.143838  OT 36.3452  ix -1 iy -1 iz -1 MAXIMUM_LIKELIHOOD
GEOGRAPHIC  OT 2018 03 13  00 40 36.345195  Lat 5155.628769 Long 694.227294 Depth 0.143838
QUALITY  Pmax 2.12306e+144 MFmin 354.518 MFmax 354.668 RMS 0.00895809 Nphs 30 Gap 262.092 Dist 0.0990374 Mamp  0.78 30 Mdur -9.90 0
VPVSRATIO  VpVsRatio -1  Npair 0  Diff -2e+30
STATISTICS  ExpectX 694.190156 Y 5155.614003 Z 0.097183  CovXX 0.000563536 XY 0.000183904 XZ 0.000473701 YY 9.29733e-05 YZ 0.000195925 ZZ 0.00139648 EllAz1  162.625 Dip1  1.90616 Len1  0.0100471 Az2  253.574 Dip2  26.4548 Len2  0.0362381 Len3  7.637339e-02
STAT_GEOG  ExpectLat 5155.614003 Long 694.190156 Depth 0.097183
TRANSFORM  NONE
QML_OriginQuality  assocPhCt 30  usedPhCt 30  assocStaCt -1  usedStaCt 30  depthPhCt -1  stdErr 0.00895809  azGap 262.092  secAzGap 268.176  gtLevel -  minDist 0.0990374 maxDist 0.25057 medDist 0.181989
QML_OriginUncertainty  horUnc -1  minHorUnc 0.00825489  maxHorUnc 0.0379714  azMaxHorUnc 70.9938
QML_ConfidenceEllipsoid  semiMajorAxisLength 0.0763734  semiMinorAxisLength 0.0100471  semiIntermediateAxisLength 0.0362381  majorAxisPlunge 63.4658  majorAxisAzimuth 68.8031  majorAxisRotation 352.917
FOCALMECH  Hyp  5155.628769 694.227294 0.143838 Mech  0 0 0 mf  0 nObs -1
PHASE ID Ins Cmp On Pha  FM Date     HrMn   Sec     Err  ErrMag    Coda      Amp       Per       PriorWt  >   TTpred    Res       Weight    StaLoc(X  Y         Z)        SDist    SAzim  RAz  RDip RQual    Tcorr       TTerr
106          ?    N    ? P      ? 20180313 0040   36.7517 GAU  1.18e-02 -1.00e+00  8.28e+00  1.20e-02    8.2800 >    0.2997    0.1068    0.0005  694.3120 5155.6801   -0.4360    0.0990  58.81  -1.0  -1.0  0     0.0000    0.0003
33           ?    N    ? P      ? 20180313 0040   36.6680 GAU  4.02e-03 -1.00e+00  1.09e+01  8.00e-03   10.9000 >    0.3303   -0.0075    1.0615  694.3775 5155.6293   -0.4252    0.1502  89.79  -1.0  -1.0  0     0.0000    0.0003
32           ?    N    ? P      ? 20180313 0040   36.6644 GAU  4.09e-03 -1.00e+00  9.67e+00  1.20e-02    9.6700 >    0.3365   -0.0173    0.7012  694.3777 5155.6456   -0.4297    0.1513  83.62  -1.0  -1.0  0     0.0000    0.0003
30           ?    N    ? P      ? 20180313 0040   36.6878 GAU  3.28e-03 -1.00e+00  9.27e+00  1.60e-02    9.2700 >    0.3425    0.0001    1.0693  694.3775 5155.6619   -0.4333    0.1538  77.55  -1.0  -1.0  0     0.0000    0.0003
35           ?    N    ? P      ? 20180313 0040   36.6759 GAU  3.81e-03 -1.00e+00  1.13e+01  1.20e-02   11.3000 >    0.3314   -0.0007    1.3639  694.3818 5155.6141   -0.4216    0.1552  95.42  -1.0  -1.0  0     0.0000    0.0003
28           ?    N    ? P      ? 20180313 0040   36.6958 GAU  7.70e-03 -1.00e+00  9.11e+00  8.00e-03    9.1100 >    0.3480    0.0026    0.9815  694.3767 5155.6745   -0.4362    0.1562  72.99  -1.0  -1.0  0     0.0000    0.0003
105          ?    N    ? P      ? 20180313 0040   36.7002 GAU  4.28e-03 -1.00e+00  9.04e+00  8.00e-03    9.0400 >    0.3527    0.0023    1.0828  694.3764 5155.6832   -0.4382    0.1587  69.93  -1.0  -1.0  0     0.0000    0.0004
25           ?    N    ? P      ? 20180313 0040   36.7234 GAU  5.10e-03 -1.00e+00  7.58e+00  4.00e-02    7.5800 >    0.3625    0.0157    0.4458  694.3684 5155.7091   -0.4438    0.1624  60.35  -1.0  -1.0  0     0.0000    0.0004
26           ?    N    ? P      ? 20180313 0040   36.7022 GAU  4.28e-03 -1.00e+00  7.86e+00  1.20e-02    7.8600 >    0.3594   -0.0024    1.0359  694.3783 5155.6910   -0.4400    0.1633  67.61  -1.0  -1.0  0     0.0000    0.0004
36           ?    N    ? P      ? 20180313 0040   36.6706 GAU  5.83e-03 -1.00e+00  9.96e+00  8.00e-03    9.9600 >    0.3350   -0.0096    1.0679  694.3865 5155.5904   -0.4164    0.1638 103.56  -1.0  -1.0  0     0.0000    0.0003
23           ?    N    ? P      ? 20180313 0040   36.7076 GAU  1.89e-02 -1.00e+00  7.39e+00  1.20e-02    7.3900 >    0.3725   -0.0101    0.7459  694.3677 5155.7226   -0.4473    0.1688  56.26  -1.0  -1.0  0     0.0000    0.0004
38           ?    N    ? P      ? 20180313 0040   36.6744 GAU  2.01e-03 -1.00e+00  8.52e+00  1.20e-02    8.5200 >    0.3428   -0.0136    0.8949  694.3902 5155.5681   -0.4123    0.1738 110.43  -1.0  -1.0  0     0.0000    0.0003
21           ?    N    ? P      ? 20180313 0040   36.7279 GAU  1.11e-02 -1.00e+00  6.58e+00  2.40e-02    6.5800 >    0.3848   -0.0021    1.0999  694.3642 5155.7391   -0.4517    0.1758  51.12  -1.0  -1.0  0     0.0000    0.0004
39           ?    N    ? P      ? 20180313 0040   36.6853 GAU  6.58e-03 -1.00e+00  8.70e+00  4.00e-02    8.7000 >    0.3441   -0.0040    1.5660  694.3890 5155.5532   -0.4086    0.1785 115.05  -1.0  -1.0  0     0.0000    0.0003
20           ?    N    ? P      ? 20180313 0040   36.7537 GAU  8.00e-03 -1.00e+00  7.08e+00  1.60e-02    7.0800 >    0.3938    0.0147    0.6558  694.3609 5155.7515   -0.4553    0.1814  47.42  -1.0  -1.0  0     0.0000    0.0004
31           ?    N    ? P      ? 20180313 0040   36.7420 GAU  5.73e-03 -1.00e+00  7.88e+00  1.20e-02    7.8800 >    0.3724    0.0245    0.2582  694.4086 5155.6503   -0.4335    0.1826  83.21  -1.0  -1.0  0     0.0000    0.0004
27           ?    N    ? P      ? 20180313 0040   36.7311 GAU  6.58e-03 -1.00e+00  6.93e+00  6.00e-02    6.9300 >    0.3817    0.0042    0.9391  694.4008 5155.6912   -0.4412    0.1844  70.19  -1.0  -1.0  0     0.0000    0.0004
41           ?    N    ? P      ? 20180313 0040   36.7045 GAU  3.94e-03 -1.00e+00  7.75e+00  7.20e-02    7.7500 >    0.3503    0.0090    1.4149  694.3901 5155.5386   -0.4053    0.1861 118.97  -1.0  -1.0  0     0.0000    0.0004
34           ?    N    ? P      ? 20180313 0040   36.7271 GAU  3.62e-03 -1.00e+00  9.08e+00  1.20e-02    9.0800 >    0.3714    0.0105    1.0007  694.4145 5155.6153   -0.4263    0.1877  94.12  -1.0  -1.0  0     0.0000    0.0004
18           ?    N    ? P      ? 20180313 0040   36.7564 GAU  1.93e-02 -1.00e+00  6.71e+00  1.20e-02    6.7100 >    0.4045    0.0067    0.8771  694.3549 5155.7674   -0.4586    0.1884  42.62  -1.0  -1.0  0     0.0000    0.0004
17           ?    N    ? P      ? 20180313 0040   36.7718 GAU  2.04e-02 -1.00e+00  6.76e+00  5.20e-02    6.7600 >    0.4137    0.0129    0.8204  694.3461 5155.7815   -0.4621    0.1935  37.89  -1.0  -1.0  0     0.0000    0.0004
42           ?    N    ? P      ? 20180313 0040   36.7045 GAU  3.94e-03 -1.00e+00  7.05e+00  8.00e-03    7.0500 >    0.3558    0.0035    1.9454  694.3873 5155.5165   -0.3983    0.1954 125.05  -1.0  -1.0  0     0.0000    0.0004
22           ?    N    ? P      ? 20180313 0040   36.7582 GAU  1.83e-02 -1.00e+00  6.84e+00  1.60e-02    6.8400 >    0.4027    0.0103    0.6766  694.3985 5155.7265   -0.4488    0.1972  60.27  -1.0  -1.0  0     0.0000    0.0004
37           ?    N    ? P      ? 20180313 0040   36.7112 GAU  3.01e-03 -1.00e+00  8.56e+00  8.00e-03    8.5600 >    0.3798   -0.0138    0.8785  694.4219 5155.5876   -0.4220    0.1989 101.94  -1.0  -1.0  0     0.0000    0.0004
16           ?    N    ? P      ? 20180313 0040   36.7708 GAU  3.62e-02 -1.00e+00  7.03e+00  1.20e-02    7.0300 >    0.4237    0.0019    0.6691  694.3452 5155.7921   -0.4642    0.2015  35.82  -1.0  -1.0  0     0.0000    0.0004
15           ?    N    ? P      ? 20180313 0040   36.7648 GAU  1.16e-02 -1.00e+00  5.56e+00  1.20e-02    5.5600 >    0.4234   -0.0038    1.5341  694.3206 5155.8107   -0.4609    0.2044  27.14  -1.0  -1.0  0     0.0000    0.0004
40           ?    N    ? P      ? 20180313 0040   36.7221 GAU  1.01e-02 -1.00e+00  8.08e+00  8.00e-03    8.0800 >    0.3840   -0.0071    1.4169  694.4169 5155.5417   -0.4131    0.2086 114.66  -1.0  -1.0  0     0.0000    0.0004
103          ?    N    ? P      ? 20180313 0040   36.7643 GAU  1.58e-02 -1.00e+00  6.34e+00  1.20e-02    6.3400 >    0.4402   -0.0211    0.7704  694.3644 5155.7952   -0.4662    0.2156  39.48  -1.0  -1.0  0     0.0000    0.0004
12           ?    N    ? P      ? 20180313 0040   36.7838 GAU  1.02e-02 -1.00e+00  5.64e+00  6.40e-02    5.6400 >    0.4446   -0.0060    1.6123  694.3356 5155.8197   -0.4663    0.2196  29.57  -1.0  -1.0  0     0.0000    0.0004
6            ?    N    ? P      ? 20180313 0040   36.8201 GAU  1.67e-02 -1.00e+00  6.38e+00  1.60e-02    6.3800 >    0.4843   -0.0094    1.4132  694.3446 5155.8502   -0.4728    0.2506  27.92  -1.0  -1.0  0     0.0000    0.0005
END_PHASE
END_NLLOC

