NLLOC "./loc/RR.20180313.013531.grid0" "REJECTED" "WARNING: max prob location on grid boundary 11, rejecting location."
PUBLIC_ID None
SIGNATURE "   obs:./obs/nll_picks.obs   NLLoc:v7.00.10(30Aug2020)   run:29Apr2022 23h20m21"
COMMENT "Rattlesnake Ridge Slidequake Locations"
GRID  150 250 75  694.15 5155.4 0  0.002 0.002 0.002 PROB_DENSITY
SEARCH OCTREE nInitial 1000 nEvaluated 2096 smallestNodeSide 0.001863/0.003112/0.000925 oct_tree_integral 3.593436e-06 scatter_volume 3.590972e-06
HYPOCENTER  x 694.447 y 5155.84 z 0.0402375  OT 31.3683  ix -1 iy -1 iz -1 MAXIMUM_LIKELIHOOD
GEOGRAPHIC  OT 2018 03 13  01 35 31.368307  Lat 5155.843531 Long 694.447069 Depth 0.040238
QUALITY  Pmax 1.93002e+121 MFmin 282.162 MFmax 282.196 RMS 0.0142406 Nphs 27 Gap 268.759 Dist 0.0958 Mamp  0.58 27 Mdur -9.90 0
VPVSRATIO  VpVsRatio -1  Npair 0  Diff -2e+30
STATISTICS  ExpectX 694.434611 Y 5155.834730 Z 0.049304  CovXX 0.000503202 XY 0.000132823 XZ -4.97279e-05 YY 7.80682e-05 YZ -3.52314e-05 ZZ 0.000253298 EllAz1  344.633 Dip1  5.51749 Len1  0.0115873 Az2  281.028 Dip2  -77.7408 Len2  0.0293577 Len3  4.415753e-02
STAT_GEOG  ExpectLat 5155.834730 Long 694.434611 Depth 0.049304
TRANSFORM  NONE
QML_OriginQuality  assocPhCt 27  usedPhCt 27  assocStaCt -1  usedStaCt 27  depthPhCt -1  stdErr 0.0142406  azGap 268.759  secAzGap 271.896  gtLevel -  minDist 0.0958 maxDist 0.230563 medDist 0.138302
QML_OriginUncertainty  horUnc -1  minHorUnc 0.00958961  maxHorUnc 0.035284  azMaxHorUnc 74.0004
QML_ConfidenceEllipsoid  semiMajorAxisLength 0.0441575  semiMinorAxisLength 0.0115873  semiIntermediateAxisLength 0.0293577  majorAxisPlunge -10.913  majorAxisAzimuth 73.5657  majorAxisRotation 173.95
FOCALMECH  Hyp  5155.843531 694.447069 0.040238 Mech  0 0 0 mf  0 nObs -1
PHASE ID Ins Cmp On Pha  FM Date     HrMn   Sec     Err  ErrMag    Coda      Amp       Per       PriorWt  >   TTpred    Res       Weight    StaLoc(X  Y         Z)        SDist    SAzim  RAz  RDip RQual    Tcorr       TTerr
103          ?    N    ? P      ? 20180313 0135   31.5979 GAU  6.83e-03 -1.00e+00  7.75e+00  2.80e-02    7.7500 >    0.1634    0.0662    0.1196  694.3644 5155.7952   -0.4662    0.0958 239.69  -1.0  -1.0  0     0.0000    0.0002
6            ?    N    ? P      ? 20180313 0135   31.6094 GAU  1.52e-02 -1.00e+00  8.29e+00  1.60e-02    8.2900 >    0.1763    0.0648    0.1887  694.3446 5155.8502   -0.4728    0.1027 273.71  -1.0  -1.0  0     0.0000    0.0002
12           ?    N    ? P      ? 20180313 0135   31.5728 GAU  3.41e-03 -1.00e+00  9.68e+00  1.20e-02    9.6800 >    0.1902    0.0142    0.9075  694.3356 5155.8197   -0.4663    0.1140 257.95  -1.0  -1.0  0     0.0000    0.0002
16           ?    N    ? P      ? 20180313 0135   31.5771 GAU  4.31e-03 -1.00e+00  9.60e+00  8.00e-03    9.6000 >    0.1906    0.0182    0.7463  694.3452 5155.7921   -0.4642    0.1141 243.23  -1.0  -1.0  0     0.0000    0.0002
10           ?    N    ? P      ? 20180313 0135   31.5713 GAU  5.58e-03 -1.00e+00  8.91e+00  1.20e-02    8.9100 >    0.1919    0.0111    1.0448  694.3329 5155.8329   -0.4673    0.1147 264.67  -1.0  -1.0  0     0.0000    0.0002
17           ?    N    ? P      ? 20180313 0135   31.5646 GAU  5.88e-03 -1.00e+00  8.37e+00  4.40e-02    8.3700 >    0.1963    0.0000    1.0506  694.3461 5155.7815   -0.4621    0.1185 238.41  -1.0  -1.0  0     0.0000    0.0002
18           ?    N    ? P      ? 20180313 0135   31.5642 GAU  8.22e-03 -1.00e+00  7.17e+00  6.00e-02    7.1700 >    0.1965   -0.0007    1.0311  694.3549 5155.7674   -0.4586    0.1195 230.45  -1.0  -1.0  0     0.0000    0.0002
8            ?    N    ? P      ? 20180313 0135   31.5616 GAU  1.55e-03 -1.00e+00  8.45e+00  1.20e-02    8.4500 >    0.2057   -0.0124    0.8432  694.3223 5155.8450   -0.4648    0.1248 270.67  -1.0  -1.0  0     0.0000    0.0002
20           ?    N    ? P      ? 20180313 0135   31.5855 GAU  7.24e-03 -1.00e+00  7.60e+00  6.40e-02    7.6000 >    0.2060    0.0112    1.1024  694.3609 5155.7515   -0.4553    0.1261 223.12  -1.0  -1.0  0     0.0000    0.0002
22           ?    N    ? P      ? 20180313 0135   31.6364 GAU  7.64e-03 -1.00e+00  7.40e+00  2.80e-02    7.4000 >    0.2055    0.0626    0.1923  694.3985 5155.7265   -0.4488    0.1267 202.55  -1.0  -1.0  0     0.0000    0.0002
15           ?    N    ? P      ? 20180313 0135   31.5582 GAU  4.34e-03 -1.00e+00  1.14e+01  1.20e-02   11.4000 >    0.2139   -0.0240    0.4655  694.3206 5155.8107   -0.4609    0.1307 255.45  -1.0  -1.0  0     0.0000    0.0002
21           ?    N    ? P      ? 20180313 0135   31.5828 GAU  6.85e-03 -1.00e+00  7.39e+00  1.20e-02    7.3900 >    0.2163   -0.0018    1.2820  694.3642 5155.7391   -0.4517    0.1333 218.45  -1.0  -1.0  0     0.0000    0.0002
2            ?    N    ? P      ? 20180313 0135   31.5743 GAU  6.69e-03 -1.00e+00  8.27e+00  1.20e-02    8.2700 >    0.2179   -0.0119    1.0225  694.3150 5155.8647   -0.4623    0.1338 279.10  -1.0  -1.0  0     0.0000    0.0002
4            ?    N    ? P      ? 20180313 0135   31.5862 GAU  6.20e-03 -1.00e+00  8.22e+00  1.60e-02    8.2200 >    0.2241   -0.0062    1.1605  694.3090 5155.8520   -0.4586    0.1383 273.52  -1.0  -1.0  0     0.0000    0.0002
13           ?    N    ? P      ? 20180313 0135   31.5905 GAU  8.69e-03 -1.00e+00  9.50e+00  8.00e-03    9.5000 >    0.2278   -0.0056    1.1175  694.3062 5155.8390   -0.4568    0.1409 268.17  -1.0  -1.0  0     0.0000    0.0002
23           ?    N    ? P      ? 20180313 0135   31.6057 GAU  9.79e-03 -1.00e+00  7.50e+00  1.20e-02    7.5000 >    0.2340    0.0034    1.4385  694.3677 5155.7226   -0.4473    0.1447 213.27  -1.0  -1.0  0     0.0000    0.0002
25           ?    N    ? P      ? 20180313 0135   31.6321 GAU  1.19e-02 -1.00e+00  7.81e+00  1.20e-02    7.8100 >    0.2508    0.0130    1.3788  694.3684 5155.7091   -0.4438    0.1557 210.33  -1.0  -1.0  0     0.0000    0.0003
5            ?    N    ? P      ? 20180313 0135   31.6256 GAU  9.62e-03 -1.00e+00  8.29e+00  8.00e-03    8.2900 >    0.2509    0.0064    1.2549  694.2898 5155.8520   -0.4475    0.1575 273.07  -1.0  -1.0  0     0.0000    0.0003
27           ?    N    ? P      ? 20180313 0135   31.6564 GAU  1.74e-02 -1.00e+00  6.43e+00  1.20e-02    6.4300 >    0.2565    0.0316    0.7145  694.4008 5155.6912   -0.4412    0.1592 196.91  -1.0  -1.0  0     0.0000    0.0003
26           ?    N    ? P      ? 20180313 0135   31.6284 GAU  1.33e-02 -1.00e+00  7.33e+00  1.20e-02    7.3300 >    0.2692   -0.0091    1.5140  694.3783 5155.6910   -0.4400    0.1673 204.26  -1.0  -1.0  0     0.0000    0.0003
105          ?    N    ? P      ? 20180313 0135   31.6401 GAU  1.17e-02 -1.00e+00  7.18e+00  3.20e-02    7.1800 >    0.2817   -0.0099    1.5883  694.3764 5155.6832   -0.4382    0.1752 203.79  -1.0  -1.0  0     0.0000    0.0003
1            ?    N    ? P      ? 20180313 0135   31.6650 GAU  8.16e-03 -1.00e+00  7.57e+00  1.20e-02    7.5700 >    0.2776    0.0191    1.0510  694.2735 5155.8721   -0.4381    0.1759 279.36  -1.0  -1.0  0     0.0000    0.0003
7            ?    N    ? P      ? 20180313 0135   31.6482 GAU  1.49e-02 -1.00e+00  8.46e+00  1.20e-02    8.4600 >    0.2793    0.0006    1.2491  694.2704 5155.8450   -0.4359    0.1767 270.48  -1.0  -1.0  0     0.0000    0.0003
9            ?    N    ? P      ? 20180313 0135   31.6724 GAU  1.61e-02 -1.00e+00  9.12e+00  1.20e-02    9.1200 >    0.2968    0.0073    1.3073  694.2594 5155.8351   -0.4296    0.1879 267.42  -1.0  -1.0  0     0.0000    0.0003
31           ?    N    ? P      ? 20180313 0135   31.6653 GAU  1.46e-02 -1.00e+00  6.46e+00  1.20e-02    6.4600 >    0.3170   -0.0200    1.2455  694.4086 5155.6503   -0.4335    0.1970 191.25  -1.0  -1.0  0     0.0000    0.0003
3            ?    N    ? P      ? 20180313 0135   31.6978 GAU  8.69e-03 -1.00e+00  8.06e+00  8.00e-03    8.0600 >    0.3235    0.0060    1.9010  694.2426 5155.8595   -0.4214    0.2051 274.45  -1.0  -1.0  0     0.0000    0.0003
34           ?    N    ? P      ? 20180313 0135   31.6730 GAU  2.30e-02 -1.00e+00  6.04e+00  1.60e-02    6.0400 >    0.3708   -0.0661    0.0827  694.4145 5155.6153   -0.4263    0.2306 188.12  -1.0  -1.0  0     0.0000    0.0004
END_PHASE
END_NLLOC

