NLLOC "./loc/RR.20180313.021040.grid0" "REJECTED" "WARNING: max prob location on grid boundary 31, rejecting location."
PUBLIC_ID None
SIGNATURE "   obs:./obs/nll_picks.obs   NLLoc:v7.00.10(30Aug2020)   run:29Apr2022 23h20m51"
COMMENT "Rattlesnake Ridge Slidequake Locations"
GRID  150 250 75  694.15 5155.4 0  0.002 0.002 0.002 PROB_DENSITY
SEARCH OCTREE nInitial 1000 nEvaluated 5384 smallestNodeSide 0.001863/0.003112/0.000925 oct_tree_integral 2.326395e-05 scatter_volume 2.319080e-05
HYPOCENTER  x 694.252 y 5155.68 z 0.147537  OT 40.1602  ix -1 iy -1 iz -1 MAXIMUM_LIKELIHOOD
GEOGRAPHIC  OT 2018 03 13  02 10 40.160248  Lat 5155.675456 Long 694.251506 Depth 0.147537
QUALITY  Pmax 1.24645e+127 MFmin 293.183 MFmax 293.257 RMS 0.00672267 Nphs 27 Gap 255.615 Dist 0.0606853 Mamp  0.73 27 Mdur -9.90 0
VPVSRATIO  VpVsRatio -1  Npair 0  Diff -2e+30
STATISTICS  ExpectX 694.206267 Y 5155.662705 Z 0.128454  CovXX 0.00105052 XY 0.000242747 XZ 0.000110527 YY 8.62296e-05 YZ 4.83679e-05 ZZ 0.000289358 EllAz1  167.18 Dip1  4.92622 Len1  0.00971096 Az2  288.225 Dip2  80.5118 Len2  0.0311195 Len3  6.301928e-02
STAT_GEOG  ExpectLat 5155.662705 Long 694.206267 Depth 0.128454
TRANSFORM  NONE
QML_OriginQuality  assocPhCt 27  usedPhCt 27  assocStaCt -1  usedStaCt 27  depthPhCt -1  stdErr 0.00672267  azGap 255.615  secAzGap 264.134  gtLevel -  minDist 0.0606853 maxDist 0.212678 medDist 0.143983
QML_OriginUncertainty  horUnc -1  minHorUnc 0.00810612  maxHorUnc 0.0504858  azMaxHorUnc 76.638
QML_ConfidenceEllipsoid  semiMajorAxisLength 0.0630193  semiMinorAxisLength 0.00971096  semiIntermediateAxisLength 0.0311195  majorAxisPlunge 8.08897  majorAxisAzimuth 76.4782  majorAxisRotation 5.17992
FOCALMECH  Hyp  5155.675456 694.251506 0.147537 Mech  0 0 0 mf  0 nObs -1
PHASE ID Ins Cmp On Pha  FM Date     HrMn   Sec     Err  ErrMag    Coda      Amp       Per       PriorWt  >   TTpred    Res       Weight    StaLoc(X  Y         Z)        SDist    SAzim  RAz  RDip RQual    Tcorr       TTerr
106          ?    N    ? P      ? 20180313 0210   40.4910 GAU  1.01e-02 -1.00e+00  7.79e+00  8.00e-03    7.7900 >    0.2571    0.0737    0.0039  694.3120 5155.6801   -0.4360    0.0607  85.65  -1.0  -1.0  0     0.0000    0.0003
25           ?    N    ? P      ? 20180313 0210   40.4862 GAU  6.13e-03 -1.00e+00  8.52e+00  8.00e-03    8.5200 >    0.3095    0.0164    0.4192  694.3684 5155.7091   -0.4438    0.1217  73.94  -1.0  -1.0  0     0.0000    0.0003
105          ?    N    ? P      ? 20180313 0210   40.4731 GAU  3.50e-03 -1.00e+00  9.89e+00  5.60e-02    9.8900 >    0.3058    0.0071    0.8154  694.3764 5155.6832   -0.4382    0.1251  86.44  -1.0  -1.0  0     0.0000    0.0003
28           ?    N    ? P      ? 20180313 0210   40.4696 GAU  3.50e-03 -1.00e+00  9.56e+00  2.40e-02    9.5600 >    0.3034    0.0060    0.8675  694.3767 5155.6745   -0.4362    0.1252  90.46  -1.0  -1.0  0     0.0000    0.0003
23           ?    N    ? P      ? 20180313 0210   40.4871 GAU  6.13e-03 -1.00e+00  8.79e+00  8.00e-03    8.7900 >    0.3168    0.0100    0.7592  694.3677 5155.7226   -0.4473    0.1254  67.93  -1.0  -1.0  0     0.0000    0.0003
30           ?    N    ? P      ? 20180313 0210   40.4639 GAU  5.69e-03 -1.00e+00  9.61e+00  4.40e-02    9.6100 >    0.3021    0.0016    1.0003  694.3775 5155.6619   -0.4333    0.1267  96.14  -1.0  -1.0  0     0.0000    0.0003
26           ?    N    ? P      ? 20180313 0210   40.4705 GAU  4.38e-03 -1.00e+00  9.10e+00  8.00e-03    9.1000 >    0.3105   -0.0003    1.0206  694.3783 5155.6910   -0.4400    0.1277  83.02  -1.0  -1.0  0     0.0000    0.0003
21           ?    N    ? P      ? 20180313 0210   40.4862 GAU  7.00e-03 -1.00e+00  7.17e+00  8.00e-03    7.1700 >    0.3259    0.0001    1.1481  694.3642 5155.7391   -0.4517    0.1294  60.53  -1.0  -1.0  0     0.0000    0.0003
32           ?    N    ? P      ? 20180313 0210   40.4538 GAU  4.38e-03 -1.00e+00  9.24e+00  2.40e-02    9.2400 >    0.3002   -0.0067    0.9764  694.3777 5155.6456   -0.4297    0.1297 103.32  -1.0  -1.0  0     0.0000    0.0003
20           ?    N    ? P      ? 20180313 0210   40.4875 GAU  6.57e-03 -1.00e+00  7.78e+00  8.00e-03    7.7800 >    0.3328   -0.0055    1.2665  694.3609 5155.7515   -0.4553    0.1332  55.19  -1.0  -1.0  0     0.0000    0.0003
33           ?    N    ? P      ? 20180313 0210   40.4578 GAU  4.82e-03 -1.00e+00  9.48e+00  1.20e-02    9.4800 >    0.3000   -0.0024    1.2787  694.3775 5155.6293   -0.4252    0.1342 110.11  -1.0  -1.0  0     0.0000    0.0003
18           ?    N    ? P      ? 20180313 0210   40.5020 GAU  6.13e-03 -1.00e+00  7.04e+00  8.00e-03    7.0400 >    0.3416    0.0002    1.5589  694.3549 5155.7674   -0.4586    0.1384  48.35  -1.0  -1.0  0     0.0000    0.0003
17           ?    N    ? P      ? 20180313 0210   40.5107 GAU  6.13e-03 -1.00e+00  6.79e+00  2.80e-02    6.7900 >    0.3493    0.0011    1.7532  694.3461 5155.7815   -0.4621    0.1421  41.75  -1.0  -1.0  0     0.0000    0.0003
35           ?    N    ? P      ? 20180313 0210   40.4661 GAU  4.38e-03 -1.00e+00  9.11e+00  1.20e-02    9.1100 >    0.3051    0.0007    1.5120  694.3818 5155.6141   -0.4216    0.1440 115.22  -1.0  -1.0  0     0.0000    0.0003
16           ?    N    ? P      ? 20180313 0210   40.5164 GAU  1.44e-02 -1.00e+00  6.89e+00  5.20e-02    6.8900 >    0.3586   -0.0024    1.3168  694.3452 5155.7921   -0.4642    0.1496  38.76  -1.0  -1.0  0     0.0000    0.0004
27           ?    N    ? P      ? 20180313 0210   40.4867 GAU  4.81e-03 -1.00e+00  7.65e+00  2.80e-02    7.6500 >    0.3330   -0.0065    0.8858  694.4008 5155.6912   -0.4412    0.1501  83.96  -1.0  -1.0  0     0.0000    0.0003
22           ?    N    ? P      ? 20180313 0210   40.5182 GAU  2.15e-02 -1.00e+00  7.62e+00  1.20e-02    7.6200 >    0.3464    0.0116    0.5671  694.3985 5155.7265   -0.4488    0.1556  70.83  -1.0  -1.0  0     0.0000    0.0003
31           ?    N    ? P      ? 20180313 0210   40.4941 GAU  4.38e-03 -1.00e+00  7.00e+00  2.80e-02    7.0000 >    0.3339    0.0000    1.0886  694.4086 5155.6503   -0.4335    0.1591  99.08  -1.0  -1.0  0     0.0000    0.0003
36           ?    N    ? P      ? 20180313 0210   40.4770 GAU  1.18e-02 -1.00e+00  8.03e+00  1.20e-02    8.0300 >    0.3165    0.0002    1.2503  694.3865 5155.5904   -0.4164    0.1596 122.22  -1.0  -1.0  0     0.0000    0.0003
103          ?    N    ? P      ? 20180313 0210   40.5256 GAU  9.63e-03 -1.00e+00  6.94e+00  8.00e-03    6.9400 >    0.3740   -0.0087    1.3839  694.3644 5155.7952   -0.4662    0.1645  43.31  -1.0  -1.0  0     0.0000    0.0004
12           ?    N    ? P      ? 20180313 0210   40.5278 GAU  3.63e-02 -1.00e+00  5.82e+00  1.20e-02    5.8200 >    0.3768   -0.0093    0.7156  694.3356 5155.8197   -0.4663    0.1670  30.24  -1.0  -1.0  0     0.0000    0.0004
34           ?    N    ? P      ? 20180313 0210   40.4853 GAU  7.88e-03 -1.00e+00  7.47e+00  5.60e-02    7.4700 >    0.3425   -0.0175    0.5136  694.4145 5155.6153   -0.4263    0.1738 110.26  -1.0  -1.0  0     0.0000    0.0003
38           ?    N    ? P      ? 20180313 0210   40.4735 GAU  7.44e-03 -1.00e+00  6.84e+00  8.00e-03    6.8400 >    0.3312   -0.0179    0.5663  694.3902 5155.5681   -0.4123    0.1753 127.75  -1.0  -1.0  0     0.0000    0.0003
39           ?    N    ? P      ? 20180313 0210   40.5085 GAU  9.20e-03 -1.00e+00  7.01e+00  1.60e-02    7.0100 >    0.3380    0.0103    1.3823  694.3890 5155.5532   -0.4086    0.1840 131.64  -1.0  -1.0  0     0.0000    0.0003
37           ?    N    ? P      ? 20180313 0210   40.5107 GAU  2.10e-02 -1.00e+00  7.10e+00  3.60e-02    7.1000 >    0.3589   -0.0085    0.8195  694.4219 5155.5876   -0.4220    0.1917 117.27  -1.0  -1.0  0     0.0000    0.0004
41           ?    N    ? P      ? 20180313 0210   40.5191 GAU  1.18e-02 -1.00e+00  7.01e+00  1.20e-02    7.0100 >    0.3482    0.0106    1.4044  694.3901 5155.5386   -0.4053    0.1948 134.63  -1.0  -1.0  0     0.0000    0.0003
40           ?    N    ? P      ? 20180313 0210   40.5164 GAU  1.44e-02 -1.00e+00  7.22e+00  1.20e-02    7.2200 >    0.3775   -0.0213    0.7259  694.4169 5155.5417   -0.4131    0.2127 128.96  -1.0  -1.0  0     0.0000    0.0004
END_PHASE
END_NLLOC

