NLLOC "./loc/RR.20180313.002556.grid0" "REJECTED" "WARNING: max prob location on grid boundary 31, rejecting location."
PUBLIC_ID None
SIGNATURE "   obs:./obs/nll_picks.obs   NLLoc:v7.00.10(30Aug2020)   run:29Apr2022 23h19m06"
COMMENT "Rattlesnake Ridge Slidequake Locations"
GRID  150 250 75  694.15 5155.4 0  0.002 0.002 0.002 PROB_DENSITY
SEARCH OCTREE nInitial 1000 nEvaluated 18480 smallestNodeSide 0.001863/0.003112/0.000925 oct_tree_integral 1.739239e-04 scatter_volume 1.730223e-04
HYPOCENTER  x 694.184 y 5155.68 z 0.147537  OT 55.7975  ix -1 iy -1 iz -1 MAXIMUM_LIKELIHOOD
GEOGRAPHIC  OT 2018 03 13  00 25 55.797489  Lat 5155.681681 Long 694.184456 Depth 0.147537
QUALITY  Pmax 9.28711e+96 MFmin 159.416 MFmax 159.441 RMS 0.0132435 Nphs 23 Gap 293.369 Dist 0.186008 Mamp  0.81 23 Mdur -9.90 0
VPVSRATIO  VpVsRatio -1  Npair 0  Diff -2e+30
STATISTICS  ExpectX 694.190639 Y 5155.672120 Z 0.099161  CovXX 0.000965454 XY 0.00017459 XZ 0.000301049 YY 0.000188231 YZ 0.000319386 ZZ 0.00141873 EllAz1  172.738 Dip1  11.9189 Len1  0.0186017 Az2  268.907 Dip2  26.9795 Len2  0.0536537 Len3  7.652368e-02
STAT_GEOG  ExpectLat 5155.672120 Long 694.190639 Depth 0.099161
TRANSFORM  NONE
QML_OriginQuality  assocPhCt 23  usedPhCt 23  assocStaCt -1  usedStaCt 23  depthPhCt -1  stdErr 0.0132435  azGap 293.369  secAzGap 296.603  gtLevel -  minDist 0.186008 maxDist 0.25543 medDist 0.196577
QML_OriginUncertainty  horUnc -1  minHorUnc 0.0186245  maxHorUnc 0.0480271  azMaxHorUnc 77.9036
QML_ConfidenceEllipsoid  semiMajorAxisLength 0.0765237  semiMinorAxisLength 0.0186017  semiIntermediateAxisLength 0.0536537  majorAxisPlunge 60.1012  majorAxisAzimuth 61.2018  majorAxisRotation 317.857
FOCALMECH  Hyp  5155.681681 694.184456 0.147537 Mech  0 0 0 mf  0 nObs -1
PHASE ID Ins Cmp On Pha  FM Date     HrMn   Sec     Err  ErrMag    Coda      Amp       Per       PriorWt  >   TTpred    Res       Weight    StaLoc(X  Y         Z)        SDist    SAzim  RAz  RDip RQual    Tcorr       TTerr
25           ?    N    ? P      ? 20180313 0025   56.2331 GAU  1.02e-02 -1.00e+00  9.61e+00  2.40e-02    9.6100 >    0.4105    0.0251    0.6785  694.3684 5155.7091   -0.4438    0.1860  81.52  -1.0  -1.0  0     0.0000    0.0004
23           ?    N    ? P      ? 20180313 0025   56.2285 GAU  7.45e-03 -1.00e+00  9.15e+00  1.20e-02    9.1500 >    0.4161    0.0149    0.9785  694.3677 5155.7226   -0.4473    0.1877  77.43  -1.0  -1.0  0     0.0000    0.0004
21           ?    N    ? P      ? 20180313 0025   56.2176 GAU  2.11e-02 -1.00e+00  7.84e+00  1.20e-02    7.8400 >    0.4221   -0.0020    0.9699  694.3642 5155.7391   -0.4517    0.1887  72.27  -1.0  -1.0  0     0.0000    0.0004
20           ?    N    ? P      ? 20180313 0025   56.2193 GAU  1.37e-02 -1.00e+00  7.57e+00  8.00e-03    7.5700 >    0.4269   -0.0051    1.2671  694.3609 5155.7515   -0.4553    0.1897  68.41  -1.0  -1.0  0     0.0000    0.0004
17           ?    N    ? P      ? 20180313 0025   56.2336 GAU  1.77e-02 -1.00e+00  7.35e+00  2.80e-02    7.3500 >    0.4363   -0.0002    1.6882  694.3461 5155.7815   -0.4621    0.1900  58.32  -1.0  -1.0  0     0.0000    0.0004
18           ?    N    ? P      ? 20180313 0025   56.2267 GAU  1.54e-02 -1.00e+00  7.08e+00  8.00e-03    7.0800 >    0.4323   -0.0031    1.4550  694.3549 5155.7674   -0.4586    0.1908  63.30  -1.0  -1.0  0     0.0000    0.0004
105          ?    N    ? P      ? 20180313 0025   56.2122 GAU  8.85e-03 -1.00e+00  9.41e+00  1.20e-02    9.4100 >    0.4096    0.0051    0.9306  694.3764 5155.6832   -0.4382    0.1920  89.54  -1.0  -1.0  0     0.0000    0.0004
28           ?    N    ? P      ? 20180313 0025   56.2029 GAU  8.85e-03 -1.00e+00  8.70e+00  8.00e-03    8.7000 >    0.4084   -0.0029    0.8926  694.3767 5155.6745   -0.4362    0.1924  92.15  -1.0  -1.0  0     0.0000    0.0004
30           ?    N    ? P      ? 20180313 0025   56.2024 GAU  1.30e-02 -1.00e+00  8.38e+00  8.00e-03    8.3800 >    0.4072   -0.0023    0.8930  694.3775 5155.6619   -0.4333    0.1940  95.85  -1.0  -1.0  0     0.0000    0.0004
26           ?    N    ? P      ? 20180313 0025   56.2057 GAU  7.92e-03 -1.00e+00  9.46e+00  1.20e-02    9.4600 >    0.4140   -0.0057    0.8889  694.3783 5155.6910   -0.4400    0.1941  87.26  -1.0  -1.0  0     0.0000    0.0004
16           ?    N    ? P      ? 20180313 0025   56.2599 GAU  1.88e-02 -1.00e+00  7.40e+00  1.20e-02    7.4000 >    0.4436    0.0188    1.5608  694.3452 5155.7921   -0.4642    0.1950  55.51  -1.0  -1.0  0     0.0000    0.0004
32           ?    N    ? P      ? 20180313 0025   56.1987 GAU  2.51e-02 -1.00e+00  8.22e+00  1.20e-02    8.2200 >    0.4054   -0.0042    0.7913  694.3777 5155.6456   -0.4297    0.1966 100.58  -1.0  -1.0  0     0.0000    0.0004
33           ?    N    ? P      ? 20180313 0025   56.2215 GAU  2.19e-02 -1.00e+00  8.03e+00  1.20e-02    8.0300 >    0.4043    0.0197    0.9017  694.3775 5155.6293   -0.4252    0.2000 105.17  -1.0  -1.0  0     0.0000    0.0004
35           ?    N    ? P      ? 20180313 0025   56.2243 GAU  1.44e-02 -1.00e+00  7.45e+00  8.00e-03    7.4500 >    0.4095    0.0173    1.2212  694.3818 5155.6141   -0.4216    0.2086 108.90  -1.0  -1.0  0     0.0000    0.0004
103          ?    N    ? P      ? 20180313 0025   56.2142 GAU  3.71e-02 -1.00e+00  6.57e+00  1.20e-02    6.5700 >    0.4610   -0.0443    0.6512  694.3644 5155.7952   -0.4662    0.2127  57.75  -1.0  -1.0  0     0.0000    0.0005
27           ?    N    ? P      ? 20180313 0025   56.2410 GAU  1.54e-02 -1.00e+00  6.72e+00  2.00e-02    6.7200 >    0.4371    0.0064    0.7843  694.4008 5155.6912   -0.4412    0.2165  87.47  -1.0  -1.0  0     0.0000    0.0004
22           ?    N    ? P      ? 20180313 0025   56.2644 GAU  3.26e-02 -1.00e+00  7.47e+00  1.20e-02    7.4700 >    0.4470    0.0199    0.6520  694.3985 5155.7265   -0.4488    0.2187  78.16  -1.0  -1.0  0     0.0000    0.0004
36           ?    N    ? P      ? 20180313 0025   56.2117 GAU  2.61e-02 -1.00e+00  6.67e+00  1.20e-02    6.6700 >    0.4183   -0.0041    1.2609  694.3865 5155.5904   -0.4164    0.2217 114.32  -1.0  -1.0  0     0.0000    0.0004
31           ?    N    ? P      ? 20180313 0025   56.2261 GAU  1.72e-02 -1.00e+00  6.58e+00  1.60e-02    6.5800 >    0.4402   -0.0116    0.7952  694.4086 5155.6503   -0.4335    0.2263  97.96  -1.0  -1.0  0     0.0000    0.0004
38           ?    N    ? P      ? 20180313 0025   56.2201 GAU  2.70e-02 -1.00e+00  6.21e+00  1.20e-02    6.2100 >    0.4302   -0.0076    1.4181  694.3902 5155.5681   -0.4123    0.2350 118.90  -1.0  -1.0  0     0.0000    0.0004
34           ?    N    ? P      ? 20180313 0025   56.2406 GAU  1.49e-02 -1.00e+00  7.01e+00  1.20e-02    7.0100 >    0.4477   -0.0046    1.3826  694.4145 5155.6153   -0.4263    0.2394 106.10  -1.0  -1.0  0     0.0000    0.0004
39           ?    N    ? P      ? 20180313 0025   56.1358 GAU  1.35e-02 -1.00e+00  6.29e+00  1.20e-02    6.2900 >    0.4348   -0.0965    0.0457  694.3890 5155.5532   -0.4086    0.2416 122.14  -1.0  -1.0  0     0.0000    0.0004
37           ?    N    ? P      ? 20180313 0025   56.2946 GAU  3.07e-02 -1.00e+00  6.47e+00  1.20e-02    6.4700 >    0.4625    0.0347    0.8926  694.4219 5155.5876   -0.4220    0.2554 111.61  -1.0  -1.0  0     0.0000    0.0005
END_PHASE
END_NLLOC

