NLLOC "./loc/RR.20180313.003736.grid0" "REJECTED" "WARNING: max prob location on grid boundary 31, rejecting location."
PUBLIC_ID None
SIGNATURE "   obs:./obs/nll_picks.obs   NLLoc:v7.00.10(30Aug2020)   run:29Apr2022 23h19m23"
COMMENT "Rattlesnake Ridge Slidequake Locations"
GRID  150 250 75  694.15 5155.4 0  0.002 0.002 0.002 PROB_DENSITY
SEARCH OCTREE nInitial 1000 nEvaluated 6776 smallestNodeSide 0.001863/0.003112/0.000925 oct_tree_integral 2.924826e-05 scatter_volume 2.921291e-05
HYPOCENTER  x 694.22 y 5155.65 z 0.147537  OT 35.7328  ix -1 iy -1 iz -1 MAXIMUM_LIKELIHOOD
GEOGRAPHIC  OT 2018 03 13  00 37 35.732804  Lat 5155.647444 Long 694.219844 Depth 0.147537
QUALITY  Pmax 3.02956e+108 MFmin 282.432 MFmax 282.523 RMS 0.226892 Nphs 27 Gap 269.094 Dist 0.0977725 Mamp  0.76 27 Mdur -9.90 0
VPVSRATIO  VpVsRatio -1  Npair 0  Diff -2e+30
STATISTICS  ExpectX 694.199082 Y 5155.640089 Z 0.119812  CovXX 0.000883037 XY 0.000190555 XZ 0.00022455 YY 8.02946e-05 YZ 0.000128924 ZZ 0.000616325 EllAz1  169.606 Dip1  8.31916 Len1  0.00961236 Az2  273.929 Dip2  59.4146 Len2  0.041553 Len3  6.129547e-02
STAT_GEOG  ExpectLat 5155.640089 Long 694.199082 Depth 0.119812
TRANSFORM  NONE
QML_OriginQuality  assocPhCt 27  usedPhCt 27  assocStaCt -1  usedStaCt 27  depthPhCt -1  stdErr 0.226892  azGap 269.094  secAzGap 278.324  gtLevel -  minDist 0.0977725 maxDist 0.223604 medDist 0.180636
QML_OriginUncertainty  horUnc -1  minHorUnc 0.00926938  maxHorUnc 0.0461491  azMaxHorUnc 77.3017
QML_ConfidenceEllipsoid  semiMajorAxisLength 0.0612955  semiMinorAxisLength 0.00961236  semiIntermediateAxisLength 0.041553  majorAxisPlunge 29.1972  majorAxisAzimuth 74.9188  majorAxisRotation 17.7812
FOCALMECH  Hyp  5155.647444 694.219844 0.147537 Mech  0 0 0 mf  0 nObs -1
PHASE ID Ins Cmp On Pha  FM Date     HrMn   Sec     Err  ErrMag    Coda      Amp       Per       PriorWt  >   TTpred    Res       Weight    StaLoc(X  Y         Z)        SDist    SAzim  RAz  RDip RQual    Tcorr       TTerr
106          ?    N    ? P      ? 20180313 0037   36.1128 GAU  8.93e-03 -1.00e+00  7.03e+00  8.00e-03    7.0300 >    0.3052    0.0748    0.2519  694.3120 5155.6801   -0.4360    0.0978  70.52  -1.0  -1.0  0     0.0000    0.0003
32           ?    N    ? P      ? 20180313 0037   36.8200 GAU  6.11e-03 -1.00e+00  8.92e+00  2.40e-02    8.9200 >    0.3472    0.7400    0.2580  694.3777 5155.6456   -0.4297    0.1579  90.68  -1.0  -1.0  0     0.0000    0.0003
30           ?    N    ? P      ? 20180313 0037   36.8420 GAU  4.04e-03 -1.00e+00  8.95e+00  1.20e-02    8.9500 >    0.3517    0.7574    0.0417  694.3775 5155.6619   -0.4333    0.1583  84.75  -1.0  -1.0  0     0.0000    0.0004
33           ?    N    ? P      ? 20180313 0037   36.7180 GAU  2.70e-03 -1.00e+00  9.22e+00  1.20e-02    9.2200 >    0.3438    0.6414    0.0000  694.3775 5155.6293   -0.4252    0.1587  96.55  -1.0  -1.0  0     0.0000    0.0003
28           ?    N    ? P      ? 20180313 0037   36.9270 GAU  3.85e-03 -1.00e+00  8.53e+00  1.20e-02    8.5300 >    0.3558    0.8384    0.1524  694.3767 5155.6745   -0.4362    0.1591  80.23  -1.0  -1.0  0     0.0000    0.0004
105          ?    N    ? P      ? 20180313 0037   36.9450 GAU  4.80e-03 -1.00e+00  8.61e+00  1.20e-02    8.6100 >    0.3589    0.8533    0.0821  694.3764 5155.6832   -0.4382    0.1606  77.12  -1.0  -1.0  0     0.0000    0.0004
25           ?    N    ? P      ? 20180313 0037   36.1094 GAU  7.34e-03 -1.00e+00  7.56e+00  1.20e-02    7.5600 >    0.3659    0.0107    1.4534  694.3684 5155.7091   -0.4438    0.1609  67.46  -1.0  -1.0  0     0.0000    0.0004
26           ?    N    ? P      ? 20180313 0037   36.9810 GAU  6.35e-03 -1.00e+00  7.51e+00  1.20e-02    7.5100 >    0.3647    0.8835    0.0000  694.3783 5155.6910   -0.4400    0.1643  74.64  -1.0  -1.0  0     0.0000    0.0004
35           ?    N    ? P      ? 20180313 0037   36.9200 GAU  7.47e-03 -1.00e+00  9.84e+00  1.20e-02    9.8400 >    0.3457    0.8415    0.2346  694.3818 5155.6141   -0.4216    0.1653 101.63  -1.0  -1.0  0     0.0000    0.0003
23           ?    N    ? P      ? 20180313 0037   36.8880 GAU  1.65e-02 -1.00e+00  7.65e+00  8.00e-03    7.6500 >    0.3745    0.7807    0.0554  694.3677 5155.7226   -0.4473    0.1658  63.07  -1.0  -1.0  0     0.0000    0.0004
21           ?    N    ? P      ? 20180313 0037   36.1029 GAU  1.03e-02 -1.00e+00  7.21e+00  1.20e-02    7.2100 >    0.3844   -0.0143    1.4005  694.3642 5155.7391   -0.4517    0.1710  57.57  -1.0  -1.0  0     0.0000    0.0004
20           ?    N    ? P      ? 20180313 0037   36.1386 GAU  2.63e-02 -1.00e+00  6.45e+00  5.20e-02    6.4500 >    0.3922    0.0136    0.9442  694.3609 5155.7515   -0.4553    0.1752  53.58  -1.0  -1.0  0     0.0000    0.0004
36           ?    N    ? P      ? 20180313 0037   36.7810 GAU  6.43e-03 -1.00e+00  8.36e+00  1.20e-02    8.3600 >    0.3526    0.6956    0.0000  694.3865 5155.5904   -0.4164    0.1762 108.91  -1.0  -1.0  0     0.0000    0.0004
18           ?    N    ? P      ? 20180313 0037   36.1421 GAU  2.63e-02 -1.00e+00  5.84e+00  8.00e-03    5.8400 >    0.4014    0.0079    1.0547  694.3549 5155.7674   -0.4586    0.1806  48.38  -1.0  -1.0  0     0.0000    0.0004
17           ?    N    ? P      ? 20180313 0037   36.1386 GAU  1.90e-02 -1.00e+00  6.27e+00  1.20e-02    6.2700 >    0.4091   -0.0033    1.5864  694.3461 5155.7815   -0.4621    0.1842  43.30  -1.0  -1.0  0     0.0000    0.0004
27           ?    N    ? P      ? 20180313 0037   36.1427 GAU  9.71e-03 -1.00e+00  7.70e+00  1.20e-02    7.7000 >    0.3874    0.0225    0.5848  694.4008 5155.6912   -0.4412    0.1862  76.39  -1.0  -1.0  0     0.0000    0.0004
38           ?    N    ? P      ? 20180313 0037   36.8350 GAU  4.77e-03 -1.00e+00  7.80e+00  1.20e-02    7.8000 >    0.3615    0.7407    0.2797  694.3902 5155.5681   -0.4123    0.1879 114.98  -1.0  -1.0  0     0.0000    0.0004
31           ?    N    ? P      ? 20180313 0037   36.1085 GAU  7.11e-03 -1.00e+00  7.20e+00  8.00e-03    7.2000 >    0.3825   -0.0068    1.8513  694.4086 5155.6503   -0.4335    0.1888  89.12  -1.0  -1.0  0     0.0000    0.0004
16           ?    N    ? P      ? 20180313 0037   36.1529 GAU  9.05e-03 -1.00e+00  6.39e+00  4.80e-02    6.3900 >    0.4187    0.0014    2.4597  694.3452 5155.7921   -0.4642    0.1914  40.90  -1.0  -1.0  0     0.0000    0.0004
15           ?    N    ? P      ? 20180313 0037   36.2285 GAU  8.84e-03 -1.00e+00  6.35e+00  2.80e-02    6.3500 >    0.4156    0.0801    0.2450  694.3206 5155.8107   -0.4609    0.1918  31.67  -1.0  -1.0  0     0.0000    0.0004
39           ?    N    ? P      ? 20180313 0037   36.1018 GAU  6.88e-03 -1.00e+00  7.89e+00  1.20e-02    7.8900 >    0.3649    0.0041    2.4654  694.3890 5155.5532   -0.4086    0.1937 119.13  -1.0  -1.0  0     0.0000    0.0004
22           ?    N    ? P      ? 20180313 0037   36.1150 GAU  9.32e-03 -1.00e+00  6.04e+00  8.00e-03    6.0400 >    0.4050   -0.0228    0.7041  694.3985 5155.7265   -0.4488    0.1954  66.12  -1.0  -1.0  0     0.0000    0.0004
34           ?    N    ? P      ? 20180313 0037   36.1181 GAU  6.64e-03 -1.00e+00  7.89e+00  1.60e-02    7.8900 >    0.3854   -0.0001    2.1645  694.4145 5155.6153   -0.4263    0.1973  99.38  -1.0  -1.0  0     0.0000    0.0004
41           ?    N    ? P      ? 20180313 0037   36.1006 GAU  1.22e-02 -1.00e+00  7.20e+00  1.20e-02    7.2000 >    0.3719   -0.0041    2.3340  694.3901 5155.5386   -0.4053    0.2021 122.58  -1.0  -1.0  0     0.0000    0.0004
103          ?    N    ? P      ? 20180313 0037   36.1628 GAU  1.03e-02 -1.00e+00  6.11e+00  6.40e-02    6.1100 >    0.4348   -0.0048    2.2364  694.3644 5155.7952   -0.4662    0.2067  44.37  -1.0  -1.0  0     0.0000    0.0004
37           ?    N    ? P      ? 20180313 0037   36.1144 GAU  1.37e-02 -1.00e+00  7.94e+00  8.00e-03    7.9400 >    0.3969   -0.0153    1.6165  694.4219 5155.5876   -0.4220    0.2108 106.50  -1.0  -1.0  0     0.0000    0.0004
40           ?    N    ? P      ? 20180313 0037   36.1374 GAU  9.75e-03 -1.00e+00  7.83e+00  2.00e-02    7.8300 >    0.4046   -0.0000    2.5431  694.4169 5155.5417   -0.4131    0.2236 118.22  -1.0  -1.0  0     0.0000    0.0004
END_PHASE
END_NLLOC

