NLLOC "./loc/RR.20180313.031343.grid0" "LOCATED" "Location completed."
PUBLIC_ID None
SIGNATURE "   obs:./obs/nll_picks.obs   NLLoc:v7.00.10(30Aug2020)   run:29Apr2022 23h21m22"
COMMENT "Rattlesnake Ridge Slidequake Locations"
GRID  150 250 75  694.15 5155.4 0  0.002 0.002 0.002 PROB_DENSITY
SEARCH OCTREE nInitial 1000 nEvaluated 5624 smallestNodeSide 0.001863/0.003112/0.000925 oct_tree_integral 1.945505e-05 scatter_volume 1.936092e-05
HYPOCENTER  x 694.442 y 5155.85 z 0.071225  OT 43.3627  ix -1 iy -1 iz -1 MAXIMUM_LIKELIHOOD
GEOGRAPHIC  OT 2018 03 13  03 13 43.362703  Lat 5155.845087 Long 694.442412 Depth 0.071225
QUALITY  Pmax 6.8325e+104 MFmin 264.45 MFmax 264.502 RMS 0.0126992 Nphs 24 Gap 276.043 Dist 0.0926391 Mamp  0.60 24 Mdur -9.90 0
VPVSRATIO  VpVsRatio -1  Npair 0  Diff -2e+30
STATISTICS  ExpectX 694.364586 Y 5155.821694 Z 0.086064  CovXX 0.0066726 XY 0.00168449 XZ -0.000821947 YY 0.000483958 YZ -0.000159995 ZZ 0.000645268 EllAz1  345.064 Dip1  -5.49903 Len1  0.0133607 Az2  218.242 Dip2  -80.8744 Len2  0.0437955 Len3  1.595113e-01
STAT_GEOG  ExpectLat 5155.821694 Long 694.364586 Depth 0.086064
TRANSFORM  NONE
QML_OriginQuality  assocPhCt 24  usedPhCt 24  assocStaCt -1  usedStaCt 24  depthPhCt -1  stdErr 0.0126992  azGap 276.043  secAzGap 281.229  gtLevel -  minDist 0.0926391 maxDist 0.200313 medDist 0.131241
QML_OriginUncertainty  horUnc -1  minHorUnc 0.0112638  maxHorUnc 0.127801  azMaxHorUnc 75.7184
QML_ConfidenceEllipsoid  semiMajorAxisLength 0.159511  semiMinorAxisLength 0.0133607  semiIntermediateAxisLength 0.0437955  majorAxisPlunge -7.26015  majorAxisAzimuth 75.7671  majorAxisRotation 185.725
FOCALMECH  Hyp  5155.845087 694.442412 0.071225 Mech  0 0 0 mf  0 nObs -1
PHASE ID Ins Cmp On Pha  FM Date     HrMn   Sec     Err  ErrMag    Coda      Amp       Per       PriorWt  >   TTpred    Res       Weight    StaLoc(X  Y         Z)        SDist    SAzim  RAz  RDip RQual    Tcorr       TTerr
103          ?    N    ? P      ? 20180313 0313   43.5899 GAU  9.63e-03 -1.00e+00  7.66e+00  2.00e-02    7.6600 >    0.1772    0.0500    0.1980  694.3644 5155.7952   -0.4662    0.0926 237.41  -1.0  -1.0  0     0.0000    0.0002
6            ?    N    ? P      ? 20180313 0313   43.6019 GAU  4.34e-03 -1.00e+00  8.08e+00  2.00e-02    8.0800 >    0.1888    0.0504    0.1486  694.3446 5155.8502   -0.4728    0.0979 272.97  -1.0  -1.0  0     0.0000    0.0002
12           ?    N    ? P      ? 20180313 0313   43.5668 GAU  4.82e-03 -1.00e+00  9.25e+00  8.00e-03    9.2500 >    0.1988    0.0053    1.0698  694.3356 5155.8197   -0.4663    0.1098 256.64  -1.0  -1.0  0     0.0000    0.0002
10           ?    N    ? P      ? 20180313 0313   43.5759 GAU  3.37e-03 -1.00e+00  8.91e+00  6.40e-02    8.9100 >    0.2004    0.0128    1.0615  694.3329 5155.8329   -0.4673    0.1102 263.64  -1.0  -1.0  0     0.0000    0.0002
16           ?    N    ? P      ? 20180313 0313   43.5793 GAU  3.85e-03 -1.00e+00  9.85e+00  8.00e-03    9.8500 >    0.1996    0.0170    0.8774  694.3452 5155.7921   -0.4642    0.1107 241.42  -1.0  -1.0  0     0.0000    0.0002
17           ?    N    ? P      ? 20180313 0313   43.5668 GAU  1.93e-03 -1.00e+00  9.14e+00  8.00e-03    9.1400 >    0.2043   -0.0002    1.0602  694.3461 5155.7815   -0.4621    0.1154 236.54  -1.0  -1.0  0     0.0000    0.0002
18           ?    N    ? P      ? 20180313 0313   43.5749 GAU  3.37e-03 -1.00e+00  7.95e+00  8.00e-03    7.9500 >    0.2042    0.0080    1.0669  694.3549 5155.7674   -0.4586    0.1170 228.41  -1.0  -1.0  0     0.0000    0.0002
8            ?    N    ? P      ? 20180313 0313   43.5634 GAU  4.34e-03 -1.00e+00  8.19e+00  5.20e-02    8.1900 >    0.2114   -0.0107    0.8852  694.3223 5155.8450   -0.4648    0.1201 269.96  -1.0  -1.0  0     0.0000    0.0002
20           ?    N    ? P      ? 20180313 0313   43.5805 GAU  5.52e-03 -1.00e+00  7.94e+00  8.00e-03    7.9400 >    0.2121    0.0057    1.2681  694.3609 5155.7515   -0.4553    0.1242 221.06  -1.0  -1.0  0     0.0000    0.0002
22           ?    N    ? P      ? 20180313 0313   43.6448 GAU  6.17e-03 -1.00e+00  7.32e+00  8.00e-03    7.3200 >    0.2116    0.0705    0.0338  694.3985 5155.7265   -0.4488    0.1264 200.33  -1.0  -1.0  0     0.0000    0.0002
15           ?    N    ? P      ? 20180313 0313   43.5562 GAU  3.85e-03 -1.00e+00  1.12e+01  8.00e-03   11.2000 >    0.2180   -0.0245    0.3439  694.3206 5155.8107   -0.4609    0.1266 254.23  -1.0  -1.0  0     0.0000    0.0002
2            ?    N    ? P      ? 20180313 0313   43.5725 GAU  8.67e-03 -1.00e+00  8.38e+00  1.20e-02    8.3800 >    0.2214   -0.0116    0.9766  694.3150 5155.8647   -0.4623    0.1289 278.74  -1.0  -1.0  0     0.0000    0.0002
4            ?    N    ? P      ? 20180313 0313   43.5860 GAU  4.81e-03 -1.00e+00  7.69e+00  1.20e-02    7.6900 >    0.2256   -0.0023    1.1749  694.3090 5155.8520   -0.4586    0.1336 272.98  -1.0  -1.0  0     0.0000    0.0002
13           ?    N    ? P      ? 20180313 0313   43.5875 GAU  9.15e-03 -1.00e+00  8.69e+00  1.20e-02    8.6900 >    0.2289   -0.0041    1.0386  694.3062 5155.8390   -0.4568    0.1363 267.45  -1.0  -1.0  0     0.0000    0.0002
23           ?    N    ? P      ? 20180313 0313   43.5909 GAU  6.17e-03 -1.00e+00  7.05e+00  1.20e-02    7.0500 >    0.2360   -0.0078    1.4339  694.3677 5155.7226   -0.4473    0.1435 211.37  -1.0  -1.0  0     0.0000    0.0002
5            ?    N    ? P      ? 20180313 0313   43.6270 GAU  9.15e-03 -1.00e+00  8.69e+00  1.60e-02    8.6900 >    0.2468    0.0175    0.9833  694.2898 5155.8520   -0.4475    0.1528 272.58  -1.0  -1.0  0     0.0000    0.0002
25           ?    N    ? P      ? 20180313 0313   43.6175 GAU  8.77e-03 -1.00e+00  7.06e+00  5.20e-02    7.0600 >    0.2514    0.0034    1.7799  694.3684 5155.7091   -0.4438    0.1548 208.55  -1.0  -1.0  0     0.0000    0.0003
27           ?    N    ? P      ? 20180313 0313   43.6377 GAU  7.47e-03 -1.00e+00  6.37e+00  1.20e-02    6.3700 >    0.2578    0.0172    1.6279  694.4008 5155.6912   -0.4412    0.1594 195.14  -1.0  -1.0  0     0.0000    0.0003
26           ?    N    ? P      ? 20180313 0313   43.6214 GAU  3.73e-02 -1.00e+00  6.53e+00  8.00e-03    6.5300 >    0.2684   -0.0097    0.9230  694.3783 5155.6910   -0.4400    0.1669 202.59  -1.0  -1.0  0     0.0000    0.0003
1            ?    N    ? P      ? 20180313 0313   43.6299 GAU  1.78e-02 -1.00e+00  7.37e+00  1.20e-02    7.3700 >    0.2692   -0.0021    1.2401  694.2735 5155.8721   -0.4381    0.1710 279.10  -1.0  -1.0  0     0.0000    0.0003
7            ?    N    ? P      ? 20180313 0313   43.6722 GAU  1.01e-02 -1.00e+00  7.93e+00  1.20e-02    7.9300 >    0.2705    0.0390    0.2870  694.2704 5155.8450   -0.4359    0.1720 269.97  -1.0  -1.0  0     0.0000    0.0003
105          ?    N    ? P      ? 20180313 0313   43.6273 GAU  6.82e-03 -1.00e+00  7.23e+00  1.20e-02    7.2300 >    0.2798   -0.0152    1.3665  694.3764 5155.6832   -0.4382    0.1748 202.19  -1.0  -1.0  0     0.0000    0.0003
9            ?    N    ? P      ? 20180313 0313   43.6626 GAU  1.01e-02 -1.00e+00  8.75e+00  1.20e-02    8.7500 >    0.2861    0.0138    1.4046  694.2594 5155.8351   -0.4296    0.1833 266.87  -1.0  -1.0  0     0.0000    0.0003
3            ?    N    ? P      ? 20180313 0313   43.6742 GAU  1.40e-02 -1.00e+00  7.42e+00  1.20e-02    7.4200 >    0.3095    0.0020    1.7503  694.2426 5155.8595   -0.4214    0.2003 274.11  -1.0  -1.0  0     0.0000    0.0003
END_PHASE
END_NLLOC

