NLLOC "./loc/RR.20180313.011406.grid0" "LOCATED" "Location completed."
PUBLIC_ID None
SIGNATURE "   obs:./obs/nll_picks.obs   NLLoc:v7.00.10(30Aug2020)   run:29Apr2022 23h19m52"
COMMENT "Rattlesnake Ridge Slidequake Locations"
GRID  150 250 75  694.15 5155.4 0  0.002 0.002 0.002 PROB_DENSITY
SEARCH OCTREE nInitial 1000 nEvaluated 20008 smallestNodeSide 0.003725/0.006225/0.001850 oct_tree_integral 2.276097e-04 scatter_volume 2.265963e-04
HYPOCENTER  x 694.176 y 5155.61 z 0.08695  OT 6.43883  ix -1 iy -1 iz -1 MAXIMUM_LIKELIHOOD
GEOGRAPHIC  OT 2018 03 13  01 14 6.438833  Lat 5155.605425 Long 694.176075 Depth 0.086950
QUALITY  Pmax 1.9112e+87 MFmin 186.452 MFmax 186.541 RMS 0.00989618 Nphs 21 Gap 304.346 Dist 0.155081 Mamp  0.78 21 Mdur -9.90 0
VPVSRATIO  VpVsRatio -1  Npair 0  Diff -2e+30
STATISTICS  ExpectX 694.220618 Y 5155.609275 Z 0.097330  CovXX 0.00360176 XY 0.000466151 XZ 0.000936817 YY 0.000145015 YZ 0.000254258 ZZ 0.00133427 EllAz1  174.41 Dip1  7.27423 Len1  0.0153535 Az2  283.619 Dip2  68.7956 Len2  0.0595404 Len3  1.189761e-01
STAT_GEOG  ExpectLat 5155.609275 Long 694.220618 Depth 0.097330
TRANSFORM  NONE
QML_OriginQuality  assocPhCt 21  usedPhCt 21  assocStaCt -1  usedStaCt 21  depthPhCt -1  stdErr 0.00989618  azGap 304.346  secAzGap 311.234  gtLevel -  minDist 0.155081 maxDist 0.253266 medDist 0.219266
QML_OriginUncertainty  horUnc -1  minHorUnc 0.013838  maxHorUnc 0.0917938  azMaxHorUnc 82.4531
QML_ConfidenceEllipsoid  semiMajorAxisLength 0.118976  semiMinorAxisLength 0.0153535  semiIntermediateAxisLength 0.0595404  majorAxisPlunge 19.8044  majorAxisAzimuth 81.7752  majorAxisRotation 9.99773
FOCALMECH  Hyp  5155.605425 694.176075 0.086950 Mech  0 0 0 mf  0 nObs -1
PHASE ID Ins Cmp On Pha  FM Date     HrMn   Sec     Err  ErrMag    Coda      Amp       Per       PriorWt  >   TTpred    Res       Weight    StaLoc(X  Y         Z)        SDist    SAzim  RAz  RDip RQual    Tcorr       TTerr
106          ?    N    ? P      ? 20180313 0114    6.9013 GAU  1.05e-02 -1.00e+00  6.86e+00  1.20e-02    6.8600 >    0.3341    0.1284    0.0005  694.3120 5155.6801   -0.4360    0.1551  61.23  -1.0  -1.0  0     0.0000    0.0003
33           ?    N    ? P      ? 20180313 0114    6.8258 GAU  4.75e-03 -1.00e+00  9.85e+00  8.00e-03    9.8500 >    0.3769    0.0100    1.1135  694.3775 5155.6293   -0.4252    0.2029  83.23  -1.0  -1.0  0     0.0000    0.0004
32           ?    N    ? P      ? 20180313 0114    6.8111 GAU  6.61e-03 -1.00e+00  8.69e+00  8.00e-03    8.6900 >    0.3837   -0.0115    0.7235  694.3777 5155.6456   -0.4297    0.2056  78.74  -1.0  -1.0  0     0.0000    0.0004
35           ?    N    ? P      ? 20180313 0114    6.8153 GAU  3.38e-03 -1.00e+00  1.02e+01  8.00e-03   10.2000 >    0.3770   -0.0006    1.1516  694.3818 5155.6141   -0.4216    0.2059  87.58  -1.0  -1.0  0     0.0000    0.0004
30           ?    N    ? P      ? 20180313 0114    6.8427 GAU  8.81e-03 -1.00e+00  8.67e+00  1.20e-02    8.6700 >    0.3915    0.0124    1.1229  694.3775 5155.6619   -0.4333    0.2092  74.33  -1.0  -1.0  0     0.0000    0.0004
36           ?    N    ? P      ? 20180313 0114    6.8189 GAU  3.90e-03 -1.00e+00  9.07e+00  1.20e-02    9.0700 >    0.3798    0.0003    1.1777  694.3865 5155.5904   -0.4164    0.2110  94.10  -1.0  -1.0  0     0.0000    0.0004
28           ?    N    ? P      ? 20180313 0114    6.8925 GAU  8.81e-03 -1.00e+00  8.49e+00  8.00e-03    8.4900 >    0.3977    0.0559    0.0333  694.3767 5155.6745   -0.4362    0.2122  71.01  -1.0  -1.0  0     0.0000    0.0004
105          ?    N    ? P      ? 20180313 0114    6.9071 GAU  1.12e-02 -1.00e+00  8.46e+00  1.20e-02    8.4600 >    0.4028    0.0655    0.0199  694.3764 5155.6832   -0.4382    0.2149  68.77  -1.0  -1.0  0     0.0000    0.0004
38           ?    N    ? P      ? 20180313 0114    6.8187 GAU  4.07e-03 -1.00e+00  7.67e+00  1.20e-02    7.6700 >    0.3847   -0.0049    1.2285  694.3902 5155.5681   -0.4123    0.2173  99.89  -1.0  -1.0  0     0.0000    0.0004
25           ?    N    ? P      ? 20180313 0114    6.8820 GAU  9.49e-03 -1.00e+00  7.10e+00  8.00e-03    7.1000 >    0.4125    0.0307    0.4330  694.3684 5155.7091   -0.4438    0.2185  61.67  -1.0  -1.0  0     0.0000    0.0004
39           ?    N    ? P      ? 20180313 0114    6.8312 GAU  6.43e-03 -1.00e+00  7.68e+00  1.20e-02    7.6800 >    0.3848    0.0076    1.6326  694.3890 5155.5532   -0.4086    0.2193 103.79  -1.0  -1.0  0     0.0000    0.0004
26           ?    N    ? P      ? 20180313 0114    6.8483 GAU  1.03e-02 -1.00e+00  7.10e+00  1.20e-02    7.1000 >    0.4102   -0.0007    1.5859  694.3783 5155.6910   -0.4400    0.2196  67.07  -1.0  -1.0  0     0.0000    0.0004
41           ?    N    ? P      ? 20180313 0114    6.8444 GAU  8.47e-03 -1.00e+00  7.00e+00  8.00e-03    7.0000 >    0.3893    0.0163    1.5027  694.3901 5155.5386   -0.4053    0.2242 107.33  -1.0  -1.0  0     0.0000    0.0004
23           ?    N    ? P      ? 20180313 0114    6.8905 GAU  3.25e-02 -1.00e+00  6.81e+00  1.20e-02    6.8100 >    0.4232    0.0285    0.8139  694.3677 5155.7226   -0.4473    0.2246  58.56  -1.0  -1.0  0     0.0000    0.0004
20           ?    N    ? P      ? 20180313 0114    6.8705 GAU  1.93e-02 -1.00e+00  5.77e+00  1.20e-02    5.7700 >    0.4441   -0.0124    1.4440  694.3609 5155.7515   -0.4553    0.2355  51.68  -1.0  -1.0  0     0.0000    0.0004
31           ?    N    ? P      ? 20180313 0114    6.8947 GAU  2.42e-02 -1.00e+00  7.47e+00  1.20e-02    7.4700 >    0.4254    0.0305    0.4809  694.4086 5155.6503   -0.4335    0.2369  79.07  -1.0  -1.0  0     0.0000    0.0004
34           ?    N    ? P      ? 20180313 0114    6.8746 GAU  1.02e-02 -1.00e+00  7.88e+00  2.40e-02    7.8800 >    0.4227    0.0131    0.9325  694.4145 5155.6153   -0.4263    0.2386  87.63  -1.0  -1.0  0     0.0000    0.0004
27           ?    N    ? P      ? 20180313 0114    6.8927 GAU  1.54e-02 -1.00e+00  6.32e+00  8.00e-03    6.3200 >    0.4365    0.0174    0.9558  694.4008 5155.6912   -0.4412    0.2405  69.10  -1.0  -1.0  0     0.0000    0.0004
37           ?    N    ? P      ? 20180313 0114    6.8559 GAU  7.45e-03 -1.00e+00  7.48e+00  8.00e-03    7.4800 >    0.4304   -0.0134    0.7589  694.4219 5155.5876   -0.4220    0.2465  94.15  -1.0  -1.0  0     0.0000    0.0004
40           ?    N    ? P      ? 20180313 0114    6.8709 GAU  7.79e-03 -1.00e+00  7.52e+00  1.20e-02    7.5200 >    0.4284    0.0037    1.9305  694.4169 5155.5417   -0.4131    0.2491 104.82  -1.0  -1.0  0     0.0000    0.0004
22           ?    N    ? P      ? 20180313 0114    6.8974 GAU  1.27e-02 -1.00e+00  6.23e+00  8.00e-03    6.2300 >    0.4587   -0.0001    1.9579  694.3985 5155.7265   -0.4488    0.2533  61.43  -1.0  -1.0  0     0.0000    0.0005
END_PHASE
END_NLLOC

