NLLOC "./loc/RR.20180313.030331.grid0" "REJECTED" "WARNING: max prob location on grid boundary 31, rejecting location."
PUBLIC_ID None
SIGNATURE "   obs:./obs/nll_picks.obs   NLLoc:v7.00.10(30Aug2020)   run:29Apr2022 23h21m14"
COMMENT "Rattlesnake Ridge Slidequake Locations"
GRID  150 250 75  694.15 5155.4 0  0.002 0.002 0.002 PROB_DENSITY
SEARCH OCTREE nInitial 1000 nEvaluated 5216 smallestNodeSide 0.001863/0.003112/0.000925 oct_tree_integral 2.713884e-05 scatter_volume 2.704638e-05
HYPOCENTER  x 694.216 y 5155.67 z 0.147537  OT 31.1735  ix -1 iy -1 iz -1 MAXIMUM_LIKELIHOOD
GEOGRAPHIC  OT 2018 03 13  03 03 31.173462  Lat 5155.669231 Long 694.216119 Depth 0.147537
QUALITY  Pmax 3.27048e+110 MFmin 254.139 MFmax 254.239 RMS 0.00776879 Nphs 25 Gap 279.513 Dist 0.0965073 Mamp  0.77 25 Mdur -9.90 0
VPVSRATIO  VpVsRatio -1  Npair 0  Diff -2e+30
STATISTICS  ExpectX 694.191379 Y 5155.663038 Z 0.128307  CovXX 0.000761066 XY 0.00014537 XZ 0.000107033 YY 7.91939e-05 YZ 5.2429e-05 ZZ 0.000307901 EllAz1  169.541 Dip1  6.98925 Len1  0.0127184 Az2  287.535 Dip2  75.3621 Len2  0.0317389 Len3  5.370190e-02
STAT_GEOG  ExpectLat 5155.663038 Long 694.191379 Depth 0.128307
TRANSFORM  NONE
QML_OriginQuality  assocPhCt 25  usedPhCt 25  assocStaCt -1  usedStaCt 25  depthPhCt -1  stdErr 0.00776879  azGap 279.513  secAzGap 282.534  gtLevel -  minDist 0.0965073 maxDist 0.237828 medDist 0.171774
QML_OriginUncertainty  horUnc -1  minHorUnc 0.0106696  maxHorUnc 0.0426469  azMaxHorUnc 78.4537
QML_ConfidenceEllipsoid  semiMajorAxisLength 0.0537019  semiMinorAxisLength 0.0127184  semiIntermediateAxisLength 0.0317389  majorAxisPlunge 12.7962  majorAxisAzimuth 77.9459  majorAxisRotation 7.93849
FOCALMECH  Hyp  5155.669231 694.216119 0.147537 Mech  0 0 0 mf  0 nObs -1
PHASE ID Ins Cmp On Pha  FM Date     HrMn   Sec     Err  ErrMag    Coda      Amp       Per       PriorWt  >   TTpred    Res       Weight    StaLoc(X  Y         Z)        SDist    SAzim  RAz  RDip RQual    Tcorr       TTerr
106          ?    N    ? P      ? 20180313 0303   31.5699 GAU  6.59e-03 -1.00e+00  7.68e+00  1.60e-02    7.6800 >    0.3054    0.0911    0.0011  694.3120 5155.6801   -0.4360    0.0965  83.56  -1.0  -1.0  0     0.0000    0.0003
25           ?    N    ? P      ? 20180313 0303   31.5538 GAU  6.60e-03 -1.00e+00  8.61e+00  1.20e-02    8.6100 >    0.3630    0.0173    0.5062  694.3684 5155.7091   -0.4438    0.1574  75.33  -1.0  -1.0  0     0.0000    0.0004
28           ?    N    ? P      ? 20180313 0303   31.5398 GAU  2.93e-03 -1.00e+00  1.07e+01  1.20e-02   10.7000 >    0.3575    0.0088    0.9434  694.3767 5155.6745   -0.4362    0.1606  88.14  -1.0  -1.0  0     0.0000    0.0004
23           ?    N    ? P      ? 20180313 0303   31.5578 GAU  4.77e-03 -1.00e+00  9.02e+00  1.20e-02    9.0200 >    0.3701    0.0142    0.7454  694.3677 5155.7226   -0.4473    0.1607  70.62  -1.0  -1.0  0     0.0000    0.0004
105          ?    N    ? P      ? 20180313 0303   31.5365 GAU  7.69e-03 -1.00e+00  1.02e+01  8.00e-03   10.2000 >    0.3599    0.0031    0.9939  694.3764 5155.6832   -0.4382    0.1609  85.01  -1.0  -1.0  0     0.0000    0.0004
30           ?    N    ? P      ? 20180313 0303   31.5289 GAU  2.93e-03 -1.00e+00  9.40e+00  2.80e-02    9.4000 >    0.3553    0.0001    1.3446  694.3775 5155.6619   -0.4333    0.1615  92.60  -1.0  -1.0  0     0.0000    0.0004
32           ?    N    ? P      ? 20180313 0303   31.5219 GAU  6.96e-03 -1.00e+00  9.27e+00  8.00e-03    9.2700 >    0.3533   -0.0049    1.2284  694.3777 5155.6456   -0.4297    0.1633  98.33  -1.0  -1.0  0     0.0000    0.0004
26           ?    N    ? P      ? 20180313 0303   31.5354 GAU  4.39e-03 -1.00e+00  9.04e+00  1.20e-02    9.0400 >    0.3647   -0.0028    1.0082  694.3783 5155.6910   -0.4400    0.1636  82.36  -1.0  -1.0  0     0.0000    0.0004
21           ?    N    ? P      ? 20180313 0303   31.5486 GAU  6.59e-03 -1.00e+00  7.35e+00  8.00e-03    7.3500 >    0.3780   -0.0029    1.2448  694.3642 5155.7391   -0.4517    0.1637  64.73  -1.0  -1.0  0     0.0000    0.0004
33           ?    N    ? P      ? 20180313 0303   31.5311 GAU  1.10e-02 -1.00e+00  8.97e+00  4.40e-02    8.9700 >    0.3510    0.0067    1.2539  694.3775 5155.6293   -0.4252    0.1663 103.89  -1.0  -1.0  0     0.0000    0.0004
20           ?    N    ? P      ? 20180313 0303   31.5611 GAU  4.39e-03 -1.00e+00  7.45e+00  8.00e-03    7.4500 >    0.3845    0.0032    1.6058  694.3609 5155.7515   -0.4553    0.1665  60.39  -1.0  -1.0  0     0.0000    0.0004
18           ?    N    ? P      ? 20180313 0303   31.5673 GAU  5.49e-03 -1.00e+00  6.83e+00  2.40e-02    6.8300 >    0.3917    0.0022    1.8569  694.3549 5155.7674   -0.4586    0.1700  54.72  -1.0  -1.0  0     0.0000    0.0004
17           ?    N    ? P      ? 20180313 0303   31.5699 GAU  1.39e-02 -1.00e+00  6.62e+00  8.00e-03    6.6200 >    0.3980   -0.0016    1.5461  694.3461 5155.7815   -0.4621    0.1718  49.20  -1.0  -1.0  0     0.0000    0.0004
35           ?    N    ? P      ? 20180313 0303   31.5409 GAU  6.22e-03 -1.00e+00  8.67e+00  8.00e-03    8.6700 >    0.3558    0.0116    1.3295  694.3818 5155.6141   -0.4216    0.1746 108.40  -1.0  -1.0  0     0.0000    0.0004
16           ?    N    ? P      ? 20180313 0303   31.5754 GAU  1.36e-02 -1.00e+00  6.66e+00  1.20e-02    6.6600 >    0.4063   -0.0044    1.6720  694.3452 5155.7921   -0.4642    0.1782  46.40  -1.0  -1.0  0     0.0000    0.0004
27           ?    N    ? P      ? 20180313 0303   31.5604 GAU  3.66e-03 -1.00e+00  8.03e+00  1.20e-02    8.0300 >    0.3880   -0.0010    1.1385  694.4008 5155.6912   -0.4412    0.1860  83.20  -1.0  -1.0  0     0.0000    0.0004
36           ?    N    ? P      ? 20180313 0303   31.5300 GAU  1.87e-02 -1.00e+00  7.60e+00  1.20e-02    7.6000 >    0.3645   -0.0080    1.2619  694.3865 5155.5904   -0.4164    0.1878 114.84  -1.0  -1.0  0     0.0000    0.0004
22           ?    N    ? P      ? 20180313 0303   31.5658 GAU  5.49e-03 -1.00e+00  7.12e+00  1.20e-02    7.1200 >    0.4007   -0.0084    0.9378  694.3985 5155.7265   -0.4488    0.1912  72.55  -1.0  -1.0  0     0.0000    0.0004
31           ?    N    ? P      ? 20180313 0303   31.5431 GAU  1.14e-02 -1.00e+00  6.84e+00  8.00e-03    6.8400 >    0.3880   -0.0184    0.5402  694.4086 5155.6503   -0.4335    0.1934  95.60  -1.0  -1.0  0     0.0000    0.0004
103          ?    N    ? P      ? 20180313 0303   31.5538 GAU  1.17e-02 -1.00e+00  6.35e+00  1.20e-02    6.3500 >    0.4236   -0.0433    0.2276  694.3644 5155.7952   -0.4662    0.1945  49.65  -1.0  -1.0  0     0.0000    0.0004
38           ?    N    ? P      ? 20180313 0303   31.4908 GAU  1.76e-02 -1.00e+00  5.86e+00  1.60e-02    5.8600 >    0.3765   -0.0592    0.1247  694.3902 5155.5681   -0.4123    0.2013 120.16  -1.0  -1.0  0     0.0000    0.0004
39           ?    N    ? P      ? 20180313 0303   31.6087 GAU  9.53e-03 -1.00e+00  6.92e+00  1.20e-02    6.9200 >    0.3815    0.0537    0.0050  694.3890 5155.5532   -0.4086    0.2082 123.87  -1.0  -1.0  0     0.0000    0.0004
41           ?    N    ? P      ? 20180313 0303   31.5669 GAU  1.98e-02 -1.00e+00  6.54e+00  1.20e-02    6.5400 >    0.3902    0.0033    1.8303  694.3901 5155.5386   -0.4053    0.2175 126.89  -1.0  -1.0  0     0.0000    0.0004
37           ?    N    ? P      ? 20180313 0303   31.5739 GAU  1.14e-02 -1.00e+00  7.09e+00  8.00e-03    7.0900 >    0.4088   -0.0083    1.6375  694.4219 5155.5876   -0.4220    0.2214 111.64  -1.0  -1.0  0     0.0000    0.0004
40           ?    N    ? P      ? 20180313 0303   31.5050 GAU  1.79e-02 -1.00e+00  5.97e+00  8.00e-03    5.9700 >    0.4212   -0.0897    0.0164  694.4169 5155.5417   -0.4131    0.2378 122.42  -1.0  -1.0  0     0.0000    0.0004
END_PHASE
END_NLLOC

