NLLOC "./loc/RR.20180313.011538.grid0" "REJECTED" "WARNING: max prob location on grid boundary 31, rejecting location."
PUBLIC_ID None
SIGNATURE "   obs:./obs/nll_picks.obs   NLLoc:v7.00.10(30Aug2020)   run:29Apr2022 23h19m55"
COMMENT "Rattlesnake Ridge Slidequake Locations"
GRID  150 250 75  694.15 5155.4 0  0.002 0.002 0.002 PROB_DENSITY
SEARCH OCTREE nInitial 1000 nEvaluated 2576 smallestNodeSide 0.001863/0.003112/0.000925 oct_tree_integral 7.417150e-06 scatter_volume 7.417150e-06
HYPOCENTER  x 694.188 y 5155.64 z 0.147537  OT 37.7027  ix -1 iy -1 iz -1 MAXIMUM_LIKELIHOOD
GEOGRAPHIC  OT 2018 03 13  01 15 37.702668  Lat 5155.644331 Long 694.188181 Depth 0.147537
QUALITY  Pmax 2.05746e+153 MFmin 436.849 MFmax 437.014 RMS 0.0104613 Nphs 33 Gap 268.53 Dist 0.128886 Mamp  0.83 33 Mdur -9.90 0
VPVSRATIO  VpVsRatio -1  Npair 0  Diff -2e+30
STATISTICS  ExpectX 694.174823 Y 5155.639294 Z 0.132723  CovXX 0.000214478 XY 4.44064e-05 XZ 6.81569e-05 YY 3.47657e-05 YZ 3.40878e-05 ZZ 0.000194245 EllAz1  169.408 Dip1  6.95352 Len1  0.00885889 Az2  267.706 Dip2  49.7997 Len2  0.0218736 Len3  3.175809e-02
STAT_GEOG  ExpectLat 5155.639294 Long 694.174823 Depth 0.132723
TRANSFORM  NONE
QML_OriginQuality  assocPhCt 33  usedPhCt 33  assocStaCt -1  usedStaCt 33  depthPhCt -1  stdErr 0.0104613  azGap 268.53  secAzGap 273.598  gtLevel -  minDist 0.128886 maxDist 0.258544 medDist 0.217721
QML_OriginUncertainty  horUnc -1  minHorUnc 0.00749007  maxHorUnc 0.0227411  azMaxHorUnc 76.8508
QML_ConfidenceEllipsoid  semiMajorAxisLength 0.0317581  semiMinorAxisLength 0.00885889  semiIntermediateAxisLength 0.0218736  majorAxisPlunge 39.3464  majorAxisAzimuth 73.6695  majorAxisRotation 38.9523
FOCALMECH  Hyp  5155.644331 694.188181 0.147537 Mech  0 0 0 mf  0 nObs -1
PHASE ID Ins Cmp On Pha  FM Date     HrMn   Sec     Err  ErrMag    Coda      Amp       Per       PriorWt  >   TTpred    Res       Weight    StaLoc(X  Y         Z)        SDist    SAzim  RAz  RDip RQual    Tcorr       TTerr
106          ?    N    ? P      ? 20180313 0115   38.1821 GAU  1.26e-02 -1.00e+00  6.84e+00  1.20e-02    6.8400 >    0.3540    0.1254    0.0505  694.3120 5155.6801   -0.4360    0.1289  73.91  -1.0  -1.0  0     0.0000    0.0004
32           ?    N    ? P      ? 20180313 0115   38.8200 GAU  2.55e-03 -1.00e+00  1.03e+01  8.00e-03   10.3000 >    0.3987    0.7186    0.0001  694.3777 5155.6456   -0.4297    0.1895  89.62  -1.0  -1.0  0     0.0000    0.0004
33           ?    N    ? P      ? 20180313 0115   38.7510 GAU  4.42e-03 -1.00e+00  1.03e+01  1.20e-02   10.3000 >    0.3951    0.6532    0.0000  694.3775 5155.6293   -0.4252    0.1899  94.53  -1.0  -1.0  0     0.0000    0.0004
30           ?    N    ? P      ? 20180313 0115   38.1073 GAU  3.98e-03 -1.00e+00  9.29e+00  8.00e-03    9.2900 >    0.4032    0.0014    1.7912  694.3775 5155.6619   -0.4333    0.1901  84.69  -1.0  -1.0  0     0.0000    0.0004
28           ?    N    ? P      ? 20180313 0115   38.1122 GAU  5.21e-03 -1.00e+00  9.43e+00  8.00e-03    9.4300 >    0.4072    0.0023    1.6720  694.3767 5155.6745   -0.4362    0.1909  80.92  -1.0  -1.0  0     0.0000    0.0004
25           ?    N    ? P      ? 20180313 0115   38.1527 GAU  5.21e-03 -1.00e+00  8.29e+00  2.80e-02    8.2900 >    0.4162    0.0338    0.2556  694.3684 5155.7091   -0.4438    0.1915  70.23  -1.0  -1.0  0     0.0000    0.0004
105          ?    N    ? P      ? 20180313 0115   38.1122 GAU  6.44e-03 -1.00e+00  9.21e+00  8.00e-03    9.2100 >    0.4103   -0.0008    1.6172  694.3764 5155.6832   -0.4382    0.1922  78.32  -1.0  -1.0  0     0.0000    0.0004
26           ?    N    ? P      ? 20180313 0115   38.1137 GAU  4.30e-03 -1.00e+00  7.56e+00  1.20e-02    7.5600 >    0.4158   -0.0047    1.4856  694.3783 5155.6910   -0.4400    0.1958  76.22  -1.0  -1.0  0     0.0000    0.0004
23           ?    N    ? P      ? 20180313 0115   38.1450 GAU  4.30e-03 -1.00e+00  8.52e+00  8.00e-03    8.5200 >    0.4241    0.0182    0.4001  694.3677 5155.7226   -0.4473    0.1958  66.45  -1.0  -1.0  0     0.0000    0.0004
35           ?    N    ? P      ? 20180313 0115   38.8390 GAU  5.15e-03 -1.00e+00  1.04e+01  8.00e-03   10.4000 >    0.3969    0.7394    0.0001  694.3818 5155.6141   -0.4216    0.1959  98.87  -1.0  -1.0  0     0.0000    0.0004
21           ?    N    ? P      ? 20180313 0115   38.1717 GAU  1.13e-02 -1.00e+00  8.65e+00  1.20e-02    8.6500 >    0.4331    0.0359    0.2130  694.3642 5155.7391   -0.4517    0.1999  61.69  -1.0  -1.0  0     0.0000    0.0004
20           ?    N    ? P      ? 20180313 0115   38.1634 GAU  7.36e-03 -1.00e+00  8.27e+00  8.00e-03    8.2700 >    0.4400    0.0208    0.3642  694.3609 5155.7515   -0.4553    0.2032  58.18  -1.0  -1.0  0     0.0000    0.0004
36           ?    N    ? P      ? 20180313 0115   38.8810 GAU  3.86e-03 -1.00e+00  8.47e+00  1.20e-02    8.4700 >    0.4021    0.7762    0.0000  694.3865 5155.5904   -0.4164    0.2056 105.22  -1.0  -1.0  0     0.0000    0.0004
18           ?    N    ? P      ? 20180313 0115   38.1677 GAU  4.90e-03 -1.00e+00  8.30e+00  8.00e-03    8.3000 >    0.4480    0.0170    0.4520  694.3549 5155.7674   -0.4586    0.2072  53.56  -1.0  -1.0  0     0.0000    0.0004
17           ?    N    ? P      ? 20180313 0115   38.1615 GAU  6.13e-03 -1.00e+00  8.34e+00  8.00e-03    8.3400 >    0.4544    0.0044    1.8294  694.3461 5155.7815   -0.4621    0.2092  49.04  -1.0  -1.0  0     0.0000    0.0005
15           ?    N    ? P      ? 20180313 0115   38.1950 GAU  8.28e-03 -1.00e+00  6.53e+00  2.40e-02    6.5300 >    0.4577    0.0347    0.3517  694.3206 5155.8107   -0.4609    0.2126  38.51  -1.0  -1.0  0     0.0000    0.0005
16           ?    N    ? P      ? 20180313 0115   38.1701 GAU  6.75e-03 -1.00e+00  7.60e+00  8.00e-03    7.6000 >    0.4631    0.0043    1.8003  694.3452 5155.7921   -0.4642    0.2156  46.73  -1.0  -1.0  0     0.0000    0.0005
38           ?    N    ? P      ? 20180313 0115   38.9640 GAU  4.05e-03 -1.00e+00  7.37e+00  6.80e-02    7.3700 >    0.4102    0.8512    0.0000  694.3902 5155.5681   -0.4123    0.2159 110.67  -1.0  -1.0  0     0.0000    0.0004
27           ?    N    ? P      ? 20180313 0115   38.1459 GAU  6.43e-03 -1.00e+00  6.54e+00  2.40e-02    6.5400 >    0.4388    0.0045    1.3200  694.4008 5155.6912   -0.4412    0.2177  77.56  -1.0  -1.0  0     0.0000    0.0004
31           ?    N    ? P      ? 20180313 0115   38.1303 GAU  3.68e-03 -1.00e+00  7.64e+00  1.20e-02    7.6400 >    0.4342   -0.0066    1.4873  694.4086 5155.6503   -0.4335    0.2205  88.44  -1.0  -1.0  0     0.0000    0.0004
39           ?    N    ? P      ? 20180313 0115   38.1159 GAU  7.00e-03 -1.00e+00  7.81e+00  1.20e-02    7.8100 >    0.4117    0.0015    2.3809  694.3890 5155.5532   -0.4086    0.2206 114.41  -1.0  -1.0  0     0.0000    0.0004
22           ?    N    ? P      ? 20180313 0115   38.2229 GAU  8.59e-03 -1.00e+00  7.72e+00  2.40e-02    7.7200 >    0.4551    0.0652    0.0624  694.3985 5155.7265   -0.4488    0.2258  68.65  -1.0  -1.0  0     0.0000    0.0005
13           ?    N    ? P      ? 20180313 0115   38.2888 GAU  3.10e-02 -1.00e+00  6.50e+00  3.20e-02    6.5000 >    0.4691    0.1170    0.0759  694.3062 5155.8390   -0.4568    0.2277  31.23  -1.0  -1.0  0     0.0000    0.0005
41           ?    N    ? P      ? 20180313 0115   38.1255 GAU  7.00e-03 -1.00e+00  6.39e+00  6.40e-02    6.3900 >    0.4177    0.0052    2.1745  694.3901 5155.5386   -0.4053    0.2279 117.63  -1.0  -1.0  0     0.0000    0.0004
34           ?    N    ? P      ? 20180313 0115   38.1211 GAU  9.57e-03 -1.00e+00  7.35e+00  1.20e-02    7.3500 >    0.4366   -0.0182    0.8136  694.4145 5155.6153   -0.4263    0.2282  97.31  -1.0  -1.0  0     0.0000    0.0004
12           ?    N    ? P      ? 20180313 0115   38.1756 GAU  8.59e-03 -1.00e+00  6.96e+00  2.80e-02    6.9600 >    0.4795   -0.0066    1.8318  694.3356 5155.8197   -0.4663    0.2291  40.05  -1.0  -1.0  0     0.0000    0.0005
103          ?    N    ? P      ? 20180313 0115   38.1689 GAU  8.59e-03 -1.00e+00  8.01e+00  8.00e-03    8.0100 >    0.4805   -0.0143    1.1915  694.3644 5155.7952   -0.4662    0.2319  49.43  -1.0  -1.0  0     0.0000    0.0005
42           ?    N    ? P      ? 20180313 0115   38.1601 GAU  2.28e-02 -1.00e+00  6.13e+00  1.60e-02    6.1300 >    0.4225    0.0349    0.9382  694.3873 5155.5165   -0.3983    0.2366 122.70  -1.0  -1.0  0     0.0000    0.0004
10           ?    N    ? P      ? 20180313 0115   38.1824 GAU  7.36e-03 -1.00e+00  6.49e+00  8.00e-03    6.4900 >    0.4894   -0.0096    1.6728  694.3329 5155.8329   -0.4673    0.2377  37.51  -1.0  -1.0  0     0.0000    0.0005
37           ?    N    ? P      ? 20180313 0115   38.1334 GAU  4.60e-03 -1.00e+00  7.58e+00  1.20e-02    7.5800 >    0.4464   -0.0156    0.9898  694.4219 5155.5876   -0.4220    0.2405 103.64  -1.0  -1.0  0     0.0000    0.0004
8            ?    N    ? P      ? 20180313 0115   38.1750 GAU  1.41e-02 -1.00e+00  5.29e+00  3.20e-02    5.2900 >    0.4911   -0.0188    0.9076  694.3223 5155.8450   -0.4648    0.2414  33.76  -1.0  -1.0  0     0.0000    0.0005
40           ?    N    ? P      ? 20180313 0115   38.1522 GAU  4.23e-03 -1.00e+00  7.60e+00  1.20e-02    7.6000 >    0.4512   -0.0017    2.7735  694.4169 5155.5417   -0.4131    0.2507 114.16  -1.0  -1.0  0     0.0000    0.0005
6            ?    N    ? P      ? 20180313 0115   38.2232 GAU  8.27e-03 -1.00e+00  6.63e+00  2.80e-02    6.6300 >    0.5160    0.0045    2.0972  694.3446 5155.8502   -0.4728    0.2585  37.24  -1.0  -1.0  0     0.0000    0.0005
END_PHASE
END_NLLOC

