NLLOC "./loc/RR.20180313.001107.grid0" "LOCATED" "Location completed."
PUBLIC_ID None
SIGNATURE "   obs:./obs/nll_picks.obs   NLLoc:v7.00.10(30Aug2020)   run:29Apr2022 23h18m24"
COMMENT "Rattlesnake Ridge Slidequake Locations"
GRID  150 250 75  694.15 5155.4 0  0.002 0.002 0.002 PROB_DENSITY
SEARCH OCTREE nInitial 1000 nEvaluated 20000 smallestNodeSide 0.003725/0.006225/0.001850 oct_tree_integral 1.097440e-03 scatter_volume 1.081793e-03
HYPOCENTER  x 694.243 y 5155.73 z 0.00185  OT 7.54428  ix -1 iy -1 iz -1 MAXIMUM_LIKELIHOOD
GEOGRAPHIC  OT 2018 03 13  00 11 7.544283  Lat 5155.729925 Long 694.243125 Depth 0.001850
QUALITY  Pmax 1.04895e+24 MFmin 33.3312 MFmax 33.3691 RMS 0.00895528 Nphs 8 Gap 294.491 Dist 0.111892 Mamp  0.44 8 Mdur -9.90 0
VPVSRATIO  VpVsRatio -1  Npair 0  Diff -2e+30
STATISTICS  ExpectX 694.249312 Y 5155.762465 Z 0.088896  CovXX 0.00547203 XY 0.00127352 XZ 0.000811515 YY 0.000940617 YZ 0.00073638 ZZ 0.00171928 EllAz1  169.811 Dip1  23.5482 Len1  0.0368968 Az2  317.78 Dip2  62.7935 Len2  0.0779046 Len3  1.458603e-01
STAT_GEOG  ExpectLat 5155.762465 Long 694.249312 Depth 0.088896
TRANSFORM  NONE
QML_OriginQuality  assocPhCt 8  usedPhCt 8  assocStaCt -1  usedStaCt 8  depthPhCt -1  stdErr 0.00895528  azGap 294.491  secAzGap 309.335  gtLevel -  minDist 0.111892 maxDist 0.141217 medDist 0.119603
QML_OriginUncertainty  horUnc -1  minHorUnc 0.0373716  maxHorUnc 0.115553  azMaxHorUnc 75.3302
QML_ConfidenceEllipsoid  semiMajorAxisLength 0.14586  semiMinorAxisLength 0.0368968  semiIntermediateAxisLength 0.0779046  majorAxisPlunge 12.8436  majorAxisAzimuth 74.1084  majorAxisRotation 26.4955
FOCALMECH  Hyp  5155.729925 694.243125 0.001850 Mech  0 0 0 mf  0 nObs -1
PHASE ID Ins Cmp On Pha  FM Date     HrMn   Sec     Err  ErrMag    Coda      Amp       Per       PriorWt  >   TTpred    Res       Weight    StaLoc(X  Y         Z)        SDist    SAzim  RAz  RDip RQual    Tcorr       TTerr
15           ?    N    ? P      ? 20180313 0011    7.7453 GAU  1.61e-02 -1.00e+00  6.66e+00  4.40e-02    6.6600 >    0.1970    0.0040    1.5803  694.3206 5155.8107   -0.4609    0.1119  43.80  -1.0  -1.0  0     0.0000    0.0002
17           ?    N    ? P      ? 20180313 0011    7.7259 GAU  2.69e-02 -1.00e+00  7.99e+00  2.40e-02    7.9900 >    0.2021   -0.0205    0.6407  694.3461 5155.7815   -0.4621    0.1152  63.42  -1.0  -1.0  0     0.0000    0.0002
18           ?    N    ? P      ? 20180313 0011    7.7367 GAU  2.04e-02 -1.00e+00  7.09e+00  8.00e-03    7.0900 >    0.2039   -0.0115    0.6050  694.3549 5155.7674   -0.4586    0.1179  71.46  -1.0  -1.0  0     0.0000    0.0002
16           ?    N    ? P      ? 20180313 0011    7.7533 GAU  1.13e-02 -1.00e+00  8.41e+00  1.20e-02    8.4100 >    0.2102   -0.0012    1.1442  694.3452 5155.7921   -0.4642    0.1195  58.64  -1.0  -1.0  0     0.0000    0.0002
20           ?    N    ? P      ? 20180313 0011    7.7598 GAU  1.88e-02 -1.00e+00  7.55e+00  1.20e-02    7.5500 >    0.2048    0.0107    0.6606  694.3609 5155.7515   -0.4553    0.1197  79.63  -1.0  -1.0  0     0.0000    0.0002
23           ?    N    ? P      ? 20180313 0011    7.7705 GAU  2.63e-02 -1.00e+00  7.07e+00  8.00e-03    7.0700 >    0.2100    0.0162    0.7809  694.3677 5155.7226   -0.4473    0.1248  93.39  -1.0  -1.0  0     0.0000    0.0002
25           ?    N    ? P      ? 20180313 0011    7.7469 GAU  2.74e-02 -1.00e+00  6.89e+00  1.20e-02    6.8900 >    0.2121   -0.0095    1.0974  694.3684 5155.7091   -0.4438    0.1270  99.43  -1.0  -1.0  0     0.0000    0.0002
105          ?    N    ? P      ? 20180313 0011    7.7732 GAU  3.66e-02 -1.00e+00  7.11e+00  1.20e-02    7.1100 >    0.2337   -0.0048    1.4908  694.3764 5155.6832   -0.4382    0.1412 109.31  -1.0  -1.0  0     0.0000    0.0002
END_PHASE
END_NLLOC

