NLLOC "./loc/RR.20180313.013150.grid0" "LOCATED" "Location completed."
PUBLIC_ID None
SIGNATURE "   obs:./obs/nll_picks.obs   NLLoc:v7.00.10(30Aug2020)   run:29Apr2022 23h20m14"
COMMENT "Rattlesnake Ridge Slidequake Locations"
GRID  150 250 75  694.15 5155.4 0  0.002 0.002 0.002 PROB_DENSITY
SEARCH OCTREE nInitial 1000 nEvaluated 10608 smallestNodeSide 0.001863/0.003112/0.000925 oct_tree_integral 5.815614e-05 scatter_volume 5.815614e-05
HYPOCENTER  x 694.237 y 5155.65 z 0.125337  OT 50.3027  ix -1 iy -1 iz -1 MAXIMUM_LIKELIHOOD
GEOGRAPHIC  OT 2018 03 13  01 31 50.302650  Lat 5155.653669 Long 694.236606 Depth 0.125337
QUALITY  Pmax 2.90768e+114 MFmin 233.313 MFmax 233.362 RMS 0.00677323 Nphs 25 Gap 265.797 Dist 0.0798941 Mamp  0.73 25 Mdur -9.90 0
VPVSRATIO  VpVsRatio -1  Npair 0  Diff -2e+30
STATISTICS  ExpectX 694.211315 Y 5155.644557 Z 0.100187  CovXX 0.000883203 XY 0.00025738 XZ 0.000500287 YY 0.000110099 YZ 0.000224401 ZZ 0.00119334 EllAz1  165.912 Dip1  4.69727 Len1  0.00967133 Az2  259.665 Dip2  38.5426 Len2  0.0430498 Len3  7.597389e-02
STAT_GEOG  ExpectLat 5155.644557 Long 694.211315 Depth 0.100187
TRANSFORM  NONE
QML_OriginQuality  assocPhCt 25  usedPhCt 25  assocStaCt -1  usedStaCt 25  depthPhCt -1  stdErr 0.00677323  azGap 265.797  secAzGap 276.265  gtLevel -  minDist 0.0798941 maxDist 0.212201 medDist 0.162739
QML_OriginUncertainty  horUnc -1  minHorUnc 0.00861269  maxHorUnc 0.047015  azMaxHorUnc 73.1715
QML_ConfidenceEllipsoid  semiMajorAxisLength 0.0759739  semiMinorAxisLength 0.00967133  semiIntermediateAxisLength 0.0430498  majorAxisPlunge 51.0638  majorAxisAzimuth 70.075  majorAxisRotation 327.971
FOCALMECH  Hyp  5155.653669 694.236606 0.125337 Mech  0 0 0 mf  0 nObs -1
PHASE ID Ins Cmp On Pha  FM Date     HrMn   Sec     Err  ErrMag    Coda      Amp       Per       PriorWt  >   TTpred    Res       Weight    StaLoc(X  Y         Z)        SDist    SAzim  RAz  RDip RQual    Tcorr       TTerr
106          ?    N    ? P      ? 20180313 0131   50.6946 GAU  6.71e-03 -1.00e+00  8.91e+00  1.20e-02    8.9100 >    0.2554    0.1366    0.0003  694.3120 5155.6801   -0.4360    0.0799  70.71  -1.0  -1.0  0     0.0000    0.0003
30           ?    N    ? P      ? 20180313 0131   50.6037 GAU  7.22e-03 -1.00e+00  9.74e+00  2.80e-02    9.7400 >    0.3057   -0.0047    0.8857  694.3775 5155.6619   -0.4333    0.1411  86.65  -1.0  -1.0  0     0.0000    0.0003
32           ?    N    ? P      ? 20180313 0131   50.5979 GAU  2.91e-03 -1.00e+00  1.05e+01  8.00e-03   10.5000 >    0.3022   -0.0070    1.0376  694.3777 5155.6456   -0.4297    0.1413  93.28  -1.0  -1.0  0     0.0000    0.0003
28           ?    N    ? P      ? 20180313 0131   50.6162 GAU  3.69e-03 -1.00e+00  9.34e+00  1.60e-02    9.3400 >    0.3095    0.0040    0.8971  694.3767 5155.6745   -0.4362    0.1416  81.56  -1.0  -1.0  0     0.0000    0.0003
105          ?    N    ? P      ? 20180313 0131   50.6168 GAU  5.60e-03 -1.00e+00  1.05e+01  8.00e-03   10.5000 >    0.3125    0.0016    0.9794  694.3764 5155.6832   -0.4382    0.1429  78.06  -1.0  -1.0  0     0.0000    0.0003
33           ?    N    ? P      ? 20180313 0131   50.6013 GAU  5.13e-03 -1.00e+00  9.61e+00  1.20e-02    9.6100 >    0.2994   -0.0008    1.2824  694.3775 5155.6293   -0.4252    0.1430  99.80  -1.0  -1.0  0     0.0000    0.0003
25           ?    N    ? P      ? 20180313 0131   50.6380 GAU  7.83e-03 -1.00e+00  8.42e+00  1.60e-02    8.4200 >    0.3191    0.0163    0.5507  694.3684 5155.7091   -0.4438    0.1430  67.19  -1.0  -1.0  0     0.0000    0.0003
26           ?    N    ? P      ? 20180313 0131   50.6187 GAU  9.24e-03 -1.00e+00  8.93e+00  6.80e-02    8.9300 >    0.3183   -0.0022    0.8291  694.3783 5155.6910   -0.4400    0.1465  75.25  -1.0  -1.0  0     0.0000    0.0003
23           ?    N    ? P      ? 20180313 0131   50.6420 GAU  6.15e-03 -1.00e+00  8.56e+00  8.00e-03    8.5600 >    0.3279    0.0114    0.7923  694.3677 5155.7226   -0.4473    0.1481  62.28  -1.0  -1.0  0     0.0000    0.0003
35           ?    N    ? P      ? 20180313 0131   50.6119 GAU  9.09e-03 -1.00e+00  1.02e+01  1.20e-02   10.2000 >    0.3032    0.0060    1.2596  694.3818 5155.6141   -0.4216    0.1505 105.24  -1.0  -1.0  0     0.0000    0.0003
21           ?    N    ? P      ? 20180313 0131   50.6562 GAU  1.60e-02 -1.00e+00  6.65e+00  2.40e-02    6.6500 >    0.3385    0.0151    0.6644  694.3642 5155.7391   -0.4517    0.1535  56.18  -1.0  -1.0  0     0.0000    0.0003
20           ?    N    ? P      ? 20180313 0131   50.6476 GAU  1.01e-02 -1.00e+00  6.47e+00  8.00e-03    6.4700 >    0.3470   -0.0021    1.1935  694.3609 5155.7515   -0.4553    0.1581  51.79  -1.0  -1.0  0     0.0000    0.0003
36           ?    N    ? P      ? 20180313 0131   50.6125 GAU  9.66e-03 -1.00e+00  8.40e+00  1.20e-02    8.4000 >    0.3125   -0.0026    1.4547  694.3865 5155.5904   -0.4164    0.1627 112.90  -1.0  -1.0  0     0.0000    0.0003
18           ?    N    ? P      ? 20180313 0131   50.6537 GAU  8.96e-03 -1.00e+00  6.32e+00  4.00e-02    6.3200 >    0.3567   -0.0056    1.3680  694.3549 5155.7674   -0.4586    0.1641  46.12  -1.0  -1.0  0     0.0000    0.0004
17           ?    N    ? P      ? 20180313 0131   50.6641 GAU  6.43e-03 -1.00e+00  6.07e+00  1.20e-02    6.0700 >    0.3653   -0.0038    1.7999  694.3461 5155.7815   -0.4621    0.1683  40.60  -1.0  -1.0  0     0.0000    0.0004
27           ?    N    ? P      ? 20180313 0131   50.6434 GAU  5.88e-03 -1.00e+00  8.06e+00  1.20e-02    8.0600 >    0.3426   -0.0018    0.9727  694.4008 5155.6912   -0.4412    0.1684  77.11  -1.0  -1.0  0     0.0000    0.0003
31           ?    N    ? P      ? 20180313 0131   50.6551 GAU  6.79e-03 -1.00e+00  8.69e+00  1.60e-02    8.6900 >    0.3392    0.0133    0.7239  694.4086 5155.6503   -0.4335    0.1721  91.11  -1.0  -1.0  0     0.0000    0.0003
38           ?    N    ? P      ? 20180313 0131   50.6318 GAU  2.44e-02 -1.00e+00  7.62e+00  1.20e-02    7.6200 >    0.3247    0.0045    0.9840  694.3902 5155.5681   -0.4123    0.1758 119.13  -1.0  -1.0  0     0.0000    0.0003
16           ?    N    ? P      ? 20180313 0131   50.7075 GAU  3.36e-02 -1.00e+00  6.86e+00  1.20e-02    6.8600 >    0.3754    0.0294    0.6199  694.3452 5155.7921   -0.4642    0.1760  38.11  -1.0  -1.0  0     0.0000    0.0004
22           ?    N    ? P      ? 20180313 0131   50.6627 GAU  7.28e-03 -1.00e+00  6.84e+00  7.20e-02    6.8400 >    0.3603   -0.0003    1.1063  694.3985 5155.7265   -0.4488    0.1775  65.77  -1.0  -1.0  0     0.0000    0.0004
34           ?    N    ? P      ? 20180313 0131   50.6398 GAU  1.31e-02 -1.00e+00  7.63e+00  1.20e-02    7.6300 >    0.3442   -0.0070    0.9277  694.4145 5155.6153   -0.4263    0.1820 102.18  -1.0  -1.0  0     0.0000    0.0003
103          ?    N    ? P      ? 20180313 0131   50.6993 GAU  1.26e-02 -1.00e+00  6.63e+00  1.20e-02    6.6300 >    0.3926    0.0041    1.5754  694.3644 5155.7952   -0.4662    0.1907  42.07  -1.0  -1.0  0     0.0000    0.0004
37           ?    N    ? P      ? 20180313 0131   50.6534 GAU  1.53e-02 -1.00e+00  7.73e+00  8.00e-03    7.7300 >    0.3590   -0.0082    1.0942  694.4219 5155.5876   -0.4220    0.1967 109.62  -1.0  -1.0  0     0.0000    0.0004
42           ?    N    ? P      ? 20180313 0131   50.6687 GAU  2.73e-02 -1.00e+00  6.21e+00  1.20e-02    6.2100 >    0.3497    0.0163    1.0458  694.3873 5155.5165   -0.3983    0.2037 132.31  -1.0  -1.0  0     0.0000    0.0003
40           ?    N    ? P      ? 20180313 0131   50.6881 GAU  3.07e-02 -1.00e+00  7.50e+00  5.60e-02    7.5000 >    0.3719    0.0135    0.9556  694.4169 5155.5417   -0.4131    0.2122 121.84  -1.0  -1.0  0     0.0000    0.0004
END_PHASE
END_NLLOC

