NLLOC "./loc/RR.20180313.033527.grid0" "REJECTED" "WARNING: max prob location on grid boundary 31, rejecting location."
PUBLIC_ID None
SIGNATURE "   obs:./obs/nll_picks.obs   NLLoc:v7.00.10(30Aug2020)   run:29Apr2022 23h21m30"
COMMENT "Rattlesnake Ridge Slidequake Locations"
GRID  150 250 75  694.15 5155.4 0  0.002 0.002 0.002 PROB_DENSITY
SEARCH OCTREE nInitial 1000 nEvaluated 5648 smallestNodeSide 0.001863/0.003112/0.000925 oct_tree_integral 2.681198e-05 scatter_volume 2.681198e-05
HYPOCENTER  x 694.396 y 5155.66 z 0.1443  OT 27.6148  ix -1 iy -1 iz -1 MAXIMUM_LIKELIHOOD
GEOGRAPHIC  OT 2018 03 13  03 35 27.614769  Lat 5155.661450 Long 694.395850 Depth 0.144300
QUALITY  Pmax 2.30871e+111 MFmin 288.595 MFmax 288.629 RMS 0.00732305 Nphs 25 Gap 121.585 Dist 0.0169264 Mamp  0.65 25 Mdur -9.90 0
VPVSRATIO  VpVsRatio -1  Npair 0  Diff -2e+30
STATISTICS  ExpectX 694.207323 Y 5155.655605 Z 0.133208  CovXX 0.00465458 XY 5.96128e-05 XZ 0.000149698 YY 0.000113643 YZ 4.36505e-05 ZZ 0.000198941 EllAz1  180.045 Dip1  22.8873 Len1  0.0183379 Az2  354.674 Dip2  67.0223 Len2  0.0273224 Len3  1.282625e-01
STAT_GEOG  ExpectLat 5155.655605 Long 694.207323 Depth 0.133208
TRANSFORM  NONE
QML_OriginQuality  assocPhCt 25  usedPhCt 25  assocStaCt -1  usedStaCt 25  depthPhCt -1  stdErr 0.00732305  azGap 121.585  secAzGap 148.584  gtLevel -  minDist 0.0169264 maxDist 0.140151 medDist 0.0672789
QML_OriginUncertainty  horUnc -1  minHorUnc 0.0161115  maxHorUnc 0.103476  azMaxHorUnc 89.248
QML_ConfidenceEllipsoid  semiMajorAxisLength 0.128263  semiMinorAxisLength 0.0183379  semiIntermediateAxisLength 0.0273224  majorAxisPlunge 1.9291  majorAxisAzimuth 89.2303  majorAxisRotation 22.9476
FOCALMECH  Hyp  5155.661450 694.395850 0.144300 Mech  0 0 0 mf  0 nObs -1
PHASE ID Ins Cmp On Pha  FM Date     HrMn   Sec     Err  ErrMag    Coda      Amp       Per       PriorWt  >   TTpred    Res       Weight    StaLoc(X  Y         Z)        SDist    SAzim  RAz  RDip RQual    Tcorr       TTerr
31           ?    N    ? P      ? 20180313 0335   27.8275 GAU  6.11e-03 -1.00e+00  8.31e+00  1.20e-02    8.3100 >    0.2160   -0.0033    1.0546  694.4086 5155.6503   -0.4335    0.0169 130.99  -1.0  -1.0  0     0.0000    0.0002
30           ?    N    ? P      ? 20180313 0335   27.8292 GAU  7.75e-03 -1.00e+00  1.05e+01  4.80e-02   10.5000 >    0.2158   -0.0014    1.0392  694.3775 5155.6619   -0.4333    0.0184 271.45  -1.0  -1.0  0     0.0000    0.0002
28           ?    N    ? P      ? 20180313 0335   27.8379 GAU  7.05e-03 -1.00e+00  9.96e+00  1.20e-02    9.9600 >    0.2211    0.0020    1.1420  694.3767 5155.6745   -0.4362    0.0232 304.16  -1.0  -1.0  0     0.0000    0.0002
32           ?    N    ? P      ? 20180313 0335   27.8213 GAU  8.52e-03 -1.00e+00  1.08e+01  1.20e-02   10.8000 >    0.2121   -0.0055    0.8925  694.3777 5155.6456   -0.4297    0.0241 228.84  -1.0  -1.0  0     0.0000    0.0002
105          ?    N    ? P      ? 20180313 0335   27.8461 GAU  2.59e-03 -1.00e+00  1.05e+01  1.20e-02   10.5000 >    0.2252    0.0061    1.2426  694.3764 5155.6832   -0.4382    0.0292 318.24  -1.0  -1.0  0     0.0000    0.0002
27           ?    N    ? P      ? 20180313 0335   27.8602 GAU  4.94e-03 -1.00e+00  8.71e+00  1.20e-02    8.7100 >    0.2302    0.0152    0.5586  694.4008 5155.6912   -0.4412    0.0302   9.41  -1.0  -1.0  0     0.0000    0.0002
26           ?    N    ? P      ? 20180313 0335   27.8440 GAU  5.64e-03 -1.00e+00  9.31e+00  1.20e-02    9.3100 >    0.2301   -0.0008    1.4054  694.3783 5155.6910   -0.4400    0.0343 329.27  -1.0  -1.0  0     0.0000    0.0002
33           ?    N    ? P      ? 20180313 0335   27.8175 GAU  5.68e-03 -1.00e+00  1.02e+01  8.00e-03   10.2000 >    0.2103   -0.0075    0.8458  694.3775 5155.6293   -0.4252    0.0370 209.71  -1.0  -1.0  0     0.0000    0.0002
35           ?    N    ? P      ? 20180313 0335   27.8270 GAU  7.58e-03 -1.00e+00  1.01e+01  8.00e-03   10.1000 >    0.2102    0.0020    1.2222  694.3818 5155.6141   -0.4216    0.0494 196.57  -1.0  -1.0  0     0.0000    0.0002
34           ?    N    ? P      ? 20180313 0335   27.8621 GAU  7.58e-03 -1.00e+00  7.91e+00  1.20e-02    7.9100 >    0.2168    0.0306    0.0736  694.4145 5155.6153   -0.4263    0.0498 157.99  -1.0  -1.0  0     0.0000    0.0002
25           ?    N    ? P      ? 20180313 0335   27.8668 GAU  5.40e-03 -1.00e+00  8.31e+00  2.00e-02    8.3100 >    0.2438    0.0083    1.2349  694.3684 5155.7091   -0.4438    0.0550 330.09  -1.0  -1.0  0     0.0000    0.0002
22           ?    N    ? P      ? 20180313 0335   27.8703 GAU  2.81e-03 -1.00e+00  8.13e+00  8.00e-03    8.1300 >    0.2561   -0.0006    2.3145  694.3985 5155.7265   -0.4488    0.0651   2.33  -1.0  -1.0  0     0.0000    0.0003
23           ?    N    ? P      ? 20180313 0335   27.8550 GAU  4.47e-03 -1.00e+00  8.75e+00  2.80e-02    8.7500 >    0.2552   -0.0150    0.8180  694.3677 5155.7226   -0.4473    0.0673 335.26  -1.0  -1.0  0     0.0000    0.0003
36           ?    N    ? P      ? 20180313 0335   27.8446 GAU  9.00e-03 -1.00e+00  8.49e+00  6.40e-02    8.4900 >    0.2173    0.0126    0.9303  694.3865 5155.5904   -0.4164    0.0717 187.47  -1.0  -1.0  0     0.0000    0.0002
37           ?    N    ? P      ? 20180313 0335   27.8668 GAU  2.37e-02 -1.00e+00  7.64e+00  4.40e-02    7.6400 >    0.2289    0.0231    0.5587  694.4219 5155.5876   -0.4220    0.0783 160.55  -1.0  -1.0  0     0.0000    0.0002
21           ?    N    ? P      ? 20180313 0335   27.8583 GAU  4.00e-03 -1.00e+00  7.50e+00  1.20e-02    7.5000 >    0.2720   -0.0284    0.1795  694.3642 5155.7391   -0.4517    0.0839 337.81  -1.0  -1.0  0     0.0000    0.0003
106          ?    N    ? P      ? 20180313 0335   27.8684 GAU  1.32e-02 -1.00e+00  8.36e+00  8.00e-03    8.3600 >    0.2533    0.0003    1.4984  694.3120 5155.6801   -0.4360    0.0859 282.51  -1.0  -1.0  0     0.0000    0.0003
38           ?    N    ? P      ? 20180313 0335   27.8294 GAU  9.00e-03 -1.00e+00  8.00e+00  1.20e-02    8.0000 >    0.2303   -0.0157    0.9500  694.3902 5155.5681   -0.4123    0.0935 183.49  -1.0  -1.0  0     0.0000    0.0002
20           ?    N    ? P      ? 20180313 0335   27.8104 GAU  6.34e-03 -1.00e+00  7.30e+00  1.20e-02    7.3000 >    0.2857   -0.0900    0.0116  694.3609 5155.7515   -0.4553    0.0966 338.76  -1.0  -1.0  0     0.0000    0.0003
39           ?    N    ? P      ? 20180313 0335   27.8531 GAU  1.28e-02 -1.00e+00  7.51e+00  2.00e-02    7.5100 >    0.2404   -0.0021    1.5862  694.3890 5155.5532   -0.4086    0.1085 183.61  -1.0  -1.0  0     0.0000    0.0002
18           ?    N    ? P      ? 20180313 0335   27.8584 GAU  2.00e-02 -1.00e+00  6.93e+00  3.20e-02    6.9300 >    0.3036   -0.0600    0.0580  694.3549 5155.7674   -0.4586    0.1136 338.87  -1.0  -1.0  0     0.0000    0.0003
40           ?    N    ? P      ? 20180313 0335   27.8758 GAU  5.21e-03 -1.00e+00  8.13e+00  2.40e-02    8.1300 >    0.2589    0.0021    2.7458  694.4169 5155.5417   -0.4131    0.1216 170.04  -1.0  -1.0  0     0.0000    0.0003
41           ?    N    ? P      ? 20180313 0335   27.8673 GAU  5.21e-03 -1.00e+00  7.58e+00  8.00e-03    7.5800 >    0.2522    0.0003    2.6219  694.3901 5155.5386   -0.4053    0.1229 182.68  -1.0  -1.0  0     0.0000    0.0003
103          ?    N    ? P      ? 20180313 0335   27.8723 GAU  8.82e-03 -1.00e+00  6.87e+00  6.80e-02    6.8700 >    0.3328   -0.0753    0.0157  694.3644 5155.7952   -0.4662    0.1374 346.75  -1.0  -1.0  0     0.0000    0.0003
16           ?    N    ? P      ? 20180313 0335   27.7637 GAU  1.58e-02 -1.00e+00  7.75e+00  8.00e-03    7.7500 >    0.3336   -0.1846    0.0000  694.3452 5155.7921   -0.4642    0.1402 338.81  -1.0  -1.0  0     0.0000    0.0003
END_PHASE
END_NLLOC

