NLLOC "./loc/RR.20180313.013147.grid0" "LOCATED" "Location completed."
PUBLIC_ID None
SIGNATURE "   obs:./obs/nll_picks.obs   NLLoc:v7.00.10(30Aug2020)   run:29Apr2022 23h20m11"
COMMENT "Rattlesnake Ridge Slidequake Locations"
GRID  150 250 75  694.15 5155.4 0  0.002 0.002 0.002 PROB_DENSITY
SEARCH OCTREE nInitial 1000 nEvaluated 5312 smallestNodeSide 0.001863/0.003112/0.000925 oct_tree_integral 2.231187e-05 scatter_volume 2.231187e-05
HYPOCENTER  x 694.379 y 5155.81 z 0.056425  OT 47.0839  ix -1 iy -1 iz -1 MAXIMUM_LIKELIHOOD
GEOGRAPHIC  OT 2018 03 13  01 31 47.083863  Lat 5155.813963 Long 694.379087 Depth 0.056425
QUALITY  Pmax 2.24056e+102 MFmin 208.363 MFmax 208.369 RMS 0.0139941 Nphs 24 Gap 211.062 Dist 0.0238611 Mamp  0.33 24 Mdur -9.90 0
VPVSRATIO  VpVsRatio -1  Npair 0  Diff -2e+30
STATISTICS  ExpectX 694.397057 Y 5155.823305 Z 0.040222  CovXX 0.00111321 XY 0.000489116 XZ -0.0003887 YY 0.000250841 YZ -0.000151926 ZZ 0.000417025 EllAz1  334.163 Dip1  -4.80157 Len1  0.00997361 Az2  231.996 Dip2  -68.2703 Len2  0.0301594 Len3  7.265066e-02
STAT_GEOG  ExpectLat 5155.823305 Long 694.397057 Depth 0.040222
TRANSFORM  NONE
QML_OriginQuality  assocPhCt 24  usedPhCt 24  assocStaCt -1  usedStaCt 24  depthPhCt -1  stdErr 0.0139941  azGap 211.062  secAzGap 219.127  gtLevel -  minDist 0.0238611 maxDist 0.130754 medDist 0.0783957
QML_OriginUncertainty  horUnc -1  minHorUnc 0.00830465  maxHorUnc 0.0553926  azMaxHorUnc 65.699
QML_ConfidenceEllipsoid  semiMajorAxisLength 0.0726507  semiMinorAxisLength 0.00997361  semiIntermediateAxisLength 0.0301594  majorAxisPlunge -21.1396  majorAxisAzimuth 66.024  majorAxisRotation 186.944
FOCALMECH  Hyp  5155.813963 694.379087 0.056425 Mech  0 0 0 mf  0 nObs -1
PHASE ID Ins Cmp On Pha  FM Date     HrMn   Sec     Err  ErrMag    Coda      Amp       Per       PriorWt  >   TTpred    Res       Weight    StaLoc(X  Y         Z)        SDist    SAzim  RAz  RDip RQual    Tcorr       TTerr
103          ?    N    ? P      ? 20180313 0131   47.2140 GAU  1.17e-02 -1.00e+00  6.28e+00  1.20e-02    6.2800 >    0.0930    0.0371    0.4097  694.3644 5155.7952   -0.4662    0.0239 218.11  -1.0  -1.0  0     0.0000    0.0001
16           ?    N    ? P      ? 20180313 0131   47.1975 GAU  5.12e-03 -1.00e+00  8.62e+00  8.00e-03    8.6200 >    0.1038    0.0098    0.8168  694.3452 5155.7921   -0.4642    0.0403 237.21  -1.0  -1.0  0     0.0000    0.0001
12           ?    N    ? P      ? 20180313 0131   47.1932 GAU  4.75e-03 -1.00e+00  8.72e+00  8.00e-03    8.7200 >    0.1097   -0.0004    1.1883  694.3356 5155.8197   -0.4663    0.0438 277.57  -1.0  -1.0  0     0.0000    0.0001
17           ?    N    ? P      ? 20180313 0131   47.1947 GAU  6.40e-03 -1.00e+00  7.77e+00  1.20e-02    7.7700 >    0.1075    0.0034    0.9467  694.3461 5155.7815   -0.4621    0.0463 225.40  -1.0  -1.0  0     0.0000    0.0001
10           ?    N    ? P      ? 20180313 0131   47.1999 GAU  4.25e-03 -1.00e+00  8.00e+00  6.80e-02    8.0000 >    0.1170   -0.0010    1.3083  694.3329 5155.8329   -0.4673    0.0499 292.28  -1.0  -1.0  0     0.0000    0.0001
6            ?    N    ? P      ? 20180313 0131   47.2298 GAU  1.63e-02 -1.00e+00  7.77e+00  1.20e-02    7.7700 >    0.1235    0.0225    0.8646  694.3446 5155.8502   -0.4728    0.0500 316.42  -1.0  -1.0  0     0.0000    0.0001
18           ?    N    ? P      ? 20180313 0131   47.1975 GAU  6.66e-03 -1.00e+00  7.49e+00  5.60e-02    7.4900 >    0.1109    0.0028    1.0382  694.3549 5155.7674   -0.4586    0.0525 207.47  -1.0  -1.0  0     0.0000    0.0001
15           ?    N    ? P      ? 20180313 0131   47.1804 GAU  3.92e-03 -1.00e+00  9.46e+00  5.20e-02    9.4600 >    0.1202   -0.0237    0.5169  694.3206 5155.8107   -0.4609    0.0586 266.80  -1.0  -1.0  0     0.0000    0.0001
8            ?    N    ? P      ? 20180313 0131   47.1874 GAU  8.17e-03 -1.00e+00  7.01e+00  1.20e-02    7.0100 >    0.1314   -0.0279    0.4469  694.3223 5155.8450   -0.4648    0.0647 298.66  -1.0  -1.0  0     0.0000    0.0001
20           ?    N    ? P      ? 20180313 0131   47.2070 GAU  6.91e-03 -1.00e+00  7.12e+00  8.00e-03    7.1200 >    0.1237   -0.0006    1.2112  694.3609 5155.7515   -0.4553    0.0651 196.27  -1.0  -1.0  0     0.0000    0.0001
21           ?    N    ? P      ? 20180313 0131   47.2090 GAU  7.42e-03 -1.00e+00  6.97e+00  2.80e-02    6.9700 >    0.1363   -0.0111    0.9897  694.3642 5155.7391   -0.4517    0.0763 191.28  -1.0  -1.0  0     0.0000    0.0001
13           ?    N    ? P      ? 20180313 0131   47.2243 GAU  8.51e-03 -1.00e+00  7.66e+00  1.20e-02    7.6600 >    0.1403    0.0001    1.3671  694.3062 5155.8390   -0.4568    0.0771 288.99  -1.0  -1.0  0     0.0000    0.0001
4            ?    N    ? P      ? 20180313 0131   47.2238 GAU  1.04e-02 -1.00e+00  7.61e+00  1.60e-02    7.6100 >    0.1452   -0.0052    1.3614  694.3090 5155.8520   -0.4586    0.0797 298.52  -1.0  -1.0  0     0.0000    0.0001
2            ?    N    ? P      ? 20180313 0131   47.2045 GAU  1.19e-02 -1.00e+00  7.48e+00  1.20e-02    7.4800 >    0.1511   -0.0304    0.5262  694.3150 5155.8647   -0.4623    0.0817 308.35  -1.0  -1.0  0     0.0000    0.0002
22           ?    N    ? P      ? 20180313 0131   47.2705 GAU  1.05e-02 -1.00e+00  6.77e+00  2.80e-02    6.7700 >    0.1535    0.0331    0.6512  694.3985 5155.7265   -0.4488    0.0895 167.48  -1.0  -1.0  0     0.0000    0.0002
23           ?    N    ? P      ? 20180313 0131   47.2200 GAU  1.18e-02 -1.00e+00  6.65e+00  1.20e-02    6.6500 >    0.1568   -0.0206    0.9034  694.3677 5155.7226   -0.4473    0.0921 187.11  -1.0  -1.0  0     0.0000    0.0002
5            ?    N    ? P      ? 20180313 0131   47.2469 GAU  1.11e-02 -1.00e+00  7.26e+00  1.20e-02    7.2600 >    0.1623    0.0007    1.5712  694.2898 5155.8520   -0.4475    0.0971 293.05  -1.0  -1.0  0     0.0000    0.0002
25           ?    N    ? P      ? 20180313 0131   47.2771 GAU  1.71e-02 -1.00e+00  6.95e+00  1.20e-02    6.9500 >    0.1751    0.0182    1.0852  694.3684 5155.7091   -0.4438    0.1054 185.80  -1.0  -1.0  0     0.0000    0.0002
7            ?    N    ? P      ? 20180313 0131   47.3018 GAU  1.26e-02 -1.00e+00  7.85e+00  1.20e-02    7.8500 >    0.1819    0.0360    0.6550  694.2704 5155.8450   -0.4359    0.1130 285.94  -1.0  -1.0  0     0.0000    0.0002
1            ?    N    ? P      ? 20180313 0131   47.3026 GAU  2.38e-02 -1.00e+00  7.23e+00  2.80e-02    7.2300 >    0.1936    0.0252    1.0895  694.2735 5155.8721   -0.4381    0.1205 298.86  -1.0  -1.0  0     0.0000    0.0002
9            ?    N    ? P      ? 20180313 0131   47.3412 GAU  1.06e-02 -1.00e+00  8.07e+00  1.20e-02    8.0700 >    0.1930    0.0643    0.0884  694.2594 5155.8351   -0.4296    0.1216 280.00  -1.0  -1.0  0     0.0000    0.0002
26           ?    N    ? P      ? 20180313 0131   47.2669 GAU  2.53e-02 -1.00e+00  6.79e+00  1.20e-02    6.7900 >    0.2003   -0.0173    1.1732  694.3783 5155.6910   -0.4400    0.1230 180.37  -1.0  -1.0  0     0.0000    0.0002
27           ?    N    ? P      ? 20180313 0131   47.2891 GAU  1.18e-02 -1.00e+00  6.19e+00  1.20e-02    6.1900 >    0.2033    0.0020    1.9640  694.4008 5155.6912   -0.4412    0.1246 169.97  -1.0  -1.0  0     0.0000    0.0002
105          ?    N    ? P      ? 20180313 0131   47.2976 GAU  1.46e-02 -1.00e+00  6.62e+00  2.40e-02    6.6200 >    0.2119    0.0018    1.8270  694.3764 5155.6832   -0.4382    0.1308 181.18  -1.0  -1.0  0     0.0000    0.0002
END_PHASE
END_NLLOC

