NLLOC "./loc/RR.20180313.000352.grid0" "LOCATED" "Location completed."
PUBLIC_ID None
SIGNATURE "   obs:./obs/nll_picks.obs   NLLoc:v7.00.10(30Aug2020)   run:29Apr2022 23h16m28"
COMMENT "Rattlesnake Ridge Slidequake Locations"
GRID  150 250 75  694.15 5155.4 0  0.002 0.002 0.002 PROB_DENSITY
SEARCH OCTREE nInitial 1000 nEvaluated 20008 smallestNodeSide 0.003725/0.006225/0.001850 oct_tree_integral 1.550800e-04 scatter_volume 1.550800e-04
HYPOCENTER  x 694.375 y 5155.81 z 0.104525  OT 51.9974  ix -1 iy -1 iz -1 MAXIMUM_LIKELIHOOD
GEOGRAPHIC  OT 2018 03 13  00 03 51.997400  Lat 5155.813963 Long 694.375362 Depth 0.104525
QUALITY  Pmax 1.11929e+76 MFmin 136.073 MFmax 136.087 RMS 0.0176728 Nphs 19 Gap 205.5 Dist 0.0217604 Mamp  0.47 19 Mdur -9.90 0
VPVSRATIO  VpVsRatio -1  Npair 0  Diff -2e+30
STATISTICS  ExpectX 694.337351 Y 5155.809506 Z 0.097978  CovXX 0.00541796 XY 0.00145036 XZ 0.00111476 YY 0.00052703 YZ 0.000428006 ZZ 0.00104795 EllAz1  166.699 Dip1  9.67493 Len1  0.0196302 Az2  291.8 Dip2  73.4861 Len2  0.0527483 Len3  1.466880e-01
STAT_GEOG  ExpectLat 5155.809506 Long 694.337351 Depth 0.097978
TRANSFORM  NONE
QML_OriginQuality  assocPhCt 19  usedPhCt 19  assocStaCt -1  usedStaCt 19  depthPhCt -1  stdErr 0.0176728  azGap 205.5  secAzGap 218.957  gtLevel -  minDist 0.0217604 maxDist 0.130731 medDist 0.0641514
QML_OriginUncertainty  horUnc -1  minHorUnc 0.0172438  maxHorUnc 0.115655  azMaxHorUnc 74.6643
QML_ConfidenceEllipsoid  semiMajorAxisLength 0.146688  semiMinorAxisLength 0.0196302  semiIntermediateAxisLength 0.0527483  majorAxisPlunge 13.2526  majorAxisAzimuth 74.3975  majorAxisRotation 11.0826
FOCALMECH  Hyp  5155.813963 694.375362 0.104525 Mech  0 0 0 mf  0 nObs -1
PHASE ID Ins Cmp On Pha  FM Date     HrMn   Sec     Err  ErrMag    Coda      Amp       Per       PriorWt  >   TTpred    Res       Weight    StaLoc(X  Y         Z)        SDist    SAzim  RAz  RDip RQual    Tcorr       TTerr
103          ?    N    ? P      ? 20180313 0003   52.1821 GAU  7.34e-03 -1.00e+00  6.89e+00  2.80e-02    6.8900 >    0.1592    0.0255    0.7191  694.3644 5155.7952   -0.4662    0.0218 210.37  -1.0  -1.0  0     0.0000    0.0002
16           ?    N    ? P      ? 20180313 0003   52.1598 GAU  7.06e-03 -1.00e+00  7.60e+00  8.00e-03    7.6000 >    0.1627   -0.0003    0.7464  694.3452 5155.7921   -0.4642    0.0372 234.10  -1.0  -1.0  0     0.0000    0.0002
12           ?    N    ? P      ? 20180313 0003   52.1627 GAU  9.32e-03 -1.00e+00  7.95e+00  1.20e-02    7.9500 >    0.1671   -0.0018    0.8673  694.3356 5155.8197   -0.4663    0.0402 278.27  -1.0  -1.0  0     0.0000    0.0002
17           ?    N    ? P      ? 20180313 0003   52.1807 GAU  9.88e-03 -1.00e+00  8.49e+00  1.20e-02    8.4900 >    0.1635    0.0198    0.7370  694.3461 5155.7815   -0.4621    0.0437 221.97  -1.0  -1.0  0     0.0000    0.0002
10           ?    N    ? P      ? 20180313 0003   52.1649 GAU  1.33e-02 -1.00e+00  7.28e+00  1.20e-02    7.2800 >    0.1718   -0.0043    0.8893  694.3329 5155.8329   -0.4673    0.0465 294.02  -1.0  -1.0  0     0.0000    0.0002
6            ?    N    ? P      ? 20180313 0003   52.2047 GAU  1.36e-02 -1.00e+00  7.43e+00  1.20e-02    7.4300 >    0.1801    0.0272    1.1035  694.3446 5155.8502   -0.4728    0.0475 319.67  -1.0  -1.0  0     0.0000    0.0002
18           ?    N    ? P      ? 20180313 0003   52.1610 GAU  9.32e-03 -1.00e+00  7.76e+00  2.40e-02    7.7600 >    0.1636    0.0000    0.8398  694.3549 5155.7674   -0.4586    0.0509 203.74  -1.0  -1.0  0     0.0000    0.0002
15           ?    N    ? P      ? 20180313 0003   52.1457 GAU  5.93e-03 -1.00e+00  8.89e+00  6.40e-02    8.8900 >    0.1690   -0.0207    0.5438  694.3206 5155.8107   -0.4609    0.0549 266.58  -1.0  -1.0  0     0.0000    0.0002
8            ?    N    ? P      ? 20180313 0003   52.1635 GAU  1.24e-02 -1.00e+00  7.19e+00  1.20e-02    7.1900 >    0.1792   -0.0131    0.8602  694.3223 5155.8450   -0.4648    0.0615 300.33  -1.0  -1.0  0     0.0000    0.0002
20           ?    N    ? P      ? 20180313 0003   52.1677 GAU  8.76e-03 -1.00e+00  7.60e+00  2.40e-02    7.6000 >    0.1701    0.0002    1.0117  694.3609 5155.7515   -0.4553    0.0642 193.07  -1.0  -1.0  0     0.0000    0.0002
13           ?    N    ? P      ? 20180313 0003   52.2081 GAU  1.75e-02 -1.00e+00  7.63e+00  3.20e-02    7.6300 >    0.1794    0.0313    0.9587  694.3062 5155.8390   -0.4568    0.0735 289.93  -1.0  -1.0  0     0.0000    0.0002
21           ?    N    ? P      ? 20180313 0003   52.1988 GAU  1.10e-02 -1.00e+00  7.35e+00  2.40e-02    7.3500 >    0.1772    0.0242    0.8665  694.3642 5155.7391   -0.4517    0.0757 188.51  -1.0  -1.0  0     0.0000    0.0002
2            ?    N    ? P      ? 20180313 0003   52.1867 GAU  1.02e-02 -1.00e+00  6.94e+00  2.80e-02    6.9400 >    0.1911   -0.0018    1.4675  694.3150 5155.8647   -0.4623    0.0788 310.03  -1.0  -1.0  0     0.0000    0.0002
22           ?    N    ? P      ? 20180313 0003   52.2143 GAU  3.90e-02 -1.00e+00  6.69e+00  2.40e-02    6.6900 >    0.1892    0.0277    0.7985  694.3985 5155.7265   -0.4488    0.0904 165.17  -1.0  -1.0  0     0.0000    0.0002
23           ?    N    ? P      ? 20180313 0003   52.2149 GAU  1.13e-02 -1.00e+00  7.12e+00  1.20e-02    7.1200 >    0.1895    0.0280    0.9633  694.3677 5155.7226   -0.4473    0.0917 184.80  -1.0  -1.0  0     0.0000    0.0002
5            ?    N    ? P      ? 20180313 0003   52.2115 GAU  1.58e-02 -1.00e+00  7.80e+00  8.00e-03    7.8000 >    0.1896    0.0245    1.4701  694.2898 5155.8520   -0.4475    0.0937 293.94  -1.0  -1.0  0     0.0000    0.0002
25           ?    N    ? P      ? 20180313 0003   52.2174 GAU  1.67e-02 -1.00e+00  7.07e+00  4.80e-02    7.0700 >    0.2019    0.0181    1.3059  694.3684 5155.7091   -0.4438    0.1051 183.78  -1.0  -1.0  0     0.0000    0.0002
26           ?    N    ? P      ? 20180313 0003   52.2025 GAU  1.42e-02 -1.00e+00  6.72e+00  1.20e-02    6.7200 >    0.2215   -0.0164    1.3679  694.3783 5155.6910   -0.4400    0.1230 178.63  -1.0  -1.0  0     0.0000    0.0002
105          ?    N    ? P      ? 20180313 0003   52.2244 GAU  2.81e-02 -1.00e+00  7.21e+00  3.60e-02    7.2100 >    0.2301   -0.0031    1.4834  694.3764 5155.6832   -0.4382    0.1307 179.54  -1.0  -1.0  0     0.0000    0.0002
END_PHASE
END_NLLOC

