NLLOC "./loc/RR.20180313.000721_001.grid0" "LOCATED" "Location completed."
PUBLIC_ID None
SIGNATURE "   obs:./obs/nll_picks.obs   NLLoc:v7.00.10(30Aug2020)   run:29Apr2022 23h17m40"
COMMENT "Rattlesnake Ridge Slidequake Locations"
GRID  150 250 75  694.15 5155.4 0  0.002 0.002 0.002 PROB_DENSITY
SEARCH OCTREE nInitial 1000 nEvaluated 20000 smallestNodeSide 0.003725/0.006225/0.001850 oct_tree_integral 5.407725e-04 scatter_volume 5.407725e-04
HYPOCENTER  x 694.249 y 5155.68 z 0.100825  OT 21.4343  ix -1 iy -1 iz -1 MAXIMUM_LIKELIHOOD
GEOGRAPHIC  OT 2018 03 13  00 07 21.434259  Lat 5155.683237 Long 694.248713 Depth 0.100825
QUALITY  Pmax 9.46157e+63 MFmin 90.7996 MFmax 90.8128 RMS 0.0116431 Nphs 17 Gap 288.831 Dist 0.0633844 Mamp  0.63 17 Mdur -9.90 0
VPVSRATIO  VpVsRatio -1  Npair 0  Diff -2e+30
STATISTICS  ExpectX 694.227797 Y 5155.676632 Z 0.085951  CovXX 0.00343616 XY 0.000971416 XZ 0.00056809 YY 0.000489318 YZ 0.000420522 ZZ 0.00167817 EllAz1  165.13 Dip1  9.72229 Len1  0.0235301 Az2  284.296 Dip2  70.6298 Len2  0.0732776 Len3  1.177183e-01
STAT_GEOG  ExpectLat 5155.676632 Long 694.227797 Depth 0.085951
TRANSFORM  NONE
QML_OriginQuality  assocPhCt 17  usedPhCt 17  assocStaCt -1  usedStaCt 17  depthPhCt -1  stdErr 0.0116431  azGap 288.831  secAzGap 295.262  gtLevel -  minDist 0.0633844 maxDist 0.163261 medDist 0.131268
QML_OriginUncertainty  horUnc -1  minHorUnc 0.0213353  maxHorUnc 0.0925927  azMaxHorUnc 73.3017
QML_ConfidenceEllipsoid  semiMajorAxisLength 0.117718  semiMinorAxisLength 0.0235301  semiIntermediateAxisLength 0.0732776  majorAxisPlunge 16.5864  majorAxisAzimuth 72.205  majorAxisRotation 12.0714
FOCALMECH  Hyp  5155.683237 694.248713 0.100825 Mech  0 0 0 mf  0 nObs -1
PHASE ID Ins Cmp On Pha  FM Date     HrMn   Sec     Err  ErrMag    Coda      Amp       Per       PriorWt  >   TTpred    Res       Weight    StaLoc(X  Y         Z)        SDist    SAzim  RAz  RDip RQual    Tcorr       TTerr
106          ?    N    ? P      ? 20180313 0007   21.7796 GAU  2.09e-02 -1.00e+00  7.15e+00  5.60e-02    7.1500 >    0.2023    0.1431    0.0017  694.3120 5155.6801   -0.4360    0.0634  92.88  -1.0  -1.0  0     0.0000    0.0002
25           ?    N    ? P      ? 20180313 0007   21.7139 GAU  1.36e-02 -1.00e+00  9.22e+00  1.20e-02    9.2200 >    0.2658    0.0138    0.7419  694.3684 5155.7091   -0.4438    0.1225  77.80  -1.0  -1.0  0     0.0000    0.0003
23           ?    N    ? P      ? 20180313 0007   21.7162 GAU  1.64e-02 -1.00e+00  8.96e+00  8.00e-03    8.9600 >    0.2727    0.0092    0.8223  694.3677 5155.7226   -0.4473    0.1253  71.71  -1.0  -1.0  0     0.0000    0.0003
105          ?    N    ? P      ? 20180313 0007   21.6949 GAU  1.22e-02 -1.00e+00  9.75e+00  1.20e-02    9.7500 >    0.2654   -0.0048    0.9697  694.3764 5155.6832   -0.4382    0.1277  90.00  -1.0  -1.0  0     0.0000    0.0003
21           ?    N    ? P      ? 20180313 0007   21.7235 GAU  1.92e-02 -1.00e+00  7.80e+00  1.20e-02    7.8000 >    0.2806    0.0086    0.9277  694.3642 5155.7391   -0.4517    0.1283  64.17  -1.0  -1.0  0     0.0000    0.0003
28           ?    N    ? P      ? 20180313 0007   21.7006 GAU  1.16e-02 -1.00e+00  9.18e+00  6.00e-02    9.1800 >    0.2647    0.0017    1.1080  694.3767 5155.6745   -0.4362    0.1283  93.92  -1.0  -1.0  0     0.0000    0.0003
26           ?    N    ? P      ? 20180313 0007   21.6910 GAU  1.95e-02 -1.00e+00  8.90e+00  1.20e-02    8.9000 >    0.2701   -0.0134    0.6622  694.3783 5155.6910   -0.4400    0.1298  86.58  -1.0  -1.0  0     0.0000    0.0003
30           ?    N    ? P      ? 20180313 0007   21.7298 GAU  1.58e-02 -1.00e+00  8.98e+00  8.00e-03    8.9800 >    0.2642    0.0314    0.6994  694.3775 5155.6619   -0.4333    0.1305  99.40  -1.0  -1.0  0     0.0000    0.0003
20           ?    N    ? P      ? 20180313 0007   21.7167 GAU  1.02e-02 -1.00e+00  7.66e+00  8.00e-03    7.6600 >    0.2874   -0.0050    1.3656  694.3609 5155.7515   -0.4553    0.1313  58.68  -1.0  -1.0  0     0.0000    0.0003
32           ?    N    ? P      ? 20180313 0007   21.6782 GAU  3.45e-02 -1.00e+00  8.07e+00  1.20e-02    8.0700 >    0.2650   -0.0210    0.8719  694.3777 5155.6456   -0.4297    0.1344 106.28  -1.0  -1.0  0     0.0000    0.0003
18           ?    N    ? P      ? 20180313 0007   21.7266 GAU  1.78e-02 -1.00e+00  6.81e+00  1.20e-02    6.8100 >    0.2960   -0.0037    1.4667  694.3549 5155.7674   -0.4586    0.1355  51.59  -1.0  -1.0  0     0.0000    0.0003
17           ?    N    ? P      ? 20180313 0007   21.7230 GAU  3.74e-02 -1.00e+00  7.00e+00  1.20e-02    7.0000 >    0.3028   -0.0141    1.1904  694.3461 5155.7815   -0.4621    0.1384  44.76  -1.0  -1.0  0     0.0000    0.0003
33           ?    N    ? P      ? 20180313 0007   21.7012 GAU  2.18e-02 -1.00e+00  8.20e+00  1.20e-02    8.2000 >    0.2669    0.0000    1.7402  694.3775 5155.6293   -0.4252    0.1396 112.71  -1.0  -1.0  0     0.0000    0.0003
16           ?    N    ? P      ? 20180313 0007   21.7643 GAU  2.77e-02 -1.00e+00  6.93e+00  8.00e-03    6.9300 >    0.3131    0.0169    1.6155  694.3452 5155.7921   -0.4642    0.1455  41.54  -1.0  -1.0  0     0.0000    0.0003
27           ?    N    ? P      ? 20180313 0007   21.7114 GAU  2.41e-02 -1.00e+00  6.74e+00  2.80e-02    6.7400 >    0.2971   -0.0199    0.5864  694.4008 5155.6912   -0.4412    0.1523  86.98  -1.0  -1.0  0     0.0000    0.0003
22           ?    N    ? P      ? 20180313 0007   21.7654 GAU  3.51e-02 -1.00e+00  7.69e+00  1.20e-02    7.6900 >    0.3085    0.0227    0.5986  694.3985 5155.7265   -0.4488    0.1559  73.87  -1.0  -1.0  0     0.0000    0.0003
31           ?    N    ? P      ? 20180313 0007   21.7419 GAU  1.39e-02 -1.00e+00  7.29e+00  1.60e-02    7.2900 >    0.3032    0.0044    1.6320  694.4086 5155.6503   -0.4335    0.1633 101.62  -1.0  -1.0  0     0.0000    0.0003
END_PHASE
END_NLLOC

