NLLOC "./loc/RR.20180313.004808.grid0" "LOCATED" "Location completed."
PUBLIC_ID None
SIGNATURE "   obs:./obs/nll_picks.obs   NLLoc:v7.00.10(30Aug2020)   run:29Apr2022 23h19m36"
COMMENT "Rattlesnake Ridge Slidequake Locations"
GRID  150 250 75  694.15 5155.4 0  0.002 0.002 0.002 PROB_DENSITY
SEARCH OCTREE nInitial 1000 nEvaluated 3584 smallestNodeSide 0.001863/0.003112/0.000925 oct_tree_integral 1.470647e-05 scatter_volume 1.470647e-05
HYPOCENTER  x 694.292 y 5155.62 z 0.129962  OT 8.61791  ix -1 iy -1 iz -1 MAXIMUM_LIKELIHOOD
GEOGRAPHIC  OT 2018 03 13  00 48 8.617913  Lat 5155.619431 Long 694.292481 Depth 0.129962
QUALITY  Pmax 2.56367e+105 MFmin 250.829 MFmax 250.875 RMS 0.00674929 Nphs 23 Gap 240.514 Dist 0.0636946 Mamp  0.67 23 Mdur -9.90 0
VPVSRATIO  VpVsRatio -1  Npair 0  Diff -2e+30
STATISTICS  ExpectX 694.278505 Y 5155.615858 Z 0.122083  CovXX 0.000431815 XY 0.000103629 XZ 7.50779e-05 YY 4.88718e-05 YZ 4.45202e-05 ZZ 0.000281477 EllAz1  166.892 Dip1  5.75384 Len1  0.00843074 Az2  270.858 Dip2  67.3396 Len2  0.0297315 Len3  4.165811e-02
STAT_GEOG  ExpectLat 5155.615858 Long 694.278505 Depth 0.122083
TRANSFORM  NONE
QML_OriginQuality  assocPhCt 23  usedPhCt 23  assocStaCt -1  usedStaCt 23  depthPhCt -1  stdErr 0.00674929  azGap 240.514  secAzGap 248.25  gtLevel -  minDist 0.0636946 maxDist 0.160601 medDist 0.117524
QML_OriginUncertainty  horUnc -1  minHorUnc 0.00721404  maxHorUnc 0.0324582  azMaxHorUnc 75.7883
QML_ConfidenceEllipsoid  semiMajorAxisLength 0.0416581  semiMinorAxisLength 0.00843074  semiIntermediateAxisLength 0.0297315  majorAxisPlunge 21.8388  majorAxisAzimuth 74.5777  majorAxisRotation 8.54283
FOCALMECH  Hyp  5155.619431 694.292481 0.129962 Mech  0 0 0 mf  0 nObs -1
PHASE ID Ins Cmp On Pha  FM Date     HrMn   Sec     Err  ErrMag    Coda      Amp       Per       PriorWt  >   TTpred    Res       Weight    StaLoc(X  Y         Z)        SDist    SAzim  RAz  RDip RQual    Tcorr       TTerr
106          ?    N    ? P      ? 20180313 0048    8.9249 GAU  2.11e-02 -1.00e+00  7.83e+00  1.20e-02    7.8300 >    0.2383    0.0686    0.0173  694.3120 5155.6801   -0.4360    0.0637  17.86  -1.0  -1.0  0     0.0000    0.0002
33           ?    N    ? P      ? 20180313 0048    8.8578 GAU  3.37e-03 -1.00e+00  9.78e+00  1.20e-02    9.7800 >    0.2406   -0.0007    1.0496  694.3775 5155.6293   -0.4252    0.0856  83.36  -1.0  -1.0  0     0.0000    0.0002
32           ?    N    ? P      ? 20180313 0048    8.8589 GAU  4.85e-03 -1.00e+00  9.52e+00  1.20e-02    9.5200 >    0.2484   -0.0074    0.7303  694.3777 5155.6456   -0.4297    0.0891  72.94  -1.0  -1.0  0     0.0000    0.0002
35           ?    N    ? P      ? 20180313 0048    8.8663 GAU  4.25e-03 -1.00e+00  1.07e+01  8.00e-03   10.7000 >    0.2386    0.0098    0.8150  694.3818 5155.6141   -0.4216    0.0894  93.41  -1.0  -1.0  0     0.0000    0.0002
30           ?    N    ? P      ? 20180313 0048    8.8755 GAU  9.71e-03 -1.00e+00  8.45e+00  2.80e-02    8.4500 >    0.2578   -0.0002    0.7938  694.3775 5155.6619   -0.4333    0.0950  63.44  -1.0  -1.0  0     0.0000    0.0003
36           ?    N    ? P      ? 20180313 0048    8.8518 GAU  4.31e-03 -1.00e+00  9.11e+00  1.20e-02    9.1100 >    0.2406   -0.0067    0.9317  694.3865 5155.5904   -0.4164    0.0984 107.18  -1.0  -1.0  0     0.0000    0.0002
28           ?    N    ? P      ? 20180313 0048    8.9023 GAU  8.65e-03 -1.00e+00  8.61e+00  1.20e-02    8.6100 >    0.2658    0.0186    0.4235  694.3767 5155.6745   -0.4362    0.1006  56.83  -1.0  -1.0  0     0.0000    0.0003
105          ?    N    ? P      ? 20180313 0048    8.8981 GAU  8.23e-03 -1.00e+00  8.93e+00  4.40e-02    8.9300 >    0.2724    0.0078    0.9330  694.3764 5155.6832   -0.4382    0.1054  52.75  -1.0  -1.0  0     0.0000    0.0003
38           ?    N    ? P      ? 20180313 0048    8.8600 GAU  4.74e-03 -1.00e+00  8.49e+00  1.20e-02    8.4900 >    0.2479   -0.0058    1.1794  694.3902 5155.5681   -0.4123    0.1103 117.72  -1.0  -1.0  0     0.0000    0.0002
26           ?    N    ? P      ? 20180313 0048    8.8975 GAU  8.02e-03 -1.00e+00  7.87e+00  8.00e-03    7.8700 >    0.2805   -0.0009    1.0414  694.3783 5155.6910   -0.4400    0.1117  50.19  -1.0  -1.0  0     0.0000    0.0003
39           ?    N    ? P      ? 20180313 0048    8.8764 GAU  8.18e-03 -1.00e+00  8.80e+00  1.20e-02    8.8000 >    0.2510    0.0075    1.3222  694.3890 5155.5532   -0.4086    0.1171 124.46  -1.0  -1.0  0     0.0000    0.0003
25           ?    N    ? P      ? 20180313 0048    8.9260 GAU  1.37e-02 -1.00e+00  7.96e+00  1.60e-02    7.9600 >    0.2903    0.0178    0.6412  694.3684 5155.7091   -0.4438    0.1175  40.26  -1.0  -1.0  0     0.0000    0.0003
31           ?    N    ? P      ? 20180313 0048    8.9047 GAU  9.71e-03 -1.00e+00  7.62e+00  5.20e-02    7.6200 >    0.2807    0.0061    0.7191  694.4086 5155.6503   -0.4335    0.1202  75.09  -1.0  -1.0  0     0.0000    0.0003
34           ?    N    ? P      ? 20180313 0048    8.9021 GAU  4.64e-03 -1.00e+00  8.67e+00  1.20e-02    8.6700 >    0.2752    0.0089    0.8324  694.4145 5155.6153   -0.4263    0.1221  91.95  -1.0  -1.0  0     0.0000    0.0003
41           ?    N    ? P      ? 20180313 0048    8.8884 GAU  6.46e-03 -1.00e+00  8.20e+00  2.40e-02    8.2000 >    0.2585    0.0119    1.2126  694.3901 5155.5386   -0.4053    0.1267 129.61  -1.0  -1.0  0     0.0000    0.0003
23           ?    N    ? P      ? 20180313 0048    8.9156 GAU  5.91e-03 -1.00e+00  8.61e+00  8.00e-03    8.6100 >    0.3038   -0.0061    1.4008  694.3677 5155.7226   -0.4473    0.1276  36.10  -1.0  -1.0  0     0.0000    0.0003
27           ?    N    ? P      ? 20180313 0048    8.9175 GAU  8.23e-03 -1.00e+00  7.28e+00  1.20e-02    7.2800 >    0.2987    0.0009    1.0302  694.4008 5155.6912   -0.4412    0.1300  56.45  -1.0  -1.0  0     0.0000    0.0003
37           ?    N    ? P      ? 20180313 0048    8.9009 GAU  3.45e-03 -1.00e+00  8.71e+00  1.20e-02    8.7100 >    0.2824    0.0006    1.4237  694.4219 5155.5876   -0.4220    0.1333 103.82  -1.0  -1.0  0     0.0000    0.0003
21           ?    N    ? P      ? 20180313 0048    8.9414 GAU  4.64e-03 -1.00e+00  7.56e+00  1.20e-02    7.5600 >    0.3204    0.0031    1.8975  694.3642 5155.7391   -0.4517    0.1395  30.92  -1.0  -1.0  0     0.0000    0.0003
42           ?    N    ? P      ? 20180313 0048    8.8841 GAU  1.08e-02 -1.00e+00  6.63e+00  5.20e-02    6.6300 >    0.2673   -0.0011    1.5474  694.3873 5155.5165   -0.3983    0.1399 137.35  -1.0  -1.0  0     0.0000    0.0003
40           ?    N    ? P      ? 20180313 0048    8.9048 GAU  9.91e-03 -1.00e+00  8.56e+00  2.00e-02    8.5600 >    0.2890   -0.0021    1.4837  694.4169 5155.5417   -0.4131    0.1467 121.99  -1.0  -1.0  0     0.0000    0.0003
22           ?    N    ? P      ? 20180313 0048    8.9460 GAU  9.29e-03 -1.00e+00  7.20e+00  8.00e-03    7.2000 >    0.3281    0.0000    1.3661  694.3985 5155.7265   -0.4488    0.1507  44.71  -1.0  -1.0  0     0.0000    0.0003
18           ?    N    ? P      ? 20180313 0048    8.9245 GAU  2.28e-02 -1.00e+00  6.75e+00  6.80e-02    6.7500 >    0.3490   -0.0425    0.2081  694.3549 5155.7674   -0.4586    0.1606  22.87  -1.0  -1.0  0     0.0000    0.0003
END_PHASE
END_NLLOC

