NLLOC "./loc/RR.20180313.011831.grid0" "LOCATED" "Location completed."
PUBLIC_ID None
SIGNATURE "   obs:./obs/nll_picks.obs   NLLoc:v7.00.10(30Aug2020)   run:29Apr2022 23h20m01"
COMMENT "Rattlesnake Ridge Slidequake Locations"
GRID  150 250 75  694.15 5155.4 0  0.002 0.002 0.002 PROB_DENSITY
SEARCH OCTREE nInitial 1000 nEvaluated 3952 smallestNodeSide 0.001863/0.003112/0.000925 oct_tree_integral 1.162377e-05 scatter_volume 1.161975e-05
HYPOCENTER  x 694.304 y 5155.63 z 0.117012  OT 31.1395  ix -1 iy -1 iz -1 MAXIMUM_LIKELIHOOD
GEOGRAPHIC  OT 2018 03 13  01 18 31.139539  Lat 5155.625656 Long 694.303656 Depth 0.117012
QUALITY  Pmax 2.33007e+97 MFmin 220.743 MFmax 220.787 RMS 0.00638725 Nphs 22 Gap 226.2 Dist 0.0550385 Mamp  0.58 22 Mdur -9.90 0
VPVSRATIO  VpVsRatio -1  Npair 0  Diff -2e+30
STATISTICS  ExpectX 694.294902 Y 5155.623818 Z 0.117510  CovXX 0.000548662 XY 0.000122498 XZ 0.000146404 YY 5.07891e-05 YZ 7.23438e-05 ZZ 0.000349936 EllAz1  169.01 Dip1  7.38708 Len1  0.00784741 Az2  272.831 Dip2  61.5105 Len2  0.0310158 Len3  4.824701e-02
STAT_GEOG  ExpectLat 5155.623818 Long 694.294902 Depth 0.117510
TRANSFORM  NONE
QML_OriginQuality  assocPhCt 22  usedPhCt 22  assocStaCt -1  usedStaCt 22  depthPhCt -1  stdErr 0.00638725  azGap 226.2  secAzGap 241.909  gtLevel -  minDist 0.0550385 maxDist 0.140939 medDist 0.106741
QML_OriginUncertainty  horUnc -1  minHorUnc 0.00715872  maxHorUnc 0.0364347  azMaxHorUnc 76.8994
QML_ConfidenceEllipsoid  semiMajorAxisLength 0.048247  semiMinorAxisLength 0.00784741  semiIntermediateAxisLength 0.0310158  majorAxisPlunge 27.3447  majorAxisAzimuth 75.1656  majorAxisRotation 14.2026
FOCALMECH  Hyp  5155.625656 694.303656 0.117012 Mech  0 0 0 mf  0 nObs -1
PHASE ID Ins Cmp On Pha  FM Date     HrMn   Sec     Err  ErrMag    Coda      Amp       Per       PriorWt  >   TTpred    Res       Weight    StaLoc(X  Y         Z)        SDist    SAzim  RAz  RDip RQual    Tcorr       TTerr
106          ?    N    ? P      ? 20180313 0118   31.4641 GAU  1.75e-02 -1.00e+00  7.24e+00  2.80e-02    7.2400 >    0.2143    0.1103    0.0002  694.3120 5155.6801   -0.4360    0.0550   8.74  -1.0  -1.0  0     0.0000    0.0002
33           ?    N    ? P      ? 20180313 0118   31.3517 GAU  3.96e-03 -1.00e+00  9.21e+00  8.00e-03    9.2100 >    0.2136   -0.0015    1.1157  694.3775 5155.6293   -0.4252    0.0740  87.15  -1.0  -1.0  0     0.0000    0.0002
32           ?    N    ? P      ? 20180313 0118   31.3607 GAU  3.59e-03 -1.00e+00  8.91e+00  1.20e-02    8.9100 >    0.2213   -0.0001    1.2229  694.3777 5155.6456   -0.4297    0.0767  74.94  -1.0  -1.0  0     0.0000    0.0002
35           ?    N    ? P      ? 20180313 0118   31.3681 GAU  2.64e-03 -1.00e+00  9.95e+00  1.20e-02    9.9500 >    0.2130    0.0156    0.4412  694.3818 5155.6141   -0.4216    0.0790  98.40  -1.0  -1.0  0     0.0000    0.0002
30           ?    N    ? P      ? 20180313 0118   31.3667 GAU  1.38e-02 -1.00e+00  7.71e+00  2.40e-02    7.7100 >    0.2303   -0.0031    0.7346  694.3775 5155.6619   -0.4333    0.0822  63.84  -1.0  -1.0  0     0.0000    0.0002
28           ?    N    ? P      ? 20180313 0118   31.3992 GAU  1.91e-02 -1.00e+00  8.15e+00  1.20e-02    8.1500 >    0.2384    0.0213    0.4564  694.3767 5155.6745   -0.4362    0.0878  56.25  -1.0  -1.0  0     0.0000    0.0002
36           ?    N    ? P      ? 20180313 0118   31.3530 GAU  3.77e-03 -1.00e+00  8.38e+00  1.20e-02    8.3800 >    0.2172   -0.0038    1.0907  694.3865 5155.5904   -0.4164    0.0901 113.07  -1.0  -1.0  0     0.0000    0.0002
105          ?    N    ? P      ? 20180313 0118   31.4071 GAU  1.04e-02 -1.00e+00  8.59e+00  1.20e-02    8.5900 >    0.2451    0.0225    0.3977  694.3764 5155.6832   -0.4382    0.0928  51.64  -1.0  -1.0  0     0.0000    0.0002
26           ?    N    ? P      ? 20180313 0118   31.3943 GAU  6.22e-03 -1.00e+00  6.82e+00  8.00e-03    6.8200 >    0.2532    0.0015    1.4455  694.3783 5155.6910   -0.4400    0.0992  48.81  -1.0  -1.0  0     0.0000    0.0003
38           ?    N    ? P      ? 20180313 0118   31.3594 GAU  4.53e-03 -1.00e+00  7.70e+00  1.20e-02    7.7000 >    0.2265   -0.0066    1.0149  694.3902 5155.5681   -0.4123    0.1039 123.63  -1.0  -1.0  0     0.0000    0.0002
25           ?    N    ? P      ? 20180313 0118   31.4083 GAU  1.30e-02 -1.00e+00  7.09e+00  8.00e-03    7.0900 >    0.2638    0.0050    1.2351  694.3684 5155.7091   -0.4438    0.1056  37.81  -1.0  -1.0  0     0.0000    0.0003
31           ?    N    ? P      ? 20180313 0118   31.4047 GAU  1.09e-02 -1.00e+00  7.18e+00  1.60e-02    7.1800 >    0.2536    0.0116    0.6442  694.4086 5155.6503   -0.4335    0.1078  76.76  -1.0  -1.0  0     0.0000    0.0003
34           ?    N    ? P      ? 20180313 0118   31.3973 GAU  3.59e-03 -1.00e+00  7.73e+00  1.20e-02    7.7300 >    0.2499    0.0079    0.8700  694.4145 5155.6153   -0.4263    0.1113  95.35  -1.0  -1.0  0     0.0000    0.0002
39           ?    N    ? P      ? 20180313 0118   31.3759 GAU  3.00e-03 -1.00e+00  7.84e+00  1.20e-02    7.8400 >    0.2318    0.0045    1.6264  694.3890 5155.5532   -0.4086    0.1120 130.33  -1.0  -1.0  0     0.0000    0.0002
23           ?    N    ? P      ? 20180313 0118   31.4173 GAU  5.09e-03 -1.00e+00  8.13e+00  1.20e-02    8.1300 >    0.2776    0.0002    2.3467  694.3677 5155.7226   -0.4473    0.1161  33.46  -1.0  -1.0  0     0.0000    0.0003
27           ?    N    ? P      ? 20180313 0118   31.4405 GAU  1.51e-02 -1.00e+00  6.95e+00  1.60e-02    6.9500 >    0.2715    0.0294    0.2851  694.4008 5155.6912   -0.4412    0.1172  55.97  -1.0  -1.0  0     0.0000    0.0003
41           ?    N    ? P      ? 20180313 0118   31.3859 GAU  7.66e-03 -1.00e+00  7.22e+00  1.20e-02    7.2200 >    0.2407    0.0056    1.5429  694.3901 5155.5386   -0.4053    0.1227 135.19  -1.0  -1.0  0     0.0000    0.0002
37           ?    N    ? P      ? 20180313 0118   31.3973 GAU  4.71e-03 -1.00e+00  7.75e+00  8.00e-03    7.7500 >    0.2595   -0.0017    1.3259  694.4219 5155.5876   -0.4220    0.1242 107.84  -1.0  -1.0  0     0.0000    0.0003
42           ?    N    ? P      ? 20180313 0118   31.3972 GAU  1.37e-02 -1.00e+00  5.74e+00  1.60e-02    5.7400 >    0.2534    0.0043    1.3712  694.3873 5155.5165   -0.3983    0.1375 142.54  -1.0  -1.0  0     0.0000    0.0003
20           ?    N    ? P      ? 20180313 0118   31.3547 GAU  1.30e-02 -1.00e+00  5.94e+00  4.00e-02    5.9400 >    0.3087   -0.0935    0.0000  694.3609 5155.7515   -0.4553    0.1382  24.45  -1.0  -1.0  0     0.0000    0.0003
22           ?    N    ? P      ? 20180313 0118   31.4347 GAU  9.24e-03 -1.00e+00  6.36e+00  8.00e-03    6.3600 >    0.3019   -0.0068    1.3787  694.3985 5155.7265   -0.4488    0.1385  43.23  -1.0  -1.0  0     0.0000    0.0003
40           ?    N    ? P      ? 20180313 0118   31.4095 GAU  1.00e-02 -1.00e+00  7.54e+00  2.00e-02    7.5400 >    0.2706   -0.0006    1.4539  694.4169 5155.5417   -0.4131    0.1409 126.55  -1.0  -1.0  0     0.0000    0.0003
END_PHASE
END_NLLOC

