NLLOC "./loc/RR.20180313.013618.grid0" "REJECTED" "WARNING: max prob location on grid boundary 10, rejecting location."
PUBLIC_ID None
SIGNATURE "   obs:./obs/nll_picks.obs   NLLoc:v7.00.10(30Aug2020)   run:29Apr2022 23h20m24"
COMMENT "Rattlesnake Ridge Slidequake Locations"
GRID  150 250 75  694.15 5155.4 0  0.002 0.002 0.002 PROB_DENSITY
SEARCH OCTREE nInitial 1000 nEvaluated 20008 smallestNodeSide 0.003725/0.006225/0.001850 oct_tree_integral 3.902125e-04 scatter_volume 3.902125e-04
HYPOCENTER  x 694.152 y 5155.67 z 0.106375  OT 17.8775  ix -1 iy -1 iz -1 MAXIMUM_LIKELIHOOD
GEOGRAPHIC  OT 2018 03 13  01 36 17.877475  Lat 5155.670787 Long 694.151862 Depth 0.106375
QUALITY  Pmax 1.91733e+83 MFmin 133.342 MFmax 133.372 RMS 0.021782 Nphs 21 Gap 302.124 Dist 0.219164 Mamp  0.77 21 Mdur -9.90 0
VPVSRATIO  VpVsRatio -1  Npair 0  Diff -2e+30
STATISTICS  ExpectX 694.202823 Y 5155.687229 Z 0.089772  CovXX 0.00183049 XY 0.000511489 XZ 0.000408105 YY 0.00032336 YZ 0.000230414 ZZ 0.0016209 EllAz1  163.984 Dip1  4.25832 Len1  0.0236682 Az2  260.195 Dip2  55.4626 Len2  0.0681869 Len3  9.008462e-02
STAT_GEOG  ExpectLat 5155.687229 Long 694.202823 Depth 0.089772
TRANSFORM  NONE
QML_OriginQuality  assocPhCt 21  usedPhCt 21  assocStaCt -1  usedStaCt 21  depthPhCt -1  stdErr 0.021782  azGap 302.124  secAzGap 306.649  gtLevel -  minDist 0.219164 maxDist 0.263319 medDist 0.227229
QML_OriginUncertainty  horUnc -1  minHorUnc 0.0195495  maxHorUnc 0.0676141  azMaxHorUnc 72.9165
QML_ConfidenceEllipsoid  semiMajorAxisLength 0.0900846  semiMinorAxisLength 0.0236682  semiIntermediateAxisLength 0.0681869  majorAxisPlunge 34.1984  majorAxisAzimuth 71.084  majorAxisRotation 13.757
FOCALMECH  Hyp  5155.670787 694.151862 0.106375 Mech  0 0 0 mf  0 nObs -1
PHASE ID Ins Cmp On Pha  FM Date     HrMn   Sec     Err  ErrMag    Coda      Amp       Per       PriorWt  >   TTpred    Res       Weight    StaLoc(X  Y         Z)        SDist    SAzim  RAz  RDip RQual    Tcorr       TTerr
15           ?    N    ? P      ? 20180313 0136   18.3375 GAU  8.40e-03 -1.00e+00  6.87e+00  4.00e-02    6.8700 >    0.4578    0.0022    1.4168  694.3206 5155.8107   -0.4609    0.2192  50.33  -1.0  -1.0  0     0.0000    0.0005
25           ?    N    ? P      ? 20180313 0136   18.2913 GAU  1.16e-02 -1.00e+00  7.06e+00  8.00e-03    7.0600 >    0.4366   -0.0227    0.5601  694.3684 5155.7091   -0.4438    0.2199  79.96  -1.0  -1.0  0     0.0000    0.0004
23           ?    N    ? P      ? 20180313 0136   18.3391 GAU  5.62e-02 -1.00e+00  7.20e+00  1.20e-02    7.2000 >    0.4423    0.0193    0.4995  694.3677 5155.7226   -0.4473    0.2220  76.51  -1.0  -1.0  0     0.0000    0.0004
21           ?    N    ? P      ? 20180313 0136   18.3506 GAU  1.42e-02 -1.00e+00  6.78e+00  1.20e-02    6.7800 >    0.4484    0.0247    0.7285  694.3642 5155.7391   -0.4517    0.2230  72.16  -1.0  -1.0  0     0.0000    0.0004
17           ?    N    ? P      ? 20180313 0136   18.3643 GAU  1.31e-02 -1.00e+00  8.22e+00  1.20e-02    8.2200 >    0.4616    0.0252    1.0346  694.3461 5155.7815   -0.4621    0.2236  60.33  -1.0  -1.0  0     0.0000    0.0005
20           ?    N    ? P      ? 20180313 0136   18.3564 GAU  1.05e-02 -1.00e+00  7.31e+00  8.00e-03    7.3100 >    0.4532    0.0257    0.7509  694.3609 5155.7515   -0.4553    0.2240  68.89  -1.0  -1.0  0     0.0000    0.0005
18           ?    N    ? P      ? 20180313 0136   18.3328 GAU  2.26e-02 -1.00e+00  6.64e+00  2.80e-02    6.6400 >    0.4581   -0.0028    0.7939  694.3549 5155.7674   -0.4586    0.2248  64.55  -1.0  -1.0  0     0.0000    0.0005
28           ?    N    ? P      ? 20180313 0136   18.3333 GAU  4.10e-02 -1.00e+00  7.43e+00  1.20e-02    7.4300 >    0.4340    0.0218    0.9555  694.3767 5155.6745   -0.4362    0.2249  89.06  -1.0  -1.0  0     0.0000    0.0004
105          ?    N    ? P      ? 20180313 0136   18.3328 GAU  1.42e-02 -1.00e+00  7.70e+00  1.20e-02    7.7000 >    0.4361    0.0193    1.3473  694.3764 5155.6832   -0.4382    0.2249  86.83  -1.0  -1.0  0     0.0000    0.0004
30           ?    N    ? P      ? 20180313 0136   18.2991 GAU  1.52e-02 -1.00e+00  7.53e+00  8.00e-03    7.5300 >    0.4324   -0.0108    1.5219  694.3775 5155.6619   -0.4333    0.2258  92.25  -1.0  -1.0  0     0.0000    0.0004
32           ?    N    ? P      ? 20180313 0136   18.3265 GAU  2.37e-02 -1.00e+00  7.47e+00  8.00e-03    7.4700 >    0.4309    0.0181    1.7506  694.3777 5155.6456   -0.4297    0.2272  96.37  -1.0  -1.0  0     0.0000    0.0004
26           ?    N    ? P      ? 20180313 0136   18.3338 GAU  3.42e-02 -1.00e+00  6.58e+00  1.20e-02    6.5800 >    0.4407    0.0156    0.8830  694.3783 5155.6910   -0.4400    0.2273  84.91  -1.0  -1.0  0     0.0000    0.0004
16           ?    N    ? P      ? 20180313 0136   18.3932 GAU  8.40e-03 -1.00e+00  8.00e+00  1.20e-02    8.0000 >    0.4691    0.0466    0.7028  694.3452 5155.7921   -0.4642    0.2283  57.89  -1.0  -1.0  0     0.0000    0.0005
13           ?    N    ? P      ? 20180313 0136   18.4641 GAU  1.84e-02 -1.00e+00  6.88e+00  1.20e-02    6.8800 >    0.4652    0.1214    0.0802  694.3062 5155.8390   -0.4568    0.2283  42.53  -1.0  -1.0  0     0.0000    0.0005
33           ?    N    ? P      ? 20180313 0136   18.3543 GAU  4.62e-02 -1.00e+00  6.47e+00  1.20e-02    6.4700 >    0.4286    0.0482    1.0432  694.3775 5155.6293   -0.4252    0.2294 100.41  -1.0  -1.0  0     0.0000    0.0004
12           ?    N    ? P      ? 20180313 0136   18.3543 GAU  1.37e-02 -1.00e+00  6.97e+00  8.00e-03    6.9700 >    0.4814   -0.0046    1.3306  694.3356 5155.8197   -0.4663    0.2365  50.97  -1.0  -1.0  0     0.0000    0.0005
10           ?    N    ? P      ? 20180313 0136   18.3612 GAU  9.99e-03 -1.00e+00  6.27e+00  8.00e-03    6.2700 >    0.4900   -0.0062    1.4202  694.3329 5155.8329   -0.4673    0.2430  48.16  -1.0  -1.0  0     0.0000    0.0005
103          ?    N    ? P      ? 20180313 0136   18.3633 GAU  7.88e-03 -1.00e+00  6.72e+00  1.60e-02    6.7200 >    0.4888   -0.0030    1.1265  694.3644 5155.7952   -0.4662    0.2462  59.65  -1.0  -1.0  0     0.0000    0.0005
27           ?    N    ? P      ? 20180313 0136   18.3212 GAU  3.10e-02 -1.00e+00  5.30e+00  2.00e-02    5.3000 >    0.4663   -0.0226    0.6734  694.4008 5155.6912   -0.4412    0.2498  85.30  -1.0  -1.0  0     0.0000    0.0005
22           ?    N    ? P      ? 20180313 0136   18.3953 GAU  1.79e-02 -1.00e+00  5.84e+00  1.20e-02    5.8400 >    0.4767    0.0411    0.5887  694.3985 5155.7265   -0.4488    0.2529  77.26  -1.0  -1.0  0     0.0000    0.0005
6            ?    N    ? P      ? 20180313 0136   18.4142 GAU  1.47e-02 -1.00e+00  5.92e+00  7.20e-02    5.9200 >    0.5173    0.0194    1.7917  694.3446 5155.8502   -0.4728    0.2633  47.06  -1.0  -1.0  0     0.0000    0.0005
END_PHASE
END_NLLOC

