NLLOC "./loc/RR.20180313.000431.grid0" "REJECTED" "WARNING: max prob location on grid boundary 31, rejecting location."
PUBLIC_ID None
SIGNATURE "   obs:./obs/nll_picks.obs   NLLoc:v7.00.10(30Aug2020)   run:29Apr2022 23h16m40"
COMMENT "Rattlesnake Ridge Slidequake Locations"
GRID  150 250 75  694.15 5155.4 0  0.002 0.002 0.002 PROB_DENSITY
SEARCH OCTREE nInitial 1000 nEvaluated 20000 smallestNodeSide 0.003725/0.006225/0.001850 oct_tree_integral 2.171801e-04 scatter_volume 2.158521e-04
HYPOCENTER  x 694.215 y 5155.63 z 0.147075  OT 31.0985  ix -1 iy -1 iz -1 MAXIMUM_LIKELIHOOD
GEOGRAPHIC  OT 2018 03 13  00 04 31.098541  Lat 5155.627213 Long 694.215188 Depth 0.147075
QUALITY  Pmax 3.6683e+94 MFmin 150.687 MFmax 150.698 RMS 0.0200649 Nphs 23 Gap 266.4 Dist 0.11031 Mamp  0.73 23 Mdur -9.90 0
VPVSRATIO  VpVsRatio -1  Npair 0  Diff -2e+30
STATISTICS  ExpectX 694.198017 Y 5155.624406 Z 0.106326  CovXX 0.00128404 XY 0.000397138 XZ 0.000330495 YY 0.000340642 YZ 0.000184122 ZZ 0.00123979 EllAz1  161.057 Dip1  3.65085 Len1  0.0260281 Az2  255.706 Dip2  51.7935 Len2  0.0579681 Len3  7.793481e-02
STAT_GEOG  ExpectLat 5155.624406 Long 694.198017 Depth 0.106326
TRANSFORM  NONE
QML_OriginQuality  assocPhCt 23  usedPhCt 23  assocStaCt -1  usedStaCt 23  depthPhCt -1  stdErr 0.0200649  azGap 266.4  secAzGap 273.014  gtLevel -  minDist 0.11031 maxDist 0.230555 medDist 0.18468
QML_OriginUncertainty  horUnc -1  minHorUnc 0.021217  maxHorUnc 0.057329  azMaxHorUnc 69.9525
QML_ConfidenceEllipsoid  semiMajorAxisLength 0.0779348  semiMinorAxisLength 0.0260281  semiIntermediateAxisLength 0.0579681  majorAxisPlunge 37.9672  majorAxisAzimuth 68.2026  majorAxisRotation 18.4401
FOCALMECH  Hyp  5155.627213 694.215188 0.147075 Mech  0 0 0 mf  0 nObs -1
PHASE ID Ins Cmp On Pha  FM Date     HrMn   Sec     Err  ErrMag    Coda      Amp       Per       PriorWt  >   TTpred    Res       Weight    StaLoc(X  Y         Z)        SDist    SAzim  RAz  RDip RQual    Tcorr       TTerr
106          ?    N    ? P      ? 20180313 0004   31.4297 GAU  1.80e-02 -1.00e+00  7.47e+00  8.00e-03    7.4700 >    0.3200    0.0112    1.2784  694.3120 5155.6801   -0.4360    0.1103  61.38  -1.0  -1.0  0     0.0000    0.0003
33           ?    N    ? P      ? 20180313 0004   31.4412 GAU  1.57e-02 -1.00e+00  7.87e+00  1.20e-02    7.8700 >    0.3519   -0.0092    1.0967  694.3775 5155.6293   -0.4252    0.1623  89.25  -1.0  -1.0  0     0.0000    0.0004
32           ?    N    ? P      ? 20180313 0004   31.4318 GAU  1.63e-02 -1.00e+00  7.28e+00  1.20e-02    7.2800 >    0.3580   -0.0248    0.7321  694.3777 5155.6456   -0.4297    0.1635  83.55  -1.0  -1.0  0     0.0000    0.0004
30           ?    N    ? P      ? 20180313 0004   31.4636 GAU  2.35e-02 -1.00e+00  7.66e+00  2.00e-02    7.6600 >    0.3640    0.0011    0.8870  694.3775 5155.6619   -0.4333    0.1660  77.93  -1.0  -1.0  0     0.0000    0.0004
35           ?    N    ? P      ? 20180313 0004   31.4448 GAU  1.55e-02 -1.00e+00  8.10e+00  8.00e-03    8.1000 >    0.3528   -0.0065    1.2763  694.3818 5155.6141   -0.4216    0.1671  94.50  -1.0  -1.0  0     0.0000    0.0004
28           ?    N    ? P      ? 20180313 0004   31.4695 GAU  2.05e-02 -1.00e+00  7.82e+00  1.20e-02    7.8200 >    0.3694    0.0016    0.9401  694.3767 5155.6745   -0.4362    0.1683  73.69  -1.0  -1.0  0     0.0000    0.0004
105          ?    N    ? P      ? 20180313 0004   31.4760 GAU  1.91e-02 -1.00e+00  7.39e+00  2.40e-02    7.3900 >    0.3739    0.0036    0.9439  694.3764 5155.6832   -0.4382    0.1707  70.84  -1.0  -1.0  0     0.0000    0.0004
25           ?    N    ? P      ? 20180313 0004   31.5281 GAU  2.97e-02 -1.00e+00  7.00e+00  1.20e-02    7.0000 >    0.3831    0.0465    0.5617  694.3684 5155.7091   -0.4438    0.1738  61.88  -1.0  -1.0  0     0.0000    0.0004
26           ?    N    ? P      ? 20180313 0004   31.4842 GAU  1.84e-02 -1.00e+00  6.84e+00  1.20e-02    6.8400 >    0.3804    0.0052    0.9357  694.3783 5155.6910   -0.4400    0.1751  68.65  -1.0  -1.0  0     0.0000    0.0004
36           ?    N    ? P      ? 20180313 0004   31.5122 GAU  2.43e-02 -1.00e+00  6.93e+00  1.20e-02    6.9300 >    0.3558    0.0578    0.3981  694.3865 5155.5904   -0.4164    0.1753 102.14  -1.0  -1.0  0     0.0000    0.0004
23           ?    N    ? P      ? 20180313 0004   31.5495 GAU  3.39e-02 -1.00e+00  6.44e+00  8.00e-03    6.4400 >    0.3929    0.0581    0.4981  694.3677 5155.7226   -0.4473    0.1799  57.99  -1.0  -1.0  0     0.0000    0.0004
38           ?    N    ? P      ? 20180313 0004   31.4573 GAU  2.47e-02 -1.00e+00  6.40e+00  1.60e-02    6.4000 >    0.3631   -0.0043    1.3884  694.3902 5155.5681   -0.4123    0.1847 108.66  -1.0  -1.0  0     0.0000    0.0004
39           ?    N    ? P      ? 20180313 0004   31.4751 GAU  3.50e-02 -1.00e+00  6.69e+00  1.20e-02    6.6900 >    0.3640    0.0126    1.2720  694.3890 5155.5532   -0.4086    0.1889 113.07  -1.0  -1.0  0     0.0000    0.0004
41           ?    N    ? P      ? 20180313 0004   31.5049 GAU  3.33e-02 -1.00e+00  6.19e+00  4.80e-02    6.1900 >    0.3693    0.0370    1.0255  694.3901 5155.5386   -0.4053    0.1961 116.86  -1.0  -1.0  0     0.0000    0.0004
27           ?    N    ? P      ? 20180313 0004   31.4911 GAU  2.28e-02 -1.00e+00  6.19e+00  1.20e-02    6.1900 >    0.4027   -0.0102    0.9003  694.4008 5155.6912   -0.4412    0.1963  70.96  -1.0  -1.0  0     0.0000    0.0004
18           ?    N    ? P      ? 20180313 0004   31.4923 GAU  1.61e-02 -1.00e+00  5.89e+00  8.00e-03    5.8900 >    0.4230   -0.0292    1.0245  694.3549 5155.7674   -0.4586    0.1979  44.90  -1.0  -1.0  0     0.0000    0.0004
34           ?    N    ? P      ? 20180313 0004   31.5629 GAU  5.24e-02 -1.00e+00  6.55e+00  8.00e-03    6.5500 >    0.3925    0.0718    0.3749  694.4145 5155.6153   -0.4263    0.1997  93.43  -1.0  -1.0  0     0.0000    0.0004
17           ?    N    ? P      ? 20180313 0004   31.5351 GAU  1.49e-02 -1.00e+00  6.48e+00  1.20e-02    6.4800 >    0.4319    0.0046    1.7172  694.3461 5155.7815   -0.4621    0.2024  40.33  -1.0  -1.0  0     0.0000    0.0004
16           ?    N    ? P      ? 20180313 0004   31.5432 GAU  1.80e-02 -1.00e+00  6.47e+00  5.60e-02    6.4700 >    0.4418    0.0029    1.7793  694.3452 5155.7921   -0.4642    0.2100  38.25  -1.0  -1.0  0     0.0000    0.0004
37           ?    N    ? P      ? 20180313 0004   31.5847 GAU  5.24e-02 -1.00e+00  6.60e+00  8.00e-03    6.6000 >    0.4006    0.0856    0.3446  694.4219 5155.5876   -0.4220    0.2105 100.85  -1.0  -1.0  0     0.0000    0.0004
15           ?    N    ? P      ? 20180313 0004   31.5405 GAU  1.57e-02 -1.00e+00  6.78e+00  2.40e-02    6.7800 >    0.4400    0.0019    2.1789  694.3206 5155.8107   -0.4609    0.2116  29.87  -1.0  -1.0  0     0.0000    0.0004
40           ?    N    ? P      ? 20180313 0004   31.4735 GAU  2.49e-02 -1.00e+00  5.75e+00  1.60e-02    5.7500 >    0.4033   -0.0284    1.2061  694.4169 5155.5417   -0.4131    0.2191 112.97  -1.0  -1.0  0     0.0000    0.0004
13           ?    N    ? P      ? 20180313 0004   31.4860 GAU  1.78e-02 -1.00e+00  6.36e+00  1.20e-02    6.3600 >    0.4561   -0.0686    0.2404  694.3062 5155.8390   -0.4568    0.2306  23.26  -1.0  -1.0  0     0.0000    0.0005
END_PHASE
END_NLLOC

