NLLOC "./loc/RR.20180313.024050.grid0" "LOCATED" "Location completed."
PUBLIC_ID None
SIGNATURE "   obs:./obs/nll_picks.obs   NLLoc:v7.00.10(30Aug2020)   run:29Apr2022 23h21m00"
COMMENT "Rattlesnake Ridge Slidequake Locations"
GRID  150 250 75  694.15 5155.4 0  0.002 0.002 0.002 PROB_DENSITY
SEARCH OCTREE nInitial 1000 nEvaluated 2128 smallestNodeSide 0.001863/0.003112/0.000925 oct_tree_integral 3.160388e-06 scatter_volume 3.159602e-06
HYPOCENTER  x 694.423 y 5155.82 z 0.102212  OT 49.9585  ix -1 iy -1 iz -1 MAXIMUM_LIKELIHOOD
GEOGRAPHIC  OT 2018 03 13  02 40 49.958476  Lat 5155.821744 Long 694.422856 Depth 0.102212
QUALITY  Pmax 6.50428e+135 MFmin 399.167 MFmax 399.253 RMS 0.00872789 Nphs 29 Gap 253.042 Dist 0.064241 Mamp  0.63 29 Mdur -9.90 0
VPVSRATIO  VpVsRatio -1  Npair 0  Diff -2e+30
STATISTICS  ExpectX 694.426220 Y 5155.823600 Z 0.102830  CovXX 0.000267841 XY 0.000101121 XZ -1.25779e-05 YY 5.5536e-05 YZ 1.44476e-05 ZZ 9.93397e-05 EllAz1  157.945 Dip1  11.6333 Len1  0.00633187 Az2  346.678 Dip2  78.234 Len2  0.0190562 Len3  3.299942e-02
STAT_GEOG  ExpectLat 5155.823600 Long 694.426220 Depth 0.102830
TRANSFORM  NONE
QML_OriginQuality  assocPhCt 29  usedPhCt 29  assocStaCt -1  usedStaCt 29  depthPhCt -1  stdErr 0.00872789  azGap 253.042  secAzGap 257.895  gtLevel -  minDist 0.064241 maxDist 0.197686 medDist 0.117788
QML_OriginUncertainty  horUnc -1  minHorUnc 0.00588954  maxHorUnc 0.0266286  azMaxHorUnc 68.1954
QML_ConfidenceEllipsoid  semiMajorAxisLength 0.0329994  semiMinorAxisLength 0.00633187  semiIntermediateAxisLength 0.0190562  majorAxisPlunge -1.73778  majorAxisAzimuth 68.3025  majorAxisRotation 11.6596
FOCALMECH  Hyp  5155.821744 694.422856 0.102212 Mech  0 0 0 mf  0 nObs -1
PHASE ID Ins Cmp On Pha  FM Date     HrMn   Sec     Err  ErrMag    Coda      Amp       Per       PriorWt  >   TTpred    Res       Weight    StaLoc(X  Y         Z)        SDist    SAzim  RAz  RDip RQual    Tcorr       TTerr
103          ?    N    ? P      ? 20180313 0240   50.1790 GAU  5.76e-03 -1.00e+00  8.87e+00  1.20e-02    8.8700 >    0.1802    0.0403    0.2116  694.3644 5155.7952   -0.4662    0.0642 245.58  -1.0  -1.0  0     0.0000    0.0002
16           ?    N    ? P      ? 20180313 0240   50.1671 GAU  3.70e-03 -1.00e+00  1.14e+01  8.00e-03   11.4000 >    0.1953    0.0133    0.2675  694.3452 5155.7921   -0.4642    0.0831 249.13  -1.0  -1.0  0     0.0000    0.0002
6            ?    N    ? P      ? 20180313 0240   50.1922 GAU  3.29e-03 -1.00e+00  9.16e+00  1.20e-02    9.1600 >    0.2044    0.0293    0.2155  694.3446 5155.8502   -0.4728    0.0832 289.97  -1.0  -1.0  0     0.0000    0.0002
17           ?    N    ? P      ? 20180313 0240   50.1465 GAU  3.70e-03 -1.00e+00  1.08e+01  1.20e-02   10.8000 >    0.1961   -0.0081    0.9843  694.3461 5155.7815   -0.4621    0.0866 242.30  -1.0  -1.0  0     0.0000    0.0002
18           ?    N    ? P      ? 20180313 0240   50.1490 GAU  2.88e-03 -1.00e+00  9.17e+00  8.00e-03    9.1700 >    0.1927   -0.0021    1.3421  694.3549 5155.7674   -0.4586    0.0870 231.36  -1.0  -1.0  0     0.0000    0.0002
12           ?    N    ? P      ? 20180313 0240   50.1613 GAU  3.70e-03 -1.00e+00  9.84e+00  1.20e-02    9.8400 >    0.2010    0.0018    2.0607  694.3356 5155.8197   -0.4663    0.0873 268.68  -1.0  -1.0  0     0.0000    0.0002
10           ?    N    ? P      ? 20180313 0240   50.1695 GAU  4.53e-03 -1.00e+00  9.13e+00  6.00e-02    9.1300 >    0.2056    0.0054    1.4948  694.3329 5155.8329   -0.4673    0.0906 277.06  -1.0  -1.0  0     0.0000    0.0002
20           ?    N    ? P      ? 20180313 0240   50.1539 GAU  4.19e-03 -1.00e+00  8.59e+00  1.20e-02    8.5900 >    0.1962   -0.0008    1.1773  694.3609 5155.7515   -0.4553    0.0937 221.42  -1.0  -1.0  0     0.0000    0.0002
22           ?    N    ? P      ? 20180313 0240   50.2237 GAU  1.93e-02 -1.00e+00  7.64e+00  8.00e-03    7.6400 >    0.1952    0.0701    0.2665  694.3985 5155.7265   -0.4488    0.0983 194.35  -1.0  -1.0  0     0.0000    0.0002
21           ?    N    ? P      ? 20180313 0240   50.1577 GAU  3.09e-03 -1.00e+00  9.18e+00  8.00e-03    9.1800 >    0.2017   -0.0025    1.2565  694.3642 5155.7391   -0.4517    0.1013 215.39  -1.0  -1.0  0     0.0000    0.0002
15           ?    N    ? P      ? 20180313 0240   50.1630 GAU  4.53e-03 -1.00e+00  1.00e+01  6.00e-02   10.0000 >    0.2120   -0.0075    1.2668  694.3206 5155.8107   -0.4609    0.1029 263.83  -1.0  -1.0  0     0.0000    0.0002
8            ?    N    ? P      ? 20180313 0240   50.1654 GAU  3.70e-03 -1.00e+00  8.36e+00  1.20e-02    8.3600 >    0.2157   -0.0088    1.2300  694.3223 5155.8450   -0.4648    0.1032 283.02  -1.0  -1.0  0     0.0000    0.0002
23           ?    N    ? P      ? 20180313 0240   50.1750 GAU  2.76e-03 -1.00e+00  8.76e+00  1.20e-02    8.7600 >    0.2122    0.0043    1.1116  694.3677 5155.7226   -0.4473    0.1135 209.08  -1.0  -1.0  0     0.0000    0.0002
2            ?    N    ? P      ? 20180313 0240   50.1785 GAU  8.73e-03 -1.00e+00  7.78e+00  1.20e-02    7.7800 >    0.2274   -0.0074    1.5957  694.3150 5155.8647   -0.4623    0.1161 291.70  -1.0  -1.0  0     0.0000    0.0002
4            ?    N    ? P      ? 20180313 0240   50.1860 GAU  6.23e-03 -1.00e+00  7.86e+00  1.20e-02    7.8600 >    0.2259    0.0016    2.0535  694.3090 5155.8520   -0.4586    0.1178 284.90  -1.0  -1.0  0     0.0000    0.0002
13           ?    N    ? P      ? 20180313 0240   50.2127 GAU  4.94e-03 -1.00e+00  8.58e+00  6.00e-02    8.5800 >    0.2248    0.0294    0.1314  694.3062 5155.8390   -0.4568    0.1179 278.43  -1.0  -1.0  0     0.0000    0.0002
25           ?    N    ? P      ? 20180313 0240   50.1853 GAU  2.34e-03 -1.00e+00  8.18e+00  8.00e-03    8.1800 >    0.2242    0.0027    1.3046  694.3684 5155.7091   -0.4438    0.1251 205.79  -1.0  -1.0  0     0.0000    0.0002
27           ?    N    ? P      ? 20180313 0240   50.1914 GAU  2.53e-03 -1.00e+00  6.77e+00  1.20e-02    6.7700 >    0.2325    0.0004    1.7072  694.4008 5155.6912   -0.4412    0.1323 189.60  -1.0  -1.0  0     0.0000    0.0002
5            ?    N    ? P      ? 20180313 0240   50.2477 GAU  8.10e-03 -1.00e+00  8.93e+00  1.20e-02    8.9300 >    0.2388    0.0504    0.1339  694.2898 5155.8520   -0.4475    0.1365 282.79  -1.0  -1.0  0     0.0000    0.0002
26           ?    N    ? P      ? 20180313 0240   50.1867 GAU  5.66e-03 -1.00e+00  8.29e+00  1.20e-02    8.2900 >    0.2395   -0.0113    1.0292  694.3783 5155.6910   -0.4400    0.1382 198.81  -1.0  -1.0  0     0.0000    0.0002
105          ?    N    ? P      ? 20180313 0240   50.2058 GAU  3.31e-03 -1.00e+00  9.05e+00  8.00e-03    9.0500 >    0.2490   -0.0017    1.8984  694.3764 5155.6832   -0.4382    0.1461 198.54  -1.0  -1.0  0     0.0000    0.0002
7            ?    N    ? P      ? 20180313 0240   50.2440 GAU  4.94e-03 -1.00e+00  7.80e+00  2.40e-02    7.8000 >    0.2551    0.0304    0.2424  694.2704 5155.8450   -0.4359    0.1542 278.67  -1.0  -1.0  0     0.0000    0.0003
28           ?    N    ? P      ? 20180313 0240   50.2171 GAU  4.09e-03 -1.00e+00  8.45e+00  1.20e-02    8.4500 >    0.2594   -0.0008    1.9391  694.3767 5155.6745   -0.4362    0.1544 197.41  -1.0  -1.0  0     0.0000    0.0003
1            ?    N    ? P      ? 20180313 0240   50.2813 GAU  1.06e-02 -1.00e+00  7.42e+00  1.20e-02    7.4200 >    0.2602    0.0626    0.1129  694.2735 5155.8721   -0.4381    0.1576 288.65  -1.0  -1.0  0     0.0000    0.0003
9            ?    N    ? P      ? 20180313 0240   50.2304 GAU  1.11e-02 -1.00e+00  7.91e+00  4.40e-02    7.9100 >    0.2652    0.0067    1.5587  694.2594 5155.8351   -0.4296    0.1640 274.66  -1.0  -1.0  0     0.0000    0.0003
30           ?    N    ? P      ? 20180313 0240   50.2270 GAU  1.01e-02 -1.00e+00  7.16e+00  6.00e-02    7.1600 >    0.2745   -0.0060    1.3814  694.3775 5155.6619   -0.4333    0.1661 195.85  -1.0  -1.0  0     0.0000    0.0003
31           ?    N    ? P      ? 20180313 0240   50.2294 GAU  2.26e-02 -1.00e+00  7.04e+00  1.20e-02    7.0400 >    0.2833   -0.0124    0.9072  694.4086 5155.6503   -0.4335    0.1720 184.75  -1.0  -1.0  0     0.0000    0.0003
3            ?    N    ? P      ? 20180313 0240   50.3162 GAU  1.18e-02 -1.00e+00  7.92e+00  1.20e-02    7.9200 >    0.2887    0.0690    0.1192  694.2426 5155.8595   -0.4214    0.1841 281.82  -1.0  -1.0  0     0.0000    0.0003
33           ?    N    ? P      ? 20180313 0240   50.1627 GAU  1.75e-02 -1.00e+00  7.16e+00  8.00e-03    7.1600 >    0.3157   -0.1114    0.0000  694.3775 5155.6293   -0.4252    0.1977 193.26  -1.0  -1.0  0     0.0000    0.0003
END_PHASE
END_NLLOC

