NLLOC "./loc/RR.20180313.000856.grid0" "LOCATED" "Location completed."
PUBLIC_ID None
SIGNATURE "   obs:./obs/nll_picks.obs   NLLoc:v7.00.10(30Aug2020)   run:29Apr2022 23h17m56"
COMMENT "Rattlesnake Ridge Slidequake Locations"
GRID  150 250 75  694.15 5155.4 0  0.002 0.002 0.002 PROB_DENSITY
SEARCH OCTREE nInitial 1000 nEvaluated 8776 smallestNodeSide 0.001863/0.003112/0.000925 oct_tree_integral 4.801623e-05 scatter_volume 4.801623e-05
HYPOCENTER  x 694.368 y 5155.65 z 0.087875  OT 56.2187  ix -1 iy -1 iz -1 MAXIMUM_LIKELIHOOD
GEOGRAPHIC  OT 2018 03 13  00 08 56.218743  Lat 5155.652112 Long 694.367913 Depth 0.087875
QUALITY  Pmax 4.13595e+67 MFmin 112.19 MFmax 112.201 RMS 0.0111623 Nphs 17 Gap 128.607 Dist 0.0117617 Mamp  0.38 17 Mdur -9.90 0
VPVSRATIO  VpVsRatio -1  Npair 0  Diff -2e+30
STATISTICS  ExpectX 694.353375 Y 5155.651815 Z 0.105410  CovXX 0.00170616 XY 0.000355609 XZ 0.00030868 YY 0.000146931 YZ 0.000175183 ZZ 0.000720637 EllAz1  169.702 Dip1  9.9281 Len1  0.013438 Az2  289.761 Dip2  70.7379 Len2  0.0475243 Len3  8.152385e-02
STAT_GEOG  ExpectLat 5155.651815 Long 694.353375 Depth 0.105410
TRANSFORM  NONE
QML_OriginQuality  assocPhCt 17  usedPhCt 17  assocStaCt -1  usedStaCt 17  depthPhCt -1  stdErr 0.0111623  azGap 128.607  secAzGap 189.579  gtLevel -  minDist 0.0117617 maxDist 0.120762 medDist 0.0570078
QML_OriginUncertainty  horUnc -1  minHorUnc 0.0126575  maxHorUnc 0.0640461  azMaxHorUnc 77.7403
QML_ConfidenceEllipsoid  semiMajorAxisLength 0.0815239  semiMinorAxisLength 0.013438  semiIntermediateAxisLength 0.0475243  majorAxisPlunge 16.3348  majorAxisAzimuth 76.7619  majorAxisRotation 12.2412
FOCALMECH  Hyp  5155.652112 694.367913 0.087875 Mech  0 0 0 mf  0 nObs -1
PHASE ID Ins Cmp On Pha  FM Date     HrMn   Sec     Err  ErrMag    Coda      Amp       Per       PriorWt  >   TTpred    Res       Weight    StaLoc(X  Y         Z)        SDist    SAzim  RAz  RDip RQual    Tcorr       TTerr
32           ?    N    ? P      ? 20180313 0008   56.3549 GAU  7.84e-03 -1.00e+00  8.33e+00  1.20e-02    8.3300 >    0.1383   -0.0022    0.8307  694.3777 5155.6456   -0.4297    0.0118 123.79  -1.0  -1.0  0     0.0000    0.0001
30           ?    N    ? P      ? 20180313 0008   56.3741 GAU  1.71e-02 -1.00e+00  8.09e+00  1.20e-02    8.0900 >    0.1441    0.0112    0.6319  694.3775 5155.6619   -0.4333    0.0137  44.27  -1.0  -1.0  0     0.0000    0.0001
33           ?    N    ? P      ? 20180313 0008   56.3392 GAU  7.84e-03 -1.00e+00  8.24e+00  1.60e-02    8.2400 >    0.1360   -0.0156    0.6904  694.3775 5155.6293   -0.4252    0.0247 157.14  -1.0  -1.0  0     0.0000    0.0001
105          ?    N    ? P      ? 20180313 0008   56.3806 GAU  9.27e-03 -1.00e+00  8.14e+00  7.20e-02    8.1400 >    0.1581    0.0037    0.9811  694.3764 5155.6832   -0.4382    0.0323  15.26  -1.0  -1.0  0     0.0000    0.0002
26           ?    N    ? P      ? 20180313 0008   56.3777 GAU  1.07e-02 -1.00e+00  7.17e+00  1.20e-02    7.1700 >    0.1652   -0.0062    0.9660  694.3783 5155.6910   -0.4400    0.0402  14.97  -1.0  -1.0  0     0.0000    0.0002
35           ?    N    ? P      ? 20180313 0008   56.3513 GAU  1.43e-02 -1.00e+00  8.92e+00  1.20e-02    8.9200 >    0.1391   -0.0066    0.9303  694.3818 5155.6141   -0.4216    0.0404 159.96  -1.0  -1.0  0     0.0000    0.0001
31           ?    N    ? P      ? 20180313 0008   56.3870 GAU  2.00e-02 -1.00e+00  6.51e+00  1.20e-02    6.5100 >    0.1558    0.0124    0.6067  694.4086 5155.6503   -0.4335    0.0408  92.48  -1.0  -1.0  0     0.0000    0.0002
27           ?    N    ? P      ? 20180313 0008   56.3998 GAU  1.43e-02 -1.00e+00  6.35e+00  1.20e-02    6.3500 >    0.1737    0.0074    0.8976  694.4008 5155.6912   -0.4412    0.0511  40.03  -1.0  -1.0  0     0.0000    0.0002
25           ?    N    ? P      ? 20180313 0008   56.4176 GAU  1.78e-02 -1.00e+00  7.17e+00  2.00e-02    7.1700 >    0.1815    0.0173    0.8523  694.3684 5155.7091   -0.4438    0.0570   0.52  -1.0  -1.0  0     0.0000    0.0002
106          ?    N    ? P      ? 20180313 0008   56.3998 GAU  1.71e-02 -1.00e+00  7.40e+00  2.40e-02    7.4000 >    0.1759    0.0051    1.3924  694.3120 5155.6801   -0.4360    0.0625 296.56  -1.0  -1.0  0     0.0000    0.0002
36           ?    N    ? P      ? 20180313 0008   56.3749 GAU  1.64e-02 -1.00e+00  7.02e+00  1.20e-02    7.0200 >    0.1537    0.0025    1.0855  694.3865 5155.5904   -0.4164    0.0645 163.23  -1.0  -1.0  0     0.0000    0.0002
23           ?    N    ? P      ? 20180313 0008   56.3977 GAU  1.78e-02 -1.00e+00  7.96e+00  1.20e-02    7.9600 >    0.1970   -0.0181    1.0997  694.3677 5155.7226   -0.4473    0.0704 359.82  -1.0  -1.0  0     0.0000    0.0002
37           ?    N    ? P      ? 20180313 0008   56.4141 GAU  1.57e-02 -1.00e+00  6.19e+00  8.00e-03    6.1900 >    0.1810    0.0144    1.0424  694.4219 5155.5876   -0.4220    0.0841 140.06  -1.0  -1.0  0     0.0000    0.0002
38           ?    N    ? P      ? 20180313 0008   56.3806 GAU  2.49e-02 -1.00e+00  6.70e+00  6.00e-02    6.7000 >    0.1743   -0.0124    1.0391  694.3902 5155.5681   -0.4123    0.0869 165.17  -1.0  -1.0  0     0.0000    0.0002
21           ?    N    ? P      ? 20180313 0008   56.4248 GAU  2.21e-02 -1.00e+00  6.44e+00  2.80e-02    6.4400 >    0.2184   -0.0123    1.2405  694.3642 5155.7391   -0.4517    0.0871 357.53  -1.0  -1.0  0     0.0000    0.0002
39           ?    N    ? P      ? 20180313 0008   56.4141 GAU  1.28e-02 -1.00e+00  6.81e+00  8.00e-03    6.8100 >    0.1888    0.0066    1.7599  694.3890 5155.5532   -0.4086    0.1012 167.95  -1.0  -1.0  0     0.0000    0.0002
40           ?    N    ? P      ? 20180313 0008   56.4062 GAU  2.49e-02 -1.00e+00  6.85e+00  5.20e-02    6.8500 >    0.2184   -0.0310    0.9535  694.4169 5155.5417   -0.4131    0.1208 156.08  -1.0  -1.0  0     0.0000    0.0002
END_PHASE
END_NLLOC

