NLLOC "./loc/RR.20180313.013652.grid0" "REJECTED" "WARNING: max prob location on grid boundary 31, rejecting location."
PUBLIC_ID None
SIGNATURE "   obs:./obs/nll_picks.obs   NLLoc:v7.00.10(30Aug2020)   run:29Apr2022 23h20m25"
COMMENT "Rattlesnake Ridge Slidequake Locations"
GRID  150 250 75  694.15 5155.4 0  0.002 0.002 0.002 PROB_DENSITY
SEARCH OCTREE nInitial 1000 nEvaluated 1752 smallestNodeSide 0.001863/0.003112/0.000925 oct_tree_integral 3.411166e-06 scatter_volume 3.400886e-06
HYPOCENTER  x 694.443 y 5155.71 z 0.147537  OT 52.7304  ix -1 iy -1 iz -1 MAXIMUM_LIKELIHOOD
GEOGRAPHIC  OT 2018 03 13  01 36 52.730386  Lat 5155.712806 Long 694.443344 Depth 0.147537
QUALITY  Pmax 8.81105e+161 MFmin 381.996 MFmax 382.015 RMS 0.0475046 Nphs 37 Gap 224.497 Dist 0.0469005 Mamp  0.71 37 Mdur -9.90 0
VPVSRATIO  VpVsRatio -1  Npair 0  Diff -2e+30
STATISTICS  ExpectX 694.414309 Y 5155.703990 Z 0.142208  CovXX 0.000640466 XY 0.000191414 XZ 8.96616e-05 YY 9.32795e-05 YZ 1.10928e-05 ZZ 4.12e-05 EllAz1  334.364 Dip1  47.5697 Len1  0.00724801 Az2  349.407 Dip2  -41.4371 Len2  0.0129516 Len3  5.015258e-02
STAT_GEOG  ExpectLat 5155.703990 Long 694.414309 Depth 0.142208
TRANSFORM  NONE
QML_OriginQuality  assocPhCt 37  usedPhCt 37  assocStaCt -1  usedStaCt 37  depthPhCt -1  stdErr 0.0475046  azGap 224.497  secAzGap 228.997  gtLevel -  minDist 0.0469005 maxDist 0.248594 medDist 0.126197
QML_OriginUncertainty  horUnc -1  minHorUnc 0.00870778  maxHorUnc 0.0401471  azMaxHorUnc 72.5111
QML_ConfidenceEllipsoid  semiMajorAxisLength 0.0501526  semiMinorAxisLength 0.00724801  semiIntermediateAxisLength 0.0129516  majorAxisPlunge 7.54347  majorAxisAzimuth 72.6938  majorAxisRotation 130.883
FOCALMECH  Hyp  5155.712806 694.443344 0.147537 Mech  0 0 0 mf  0 nObs -1
PHASE ID Ins Cmp On Pha  FM Date     HrMn   Sec     Err  ErrMag    Coda      Amp       Per       PriorWt  >   TTpred    Res       Weight    StaLoc(X  Y         Z)        SDist    SAzim  RAz  RDip RQual    Tcorr       TTerr
22           ?    N    ? P      ? 20180313 0136   53.1300 GAU  1.04e-02 -1.00e+00  8.73e+00  8.00e-03    8.7300 >    0.2352    0.1644    0.3663  694.3985 5155.7265   -0.4488    0.0469 287.03  -1.0  -1.0  0     0.0000    0.0002
27           ?    N    ? P      ? 20180313 0136   53.1900 GAU  1.08e-02 -1.00e+00  8.15e+00  1.20e-02    8.1500 >    0.2246    0.2350    0.1176  694.4008 5155.6912   -0.4412    0.0477 243.14  -1.0  -1.0  0     0.0000    0.0002
26           ?    N    ? P      ? 20180313 0136   52.9703 GAU  6.32e-03 -1.00e+00  9.54e+00  8.00e-03    9.5400 >    0.2347    0.0052    1.3172  694.3783 5155.6910   -0.4400    0.0686 251.44  -1.0  -1.0  0     0.0000    0.0002
31           ?    N    ? P      ? 20180313 0136   53.5300 GAU  6.56e-03 -1.00e+00  8.70e+00  1.20e-02    8.7000 >    0.2282    0.5714    0.0735  694.4086 5155.6503   -0.4335    0.0715 209.07  -1.0  -1.0  0     0.0000    0.0002
105          ?    N    ? P      ? 20180313 0136   52.9742 GAU  3.16e-03 -1.00e+00  1.03e+01  8.00e-03   10.3000 >    0.2350    0.0089    1.1992  694.3764 5155.6832   -0.4382    0.0732 246.17  -1.0  -1.0  0     0.0000    0.0002
25           ?    N    ? P      ? 20180313 0136   52.9757 GAU  6.71e-03 -1.00e+00  1.03e+01  2.40e-02   10.3000 >    0.2438    0.0015    1.6874  694.3684 5155.7091   -0.4438    0.0750 267.18  -1.0  -1.0  0     0.0000    0.0002
23           ?    N    ? P      ? 20180313 0136   52.9787 GAU  9.76e-03 -1.00e+00  1.03e+01  1.20e-02   10.3000 >    0.2494   -0.0011    1.7954  694.3677 5155.7226   -0.4473    0.0763 277.34  -1.0  -1.0  0     0.0000    0.0002
28           ?    N    ? P      ? 20180313 0136   52.9611 GAU  5.10e-03 -1.00e+00  9.55e+00  2.80e-02    9.5500 >    0.2353   -0.0046    1.4061  694.3767 5155.6745   -0.4362    0.0769 240.09  -1.0  -1.0  0     0.0000    0.0002
30           ?    N    ? P      ? 20180313 0136   52.9669 GAU  6.07e-03 -1.00e+00  9.36e+00  8.00e-03    9.3600 >    0.2365   -0.0000    1.3467  694.3775 5155.6619   -0.4333    0.0832 232.31  -1.0  -1.0  0     0.0000    0.0002
21           ?    N    ? P      ? 20180313 0136   52.9708 GAU  6.71e-03 -1.00e+00  8.98e+00  1.20e-02    8.9800 >    0.2600   -0.0196    1.2651  694.3642 5155.7391   -0.4517    0.0834 288.39  -1.0  -1.0  0     0.0000    0.0003
20           ?    N    ? P      ? 20180313 0136   52.9787 GAU  7.32e-03 -1.00e+00  8.95e+00  2.40e-02    8.9500 >    0.2702   -0.0219    1.2275  694.3609 5155.7515   -0.4553    0.0911 295.11  -1.0  -1.0  0     0.0000    0.0003
32           ?    N    ? P      ? 20180313 0136   52.9684 GAU  8.01e-03 -1.00e+00  8.88e+00  1.20e-02    8.8800 >    0.2405   -0.0025    1.4317  694.3777 5155.6456   -0.4297    0.0940 224.32  -1.0  -1.0  0     0.0000    0.0002
34           ?    N    ? P      ? 20180313 0136   53.3400 GAU  5.58e-03 -1.00e+00  8.22e+00  1.20e-02    8.2200 >    0.2435    0.3661    0.0000  694.4145 5155.6153   -0.4263    0.1017 196.47  -1.0  -1.0  0     0.0000    0.0002
18           ?    N    ? P      ? 20180313 0136   52.9909 GAU  1.10e-02 -1.00e+00  8.22e+00  8.00e-03    8.2200 >    0.2845   -0.0240    1.2558  694.3549 5155.7674   -0.4586    0.1040 301.69  -1.0  -1.0  0     0.0000    0.0003
33           ?    N    ? P      ? 20180313 0136   52.9832 GAU  7.28e-03 -1.00e+00  8.33e+00  1.20e-02    8.3300 >    0.2469    0.0059    1.3974  694.3775 5155.6293   -0.4252    0.1063 218.26  -1.0  -1.0  0     0.0000    0.0002
103          ?    N    ? P      ? 20180313 0136   53.5000 GAU  1.89e-02 -1.00e+00  8.03e+00  6.00e-02    8.0300 >    0.3018    0.4678    0.0375  694.3644 5155.7952   -0.4662    0.1141 316.21  -1.0  -1.0  0     0.0000    0.0003
35           ?    N    ? P      ? 20180313 0136   52.9883 GAU  9.48e-03 -1.00e+00  7.85e+00  2.40e-02    7.8500 >    0.2519    0.0060    1.5137  694.3818 5155.6141   -0.4216    0.1163 211.96  -1.0  -1.0  0     0.0000    0.0003
17           ?    N    ? P      ? 20180313 0136   52.9964 GAU  9.15e-03 -1.00e+00  8.42e+00  1.20e-02    8.4200 >    0.3013   -0.0353    0.8768  694.3461 5155.7815   -0.4621    0.1190 305.24  -1.0  -1.0  0     0.0000    0.0003
16           ?    N    ? P      ? 20180313 0136   53.2080 GAU  1.52e-02 -1.00e+00  8.45e+00  8.00e-03    8.4500 >    0.3097    0.1679    0.1808  694.3452 5155.7921   -0.4642    0.1262 308.94  -1.0  -1.0  0     0.0000    0.0003
37           ?    N    ? P      ? 20180313 0136   53.1240 GAU  1.06e-02 -1.00e+00  7.05e+00  3.60e-02    7.0500 >    0.2646    0.1290    0.1529  694.4219 5155.5876   -0.4220    0.1270 189.71  -1.0  -1.0  0     0.0000    0.0003
36           ?    N    ? P      ? 20180313 0136   52.9927 GAU  8.98e-03 -1.00e+00  7.24e+00  1.20e-02    7.2400 >    0.2669   -0.0046    2.1306  694.3865 5155.5904   -0.4164    0.1350 204.89  -1.0  -1.0  0     0.0000    0.0003
106          ?    N    ? P      ? 20180313 0136   52.9988 GAU  8.26e-03 -1.00e+00  8.38e+00  1.20e-02    8.3800 >    0.2874   -0.0190    1.5518  694.3120 5155.6801   -0.4360    0.1353 256.00  -1.0  -1.0  0     0.0000    0.0003
12           ?    N    ? P      ? 20180313 0136   53.1350 GAU  1.65e-02 -1.00e+00  7.11e+00  1.20e-02    7.1100 >    0.3348    0.0698    0.0126  694.3356 5155.8197   -0.4663    0.1518 314.79  -1.0  -1.0  0     0.0000    0.0003
38           ?    N    ? P      ? 20180313 0136   52.9876 GAU  1.51e-02 -1.00e+00  6.93e+00  1.20e-02    6.9300 >    0.2855   -0.0283    1.5750  694.3902 5155.5681   -0.4123    0.1542 200.18  -1.0  -1.0  0     0.0000    0.0003
10           ?    N    ? P      ? 20180313 0136   53.2330 GAU  1.89e-02 -1.00e+00  6.87e+00  1.20e-02    6.8700 >    0.3471    0.1556    0.2276  694.3329 5155.8329   -0.4673    0.1631 317.39  -1.0  -1.0  0     0.0000    0.0003
39           ?    N    ? P      ? 20180313 0136   52.9922 GAU  3.25e-02 -1.00e+00  6.42e+00  1.20e-02    6.4200 >    0.2996   -0.0378    1.1117  694.3890 5155.5532   -0.4086    0.1686 198.79  -1.0  -1.0  0     0.0000    0.0003
6            ?    N    ? P      ? 20180313 0136   53.3430 GAU  9.15e-03 -1.00e+00  7.54e+00  1.60e-02    7.5400 >    0.3593    0.2533    0.1150  694.3446 5155.8502   -0.4728    0.1692 324.30  -1.0  -1.0  0     0.0000    0.0004
40           ?    N    ? P      ? 20180313 0136   52.9990 GAU  3.04e-02 -1.00e+00  7.00e+00  1.20e-02    7.0000 >    0.3096   -0.0410    1.1783  694.4169 5155.5417   -0.4131    0.1731 188.79  -1.0  -1.0  0     0.0000    0.0003
8            ?    N    ? P      ? 20180313 0136   53.1300 GAU  1.77e-02 -1.00e+00  6.14e+00  1.20e-02    6.1400 >    0.3607    0.0390    0.3747  694.3223 5155.8450   -0.4648    0.1792 317.52  -1.0  -1.0  0     0.0000    0.0004
41           ?    N    ? P      ? 20180313 0136   52.9995 GAU  3.55e-02 -1.00e+00  6.35e+00  1.60e-02    6.3500 >    0.3142   -0.0451    0.9905  694.3901 5155.5386   -0.4053    0.1821 197.00  -1.0  -1.0  0     0.0000    0.0003
13           ?    N    ? P      ? 20180313 0136   53.7030 GAU  3.42e-02 -1.00e+00  6.01e+00  4.80e-02    6.0100 >    0.3594    0.6132    0.0575  694.3062 5155.8390   -0.4568    0.1864 312.63  -1.0  -1.0  0     0.0000    0.0004
4            ?    N    ? P      ? 20180313 0136   53.3970 GAU  9.76e-03 -1.00e+00  6.35e+00  1.20e-02    6.3500 >    0.3685    0.2981    0.0001  694.3090 5155.8520   -0.4586    0.1935 316.03  -1.0  -1.0  0     0.0000    0.0004
2            ?    N    ? P      ? 20180313 0136   53.2820 GAU  1.77e-02 -1.00e+00  6.69e+00  1.20e-02    6.6900 >    0.3783    0.1733    0.2365  694.3150 5155.8647   -0.4623    0.1988 319.80  -1.0  -1.0  0     0.0000    0.0004
5            ?    N    ? P      ? 20180313 0136   53.1081 GAU  1.34e-02 -1.00e+00  8.18e+00  1.20e-02    8.1800 >    0.3724    0.0053    3.2784  694.2898 5155.8520   -0.4475    0.2072 312.18  -1.0  -1.0  0     0.0000    0.0004
9            ?    N    ? P      ? 20180313 0136   53.6110 GAU  2.99e-02 -1.00e+00  7.64e+00  8.00e-03    7.6400 >    0.3737    0.5069    0.0552  694.2594 5155.8351   -0.4296    0.2209 303.61  -1.0  -1.0  0     0.0000    0.0004
1            ?    N    ? P      ? 20180313 0136   53.1001 GAU  2.75e-02 -1.00e+00  7.07e+00  1.20e-02    7.0700 >    0.3941   -0.0244    2.0336  694.2735 5155.8721   -0.4381    0.2329 313.17  -1.0  -1.0  0     0.0000    0.0004
3            ?    N    ? P      ? 20180313 0136   53.1294 GAU  1.53e-02 -1.00e+00  7.12e+00  1.60e-02    7.1200 >    0.4011   -0.0021    3.4226  694.2426 5155.8595   -0.4214    0.2486 306.15  -1.0  -1.0  0     0.0000    0.0004
END_PHASE
END_NLLOC

