NLLOC "./loc/RR.20180313.003223.grid0" "REJECTED" "WARNING: max prob location on grid boundary 10, rejecting location."
PUBLIC_ID None
SIGNATURE "   obs:./obs/nll_picks.obs   NLLoc:v7.00.10(30Aug2020)   run:29Apr2022 23h19m16"
COMMENT "Rattlesnake Ridge Slidequake Locations"
GRID  150 250 75  694.15 5155.4 0  0.002 0.002 0.002 PROB_DENSITY
SEARCH OCTREE nInitial 1000 nEvaluated 17000 smallestNodeSide 0.001863/0.003112/0.000925 oct_tree_integral 1.487451e-04 scatter_volume 1.479373e-04
HYPOCENTER  x 694.151 y 5155.59 z 0.147537  OT 23.0034  ix -1 iy -1 iz -1 MAXIMUM_LIKELIHOOD
GEOGRAPHIC  OT 2018 03 13  00 32 23.003351  Lat 5155.591419 Long 694.150931 Depth 0.147537
QUALITY  Pmax 3.68068e+97 MFmin 155.772 MFmax 155.801 RMS 0.011123 Nphs 23 Gap 308.501 Dist 0.183862 Mamp  0.90 23 Mdur -9.90 0
VPVSRATIO  VpVsRatio -1  Npair 0  Diff -2e+30
STATISTICS  ExpectX 694.185289 Y 5155.600165 Z 0.097685  CovXX 0.000819085 XY 0.000269014 XZ 0.000233141 YY 0.000213099 YZ 0.00014915 ZZ 0.00147137 EllAz1  160.049 Dip1  2.54784 Len1  0.0195605 Az2  251.088 Dip2  22.1533 Len2  0.0535026 Len3  7.478227e-02
STAT_GEOG  ExpectLat 5155.600165 Long 694.185289 Depth 0.097685
TRANSFORM  NONE
QML_OriginQuality  assocPhCt 23  usedPhCt 23  assocStaCt -1  usedStaCt 23  depthPhCt -1  stdErr 0.011123  azGap 308.501  secAzGap 313.257  gtLevel -  minDist 0.183862 maxDist 0.295083 medDist 0.253341
QML_OriginUncertainty  horUnc -1  minHorUnc 0.0159716  maxHorUnc 0.0460319  azMaxHorUnc 69.1998
QML_ConfidenceEllipsoid  semiMajorAxisLength 0.0747823  semiMinorAxisLength 0.0195605  semiIntermediateAxisLength 0.0535026  majorAxisPlunge 67.685  majorAxisAzimuth 63.8255  majorAxisRotation 350.594
FOCALMECH  Hyp  5155.591419 694.150931 0.147537 Mech  0 0 0 mf  0 nObs -1
PHASE ID Ins Cmp On Pha  FM Date     HrMn   Sec     Err  ErrMag    Coda      Amp       Per       PriorWt  >   TTpred    Res       Weight    StaLoc(X  Y         Z)        SDist    SAzim  RAz  RDip RQual    Tcorr       TTerr
106          ?    N    ? P      ? 20180313 0032   23.5785 GAU  1.84e-02 -1.00e+00  8.04e+00  1.60e-02    8.0400 >    0.4323    0.1428    0.0053  694.3120 5155.6801   -0.4360    0.1839  61.18  -1.0  -1.0  0     0.0000    0.0004
33           ?    N    ? P      ? 20180313 0032   23.4578 GAU  7.03e-03 -1.00e+00  1.06e+01  1.20e-02   10.6000 >    0.4618   -0.0073    1.1380  694.3775 5155.6293   -0.4252    0.2297  80.50  -1.0  -1.0  0     0.0000    0.0005
35           ?    N    ? P      ? 20180313 0032   23.4703 GAU  8.68e-03 -1.00e+00  1.04e+01  8.00e-03   10.4000 >    0.4600    0.0069    1.3969  694.3818 5155.6141   -0.4216    0.2320  84.38  -1.0  -1.0  0     0.0000    0.0005
32           ?    N    ? P      ? 20180313 0032   23.4622 GAU  9.20e-03 -1.00e+00  1.04e+01  8.00e-03   10.4000 >    0.4694   -0.0105    0.9095  694.3777 5155.6456   -0.4297    0.2331  76.57  -1.0  -1.0  0     0.0000    0.0005
36           ?    N    ? P      ? 20180313 0032   23.4681 GAU  1.09e-02 -1.00e+00  8.44e+00  3.20e-02    8.4400 >    0.4592    0.0055    1.5982  694.3865 5155.5904   -0.4164    0.2356  90.26  -1.0  -1.0  0     0.0000    0.0005
30           ?    N    ? P      ? 20180313 0032   23.4773 GAU  1.46e-02 -1.00e+00  9.39e+00  8.00e-03    9.3900 >    0.4772   -0.0032    0.8487  694.3775 5155.6619   -0.4333    0.2373  72.71  -1.0  -1.0  0     0.0000    0.0005
38           ?    N    ? P      ? 20180313 0032   23.4654 GAU  1.46e-02 -1.00e+00  7.04e+00  3.60e-02    7.0400 >    0.4616    0.0004    1.7366  694.3902 5155.5681   -0.4123    0.2404  95.56  -1.0  -1.0  0     0.0000    0.0005
28           ?    N    ? P      ? 20180313 0032   23.4903 GAU  1.24e-02 -1.00e+00  9.53e+00  1.20e-02    9.5300 >    0.4837    0.0032    0.9348  694.3767 5155.6745   -0.4362    0.2405  69.80  -1.0  -1.0  0     0.0000    0.0005
105          ?    N    ? P      ? 20180313 0032   23.4930 GAU  1.73e-02 -1.00e+00  9.33e+00  1.20e-02    9.3300 >    0.4886    0.0011    0.8512  694.3764 5155.6832   -0.4382    0.2434  67.84  -1.0  -1.0  0     0.0000    0.0005
25           ?    N    ? P      ? 20180313 0032   23.5417 GAU  2.49e-02 -1.00e+00  8.50e+00  8.00e-03    8.5000 >    0.4985    0.0398    0.3911  694.3684 5155.7091   -0.4438    0.2473  61.58  -1.0  -1.0  0     0.0000    0.0005
26           ?    N    ? P      ? 20180313 0032   23.5065 GAU  1.57e-02 -1.00e+00  8.55e+00  5.60e-02    8.5500 >    0.4954    0.0078    0.8605  694.3783 5155.6910   -0.4400    0.2482  66.35  -1.0  -1.0  0     0.0000    0.0005
23           ?    N    ? P      ? 20180313 0032   23.5320 GAU  2.16e-02 -1.00e+00  8.17e+00  8.00e-03    8.1700 >    0.5084    0.0202    0.7923  694.3677 5155.7226   -0.4473    0.2533  58.83  -1.0  -1.0  0     0.0000    0.0005
21           ?    N    ? P      ? 20180313 0032   23.5342 GAU  1.62e-02 -1.00e+00  7.32e+00  1.20e-02    7.3200 >    0.5195    0.0113    1.1999  694.3642 5155.7391   -0.4517    0.2594  55.29  -1.0  -1.0  0     0.0000    0.0005
20           ?    N    ? P      ? 20180313 0032   23.5358 GAU  2.54e-02 -1.00e+00  6.41e+00  8.00e-03    6.4100 >    0.5280    0.0045    1.0770  694.3609 5155.7515   -0.4553    0.2640  52.68  -1.0  -1.0  0     0.0000    0.0005
31           ?    N    ? P      ? 20180313 0032   23.5331 GAU  2.06e-02 -1.00e+00  7.91e+00  1.60e-02    7.9100 >    0.5054    0.0244    0.6575  694.4086 5155.6503   -0.4335    0.2643  77.12  -1.0  -1.0  0     0.0000    0.0005
34           ?    N    ? P      ? 20180313 0032   23.5206 GAU  1.57e-02 -1.00e+00  9.22e+00  1.20e-02    9.2200 >    0.5000    0.0173    1.1564  694.4145 5155.6153   -0.4263    0.2647  84.83  -1.0  -1.0  0     0.0000    0.0005
27           ?    N    ? P      ? 20180313 0032   23.5076 GAU  1.24e-02 -1.00e+00  7.29e+00  1.20e-02    7.2900 >    0.5178   -0.0135    0.7675  694.4008 5155.6912   -0.4412    0.2691  68.22  -1.0  -1.0  0     0.0000    0.0005
18           ?    N    ? P      ? 20180313 0032   23.5439 GAU  2.16e-02 -1.00e+00  6.63e+00  8.00e-03    6.6300 >    0.5373    0.0032    1.4356  694.3549 5155.7674   -0.4586    0.2694  49.21  -1.0  -1.0  0     0.0000    0.0005
37           ?    N    ? P      ? 20180313 0032   23.4996 GAU  1.95e-02 -1.00e+00  7.75e+00  1.20e-02    7.7500 >    0.5042   -0.0080    1.3923  694.4219 5155.5876   -0.4220    0.2710  90.81  -1.0  -1.0  0     0.0000    0.0005
17           ?    N    ? P      ? 20180313 0032   23.5412 GAU  2.87e-02 -1.00e+00  6.48e+00  1.20e-02    6.4800 >    0.5450   -0.0071    1.2984  694.3461 5155.7815   -0.4621    0.2725  45.77  -1.0  -1.0  0     0.0000    0.0005
16           ?    N    ? P      ? 20180313 0032   23.5775 GAU  4.87e-02 -1.00e+00  6.24e+00  8.00e-02    6.2400 >    0.5547    0.0195    0.9056  694.3452 5155.7921   -0.4642    0.2793  44.06  -1.0  -1.0  0     0.0000    0.0006
22           ?    N    ? P      ? 20180313 0032   23.5812 GAU  3.84e-02 -1.00e+00  7.43e+00  2.00e-02    7.4300 >    0.5388    0.0391    0.4753  694.3985 5155.7265   -0.4488    0.2820  61.37  -1.0  -1.0  0     0.0000    0.0005
103          ?    N    ? P      ? 20180313 0032   23.5536 GAU  2.49e-02 -1.00e+00  6.13e+00  1.20e-02    6.1300 >    0.5711   -0.0208    1.1713  694.3644 5155.7952   -0.4662    0.2951  46.33  -1.0  -1.0  0     0.0000    0.0006
END_PHASE
END_NLLOC

