NLLOC "./loc/RR.20180313.011713.grid0" "LOCATED" "Location completed."
PUBLIC_ID None
SIGNATURE "   obs:./obs/nll_picks.obs   NLLoc:v7.00.10(30Aug2020)   run:29Apr2022 23h19m59"
COMMENT "Rattlesnake Ridge Slidequake Locations"
GRID  150 250 75  694.15 5155.4 0  0.002 0.002 0.002 PROB_DENSITY
SEARCH OCTREE nInitial 1000 nEvaluated 20008 smallestNodeSide 0.003725/0.006225/0.001850 oct_tree_integral 1.804409e-04 scatter_volume 1.804409e-04
HYPOCENTER  x 694.219 y 5155.59 z 0.036075  OT 13.6089  ix -1 iy -1 iz -1 MAXIMUM_LIKELIHOOD
GEOGRAPHIC  OT 2018 03 13  01 17 13.608879  Lat 5155.589863 Long 694.218913 Depth 0.036075
QUALITY  Pmax 1.24693e+87 MFmin 158.656 MFmax 158.677 RMS 0.0523839 Nphs 24 Gap 285.319 Dist 0.129628 Mamp  0.66 24 Mdur -9.90 0
VPVSRATIO  VpVsRatio -1  Npair 0  Diff -2e+30
STATISTICS  ExpectX 694.234360 Y 5155.593787 Z 0.072919  CovXX 0.00404965 XY 0.00132784 XZ 0.00102986 YY 0.000516199 YZ 0.000393158 ZZ 0.00183746 EllAz1  161.983 Dip1  1.79511 Len1  0.015873 Az2  256.943 Dip2  70.0722 Len2  0.0713348 Len3  1.313890e-01
STAT_GEOG  ExpectLat 5155.593787 Long 694.234360 Depth 0.072919
TRANSFORM  NONE
QML_OriginQuality  assocPhCt 24  usedPhCt 24  assocStaCt -1  usedStaCt 24  depthPhCt -1  stdErr 0.0523839  azGap 285.319  secAzGap 290.789  gtLevel -  minDist 0.129628 maxDist 0.238445 medDist 0.190003
QML_OriginUncertainty  horUnc -1  minHorUnc 0.0129434  maxHorUnc 0.101656  azMaxHorUnc 71.5361
QML_ConfidenceEllipsoid  semiMajorAxisLength 0.131389  semiMinorAxisLength 0.015873  semiIntermediateAxisLength 0.0713348  majorAxisPlunge 19.8399  majorAxisAzimuth 71.3354  majorAxisRotation 2.47905
FOCALMECH  Hyp  5155.589863 694.218913 0.036075 Mech  0 0 0 mf  0 nObs -1
PHASE ID Ins Cmp On Pha  FM Date     HrMn   Sec     Err  ErrMag    Coda      Amp       Per       PriorWt  >   TTpred    Res       Weight    StaLoc(X  Y         Z)        SDist    SAzim  RAz  RDip RQual    Tcorr       TTerr
106          ?    N    ? P      ? 20180313 0117   14.1180 GAU  1.30e-02 -1.00e+00  7.48e+00  8.00e-03    7.4800 >    0.2418    0.2673    0.1382  694.3120 5155.6801   -0.4360    0.1296  45.91  -1.0  -1.0  0     0.0000    0.0002
33           ?    N    ? P      ? 20180313 0117   13.8966 GAU  8.16e-03 -1.00e+00  8.06e+00  8.00e-03    8.0600 >    0.2821    0.0056    1.4120  694.3775 5155.6293   -0.4252    0.1634  76.03  -1.0  -1.0  0     0.0000    0.0003
35           ?    N    ? P      ? 20180313 0117   13.9125 GAU  1.44e-02 -1.00e+00  8.35e+00  1.20e-02    8.3500 >    0.2817    0.0220    1.2977  694.3818 5155.6141   -0.4216    0.1647  81.53  -1.0  -1.0  0     0.0000    0.0003
36           ?    N    ? P      ? 20180313 0117   13.8909 GAU  6.24e-03 -1.00e+00  6.91e+00  8.00e-03    6.9100 >    0.2836   -0.0016    2.3571  694.3865 5155.5904   -0.4164    0.1676  89.83  -1.0  -1.0  0     0.0000    0.0003
32           ?    N    ? P      ? 20180313 0117   13.8986 GAU  6.24e-03 -1.00e+00  8.23e+00  6.00e-02    8.2300 >    0.2918   -0.0021    1.4395  694.3777 5155.6456   -0.4297    0.1683  70.67  -1.0  -1.0  0     0.0000    0.0003
38           ?    N    ? P      ? 20180313 0117   13.9528 GAU  3.84e-02 -1.00e+00  7.04e+00  1.20e-02    7.0400 >    0.2900    0.0539    1.6799  694.3902 5155.5681   -0.4123    0.1726  97.24  -1.0  -1.0  0     0.0000    0.0003
39           ?    N    ? P      ? 20180313 0117   13.9312 GAU  1.49e-02 -1.00e+00  6.30e+00  8.00e-03    6.3000 >    0.2905    0.0318    2.1985  694.3890 5155.5532   -0.4086    0.1740 102.17  -1.0  -1.0  0     0.0000    0.0003
30           ?    N    ? P      ? 20180313 0117   13.9734 GAU  1.20e-02 -1.00e+00  9.31e+00  1.20e-02    9.3100 >    0.3024    0.0622    0.5226  694.3775 5155.6619   -0.4333    0.1742  65.56  -1.0  -1.0  0     0.0000    0.0003
41           ?    N    ? P      ? 20180313 0117   14.2770 GAU  3.26e-02 -1.00e+00  6.41e+00  1.20e-02    6.4100 >    0.2970    0.3712    0.4652  694.3901 5155.5386   -0.4053    0.1787 106.66  -1.0  -1.0  0     0.0000    0.0003
28           ?    N    ? P      ? 20180313 0117   13.9859 GAU  1.30e-02 -1.00e+00  8.65e+00  5.60e-02    8.6500 >    0.3114    0.0657    0.4612  694.3767 5155.6745   -0.4362    0.1790  61.80  -1.0  -1.0  0     0.0000    0.0003
105          ?    N    ? P      ? 20180313 0117   13.9926 GAU  1.01e-02 -1.00e+00  9.15e+00  1.20e-02    9.1500 >    0.3184    0.0653    0.5006  694.3764 5155.6832   -0.4382    0.1831  59.34  -1.0  -1.0  0     0.0000    0.0003
26           ?    N    ? P      ? 20180313 0117   13.9682 GAU  1.06e-02 -1.00e+00  8.47e+00  1.20e-02    8.4700 >    0.3281    0.0312    1.4215  694.3783 5155.6910   -0.4400    0.1888  57.61  -1.0  -1.0  0     0.0000    0.0003
25           ?    N    ? P      ? 20180313 0117   13.9936 GAU  2.35e-02 -1.00e+00  7.86e+00  1.20e-02    7.8600 >    0.3341    0.0506    1.2122  694.3684 5155.7091   -0.4438    0.1913  51.42  -1.0  -1.0  0     0.0000    0.0003
34           ?    N    ? P      ? 20180313 0117   13.9590 GAU  4.08e-02 -1.00e+00  6.88e+00  1.20e-02    6.8800 >    0.3336    0.0165    1.0714  694.4145 5155.6153   -0.4263    0.1972  82.60  -1.0  -1.0  0     0.0000    0.0003
31           ?    N    ? P      ? 20180313 0117   13.9576 GAU  3.17e-02 -1.00e+00  6.77e+00  1.20e-02    6.7700 >    0.3395    0.0093    0.9274  694.4086 5155.6503   -0.4335    0.1991  72.32  -1.0  -1.0  0     0.0000    0.0003
23           ?    N    ? P      ? 20180313 0117   13.9576 GAU  4.80e-03 -1.00e+00  7.31e+00  8.00e-03    7.3100 >    0.3485    0.0003    3.2734  694.3677 5155.7226   -0.4473    0.1994  48.27  -1.0  -1.0  0     0.0000    0.0003
37           ?    N    ? P      ? 20180313 0117   14.1660 GAU  1.97e-02 -1.00e+00  6.76e+00  8.00e-03    6.7600 >    0.3409    0.2162    0.0848  694.4219 5155.5876   -0.4220    0.2030  90.64  -1.0  -1.0  0     0.0000    0.0003
40           ?    N    ? P      ? 20180313 0117   14.8000 GAU  3.50e-02 -1.00e+00  7.08e+00  1.20e-02    7.0800 >    0.3392    0.8520    0.0000  694.4169 5155.5417   -0.4131    0.2037 103.67  -1.0  -1.0  0     0.0000    0.0003
27           ?    N    ? P      ? 20180313 0117   14.6100 GAU  1.10e-02 -1.00e+00  7.20e+00  2.00e-02    7.2000 >    0.3570    0.6441    0.0000  694.4008 5155.6912   -0.4412    0.2082  60.86  -1.0  -1.0  0     0.0000    0.0004
21           ?    N    ? P      ? 20180313 0117   14.4200 GAU  2.35e-02 -1.00e+00  7.08e+00  1.20e-02    7.0800 >    0.3646    0.4465    0.0731  694.3642 5155.7391   -0.4517    0.2083  44.22  -1.0  -1.0  0     0.0000    0.0004
20           ?    N    ? P      ? 20180313 0117   13.9922 GAU  2.30e-02 -1.00e+00  6.84e+00  2.40e-02    6.8400 >    0.3768    0.0065    2.6678  694.3609 5155.7515   -0.4553    0.2151  41.29  -1.0  -1.0  0     0.0000    0.0004
18           ?    N    ? P      ? 20180313 0117   14.1230 GAU  1.63e-02 -1.00e+00  5.88e+00  8.00e-03    5.8800 >    0.3911    0.1230    0.1161  694.3549 5155.7674   -0.4586    0.2236  37.45  -1.0  -1.0  0     0.0000    0.0004
22           ?    N    ? P      ? 20180313 0117   14.3290 GAU  2.83e-02 -1.00e+00  7.14e+00  1.20e-02    7.1400 >    0.3870    0.3331    0.3044  694.3985 5155.7265   -0.4488    0.2257  52.73  -1.0  -1.0  0     0.0000    0.0004
16           ?    N    ? P      ? 20180313 0117   14.3700 GAU  6.72e-02 -1.00e+00  6.72e+00  1.20e-02    6.7200 >    0.4165    0.3446    0.3753  694.3452 5155.7921   -0.4642    0.2384  31.98  -1.0  -1.0  0     0.0000    0.0004
END_PHASE
END_NLLOC

