NLLOC "./loc/RR.20180313.000800.grid0" "LOCATED" "Location completed."
PUBLIC_ID None
SIGNATURE "   obs:./obs/nll_picks.obs   NLLoc:v7.00.10(30Aug2020)   run:29Apr2022 23h17m49"
COMMENT "Rattlesnake Ridge Slidequake Locations"
GRID  150 250 75  694.15 5155.4 0  0.002 0.002 0.002 PROB_DENSITY
SEARCH OCTREE nInitial 1000 nEvaluated 3296 smallestNodeSide 0.001863/0.003112/0.000925 oct_tree_integral 9.047484e-06 scatter_volume 9.034502e-06
HYPOCENTER  x 694.325 y 5155.58 z 0.00185  OT 0.0631903  ix -1 iy -1 iz -1 MAXIMUM_LIKELIHOOD
GEOGRAPHIC  OT 2018 03 13  00 08 0.063190  Lat 5155.580525 Long 694.325075 Depth 0.001850
QUALITY  Pmax 2.74619e+51 MFmin 113.269 MFmax 113.285 RMS 0.00769965 Nphs 14 Gap 263.766 Dist 0.0622301 Mamp  0.28 14 Mdur -9.90 0
VPVSRATIO  VpVsRatio -1  Npair 0  Diff -2e+30
STATISTICS  ExpectX 694.316556 Y 5155.577505 Z 0.023818  CovXX 0.000659286 XY 0.000278528 XZ -0.000157498 YY 0.000158808 YZ -3.55407e-05 ZZ 0.000520906 EllAz1  335.128 Dip1  -3.9812 Len1  0.0106966 Az2  236.77 Dip2  -64.4152 Len2  0.0397897 Len3  5.503669e-02
STAT_GEOG  ExpectLat 5155.577505 Long 694.316556 Depth 0.023818
TRANSFORM  NONE
QML_OriginQuality  assocPhCt 14  usedPhCt 14  assocStaCt -1  usedStaCt 14  depthPhCt -1  stdErr 0.00769965  azGap 263.766  secAzGap 273.395  gtLevel -  minDist 0.0622301 maxDist 0.134135 medDist 0.0898071
QML_OriginUncertainty  horUnc -1  minHorUnc 0.00892306  maxHorUnc 0.0424499  azMaxHorUnc 65.9688
QML_ConfidenceEllipsoid  semiMajorAxisLength 0.0550367  semiMinorAxisLength 0.0106966  semiIntermediateAxisLength 0.0397897  majorAxisPlunge -25.2284  majorAxisAzimuth 67.0074  majorAxisRotation 186.894
FOCALMECH  Hyp  5155.580525 694.325075 0.001850 Mech  0 0 0 mf  0 nObs -1
PHASE ID Ins Cmp On Pha  FM Date     HrMn   Sec     Err  ErrMag    Coda      Amp       Per       PriorWt  >   TTpred    Res       Weight    StaLoc(X  Y         Z)        SDist    SAzim  RAz  RDip RQual    Tcorr       TTerr
36           ?    N    ? P      ? 20180313 0008    0.1677 GAU  3.53e-03 -1.00e+00  9.25e+00  1.20e-02    9.2500 >    0.1050   -0.0005    1.1061  694.3865 5155.5904   -0.4164    0.0622  80.91  -1.0  -1.0  0     0.0000    0.0001
35           ?    N    ? P      ? 20180313 0008    0.1557 GAU  4.95e-03 -1.00e+00  8.97e+00  1.20e-02    8.9700 >    0.1125   -0.0200    0.2005  694.3818 5155.6141   -0.4216    0.0659  59.35  -1.0  -1.0  0     0.0000    0.0001
38           ?    N    ? P      ? 20180313 0008    0.1744 GAU  6.01e-03 -1.00e+00  8.40e+00  8.00e-03    8.4000 >    0.1112    0.0000    1.1117  694.3902 5155.5681   -0.4123    0.0663 100.80  -1.0  -1.0  0     0.0000    0.0001
39           ?    N    ? P      ? 20180313 0008    0.1867 GAU  6.24e-03 -1.00e+00  7.81e+00  5.20e-02    7.8100 >    0.1166    0.0069    1.2630  694.3890 5155.5532   -0.4086    0.0696 113.16  -1.0  -1.0  0     0.0000    0.0001
33           ?    N    ? P      ? 20180313 0008    0.1755 GAU  7.43e-03 -1.00e+00  8.19e+00  2.00e-02    8.1900 >    0.1235   -0.0112    0.8703  694.3775 5155.6293   -0.4252    0.0716  47.06  -1.0  -1.0  0     0.0000    0.0001
41           ?    N    ? P      ? 20180313 0008    0.1943 GAU  1.44e-02 -1.00e+00  6.77e+00  1.20e-02    6.7700 >    0.1298    0.0013    1.3261  694.3901 5155.5386   -0.4053    0.0774 122.79  -1.0  -1.0  0     0.0000    0.0001
32           ?    N    ? P      ? 20180313 0008    0.2204 GAU  1.20e-02 -1.00e+00  7.92e+00  1.60e-02    7.9200 >    0.1445    0.0127    1.1966  694.3777 5155.6456   -0.4297    0.0837  38.97  -1.0  -1.0  0     0.0000    0.0001
34           ?    N    ? P      ? 20180313 0008    0.2360 GAU  8.13e-03 -1.00e+00  6.60e+00  6.40e-02    6.6000 >    0.1632    0.0096    0.9004  694.4145 5155.6153   -0.4263    0.0960  68.77  -1.0  -1.0  0     0.0000    0.0002
30           ?    N    ? P      ? 20180313 0008    0.3074 GAU  8.48e-03 -1.00e+00  8.01e+00  1.60e-02    8.0100 >    0.1669    0.0773    0.0179  694.3775 5155.6619   -0.4333    0.0968  32.77  -1.0  -1.0  0     0.0000    0.0002
37           ?    N    ? P      ? 20180313 0008    0.2319 GAU  7.60e-03 -1.00e+00  7.47e+00  1.20e-02    7.4700 >    0.1644    0.0043    1.0699  694.4219 5155.5876   -0.4220    0.0971  85.82  -1.0  -1.0  0     0.0000    0.0002
40           ?    N    ? P      ? 20180313 0008    0.2266 GAU  7.05e-03 -1.00e+00  7.33e+00  1.20e-02    7.3300 >    0.1673   -0.0039    1.6287  694.4169 5155.5417   -0.4131    0.0997 112.91  -1.0  -1.0  0     0.0000    0.0002
31           ?    N    ? P      ? 20180313 0008    0.3095 GAU  1.34e-02 -1.00e+00  6.09e+00  5.20e-02    6.0900 >    0.1867    0.0596    0.0284  694.4086 5155.6503   -0.4335    0.1089  50.12  -1.0  -1.0  0     0.0000    0.0002
105          ?    N    ? P      ? 20180313 0008    0.2602 GAU  9.02e-03 -1.00e+00  7.18e+00  1.20e-02    7.1800 >    0.1976   -0.0006    3.0100  694.3764 5155.6832   -0.4382    0.1148  26.55  -1.0  -1.0  0     0.0000    0.0002
27           ?    N    ? P      ? 20180313 0008    0.3217 GAU  7.60e-03 -1.00e+00  5.07e+00  1.60e-02    5.0700 >    0.2298    0.0287    0.2704  694.4008 5155.6912   -0.4412    0.1341  34.36  -1.0  -1.0  0     0.0000    0.0002
END_PHASE
END_NLLOC

