NLLOC "./loc/RR.20180313.000801.grid0" "LOCATED" "Location completed."
PUBLIC_ID None
SIGNATURE "   obs:./obs/nll_picks.obs   NLLoc:v7.00.10(30Aug2020)   run:29Apr2022 23h17m50"
COMMENT "Rattlesnake Ridge Slidequake Locations"
GRID  150 250 75  694.15 5155.4 0  0.002 0.002 0.002 PROB_DENSITY
SEARCH OCTREE nInitial 1000 nEvaluated 3352 smallestNodeSide 0.001863/0.003112/0.000925 oct_tree_integral 1.181336e-05 scatter_volume 1.181336e-05
HYPOCENTER  x 694.264 y 5155.79 z 0.010175  OT 1.8182  ix -1 iy -1 iz -1 MAXIMUM_LIKELIHOOD
GEOGRAPHIC  OT 2018 03 13  00 08 1.818202  Lat 5155.789063 Long 694.263612 Depth 0.010175
QUALITY  Pmax 1.92766e+41 MFmin 80.9454 MFmax 80.9562 RMS 0.0196228 Nphs 14 Gap 243.594 Dist 0.046216 Mamp  0.23 14 Mdur -9.90 0
VPVSRATIO  VpVsRatio -1  Npair 0  Diff -2e+30
STATISTICS  ExpectX 694.310044 Y 5155.816044 Z 0.061546  CovXX 0.00295545 XY 0.00158837 XZ 0.002291 YY 0.00102167 YZ 0.00115361 ZZ 0.00234164 EllAz1  141.38 Dip1  -13.2759 Len1  0.0188956 Az2  215.003 Dip2  50.0756 Len2  0.039904 Len3  1.426739e-01
STAT_GEOG  ExpectLat 5155.816044 Long 694.310044 Depth 0.061546
TRANSFORM  NONE
QML_OriginQuality  assocPhCt 14  usedPhCt 14  assocStaCt -1  usedStaCt 14  depthPhCt -1  stdErr 0.0196228  azGap 243.594  secAzGap 271.438  gtLevel -  minDist 0.046216 maxDist 0.104251 medDist 0.081357
QML_OriginUncertainty  horUnc -1  minHorUnc 0.0172282  maxHorUnc 0.0940775  azMaxHorUnc 60.6651
QML_ConfidenceEllipsoid  semiMajorAxisLength 0.142674  semiMinorAxisLength 0.0188956  semiIntermediateAxisLength 0.039904  majorAxisPlunge 36.8187  majorAxisAzimuth 61.5531  majorAxisRotation 313.253
FOCALMECH  Hyp  5155.789063 694.263612 0.010175 Mech  0 0 0 mf  0 nObs -1
PHASE ID Ins Cmp On Pha  FM Date     HrMn   Sec     Err  ErrMag    Coda      Amp       Per       PriorWt  >   TTpred    Res       Weight    StaLoc(X  Y         Z)        SDist    SAzim  RAz  RDip RQual    Tcorr       TTerr
9            ?    N    ? P      ? 20180313 0008    1.9857 GAU  1.37e-02 -1.00e+00  7.05e+00  8.00e-03    7.0500 >    0.0773    0.0902    0.1353  694.2594 5155.8351   -0.4296    0.0462 354.73  -1.0  -1.0  0     0.0000    0.0001
15           ?    N    ? P      ? 20180313 0008    1.9363 GAU  3.14e-03 -1.00e+00  9.45e+00  5.20e-02    9.4500 >    0.1178    0.0003    1.8900  694.3206 5155.8107   -0.4609    0.0609  69.21  -1.0  -1.0  0     0.0000    0.0001
13           ?    N    ? P      ? 20180313 0008    2.2730 GAU  1.41e-02 -1.00e+00  8.23e+00  1.20e-02    8.2300 >    0.1216    0.3332    0.0002  694.3062 5155.8390   -0.4568    0.0657  40.45  -1.0  -1.0  0     0.0000    0.0001
5            ?    N    ? P      ? 20180313 0008    2.3640 GAU  4.26e-03 -1.00e+00  8.02e+00  1.20e-02    8.0200 >    0.1193    0.4265    0.0079  694.2898 5155.8520   -0.4475    0.0681  22.57  -1.0  -1.0  0     0.0000    0.0001
4            ?    N    ? P      ? 20180313 0008    2.4030 GAU  4.44e-03 -1.00e+00  6.96e+00  1.20e-02    6.9600 >    0.1409    0.4439    0.0038  694.3090 5155.8520   -0.4586    0.0776  35.80  -1.0  -1.0  0     0.0000    0.0001
12           ?    N    ? P      ? 20180313 0008    1.9667 GAU  6.47e-03 -1.00e+00  7.40e+00  1.20e-02    7.4000 >    0.1470    0.0015    1.4108  694.3356 5155.8197   -0.4663    0.0783  66.93  -1.0  -1.0  0     0.0000    0.0001
8            ?    N    ? P      ? 20180313 0008    1.9677 GAU  7.45e-03 -1.00e+00  6.21e+00  8.00e-03    6.2100 >    0.1504   -0.0009    2.6391  694.3223 5155.8450   -0.4648    0.0811  46.38  -1.0  -1.0  0     0.0000    0.0002
16           ?    N    ? P      ? 20180313 0008    1.9841 GAU  3.22e-02 -1.00e+00  7.97e+00  1.20e-02    7.9700 >    0.1501    0.0158    0.6625  694.3452 5155.7921   -0.4642    0.0816  87.85  -1.0  -1.0  0     0.0000    0.0002
10           ?    N    ? P      ? 20180313 0008    1.9620 GAU  6.86e-03 -1.00e+00  6.75e+00  8.00e-03    6.7500 >    0.1532   -0.0094    1.5596  694.3329 5155.8329   -0.4673    0.0820  57.69  -1.0  -1.0  0     0.0000    0.0002
17           ?    N    ? P      ? 20180313 0008    1.9926 GAU  2.41e-02 -1.00e+00  7.12e+00  8.00e-03    7.1200 >    0.1503    0.0241    0.6748  694.3461 5155.7815   -0.4621    0.0829  95.25  -1.0  -1.0  0     0.0000    0.0002
18           ?    N    ? P      ? 20180313 0008    1.9786 GAU  1.02e-02 -1.00e+00  6.46e+00  2.80e-02    6.4600 >    0.1641   -0.0037    3.0734  694.3549 5155.7674   -0.4586    0.0938 103.34  -1.0  -1.0  0     0.0000    0.0002
103          ?    N    ? P      ? 20180313 0008    2.2400 GAU  1.08e-02 -1.00e+00  6.60e+00  3.20e-02    6.6000 >    0.1798    0.2420    0.0000  694.3644 5155.7952   -0.4662    0.1009  86.52  -1.0  -1.0  0     0.0000    0.0002
6            ?    N    ? P      ? 20180313 0008    2.4000 GAU  8.14e-03 -1.00e+00  6.74e+00  1.20e-02    6.7400 >    0.1856    0.3962    0.0043  694.3446 5155.8502   -0.4728    0.1015  52.98  -1.0  -1.0  0     0.0000    0.0002
20           ?    N    ? P      ? 20180313 0008    1.9928 GAU  3.26e-02 -1.00e+00  6.80e+00  8.00e-03    6.8000 >    0.1780   -0.0034    1.9384  694.3609 5155.7515   -0.4553    0.1043 111.13  -1.0  -1.0  0     0.0000    0.0002
END_PHASE
END_NLLOC

