NLLOC "./loc/RR.20180313.025410.grid0" "LOCATED" "Location completed."
PUBLIC_ID None
SIGNATURE "   obs:./obs/nll_picks.obs   NLLoc:v7.00.10(30Aug2020)   run:29Apr2022 23h21m10"
COMMENT "Rattlesnake Ridge Slidequake Locations"
GRID  150 250 75  694.15 5155.4 0  0.002 0.002 0.002 PROB_DENSITY
SEARCH OCTREE nInitial 1000 nEvaluated 2592 smallestNodeSide 0.001863/0.003112/0.000925 oct_tree_integral 5.122833e-06 scatter_volume 5.120661e-06
HYPOCENTER  x 694.401 y 5155.73 z 0.0004625  OT 11.2845  ix -1 iy -1 iz -1 MAXIMUM_LIKELIHOOD
GEOGRAPHIC  OT 2018 03 13  02 54 11.284461  Lat 5155.725256 Long 694.400506 Depth 0.000462
QUALITY  Pmax 1.73799e+68 MFmin 162.914 MFmax 162.921 RMS 0.0447071 Nphs 21 Gap 197.914 Dist 0.0329254 Mamp  0.30 21 Mdur -9.90 0
VPVSRATIO  VpVsRatio -1  Npair 0  Diff -2e+30
STATISTICS  ExpectX 694.309279 Y 5155.807105 Z 0.036589  CovXX 0.00419552 XY 0.000482373 XZ -0.000404989 YY 0.00517741 YZ -0.000416446 ZZ 0.00123294 EllAz1  53.1156 Dip1  81.5536 Len1  0.063651 Az2  293.893 Dip2  4.14649 Len2  0.119035 Len3  1.386291e-01
STAT_GEOG  ExpectLat 5155.807105 Long 694.309279 Depth 0.036589
TRANSFORM  NONE
QML_OriginQuality  assocPhCt 21  usedPhCt 21  assocStaCt -1  usedStaCt 21  depthPhCt -1  stdErr 0.0447071  azGap 197.914  secAzGap 233.941  gtLevel -  minDist 0.0329254 maxDist 0.178836 medDist 0.0867832
QML_OriginUncertainty  horUnc -1  minHorUnc 0.0958951  maxHorUnc 0.111184  azMaxHorUnc 22.2477
QML_ConfidenceEllipsoid  semiMajorAxisLength 0.138629  semiMinorAxisLength 0.063651  semiIntermediateAxisLength 0.119035  majorAxisPlunge -7.34558  majorAxisAzimuth 23.357  majorAxisRotation 85.9554
FOCALMECH  Hyp  5155.725256 694.400506 0.000462 Mech  0 0 0 mf  0 nObs -1
PHASE ID Ins Cmp On Pha  FM Date     HrMn   Sec     Err  ErrMag    Coda      Amp       Per       PriorWt  >   TTpred    Res       Weight    StaLoc(X  Y         Z)        SDist    SAzim  RAz  RDip RQual    Tcorr       TTerr
23           ?    N    ? P      ? 20180313 0254   11.4730 GAU  7.44e-03 -1.00e+00  7.56e+00  8.00e-03    7.5600 >    0.0550    0.1335    0.0109  694.3677 5155.7226   -0.4473    0.0329 265.29  -1.0  -1.0  0     0.0000    0.0001
25           ?    N    ? P      ? 20180313 0254   11.6580 GAU  1.65e-02 -1.00e+00  7.23e+00  1.20e-02    7.2300 >    0.0604    0.3132    0.0426  694.3684 5155.7091   -0.4438    0.0359 243.29  -1.0  -1.0  0     0.0000    0.0001
21           ?    N    ? P      ? 20180313 0254   11.3320 GAU  1.52e-02 -1.00e+00  8.00e+00  8.00e-03    8.0000 >    0.0653   -0.0177    1.7102  694.3642 5155.7391   -0.4517    0.0389 290.89  -1.0  -1.0  0     0.0000    0.0001
26           ?    N    ? P      ? 20180313 0254   11.6140 GAU  1.83e-02 -1.00e+00  7.08e+00  1.20e-02    7.0800 >    0.0695    0.2601    0.0038  694.3783 5155.6910   -0.4400    0.0408 212.93  -1.0  -1.0  0     0.0000    0.0001
20           ?    N    ? P      ? 20180313 0254   11.3640 GAU  7.79e-03 -1.00e+00  8.04e+00  8.00e-03    8.0400 >    0.0802   -0.0006    2.7557  694.3609 5155.7515   -0.4553    0.0475 303.47  -1.0  -1.0  0     0.0000    0.0001
105          ?    N    ? P      ? 20180313 0254   11.6670 GAU  1.92e-02 -1.00e+00  7.73e+00  1.20e-02    7.7300 >    0.0826    0.3000    0.0413  694.3764 5155.6832   -0.4382    0.0484 209.84  -1.0  -1.0  0     0.0000    0.0001
18           ?    N    ? P      ? 20180313 0254   11.4060 GAU  9.92e-03 -1.00e+00  7.69e+00  3.20e-02    7.6900 >    0.1053    0.0163    1.6261  694.3549 5155.7674   -0.4586    0.0621 312.74  -1.0  -1.0  0     0.0000    0.0001
31           ?    N    ? P      ? 20180313 0254   11.4160 GAU  1.34e-02 -1.00e+00  7.23e+00  1.20e-02    7.2300 >    0.1283    0.0033    5.6329  694.4086 5155.6503   -0.4335    0.0753 173.81  -1.0  -1.0  0     0.0000    0.0001
17           ?    N    ? P      ? 20180313 0254   11.3990 GAU  1.40e-02 -1.00e+00  9.17e+00  1.20e-02    9.1700 >    0.1326   -0.0181    1.3434  694.3461 5155.7815   -0.4621    0.0782 315.96  -1.0  -1.0  0     0.0000    0.0001
103          ?    N    ? P      ? 20180313 0254   11.5040 GAU  1.63e-02 -1.00e+00  7.40e+00  2.00e-02    7.4000 >    0.1345    0.0850    0.0118  694.3644 5155.7952   -0.4662    0.0787 332.67  -1.0  -1.0  0     0.0000    0.0001
16           ?    N    ? P      ? 20180313 0254   11.3910 GAU  9.12e-03 -1.00e+00  9.10e+00  8.00e-03    9.1000 >    0.1472   -0.0407    0.3148  694.3452 5155.7921   -0.4642    0.0868 320.40  -1.0  -1.0  0     0.0000    0.0001
12           ?    N    ? P      ? 20180313 0254   11.4390 GAU  5.96e-03 -1.00e+00  8.73e+00  1.20e-02    8.7300 >    0.1925   -0.0380    0.5612  694.3356 5155.8197   -0.4663    0.1146 325.52  -1.0  -1.0  0     0.0000    0.0002
15           ?    N    ? P      ? 20180313 0254   11.4990 GAU  7.32e-03 -1.00e+00  9.33e+00  5.60e-02    9.3300 >    0.1952    0.0194    1.7041  694.3206 5155.8107   -0.4609    0.1170 316.90  -1.0  -1.0  0     0.0000    0.0002
10           ?    N    ? P      ? 20180313 0254   11.1810 GAU  2.76e-02 -1.00e+00  8.06e+00  8.00e-03    8.0600 >    0.2128   -0.3162    0.0104  694.3329 5155.8329   -0.4673    0.1271 327.87  -1.0  -1.0  0     0.0000    0.0002
6            ?    N    ? P      ? 20180313 0254   11.3120 GAU  2.03e-02 -1.00e+00  7.52e+00  8.00e-03    7.5200 >    0.2303   -0.2027    0.0128  694.3446 5155.8502   -0.4728    0.1368 335.90  -1.0  -1.0  0     0.0000    0.0002
8            ?    N    ? P      ? 20180313 0254   11.3540 GAU  1.16e-02 -1.00e+00  7.20e+00  8.00e-03    7.2000 >    0.2377   -0.1682    0.0127  694.3223 5155.8450   -0.4648    0.1430 326.85  -1.0  -1.0  0     0.0000    0.0002
13           ?    N    ? P      ? 20180313 0254   11.1004 GAU  1.30e-02 -1.00e+00  8.13e+00  2.80e-02    8.1300 >    0.2438   -0.4279    0.1309  694.3062 5155.8390   -0.4568    0.1478 320.35  -1.0  -1.0  0     0.0000    0.0002
4            ?    N    ? P      ? 20180313 0254   11.1570 GAU  3.39e-02 -1.00e+00  6.71e+00  3.60e-02    6.7100 >    0.2577   -0.3852    0.0510  694.3090 5155.8520   -0.4586    0.1563 324.19  -1.0  -1.0  0     0.0000    0.0003
2            ?    N    ? P      ? 20180313 0254   11.5540 GAU  6.77e-03 -1.00e+00  6.99e+00  1.20e-02    6.9900 >    0.2699   -0.0003    4.8586  694.3150 5155.8647   -0.4623    0.1636 328.48  -1.0  -1.0  0     0.0000    0.0003
5            ?    N    ? P      ? 20180313 0254   10.9882 GAU  1.31e-02 -1.00e+00  7.05e+00  8.00e-03    7.0500 >    0.2755   -0.5718    0.0000  694.2898 5155.8520   -0.4475    0.1683 318.85  -1.0  -1.0  0     0.0000    0.0003
9            ?    N    ? P      ? 20180313 0254   11.1299 GAU  2.32e-02 -1.00e+00  7.43e+00  1.20e-02    7.4300 >    0.2928   -0.4473    0.1648  694.2594 5155.8351   -0.4296    0.1788 307.89  -1.0  -1.0  0     0.0000    0.0003
END_PHASE
END_NLLOC

