NLLOC "./loc/RR.20180313.023925.grid0" "LOCATED" "Location completed."
PUBLIC_ID None
SIGNATURE "   obs:./obs/nll_picks.obs   NLLoc:v7.00.10(30Aug2020)   run:29Apr2022 23h20m59"
COMMENT "Rattlesnake Ridge Slidequake Locations"
GRID  150 250 75  694.15 5155.4 0  0.002 0.002 0.002 PROB_DENSITY
SEARCH OCTREE nInitial 1000 nEvaluated 2128 smallestNodeSide 0.001863/0.003112/0.000925 oct_tree_integral 2.739250e-06 scatter_volume 2.735954e-06
HYPOCENTER  x 694.298 y 5155.65 z 0.105912  OT 25.5314  ix -1 iy -1 iz -1 MAXIMUM_LIKELIHOOD
GEOGRAPHIC  OT 2018 03 13  02 39 25.531381  Lat 5155.647444 Long 694.298069 Depth 0.105912
QUALITY  Pmax 1.16587e+107 MFmin 293.513 MFmax 293.565 RMS 0.00627312 Nphs 23 Gap 238.267 Dist 0.0354699 Mamp  0.60 23 Mdur -9.90 0
VPVSRATIO  VpVsRatio -1  Npair 0  Diff -2e+30
STATISTICS  ExpectX 694.286408 Y 5155.642728 Z 0.090956  CovXX 0.000174552 XY 5.28081e-05 XZ 0.000121011 YY 3.29322e-05 YZ 5.47891e-05 ZZ 0.000279309 EllAz1  165.18 Dip1  4.74789 Len1  0.0070932 Az2  258.569 Dip2  35.4364 Len2  0.0185399 Len3  3.639149e-02
STAT_GEOG  ExpectLat 5155.642728 Long 694.286408 Depth 0.090956
TRANSFORM  NONE
QML_OriginQuality  assocPhCt 23  usedPhCt 23  assocStaCt -1  usedStaCt 23  depthPhCt -1  stdErr 0.00627312  azGap 238.267  secAzGap 242.014  gtLevel -  minDist 0.0354699 maxDist 0.159035 medDist 0.110595
QML_OriginUncertainty  horUnc -1  minHorUnc 0.0059532  maxHorUnc 0.0210184  azMaxHorUnc 71.6427
QML_ConfidenceEllipsoid  semiMajorAxisLength 0.0363915  semiMinorAxisLength 0.0070932  semiIntermediateAxisLength 0.0185399  majorAxisPlunge 54.1491  majorAxisAzimuth 68.5799  majorAxisRotation 335.549
FOCALMECH  Hyp  5155.647444 694.298069 0.105912 Mech  0 0 0 mf  0 nObs -1
PHASE ID Ins Cmp On Pha  FM Date     HrMn   Sec     Err  ErrMag    Coda      Amp       Per       PriorWt  >   TTpred    Res       Weight    StaLoc(X  Y         Z)        SDist    SAzim  RAz  RDip RQual    Tcorr       TTerr
106          ?    N    ? P      ? 20180313 0239   25.7985 GAU  1.27e-02 -1.00e+00  7.53e+00  6.00e-02    7.5300 >    0.1825    0.0847    0.0036  694.3120 5155.6801   -0.4360    0.0355  23.16  -1.0  -1.0  0     0.0000    0.0002
32           ?    N    ? P      ? 20180313 0239   25.7342 GAU  3.36e-03 -1.00e+00  9.71e+00  1.20e-02    9.7100 >    0.2049   -0.0021    0.8733  694.3777 5155.6456   -0.4297    0.0796  91.35  -1.0  -1.0  0     0.0000    0.0002
30           ?    N    ? P      ? 20180313 0239   25.7419 GAU  1.46e-03 -1.00e+00  9.90e+00  2.40e-02    9.9000 >    0.2105   -0.0000    0.9672  694.3775 5155.6619   -0.4333    0.0807  79.67  -1.0  -1.0  0     0.0000    0.0002
33           ?    N    ? P      ? 20180313 0239   25.7331 GAU  3.36e-03 -1.00e+00  9.20e+00  2.40e-02    9.2000 >    0.2016    0.0002    1.0130  694.3775 5155.6293   -0.4252    0.0815 102.85  -1.0  -1.0  0     0.0000    0.0002
28           ?    N    ? P      ? 20180313 0239   25.7654 GAU  7.76e-03 -1.00e+00  1.08e+01  1.20e-02   10.8000 >    0.2163    0.0177    0.4271  694.3767 5155.6745   -0.4362    0.0831  71.04  -1.0  -1.0  0     0.0000    0.0002
105          ?    N    ? P      ? 20180313 0239   25.7521 GAU  3.26e-03 -1.00e+00  1.11e+01  8.00e-03   11.1000 >    0.2212   -0.0004    1.0986  694.3764 5155.6832   -0.4382    0.0861  65.44  -1.0  -1.0  0     0.0000    0.0002
35           ?    N    ? P      ? 20180313 0239   25.7450 GAU  3.36e-03 -1.00e+00  9.51e+00  1.20e-02    9.5100 >    0.2057    0.0079    1.0298  694.3818 5155.6141   -0.4216    0.0901 111.71  -1.0  -1.0  0     0.0000    0.0002
26           ?    N    ? P      ? 20180313 0239   25.7556 GAU  4.35e-03 -1.00e+00  1.01e+01  1.20e-02   10.1000 >    0.2283   -0.0040    0.9132  694.3783 5155.6910   -0.4400    0.0913  61.52  -1.0  -1.0  0     0.0000    0.0002
25           ?    N    ? P      ? 20180313 0239   25.7758 GAU  3.66e-03 -1.00e+00  9.34e+00  1.20e-02    9.3400 >    0.2351    0.0093    1.1225  694.3684 5155.7091   -0.4438    0.0936  48.76  -1.0  -1.0  0     0.0000    0.0002
23           ?    N    ? P      ? 20180313 0239   25.7829 GAU  5.84e-03 -1.00e+00  8.42e+00  2.40e-02    8.4200 >    0.2477    0.0038    1.3240  694.3677 5155.7226   -0.4473    0.1024  42.83  -1.0  -1.0  0     0.0000    0.0002
36           ?    N    ? P      ? 20180313 0239   25.7504 GAU  4.84e-03 -1.00e+00  7.98e+00  4.80e-02    7.9800 >    0.2166    0.0025    1.2920  694.3865 5155.5904   -0.4164    0.1053 122.84  -1.0  -1.0  0     0.0000    0.0002
31           ?    N    ? P      ? 20180313 0239   25.7820 GAU  4.14e-03 -1.00e+00  8.20e+00  1.60e-02    8.2000 >    0.2403    0.0103    0.7880  694.4086 5155.6503   -0.4335    0.1106  88.50  -1.0  -1.0  0     0.0000    0.0002
27           ?    N    ? P      ? 20180313 0239   25.7849 GAU  6.79e-03 -1.00e+00  8.61e+00  2.40e-02    8.6100 >    0.2500    0.0035    1.0130  694.4008 5155.6912   -0.4412    0.1117  66.90  -1.0  -1.0  0     0.0000    0.0003
34           ?    N    ? P      ? 20180313 0239   25.8159 GAU  1.47e-02 -1.00e+00  8.27e+00  4.40e-02    8.2700 >    0.2449    0.0396    0.1122  694.4145 5155.6153   -0.4263    0.1208 105.44  -1.0  -1.0  0     0.0000    0.0002
38           ?    N    ? P      ? 20180313 0239   25.7567 GAU  9.62e-03 -1.00e+00  7.37e+00  1.20e-02    7.3700 >    0.2327   -0.0074    0.8441  694.3902 5155.5681   -0.4123    0.1215 130.74  -1.0  -1.0  0     0.0000    0.0002
22           ?    N    ? P      ? 20180313 0239   25.8334 GAU  1.07e-02 -1.00e+00  7.45e+00  2.00e-02    7.4500 >    0.2758    0.0262    0.2590  694.3985 5155.7265   -0.4488    0.1278  51.78  -1.0  -1.0  0     0.0000    0.0003
39           ?    N    ? P      ? 20180313 0239   25.7826 GAU  5.44e-03 -1.00e+00  7.21e+00  5.60e-02    7.2100 >    0.2413    0.0099    1.2549  694.3890 5155.5532   -0.4086    0.1310 136.03  -1.0  -1.0  0     0.0000    0.0002
18           ?    N    ? P      ? 20180313 0239   25.8132 GAU  9.51e-03 -1.00e+00  6.87e+00  7.20e-02    6.8700 >    0.2914   -0.0095    0.9174  694.3549 5155.7674   -0.4586    0.1327  25.34  -1.0  -1.0  0     0.0000    0.0003
37           ?    N    ? P      ? 20180313 0239   25.7898 GAU  4.83e-03 -1.00e+00  7.07e+00  1.20e-02    7.0700 >    0.2611   -0.0027    1.2237  694.4219 5155.5876   -0.4220    0.1376 115.79  -1.0  -1.0  0     0.0000    0.0003
17           ?    N    ? P      ? 20180313 0239   25.8451 GAU  9.75e-03 -1.00e+00  6.68e+00  1.20e-02    6.6800 >    0.3056    0.0081    1.4817  694.3461 5155.7815   -0.4621    0.1424  19.73  -1.0  -1.0  0     0.0000    0.0003
41           ?    N    ? P      ? 20180313 0239   25.7947 GAU  4.18e-03 -1.00e+00  6.74e+00  2.40e-02    6.7400 >    0.2542    0.0092    1.4533  694.3901 5155.5386   -0.4053    0.1425 139.77  -1.0  -1.0  0     0.0000    0.0003
16           ?    N    ? P      ? 20180313 0239   25.8517 GAU  5.61e-03 -1.00e+00  6.96e+00  1.20e-02    6.9600 >    0.3186    0.0017    2.2631  694.3452 5155.7921   -0.4642    0.1522  18.04  -1.0  -1.0  0     0.0000    0.0003
40           ?    N    ? P      ? 20180313 0239   25.8081 GAU  5.85e-03 -1.00e+00  7.06e+00  7.20e-02    7.0600 >    0.2823   -0.0056    1.3253  694.4169 5155.5417   -0.4131    0.1590 131.66  -1.0  -1.0  0     0.0000    0.0003
END_PHASE
END_NLLOC

