NLLOC "./loc/RR.20180313.013433.grid0" "LOCATED" "Location completed."
PUBLIC_ID None
SIGNATURE "   obs:./obs/nll_picks.obs   NLLoc:v7.00.10(30Aug2020)   run:29Apr2022 23h20m18"
COMMENT "Rattlesnake Ridge Slidequake Locations"
GRID  150 250 75  694.15 5155.4 0  0.002 0.002 0.002 PROB_DENSITY
SEARCH OCTREE nInitial 1000 nEvaluated 9432 smallestNodeSide 0.001863/0.003112/0.000925 oct_tree_integral 5.266109e-05 scatter_volume 5.266109e-05
HYPOCENTER  x 694.233 y 5155.66 z 0.0402375  OT 33.4015  ix -1 iy -1 iz -1 MAXIMUM_LIKELIHOOD
GEOGRAPHIC  OT 2018 03 13  01 34 33.401540  Lat 5155.659894 Long 694.232881 Depth 0.040238
QUALITY  Pmax 1.51886e+89 MFmin 231.76 MFmax 231.786 RMS 0.324549 Nphs 26 Gap 272.702 Dist 0.0816638 Mamp  0.60 26 Mdur -9.90 0
VPVSRATIO  VpVsRatio -1  Npair 0  Diff -2e+30
STATISTICS  ExpectX 694.224207 Y 5155.662279 Z 0.050383  CovXX 0.00129971 XY -4.30727e-05 XZ 0.000299092 YY 0.00013457 YZ 0.000185761 ZZ 0.00105628 EllAz1  185.143 Dip1  12.3622 Len1  0.0178058 Az2  291.774 Dip2  52.5556 Len2  0.0562503 Len3  7.287346e-02
STAT_GEOG  ExpectLat 5155.662279 Long 694.224207 Depth 0.050383
TRANSFORM  NONE
QML_OriginQuality  assocPhCt 26  usedPhCt 26  assocStaCt -1  usedStaCt 26  depthPhCt -1  stdErr 0.324549  azGap 272.702  secAzGap 275.991  gtLevel -  minDist 0.0816638 maxDist 0.218675 medDist 0.164395
QML_OriginUncertainty  horUnc -1  minHorUnc 0.0174887  maxHorUnc 0.0547083  azMaxHorUnc 92.1142
QML_ConfidenceEllipsoid  semiMajorAxisLength 0.0728735  semiMinorAxisLength 0.0178058  semiIntermediateAxisLength 0.0562503  majorAxisPlunge 34.6841  majorAxisAzimuth 86.4189  majorAxisRotation 37.4261
FOCALMECH  Hyp  5155.659894 694.232881 0.040238 Mech  0 0 0 mf  0 nObs -1
PHASE ID Ins Cmp On Pha  FM Date     HrMn   Sec     Err  ErrMag    Coda      Amp       Per       PriorWt  >   TTpred    Res       Weight    StaLoc(X  Y         Z)        SDist    SAzim  RAz  RDip RQual    Tcorr       TTerr
106          ?    N    ? P      ? 20180313 0134   33.8730 GAU  9.32e-03 -1.00e+00  7.91e+00  1.20e-02    7.9100 >    0.1680    0.3035    0.9812  694.3120 5155.6801   -0.4360    0.0817  75.71  -1.0  -1.0  0     0.0000    0.0002
25           ?    N    ? P      ? 20180313 0134   33.7940 GAU  1.17e-02 -1.00e+00  7.91e+00  1.20e-02    7.9100 >    0.2583    0.1341    0.9684  694.3684 5155.7091   -0.4438    0.1442  70.04  -1.0  -1.0  0     0.0000    0.0003
28           ?    N    ? P      ? 20180313 0134   33.6450 GAU  6.06e-03 -1.00e+00  8.13e+00  8.00e-03    8.1300 >    0.2536   -0.0102    0.5403  694.3767 5155.6745   -0.4362    0.1445  84.22  -1.0  -1.0  0     0.0000    0.0003
30           ?    N    ? P      ? 20180313 0134   33.6210 GAU  6.53e-03 -1.00e+00  8.81e+00  4.80e-02    8.8100 >    0.2515   -0.0321    0.0567  694.3775 5155.6619   -0.4333    0.1446  89.20  -1.0  -1.0  0     0.0000    0.0003
105          ?    N    ? P      ? 20180313 0134   33.6590 GAU  7.46e-03 -1.00e+00  8.78e+00  1.20e-02    8.7800 >    0.2557    0.0017    0.9874  694.3764 5155.6832   -0.4382    0.1454  80.76  -1.0  -1.0  0     0.0000    0.0003
32           ?    N    ? P      ? 20180313 0134   33.5370 GAU  5.60e-03 -1.00e+00  8.94e+00  1.20e-02    8.9400 >    0.2509   -0.1155    0.0001  694.3777 5155.6456   -0.4297    0.1455  95.65  -1.0  -1.0  0     0.0000    0.0003
33           ?    N    ? P      ? 20180313 0134   33.5700 GAU  7.92e-03 -1.00e+00  9.42e+00  1.20e-02    9.4200 >    0.2514   -0.0829    0.0002  694.3775 5155.6293   -0.4252    0.1478 101.93  -1.0  -1.0  0     0.0000    0.0003
23           ?    N    ? P      ? 20180313 0134   33.8030 GAU  8.86e-03 -1.00e+00  8.14e+00  8.00e-03    8.1400 >    0.2671    0.1344    1.1589  694.3677 5155.7226   -0.4473    0.1487  65.07  -1.0  -1.0  0     0.0000    0.0003
26           ?    N    ? P      ? 20180313 0134   33.7050 GAU  8.39e-03 -1.00e+00  8.26e+00  1.20e-02    8.2600 >    0.2620    0.0415    0.4189  694.3783 5155.6910   -0.4400    0.1487  77.94  -1.0  -1.0  0     0.0000    0.0003
21           ?    N    ? P      ? 20180313 0134   33.9940 GAU  1.40e-02 -1.00e+00  7.16e+00  2.40e-02    7.1600 >    0.2773    0.3151    0.4381  694.3642 5155.7391   -0.4517    0.1533  58.89  -1.0  -1.0  0     0.0000    0.0003
35           ?    N    ? P      ? 20180313 0134   33.6630 GAU  7.00e-03 -1.00e+00  9.18e+00  8.00e-03    9.1800 >    0.2615    0.0000    1.5674  694.3818 5155.6141   -0.4216    0.1558 107.09  -1.0  -1.0  0     0.0000    0.0003
20           ?    N    ? P      ? 20180313 0134   33.8730 GAU  9.32e-03 -1.00e+00  6.90e+00  2.40e-02    6.9000 >    0.2853    0.1862    1.0585  694.3609 5155.7515   -0.4553    0.1574  54.41  -1.0  -1.0  0     0.0000    0.0003
18           ?    N    ? P      ? 20180313 0134   33.8820 GAU  1.31e-02 -1.00e+00  6.49e+00  8.00e-03    6.4900 >    0.2956    0.1849    0.9774  694.3549 5155.7674   -0.4586    0.1626  48.61  -1.0  -1.0  0     0.0000    0.0003
17           ?    N    ? P      ? 20180313 0134   33.7190 GAU  2.00e-02 -1.00e+00  5.91e+00  1.20e-02    5.9100 >    0.3036    0.0139    1.6185  694.3461 5155.7815   -0.4621    0.1662  42.97  -1.0  -1.0  0     0.0000    0.0003
36           ?    N    ? P      ? 20180313 0134   33.8220 GAU  8.86e-03 -1.00e+00  7.55e+00  1.20e-02    7.5500 >    0.2789    0.1416    2.4750  694.3865 5155.5904   -0.4164    0.1686 114.35  -1.0  -1.0  0     0.0000    0.0003
27           ?    N    ? P      ? 20180313 0134   33.9900 GAU  8.86e-03 -1.00e+00  7.61e+00  1.20e-02    7.6100 >    0.2945    0.2939    0.8820  694.4008 5155.6912   -0.4412    0.1708  79.42  -1.0  -1.0  0     0.0000    0.0003
16           ?    N    ? P      ? 20180313 0134   33.9900 GAU  2.19e-02 -1.00e+00  6.35e+00  1.60e-02    6.3500 >    0.3154    0.2731    0.5535  694.3452 5155.7921   -0.4642    0.1735  40.34  -1.0  -1.0  0     0.0000    0.0003
31           ?    N    ? P      ? 20180313 0134   33.1022 GAU  1.31e-02 -1.00e+00  7.09e+00  5.60e-02    7.0900 >    0.2982   -0.5975    1.3526  694.4086 5155.6503   -0.4335    0.1760  93.11  -1.0  -1.0  0     0.0000    0.0003
22           ?    N    ? P      ? 20180313 0134   33.1120 GAU  1.26e-02 -1.00e+00  7.23e+00  1.20e-02    7.2300 >    0.3106   -0.6002    2.5037  694.3985 5155.7265   -0.4488    0.1785  68.08  -1.0  -1.0  0     0.0000    0.0003
38           ?    N    ? P      ? 20180313 0134   33.7660 GAU  1.44e-02 -1.00e+00  6.34e+00  6.00e-02    6.3400 >    0.2983    0.0662    0.3238  694.3902 5155.5681   -0.4123    0.1821 120.27  -1.0  -1.0  0     0.0000    0.0003
34           ?    N    ? P      ? 20180313 0134   33.9010 GAU  1.12e-02 -1.00e+00  7.26e+00  6.40e-02    7.2600 >    0.3113    0.1882    2.1893  694.4145 5155.6153   -0.4263    0.1870 103.80  -1.0  -1.0  0     0.0000    0.0003
103          ?    N    ? P      ? 20180313 0134   33.8960 GAU  1.82e-02 -1.00e+00  5.81e+00  2.80e-02    5.8100 >    0.3375    0.1570    1.3253  694.3644 5155.7952   -0.4662    0.1887  44.18  -1.0  -1.0  0     0.0000    0.0003
39           ?    N    ? P      ? 20180313 0134   33.1101 GAU  1.26e-02 -1.00e+00  6.68e+00  2.40e-02    6.6800 >    0.3080   -0.5994    1.4877  694.3890 5155.5532   -0.4086    0.1891 124.35  -1.0  -1.0  0     0.0000    0.0003
41           ?    N    ? P      ? 20180313 0134   33.1139 GAU  8.86e-03 -1.00e+00  6.33e+00  8.00e-03    6.3300 >    0.3219   -0.6095    1.5537  694.3901 5155.5386   -0.4053    0.1986 127.64  -1.0  -1.0  0     0.0000    0.0003
37           ?    N    ? P      ? 20180313 0134   33.1041 GAU  1.68e-02 -1.00e+00  6.91e+00  8.00e-03    6.9100 >    0.3333   -0.6308    0.4767  694.4219 5155.5876   -0.4220    0.2024 110.93  -1.0  -1.0  0     0.0000    0.0003
40           ?    N    ? P      ? 20180313 0134   33.1013 GAU  1.86e-02 -1.00e+00  6.42e+00  1.60e-02    6.4200 >    0.3562   -0.6564    0.1045  694.4169 5155.5417   -0.4131    0.2187 122.71  -1.0  -1.0  0     0.0000    0.0004
END_PHASE
END_NLLOC

