NLLOC "./loc/RR.20180313.000118.grid0" "LOCATED" "Location completed."
PUBLIC_ID None
SIGNATURE "   obs:./obs/nll_picks.obs   NLLoc:v7.00.10(30Aug2020)   run:29Apr2022 23h16m04"
COMMENT "Rattlesnake Ridge Slidequake Locations"
GRID  150 250 75  694.15 5155.4 0  0.002 0.002 0.002 PROB_DENSITY
SEARCH OCTREE nInitial 1000 nEvaluated 1952 smallestNodeSide 0.001863/0.003112/0.000925 oct_tree_integral 2.101208e-06 scatter_volume 2.101208e-06
HYPOCENTER  x 694.312 y 5155.79 z 0.004625  OT 25.507  ix -1 iy -1 iz -1 MAXIMUM_LIKELIHOOD
GEOGRAPHIC  OT 2018 03 13  00 01 25.507046  Lat 5155.789063 Long 694.312038 Depth 0.004625
QUALITY  Pmax 7.28412e+86 MFmin 259.358 MFmax 259.378 RMS 0.775339 Nphs 24 Gap 146.579 Dist 0.0232465 Mamp  0.30 24 Mdur -9.90 0
VPVSRATIO  VpVsRatio -1  Npair 0  Diff -2e+30
STATISTICS  ExpectX 694.319379 Y 5155.793248 Z 0.018582  CovXX 0.000189561 XY 0.000108207 XZ 0.000231041 YY 0.00010036 YZ 0.000123288 ZZ 0.000354046 EllAz1  121.62 Dip1  -21.385 Len1  0.0076763 Az2  197.495 Dip2  31.9306 Len2  0.013795 Len3  4.498863e-02
STAT_GEOG  ExpectLat 5155.793248 Long 694.319379 Depth 0.018582
TRANSFORM  NONE
QML_OriginQuality  assocPhCt 24  usedPhCt 24  assocStaCt -1  usedStaCt 24  depthPhCt -1  stdErr 0.775339  azGap 146.579  secAzGap 158.78  gtLevel -  minDist 0.0232465 maxDist 0.282735 medDist 0.0679917
QML_OriginUncertainty  horUnc -1  minHorUnc 0.00801376  maxHorUnc 0.0245479  azMaxHorUnc 56.2001
QML_ConfidenceEllipsoid  semiMajorAxisLength 0.0449886  semiMinorAxisLength 0.0076763  semiIntermediateAxisLength 0.013795  majorAxisPlunge 50.0287  majorAxisAzimuth 59.4697  majorAxisRotation 75.7858
FOCALMECH  Hyp  5155.789063 694.312038 0.004625 Mech  0 0 0 mf  0 nObs -1
PHASE ID Ins Cmp On Pha  FM Date     HrMn   Sec     Err  ErrMag    Coda      Amp       Per       PriorWt  >   TTpred    Res       Weight    StaLoc(X  Y         Z)        SDist    SAzim  RAz  RDip RQual    Tcorr       TTerr
15           ?    N    ? P      ? 20180313 0001   25.5479 GAU  2.89e-03 -1.00e+00  1.08e+01  8.00e-03   10.8000 >    0.0411   -0.0003    1.4121  694.3206 5155.8107   -0.4609    0.0232  21.52  -1.0  -1.0  0     0.0000    0.0001
16           ?    N    ? P      ? 20180313 0001   25.5840 GAU  1.10e-02 -1.00e+00  8.05e+00  2.40e-02    8.0500 >    0.0589    0.0181    1.0963  694.3452 5155.7921   -0.4642    0.0333  84.72  -1.0  -1.0  0     0.0000    0.0001
17           ?    N    ? P      ? 20180313 0001   25.5827 GAU  1.18e-02 -1.00e+00  7.78e+00  1.20e-02    7.7800 >    0.0604    0.0153    1.2634  694.3461 5155.7815   -0.4621    0.0349 102.54  -1.0  -1.0  0     0.0000    0.0001
12           ?    N    ? P      ? 20180313 0001   25.5763 GAU  8.18e-03 -1.00e+00  8.43e+00  1.20e-02    8.4300 >    0.0684    0.0008    1.1681  694.3356 5155.8197   -0.4663    0.0387  37.56  -1.0  -1.0  0     0.0000    0.0001
18           ?    N    ? P      ? 20180313 0001   25.5861 GAU  1.42e-02 -1.00e+00  6.86e+00  8.00e-03    6.8600 >    0.0804   -0.0013    1.5859  694.3549 5155.7674   -0.4586    0.0480 116.81  -1.0  -1.0  0     0.0000    0.0001
10           ?    N    ? P      ? 20180313 0001   25.5886 GAU  9.55e-03 -1.00e+00  8.11e+00  1.20e-02    8.1100 >    0.0845   -0.0029    1.2432  694.3329 5155.8329   -0.4673    0.0485  25.46  -1.0  -1.0  0     0.0000    0.0001
13           ?    N    ? P      ? 20180313 0001   25.6182 GAU  1.82e-02 -1.00e+00  8.32e+00  1.20e-02    8.3200 >    0.0840    0.0272    0.9517  694.3062 5155.8390   -0.4568    0.0503 353.36  -1.0  -1.0  0     0.0000    0.0001
103          ?    N    ? P      ? 20180313 0001   25.5998 GAU  5.79e-03 -1.00e+00  7.22e+00  1.20e-02    7.2200 >    0.0904    0.0023    1.6624  694.3644 5155.7952   -0.4662    0.0527  83.32  -1.0  -1.0  0     0.0000    0.0001
8            ?    N    ? P      ? 20180313 0001   25.5886 GAU  1.68e-02 -1.00e+00  7.26e+00  1.20e-02    7.2600 >    0.0969   -0.0153    0.8491  694.3223 5155.8450   -0.4648    0.0569  10.40  -1.0  -1.0  0     0.0000    0.0001
20           ?    N    ? P      ? 20180313 0001   25.6032 GAU  9.74e-03 -1.00e+00  6.78e+00  8.00e-03    6.7800 >    0.1022   -0.0060    2.1913  694.3609 5155.7515   -0.4553    0.0616 127.60  -1.0  -1.0  0     0.0000    0.0001
4            ?    N    ? P      ? 20180313 0001   25.6423 GAU  1.50e-02 -1.00e+00  7.40e+00  3.60e-02    7.4000 >    0.1053    0.0300    0.9489  694.3090 5155.8520   -0.4586    0.0630 357.26  -1.0  -1.0  0     0.0000    0.0001
5            ?    N    ? P      ? 20180313 0001   25.6264 GAU  3.18e-02 -1.00e+00  8.22e+00  1.20e-02    8.2200 >    0.1111    0.0082    1.3197  694.2898 5155.8520   -0.4475    0.0667 340.50  -1.0  -1.0  0     0.0000    0.0001
6            ?    N    ? P      ? 20180313 0001   25.6546 GAU  2.27e-02 -1.00e+00  7.19e+00  2.80e-02    7.1900 >    0.1200    0.0275    1.0309  694.3446 5155.8502   -0.4728    0.0693  28.08  -1.0  -1.0  0     0.0000    0.0001
7            ?    N    ? P      ? 20180313 0001   25.6286 GAU  1.96e-02 -1.00e+00  8.26e+00  1.60e-02    8.2600 >    0.1188    0.0027    2.3198  694.2704 5155.8450   -0.4359    0.0697 323.34  -1.0  -1.0  0     0.0000    0.0001
9            ?    N    ? P      ? 20180313 0001   25.6314 GAU  2.41e-02 -1.00e+00  8.94e+00  8.00e-03    8.9400 >    0.1220    0.0023    2.4058  694.2594 5155.8351   -0.4296    0.0699 311.14  -1.0  -1.0  0     0.0000    0.0001
21           ?    N    ? P      ? 20180313 0001   25.6479 GAU  1.24e-02 -1.00e+00  7.57e+00  8.00e-03    7.5700 >    0.1197    0.0212    2.3293  694.3642 5155.7391   -0.4517    0.0722 133.77  -1.0  -1.0  0     0.0000    0.0001
35           ?    N    ? P      ? 20180313 0001   18.1536 GAU  1.41e-02 -1.00e+00  7.61e+00  6.00e-02    7.6100 >    0.3151   -7.6686    0.0379  694.3818 5155.6141   -0.4216    0.1883 158.27  -1.0  -1.0  0     0.0000    0.0003
36           ?    N    ? P      ? 20180313 0001   18.1227 GAU  1.44e-02 -1.00e+00  7.82e+00  1.60e-02    7.8200 >    0.3549   -7.7392    0.0048  694.3865 5155.5904   -0.4164    0.2122 159.45  -1.0  -1.0  0     0.0000    0.0004
37           ?    N    ? P      ? 20180313 0001   18.1978 GAU  1.35e-02 -1.00e+00  7.44e+00  1.20e-02    7.4400 >    0.3822   -7.6914    0.0402  694.4219 5155.5876   -0.4220    0.2295 151.39  -1.0  -1.0  0     0.0000    0.0004
38           ?    N    ? P      ? 20180313 0001   18.1224 GAU  6.75e-03 -1.00e+00  7.31e+00  1.20e-02    7.3100 >    0.3918   -7.7765    0.0342  694.3902 5155.5681   -0.4123    0.2344 160.53  -1.0  -1.0  0     0.0000    0.0004
39           ?    N    ? P      ? 20180313 0001   18.1193 GAU  5.52e-03 -1.00e+00  8.11e+00  4.00e-02    8.1100 >    0.4152   -7.8029    0.0318  694.3890 5155.5532   -0.4086    0.2481 161.93  -1.0  -1.0  0     0.0000    0.0004
41           ?    N    ? P      ? 20180313 0001   18.1224 GAU  6.75e-03 -1.00e+00  7.73e+00  1.20e-02    7.7300 >    0.4387   -7.8234    0.0052  694.3901 5155.5386   -0.4053    0.2623 162.69  -1.0  -1.0  0     0.0000    0.0004
40           ?    N    ? P      ? 20180313 0001   18.1641 GAU  8.59e-03 -1.00e+00  6.96e+00  1.20e-02    6.9600 >    0.4481   -7.7911    0.0645  694.4169 5155.5417   -0.4131    0.2686 157.03  -1.0  -1.0  0     0.0000    0.0004
42           ?    N    ? P      ? 20180313 0001   18.1282 GAU  1.26e-02 -1.00e+00  6.66e+00  5.60e-02    6.6600 >    0.4727   -7.8515    0.0036  694.3873 5155.5165   -0.3983    0.2827 164.57  -1.0  -1.0  0     0.0000    0.0005
END_PHASE
END_NLLOC

