NLLOC "./loc/RR.20180313.000952.grid0" "REJECTED" "WARNING: max prob location on grid boundary 31, rejecting location."
PUBLIC_ID None
SIGNATURE "   obs:./obs/nll_picks.obs   NLLoc:v7.00.10(30Aug2020)   run:29Apr2022 23h18m03"
COMMENT "Rattlesnake Ridge Slidequake Locations"
GRID  150 250 75  694.15 5155.4 0  0.002 0.002 0.002 PROB_DENSITY
SEARCH OCTREE nInitial 1000 nEvaluated 7664 smallestNodeSide 0.001863/0.003112/0.000925 oct_tree_integral 4.391373e-05 scatter_volume 4.364984e-05
HYPOCENTER  x 694.368 y 5155.65 z 0.147075  OT 52.7482  ix -1 iy -1 iz -1 MAXIMUM_LIKELIHOOD
GEOGRAPHIC  OT 2018 03 13  00 09 52.748247  Lat 5155.645887 Long 694.367913 Depth 0.147075
QUALITY  Pmax 4.36106e+70 MFmin 125.332 MFmax 125.342 RMS 0.0314869 Nphs 20 Gap 129.954 Dist 0.00978059 Mamp  0.60 20 Mdur -9.90 0
VPVSRATIO  VpVsRatio -1  Npair 0  Diff -2e+30
STATISTICS  ExpectX 694.383533 Y 5155.642980 Z 0.127781  CovXX 0.00217637 XY 0.000235051 XZ 0.000208518 YY 8.25407e-05 YZ 9.51066e-05 ZZ 0.000322351 EllAz1  175.237 Dip1  15.1906 Len1  0.0114354 Az2  330.879 Dip2  73.4034 Len2  0.0334447 Len3  8.867102e-02
STAT_GEOG  ExpectLat 5155.642980 Long 694.383533 Depth 0.127781
TRANSFORM  NONE
QML_OriginQuality  assocPhCt 20  usedPhCt 20  assocStaCt -1  usedStaCt 20  depthPhCt -1  stdErr 0.0314869  azGap 129.954  secAzGap 188.352  gtLevel -  minDist 0.00978059 maxDist 0.130806 medDist 0.0572953
QML_OriginUncertainty  horUnc -1  minHorUnc 0.0113974  maxHorUnc 0.071173  azMaxHorUnc 83.673
QML_ConfidenceEllipsoid  semiMajorAxisLength 0.088671  semiMinorAxisLength 0.0114354  semiIntermediateAxisLength 0.0334447  majorAxisPlunge 6.5282  majorAxisAzimuth 83.4569  majorAxisRotation 15.6782
FOCALMECH  Hyp  5155.645887 694.367913 0.147075 Mech  0 0 0 mf  0 nObs -1
PHASE ID Ins Cmp On Pha  FM Date     HrMn   Sec     Err  ErrMag    Coda      Amp       Per       PriorWt  >   TTpred    Res       Weight    StaLoc(X  Y         Z)        SDist    SAzim  RAz  RDip RQual    Tcorr       TTerr
32           ?    N    ? P      ? 20180313 0009   52.9641 GAU  8.39e-03 -1.00e+00  8.56e+00  8.00e-03    8.5600 >    0.2216   -0.0058    1.7627  694.3777 5155.6456   -0.4297    0.0098  91.85  -1.0  -1.0  0     0.0000    0.0002
30           ?    N    ? P      ? 20180313 0009   52.9847 GAU  8.39e-03 -1.00e+00  8.31e+00  1.20e-02    8.3100 >    0.2283    0.0081    2.1505  694.3775 5155.6619   -0.4333    0.0187  30.81  -1.0  -1.0  0     0.0000    0.0002
33           ?    N    ? P      ? 20180313 0009   52.9628 GAU  7.10e-03 -1.00e+00  8.92e+00  1.20e-02    8.9200 >    0.2168   -0.0023    1.5876  694.3775 5155.6293   -0.4252    0.0191 149.88  -1.0  -1.0  0     0.0000    0.0002
28           ?    N    ? P      ? 20180313 0009   53.3400 GAU  1.03e-02 -1.00e+00  8.06e+00  7.60e-02    8.0600 >    0.2351    0.3566    0.0000  694.3767 5155.6745   -0.4362    0.0299  17.07  -1.0  -1.0  0     0.0000    0.0002
35           ?    N    ? P      ? 20180313 0009   52.9705 GAU  1.36e-02 -1.00e+00  8.76e+00  3.60e-02    8.7600 >    0.2155    0.0067    1.2136  694.3818 5155.6141   -0.4216    0.0347 156.44  -1.0  -1.0  0     0.0000    0.0002
105          ?    N    ? P      ? 20180313 0009   52.9938 GAU  4.58e-02 -1.00e+00  8.32e+00  1.60e-02    8.3200 >    0.2404    0.0051    1.2132  694.3764 5155.6832   -0.4382    0.0383  12.80  -1.0  -1.0  0     0.0000    0.0002
31           ?    N    ? P      ? 20180313 0009   53.6700 GAU  1.74e-02 -1.00e+00  7.01e+00  8.00e-03    7.0100 >    0.2344    0.6873    0.0080  694.4086 5155.6503   -0.4335    0.0410  83.75  -1.0  -1.0  0     0.0000    0.0002
26           ?    N    ? P      ? 20180313 0009   53.1050 GAU  2.00e-02 -1.00e+00  7.33e+00  1.20e-02    7.3300 >    0.2464    0.1104    0.1131  694.3783 5155.6910   -0.4400    0.0463  12.98  -1.0  -1.0  0     0.0000    0.0002
34           ?    N    ? P      ? 20180313 0009   53.1500 GAU  1.61e-02 -1.00e+00  7.70e+00  5.60e-02    7.7000 >    0.2313    0.1705    0.2454  694.4145 5155.6153   -0.4263    0.0558 123.30  -1.0  -1.0  0     0.0000    0.0002
27           ?    N    ? P      ? 20180313 0009   53.4340 GAU  1.68e-02 -1.00e+00  6.75e+00  1.20e-02    6.7500 >    0.2520    0.4337    0.0000  694.4008 5155.6912   -0.4412    0.0560  35.93  -1.0  -1.0  0     0.0000    0.0003
36           ?    N    ? P      ? 20180313 0009   52.9641 GAU  1.35e-02 -1.00e+00  8.51e+00  1.20e-02    8.5100 >    0.2197   -0.0039    1.4891  694.3865 5155.5904   -0.4164    0.0586 161.47  -1.0  -1.0  0     0.0000    0.0002
25           ?    N    ? P      ? 20180313 0009   52.9931 GAU  6.45e-02 -1.00e+00  6.90e+00  8.80e-02    6.9000 >    0.2592   -0.0144    1.1265  694.3684 5155.7091   -0.4438    0.0632   0.47  -1.0  -1.0  0     0.0000    0.0003
106          ?    N    ? P      ? 20180313 0009   53.5890 GAU  3.23e-02 -1.00e+00  7.15e+00  1.60e-02    7.1500 >    0.2502    0.5906    0.0065  694.3120 5155.6801   -0.4360    0.0655 301.44  -1.0  -1.0  0     0.0000    0.0003
23           ?    N    ? P      ? 20180313 0009   52.9860 GAU  4.06e-02 -1.00e+00  8.13e+00  1.20e-02    8.1300 >    0.2718   -0.0341    1.6280  694.3677 5155.7226   -0.4473    0.0767 359.84  -1.0  -1.0  0     0.0000    0.0003
37           ?    N    ? P      ? 20180313 0009   53.2100 GAU  1.81e-02 -1.00e+00  7.80e+00  8.00e-03    7.8000 >    0.2407    0.2211    0.0057  694.4219 5155.5876   -0.4220    0.0795 137.18  -1.0  -1.0  0     0.0000    0.0002
38           ?    N    ? P      ? 20180313 0009   52.9776 GAU  1.03e-02 -1.00e+00  7.80e+00  8.00e-03    7.8000 >    0.2296   -0.0003    2.2153  694.3902 5155.5681   -0.4123    0.0809 164.04  -1.0  -1.0  0     0.0000    0.0002
39           ?    N    ? P      ? 20180313 0009   52.9912 GAU  1.23e-02 -1.00e+00  8.23e+00  1.20e-02    8.2300 >    0.2374    0.0056    2.6063  694.3890 5155.5532   -0.4086    0.0951 167.17  -1.0  -1.0  0     0.0000    0.0002
41           ?    N    ? P      ? 20180313 0009   53.1500 GAU  1.10e-02 -1.00e+00  7.47e+00  1.20e-02    7.4700 >    0.2471    0.1546    0.3296  694.3901 5155.5386   -0.4053    0.1095 168.31  -1.0  -1.0  0     0.0000    0.0002
40           ?    N    ? P      ? 20180313 0009   53.8000 GAU  2.65e-02 -1.00e+00  7.63e+00  1.20e-02    7.6300 >    0.2616    0.7901    0.0015  694.4169 5155.5417   -0.4131    0.1151 154.82  -1.0  -1.0  0     0.0000    0.0003
42           ?    N    ? P      ? 20180313 0009   52.9957 GAU  2.71e-02 -1.00e+00  6.04e+00  2.40e-02    6.0400 >    0.2623   -0.0149    2.2973  694.3873 5155.5165   -0.3983    0.1308 171.48  -1.0  -1.0  0     0.0000    0.0003
END_PHASE
END_NLLOC

