NLLOC "./loc/RR.20180313.031149.grid0" "REJECTED" "WARNING: max prob location on grid boundary 31, rejecting location."
PUBLIC_ID None
SIGNATURE "   obs:./obs/nll_picks.obs   NLLoc:v7.00.10(30Aug2020)   run:29Apr2022 23h21m19"
COMMENT "Rattlesnake Ridge Slidequake Locations"
GRID  150 250 75  694.15 5155.4 0  0.002 0.002 0.002 PROB_DENSITY
SEARCH OCTREE nInitial 1000 nEvaluated 4104 smallestNodeSide 0.001863/0.003112/0.000925 oct_tree_integral 1.941005e-05 scatter_volume 1.941005e-05
HYPOCENTER  x 694.194 y 5155.68 z 0.147537  OT 49.5446  ix -1 iy -1 iz -1 MAXIMUM_LIKELIHOOD
GEOGRAPHIC  OT 2018 03 13  03 11 49.544636  Lat 5155.675456 Long 694.193769 Depth 0.147537
QUALITY  Pmax 6.27944e+122 MFmin 339.563 MFmax 339.793 RMS 0.00880492 Nphs 27 Gap 278.753 Dist 0.118338 Mamp  0.84 27 Mdur -9.90 0
VPVSRATIO  VpVsRatio -1  Npair 0  Diff -2e+30
STATISTICS  ExpectX 694.184795 Y 5155.672161 Z 0.129560  CovXX 0.000593707 XY 0.000152195 XZ 0.000134124 YY 7.6469e-05 YZ 7.01089e-05 ZZ 0.00027113 EllAz1  166.971 Dip1  8.96693 Len1  0.0102727 Az2  280.318 Dip2  68.29 Len2  0.0280941 Len3  4.927479e-02
STAT_GEOG  ExpectLat 5155.672161 Long 694.184795 Depth 0.129560
TRANSFORM  NONE
QML_OriginQuality  assocPhCt 27  usedPhCt 27  assocStaCt -1  usedStaCt 27  depthPhCt -1  stdErr 0.00880492  azGap 278.753  secAzGap 279.871  gtLevel -  minDist 0.118338 maxDist 0.260119 medDist 0.197755
QML_OriginUncertainty  horUnc -1  minHorUnc 0.0089734  maxHorUnc 0.0382215  azMaxHorUnc 74.7618
QML_ConfidenceEllipsoid  semiMajorAxisLength 0.0492748  semiMinorAxisLength 0.0102727  semiIntermediateAxisLength 0.0280941  majorAxisPlunge 19.601  majorAxisAzimuth 73.7494  majorAxisRotation 12.2156
FOCALMECH  Hyp  5155.675456 694.193769 0.147537 Mech  0 0 0 mf  0 nObs -1
PHASE ID Ins Cmp On Pha  FM Date     HrMn   Sec     Err  ErrMag    Coda      Amp       Per       PriorWt  >   TTpred    Res       Weight    StaLoc(X  Y         Z)        SDist    SAzim  RAz  RDip RQual    Tcorr       TTerr
106          ?    N    ? P      ? 20180313 0311   49.9695 GAU  1.39e-02 -1.00e+00  8.10e+00  1.20e-02    8.1000 >    0.3385    0.0864    0.0478  694.3120 5155.6801   -0.4360    0.1183  87.77  -1.0  -1.0  0     0.0000    0.0003
25           ?    N    ? P      ? 20180313 0311   49.9494 GAU  3.85e-03 -1.00e+00  1.08e+01  8.00e-03   10.8000 >    0.3965    0.0083    1.0358  694.3684 5155.7091   -0.4438    0.1779  79.09  -1.0  -1.0  0     0.0000    0.0004
23           ?    N    ? P      ? 20180313 0311   49.9496 GAU  3.17e-03 -1.00e+00  1.04e+01  8.00e-03   10.4000 >    0.4026    0.0024    1.2311  694.3677 5155.7226   -0.4473    0.1802  74.85  -1.0  -1.0  0     0.0000    0.0004
21           ?    N    ? P      ? 20180313 0311   49.9558 GAU  5.66e-03 -1.00e+00  9.07e+00  2.00e-02    9.0700 >    0.4094    0.0018    1.1829  694.3642 5155.7391   -0.4517    0.1819  69.51  -1.0  -1.0  0     0.0000    0.0004
105          ?    N    ? P      ? 20180313 0311   49.9307 GAU  8.19e-03 -1.00e+00  1.06e+01  8.00e-03   10.6000 >    0.3948   -0.0087    0.8596  694.3764 5155.6832   -0.4382    0.1828  87.56  -1.0  -1.0  0     0.0000    0.0004
28           ?    N    ? P      ? 20180313 0311   49.9334 GAU  4.85e-03 -1.00e+00  9.95e+00  8.00e-03    9.9500 >    0.3927   -0.0040    1.2311  694.3767 5155.6745   -0.4362    0.1829  90.31  -1.0  -1.0  0     0.0000    0.0004
20           ?    N    ? P      ? 20180313 0311   49.9562 GAU  3.40e-03 -1.00e+00  8.56e+00  1.20e-02    8.5600 >    0.4147   -0.0031    1.3030  694.3609 5155.7515   -0.4553    0.1836  65.54  -1.0  -1.0  0     0.0000    0.0004
30           ?    N    ? P      ? 20180313 0311   49.9349 GAU  4.68e-03 -1.00e+00  9.48e+00  1.20e-02    9.4800 >    0.3914   -0.0011    1.5477  694.3775 5155.6619   -0.4333    0.1842  94.22  -1.0  -1.0  0     0.0000    0.0004
18           ?    N    ? P      ? 20180313 0311   49.9644 GAU  3.40e-03 -1.00e+00  8.14e+00  2.80e-02    8.1400 >    0.4208   -0.0011    1.6172  694.3549 5155.7674   -0.4586    0.1855  60.29  -1.0  -1.0  0     0.0000    0.0004
17           ?    N    ? P      ? 20180313 0311   49.9779 GAU  2.94e-03 -1.00e+00  8.34e+00  1.20e-02    8.3400 >    0.4257    0.0076    1.6167  694.3461 5155.7815   -0.4621    0.1856  55.17  -1.0  -1.0  0     0.0000    0.0004
32           ?    N    ? P      ? 20180313 0311   49.9401 GAU  4.51e-03 -1.00e+00  9.08e+00  1.20e-02    9.0800 >    0.3895    0.0060    1.6977  694.3777 5155.6456   -0.4297    0.1863  99.23  -1.0  -1.0  0     0.0000    0.0004
33           ?    N    ? P      ? 20180313 0311   49.9506 GAU  6.02e-03 -1.00e+00  8.62e+00  1.20e-02    8.6200 >    0.3876    0.0183    0.5657  694.3775 5155.6293   -0.4252    0.1895 104.09  -1.0  -1.0  0     0.0000    0.0004
16           ?    N    ? P      ? 20180313 0311   49.9929 GAU  8.51e-03 -1.00e+00  8.43e+00  8.00e-03    8.4300 >    0.4335    0.0148    1.0904  694.3452 5155.7921   -0.4642    0.1912  52.39  -1.0  -1.0  0     0.0000    0.0004
35           ?    N    ? P      ? 20180313 0311   49.9018 GAU  3.48e-02 -1.00e+00  8.23e+00  8.00e-03    8.2300 >    0.3926   -0.0354    0.4631  694.3818 5155.6141   -0.4216    0.1978 108.07  -1.0  -1.0  0     0.0000    0.0004
12           ?    N    ? P      ? 20180313 0311   49.9908 GAU  8.47e-03 -1.00e+00  7.29e+00  8.00e-03    7.2900 >    0.4470   -0.0009    2.1535  694.3356 5155.8197   -0.4663    0.2023  44.52  -1.0  -1.0  0     0.0000    0.0004
27           ?    N    ? P      ? 20180313 0311   49.9711 GAU  9.86e-03 -1.00e+00  8.30e+00  8.00e-03    8.3000 >    0.4225    0.0040    0.9879  694.4008 5155.6912   -0.4412    0.2076  85.64  -1.0  -1.0  0     0.0000    0.0004
103          ?    N    ? P      ? 20180313 0311   49.9712 GAU  7.95e-03 -1.00e+00  7.60e+00  1.20e-02    7.6000 >    0.4508   -0.0242    0.3052  694.3644 5155.7952   -0.4662    0.2084  54.94  -1.0  -1.0  0     0.0000    0.0005
10           ?    N    ? P      ? 20180313 0311   49.9956 GAU  1.11e-02 -1.00e+00  6.64e+00  1.20e-02    6.6400 >    0.4560   -0.0050    1.8444  694.3329 5155.8329   -0.4673    0.2101  41.47  -1.0  -1.0  0     0.0000    0.0005
36           ?    N    ? P      ? 20180313 0311   49.8192 GAU  5.68e-03 -1.00e+00  7.19e+00  1.20e-02    7.1900 >    0.4012   -0.1267    0.0055  694.3865 5155.5904   -0.4164    0.2107 113.82  -1.0  -1.0  0     0.0000    0.0004
22           ?    N    ? P      ? 20180313 0311   49.9750 GAU  6.34e-03 -1.00e+00  8.83e+00  1.20e-02    8.8300 >    0.4334   -0.0030    1.1122  694.3985 5155.7265   -0.4488    0.2110  75.99  -1.0  -1.0  0     0.0000    0.0004
31           ?    N    ? P      ? 20180313 0311   49.9710 GAU  1.54e-02 -1.00e+00  8.53e+00  1.20e-02    8.5300 >    0.4243    0.0021    1.0853  694.4086 5155.6503   -0.4335    0.2163  96.67  -1.0  -1.0  0     0.0000    0.0004
38           ?    N    ? P      ? 20180313 0311   49.8224 GAU  1.15e-02 -1.00e+00  7.31e+00  8.00e-03    7.3100 >    0.4128   -0.1351    0.0063  694.3902 5155.5681   -0.4123    0.2238 118.66  -1.0  -1.0  0     0.0000    0.0004
34           ?    N    ? P      ? 20180313 0311   49.9715 GAU  1.02e-02 -1.00e+00  8.16e+00  1.20e-02    8.1600 >    0.4309   -0.0040    1.7741  694.4145 5155.6153   -0.4263    0.2288 105.25  -1.0  -1.0  0     0.0000    0.0004
39           ?    N    ? P      ? 20180313 0311   49.7939 GAU  4.18e-03 -1.00e+00  8.21e+00  8.00e-03    8.2100 >    0.4173   -0.1681    0.0062  694.3890 5155.5532   -0.4086    0.2304 122.06  -1.0  -1.0  0     0.0000    0.0004
6            ?    N    ? P      ? 20180313 0311   50.1360 GAU  5.83e-03 -1.00e+00  7.45e+00  1.20e-02    7.4500 >    0.4820    0.1093    0.0477  694.3446 5155.8502   -0.4728    0.2308  40.81  -1.0  -1.0  0     0.0000    0.0005
37           ?    N    ? P      ? 20180313 0311   49.9924 GAU  1.10e-02 -1.00e+00  7.27e+00  8.00e-03    7.2700 >    0.4455    0.0023    2.1733  694.4219 5155.5876   -0.4220    0.2445 111.06  -1.0  -1.0  0     0.0000    0.0004
40           ?    N    ? P      ? 20180313 0311   49.8264 GAU  1.89e-02 -1.00e+00  6.97e+00  8.00e-03    6.9700 >    0.4571   -0.1753    0.0087  694.4169 5155.5417   -0.4131    0.2601 120.94  -1.0  -1.0  0     0.0000    0.0005
END_PHASE
END_NLLOC

