NLLOC "./loc/RR.20180313.014006.grid0" "REJECTED" "WARNING: max prob location on grid boundary 31, rejecting location."
PUBLIC_ID None
SIGNATURE "   obs:./obs/nll_picks.obs   NLLoc:v7.00.10(30Aug2020)   run:29Apr2022 23h20m27"
COMMENT "Rattlesnake Ridge Slidequake Locations"
GRID  150 250 75  694.15 5155.4 0  0.002 0.002 0.002 PROB_DENSITY
SEARCH OCTREE nInitial 1000 nEvaluated 8360 smallestNodeSide 0.001863/0.003112/0.000925 oct_tree_integral 3.911549e-05 scatter_volume 3.890688e-05
HYPOCENTER  x 694.237 y 5155.64 z 0.147537  OT 6.23404  ix -1 iy -1 iz -1 MAXIMUM_LIKELIHOOD
GEOGRAPHIC  OT 2018 03 13  01 40 6.234035  Lat 5155.638106 Long 694.236606 Depth 0.147537
QUALITY  Pmax 4.86917e+107 MFmin 248.125 MFmax 248.227 RMS 0.00837666 Nphs 24 Gap 272.24 Dist 0.0862935 Mamp  0.73 24 Mdur -9.90 0
VPVSRATIO  VpVsRatio -1  Npair 0  Diff -2e+30
STATISTICS  ExpectX 694.212923 Y 5155.633249 Z 0.122653  CovXX 0.00197598 XY 0.000214792 XZ 0.00041709 YY 7.52838e-05 YZ 0.000116878 ZZ 0.00059953 EllAz1  175.509 Dip1  8.53604 Len1  0.0120034 Az2  293.026 Dip2  72.0026 Len2  0.041576 Len3  8.651395e-02
STAT_GEOG  ExpectLat 5155.633249 Long 694.212923 Depth 0.122653
TRANSFORM  NONE
QML_OriginQuality  assocPhCt 24  usedPhCt 24  assocStaCt -1  usedStaCt 24  depthPhCt -1  stdErr 0.00837666  azGap 272.24  secAzGap 279.507  gtLevel -  minDist 0.0862935 maxDist 0.204419 medDist 0.165454
QML_OriginUncertainty  horUnc -1  minHorUnc 0.0108637  maxHorUnc 0.0678225  azMaxHorUnc 83.6322
QML_ConfidenceEllipsoid  semiMajorAxisLength 0.086514  semiMinorAxisLength 0.0120034  semiIntermediateAxisLength 0.041576  majorAxisPlunge 15.7229  majorAxisAzimuth 83.0872  majorAxisRotation 10.3668
FOCALMECH  Hyp  5155.638106 694.236606 0.147537 Mech  0 0 0 mf  0 nObs -1
PHASE ID Ins Cmp On Pha  FM Date     HrMn   Sec     Err  ErrMag    Coda      Amp       Per       PriorWt  >   TTpred    Res       Weight    StaLoc(X  Y         Z)        SDist    SAzim  RAz  RDip RQual    Tcorr       TTerr
106          ?    N    ? P      ? 20180313 0140    6.6139 GAU  5.88e-03 -1.00e+00  7.47e+00  1.20e-02    7.4700 >    0.2880    0.0919    0.0000  694.3120 5155.6801   -0.4360    0.0863  60.91  -1.0  -1.0  0     0.0000    0.0003
33           ?    N    ? P      ? 20180313 0140    6.5513 GAU  8.59e-03 -1.00e+00  8.89e+00  1.20e-02    8.8900 >    0.3195   -0.0022    0.9013  694.3775 5155.6293   -0.4252    0.1412  93.57  -1.0  -1.0  0     0.0000    0.0003
32           ?    N    ? P      ? 20180313 0140    6.5517 GAU  6.68e-03 -1.00e+00  8.61e+00  8.00e-03    8.6100 >    0.3242   -0.0065    0.8187  694.3777 5155.6456   -0.4297    0.1413  86.97  -1.0  -1.0  0     0.0000    0.0003
30           ?    N    ? P      ? 20180313 0140    6.5663 GAU  8.27e-03 -1.00e+00  8.28e+00  1.20e-02    8.2800 >    0.3297    0.0025    0.8481  694.3775 5155.6619   -0.4333    0.1429  80.41  -1.0  -1.0  0     0.0000    0.0003
28           ?    N    ? P      ? 20180313 0140    6.5792 GAU  4.30e-03 -1.00e+00  8.02e+00  2.40e-02    8.0200 >    0.3346    0.0105    0.7705  694.3767 5155.6745   -0.4362    0.1447  75.45  -1.0  -1.0  0     0.0000    0.0003
105          ?    N    ? P      ? 20180313 0140    6.5806 GAU  7.32e-03 -1.00e+00  8.11e+00  3.60e-02    8.1100 >    0.3389    0.0077    0.8622  694.3764 5155.6832   -0.4382    0.1469  72.11  -1.0  -1.0  0     0.0000    0.0003
35           ?    N    ? P      ? 20180313 0140    6.5583 GAU  5.73e-03 -1.00e+00  9.27e+00  8.00e-03    9.2700 >    0.3210    0.0033    1.1372  694.3818 5155.6141   -0.4216    0.1471  99.38  -1.0  -1.0  0     0.0000    0.0003
25           ?    N    ? P      ? 20180313 0140    6.5908 GAU  1.72e-02 -1.00e+00  7.27e+00  1.60e-02    7.2700 >    0.3480    0.0088    0.7585  694.3684 5155.7091   -0.4438    0.1497  61.69  -1.0  -1.0  0     0.0000    0.0003
26           ?    N    ? P      ? 20180313 0140    6.5849 GAU  3.02e-03 -1.00e+00  7.44e+00  1.20e-02    7.4400 >    0.3453    0.0056    0.9762  694.3783 5155.6910   -0.4400    0.1512  69.54  -1.0  -1.0  0     0.0000    0.0003
23           ?    N    ? P      ? 20180313 0140    6.6089 GAU  5.73e-03 -1.00e+00  7.94e+00  8.00e-03    7.9400 >    0.3577    0.0172    0.6453  694.3677 5155.7226   -0.4473    0.1559  57.21  -1.0  -1.0  0     0.0000    0.0004
36           ?    N    ? P      ? 20180313 0140    6.5593 GAU  2.86e-03 -1.00e+00  8.05e+00  1.20e-02    8.0500 >    0.3262   -0.0010    1.2771  694.3865 5155.5904   -0.4164    0.1573 107.67  -1.0  -1.0  0     0.0000    0.0003
21           ?    N    ? P      ? 20180313 0140    6.6059 GAU  8.77e-03 -1.00e+00  6.92e+00  8.00e-03    6.9200 >    0.3696    0.0023    1.5646  694.3642 5155.7391   -0.4517    0.1627  51.62  -1.0  -1.0  0     0.0000    0.0004
20           ?    N    ? P      ? 20180313 0140    6.6050 GAU  1.03e-02 -1.00e+00  6.01e+00  8.00e-03    6.0100 >    0.3784   -0.0074    1.3897  694.3609 5155.7515   -0.4553    0.1682  47.62  -1.0  -1.0  0     0.0000    0.0004
38           ?    N    ? P      ? 20180313 0140    6.5607 GAU  4.94e-03 -1.00e+00  7.25e+00  1.20e-02    7.2500 >    0.3346   -0.0079    1.2382  694.3902 5155.5681   -0.4123    0.1687 114.50  -1.0  -1.0  0     0.0000    0.0003
31           ?    N    ? P      ? 20180313 0140    6.5820 GAU  9.07e-03 -1.00e+00  7.30e+00  8.00e-03    7.3000 >    0.3594   -0.0114    0.6600  694.4086 5155.6503   -0.4335    0.1725  85.93  -1.0  -1.0  0     0.0000    0.0004
27           ?    N    ? P      ? 20180313 0140    6.6059 GAU  6.20e-03 -1.00e+00  7.01e+00  1.20e-02    7.0100 >    0.3671    0.0047    1.0201  694.4008 5155.6912   -0.4412    0.1726  72.06  -1.0  -1.0  0     0.0000    0.0004
39           ?    N    ? P      ? 20180313 0140    6.5820 GAU  5.32e-03 -1.00e+00  7.57e+00  1.20e-02    7.5700 >    0.3376    0.0104    1.6715  694.3890 5155.5532   -0.4086    0.1745 119.13  -1.0  -1.0  0     0.0000    0.0003
18           ?    N    ? P      ? 20180313 0140    6.6059 GAU  1.54e-02 -1.00e+00  5.71e+00  1.20e-02    5.7100 >    0.3889   -0.0170    0.9620  694.3549 5155.7674   -0.4586    0.1752  42.45  -1.0  -1.0  0     0.0000    0.0004
34           ?    N    ? P      ? 20180313 0140    6.5881 GAU  7.15e-03 -1.00e+00  7.21e+00  2.80e-02    7.2100 >    0.3602   -0.0061    0.9101  694.4145 5155.6153   -0.4263    0.1794  97.31  -1.0  -1.0  0     0.0000    0.0004
41           ?    N    ? P      ? 20180313 0140    6.5900 GAU  7.22e-03 -1.00e+00  6.70e+00  1.60e-02    6.7000 >    0.3445    0.0115    1.5905  694.3901 5155.5386   -0.4053    0.1829 122.94  -1.0  -1.0  0     0.0000    0.0003
22           ?    N    ? P      ? 20180313 0140    6.6126 GAU  7.56e-03 -1.00e+00  5.76e+00  4.00e-02    5.7600 >    0.3872   -0.0087    1.1079  694.3985 5155.7265   -0.4488    0.1845  61.35  -1.0  -1.0  0     0.0000    0.0004
16           ?    N    ? P      ? 20180313 0140    6.6112 GAU  2.22e-02 -1.00e+00  6.30e+00  8.00e-03    6.3000 >    0.4079   -0.0308    0.6575  694.3452 5155.7921   -0.4642    0.1884  35.18  -1.0  -1.0  0     0.0000    0.0004
37           ?    N    ? P      ? 20180313 0140    6.5846 GAU  1.07e-02 -1.00e+00  7.12e+00  8.00e-03    7.1200 >    0.3702   -0.0196    0.6165  694.4219 5155.5876   -0.4220    0.1921 105.25  -1.0  -1.0  0     0.0000    0.0004
40           ?    N    ? P      ? 20180313 0140    6.6076 GAU  1.31e-02 -1.00e+00  7.47e+00  1.20e-02    7.4700 >    0.3770   -0.0035    1.6162  694.4169 5155.5417   -0.4131    0.2044 118.13  -1.0  -1.0  0     0.0000    0.0004
END_PHASE
END_NLLOC

