NLLOC "./loc/RR.20180313.031710.grid0" "LOCATED" "Location completed."
PUBLIC_ID None
SIGNATURE "   obs:./obs/nll_picks.obs   NLLoc:v7.00.10(30Aug2020)   run:29Apr2022 23h21m26"
COMMENT "Rattlesnake Ridge Slidequake Locations"
GRID  150 250 75  694.15 5155.4 0  0.002 0.002 0.002 PROB_DENSITY
SEARCH OCTREE nInitial 1000 nEvaluated 7992 smallestNodeSide 0.001863/0.003112/0.000925 oct_tree_integral 4.030818e-05 scatter_volume 4.018024e-05
HYPOCENTER  x 694.256 y 5155.62 z 0.121175  OT 10.0919  ix -1 iy -1 iz -1 MAXIMUM_LIKELIHOOD
GEOGRAPHIC  OT 2018 03 13  03 17 10.091878  Lat 5155.620987 Long 694.256162 Depth 0.121175
QUALITY  Pmax 5.28744e+125 MFmin 303.436 MFmax 303.502 RMS 0.00819877 Nphs 27 Gap 258.94 Dist 0.0812946 Mamp  0.71 27 Mdur -9.90 0
VPVSRATIO  VpVsRatio -1  Npair 0  Diff -2e+30
STATISTICS  ExpectX 694.232719 Y 5155.614525 Z 0.098786  CovXX 0.000756319 XY 0.000174902 XZ 0.000426325 YY 8.0788e-05 YZ 0.000209289 ZZ 0.000933466 EllAz1  171.81 Dip1  9.12293 Len1  0.00874425 Az2  269.359 Dip2  39.2853 Len2  0.0380199 Len3  6.876151e-02
STAT_GEOG  ExpectLat 5155.614525 Long 694.232719 Depth 0.098786
TRANSFORM  NONE
QML_OriginQuality  assocPhCt 27  usedPhCt 27  assocStaCt -1  usedStaCt 27  depthPhCt -1  stdErr 0.00819877  azGap 258.94  secAzGap 265.9  gtLevel -  minDist 0.0812946 maxDist 0.205068 medDist 0.155265
QML_OriginUncertainty  horUnc -1  minHorUnc 0.00937219  maxHorUnc 0.0428662  azMaxHorUnc 76.312
QML_ConfidenceEllipsoid  semiMajorAxisLength 0.0687615  semiMinorAxisLength 0.00874425  semiIntermediateAxisLength 0.0380199  majorAxisPlunge 49.2521  majorAxisAzimuth 71.0683  majorAxisRotation 300.565
FOCALMECH  Hyp  5155.620987 694.256162 0.121175 Mech  0 0 0 mf  0 nObs -1
PHASE ID Ins Cmp On Pha  FM Date     HrMn   Sec     Err  ErrMag    Coda      Amp       Per       PriorWt  >   TTpred    Res       Weight    StaLoc(X  Y         Z)        SDist    SAzim  RAz  RDip RQual    Tcorr       TTerr
106          ?    N    ? P      ? 20180313 0317   10.4473 GAU  1.03e-02 -1.00e+00  7.77e+00  1.60e-02    7.7700 >    0.2472    0.1082    0.0002  694.3120 5155.6801   -0.4360    0.0813  43.40  -1.0  -1.0  0     0.0000    0.0002
33           ?    N    ? P      ? 20180313 0317   10.3630 GAU  7.15e-03 -1.00e+00  1.10e+01  1.20e-02   11.0000 >    0.2708    0.0003    1.0557  694.3775 5155.6293   -0.4252    0.1216  86.07  -1.0  -1.0  0     0.0000    0.0003
32           ?    N    ? P      ? 20180313 0317   10.3636 GAU  5.04e-03 -1.00e+00  9.67e+00  1.20e-02    9.6700 >    0.2778   -0.0061    0.8643  694.3777 5155.6456   -0.4297    0.1240  78.56  -1.0  -1.0  0     0.0000    0.0003
35           ?    N    ? P      ? 20180313 0317   10.3617 GAU  4.77e-03 -1.00e+00  1.12e+01  2.40e-02   11.2000 >    0.2709   -0.0011    1.1909  694.3818 5155.6141   -0.4216    0.1258  93.13  -1.0  -1.0  0     0.0000    0.0003
30           ?    N    ? P      ? 20180313 0317   10.3800 GAU  5.56e-03 -1.00e+00  9.24e+00  1.20e-02    9.2400 >    0.2857    0.0024    1.0451  694.3775 5155.6619   -0.4333    0.1280  71.36  -1.0  -1.0  0     0.0000    0.0003
28           ?    N    ? P      ? 20180313 0317   10.3890 GAU  6.09e-03 -1.00e+00  8.34e+00  4.00e-03    8.3400 >    0.2928    0.0043    1.0182  694.3767 5155.6745   -0.4362    0.1318  66.07  -1.0  -1.0  0     0.0000    0.0003
36           ?    N    ? P      ? 20180313 0317   10.3834 GAU  4.24e-03 -1.00e+00  1.00e+01  1.20e-02   10.0000 >    0.2743    0.0172    0.8125  694.3865 5155.5904   -0.4164    0.1339 103.22  -1.0  -1.0  0     0.0000    0.0003
105          ?    N    ? P      ? 20180313 0317   10.3975 GAU  8.74e-03 -1.00e+00  9.41e+00  8.00e-03    9.4100 >    0.2983    0.0073    1.0139  694.3764 5155.6832   -0.4382    0.1354  62.63  -1.0  -1.0  0     0.0000    0.0003
26           ?    N    ? P      ? 20180313 0317   10.3940 GAU  6.89e-03 -1.00e+00  8.13e+00  1.20e-02    8.1300 >    0.3061   -0.0040    1.0621  694.3783 5155.6910   -0.4400    0.1408  60.19  -1.0  -1.0  0     0.0000    0.0003
25           ?    N    ? P      ? 20180313 0317   10.4224 GAU  8.22e-03 -1.00e+00  7.62e+00  4.80e-02    7.6200 >    0.3125    0.0181    0.7052  694.3684 5155.7091   -0.4438    0.1427  51.87  -1.0  -1.0  0     0.0000    0.0003
38           ?    N    ? P      ? 20180313 0317   10.3652 GAU  3.98e-03 -1.00e+00  8.44e+00  4.00e-02    8.4400 >    0.2827   -0.0093    0.9348  694.3902 5155.5681   -0.4123    0.1440 111.53  -1.0  -1.0  0     0.0000    0.0003
39           ?    N    ? P      ? 20180313 0317   10.3771 GAU  4.24e-03 -1.00e+00  8.82e+00  1.20e-02    8.8200 >    0.2851    0.0001    1.8409  694.3890 5155.5532   -0.4086    0.1492 117.04  -1.0  -1.0  0     0.0000    0.0003
23           ?    N    ? P      ? 20180313 0317   10.4179 GAU  5.30e-03 -1.00e+00  7.44e+00  3.20e-02    7.4400 >    0.3247    0.0013    1.5504  694.3677 5155.7226   -0.4473    0.1508  47.68  -1.0  -1.0  0     0.0000    0.0003
31           ?    N    ? P      ? 20180313 0317   10.4038 GAU  1.88e-02 -1.00e+00  8.28e+00  1.20e-02    8.2800 >    0.3152   -0.0032    0.6349  694.4086 5155.6503   -0.4335    0.1553  79.10  -1.0  -1.0  0     0.0000    0.0003
41           ?    N    ? P      ? 20180313 0317   10.3975 GAU  3.98e-03 -1.00e+00  8.06e+00  1.20e-02    8.0600 >    0.2923    0.0133    1.3574  694.3901 5155.5386   -0.4053    0.1572 121.58  -1.0  -1.0  0     0.0000    0.0003
34           ?    N    ? P      ? 20180313 0317   10.4203 GAU  8.74e-03 -1.00e+00  8.60e+00  8.00e-03    8.6000 >    0.3126    0.0159    0.7452  694.4145 5155.6153   -0.4263    0.1585  92.06  -1.0  -1.0  0     0.0000    0.0003
21           ?    N    ? P      ? 20180313 0317   10.4423 GAU  1.06e-02 -1.00e+00  6.88e+00  6.40e-02    6.8800 >    0.3394    0.0110    1.1937  694.3642 5155.7391   -0.4517    0.1601  42.43  -1.0  -1.0  0     0.0000    0.0003
27           ?    N    ? P      ? 20180313 0317   10.4341 GAU  7.15e-03 -1.00e+00  7.45e+00  8.00e-03    7.4500 >    0.3287    0.0135    0.8195  694.4008 5155.6912   -0.4412    0.1608  64.09  -1.0  -1.0  0     0.0000    0.0003
20           ?    N    ? P      ? 20180313 0317   10.4245 GAU  1.40e-02 -1.00e+00  6.86e+00  1.20e-02    6.8600 >    0.3507   -0.0181    0.6532  694.3609 5155.7515   -0.4553    0.1673  38.74  -1.0  -1.0  0     0.0000    0.0004
42           ?    N    ? P      ? 20180313 0317   10.3983 GAU  9.67e-03 -1.00e+00  6.89e+00  2.40e-02    6.8900 >    0.3004    0.0061    1.7533  694.3873 5155.5165   -0.3983    0.1676 128.54  -1.0  -1.0  0     0.0000    0.0003
37           ?    N    ? P      ? 20180313 0317   10.4105 GAU  5.30e-03 -1.00e+00  8.52e+00  8.00e-03    8.5200 >    0.3212   -0.0026    1.3307  694.4219 5155.5876   -0.4220    0.1691 101.39  -1.0  -1.0  0     0.0000    0.0003
18           ?    N    ? P      ? 20180313 0317   10.4558 GAU  1.67e-02 -1.00e+00  6.52e+00  2.80e-02    6.5200 >    0.3641   -0.0002    1.2892  694.3549 5155.7674   -0.4586    0.1766  33.99  -1.0  -1.0  0     0.0000    0.0004
22           ?    N    ? P      ? 20180313 0317   10.4645 GAU  2.70e-02 -1.00e+00  7.24e+00  8.00e-03    7.2400 >    0.3549    0.0177    0.6052  694.3985 5155.7265   -0.4488    0.1772  53.44  -1.0  -1.0  0     0.0000    0.0004
40           ?    N    ? P      ? 20180313 0317   10.4192 GAU  6.62e-03 -1.00e+00  8.49e+00  1.20e-02    8.4900 >    0.3267    0.0006    1.8871  694.4169 5155.5417   -0.4131    0.1792 116.25  -1.0  -1.0  0     0.0000    0.0003
17           ?    N    ? P      ? 20180313 0317   10.4203 GAU  1.51e-02 -1.00e+00  6.37e+00  8.00e-03    6.3700 >    0.3759   -0.0475    0.0407  694.3461 5155.7815   -0.4621    0.1840  29.28  -1.0  -1.0  0     0.0000    0.0004
16           ?    N    ? P      ? 20180313 0317   10.4743 GAU  1.51e-02 -1.00e+00  7.26e+00  1.20e-02    7.2600 >    0.3876   -0.0052    1.5828  694.3452 5155.7921   -0.4642    0.1929  27.48  -1.0  -1.0  0     0.0000    0.0004
103          ?    N    ? P      ? 20180313 0317   10.4439 GAU  1.11e-02 -1.00e+00  6.33e+00  1.60e-02    6.3300 >    0.4034   -0.0513    0.0126  694.3644 5155.7952   -0.4662    0.2051  31.85  -1.0  -1.0  0     0.0000    0.0004
END_PHASE
END_NLLOC

