# EQEVENT:  Label: EQ001  Loc:  X 10.0  Y 100.0  Z 0.07  OT 0.00
17     ?    N    ? P      ? 20180313 0000 14.2602 GAU 8.26e-03  0.00e+00  7.96e+00  1.20e-02    7.96e+00
21     ?    N    ? P      ? 20180313 0000 14.2796 GAU 1.19e-02  0.00e+00  7.92e+00  8.00e-03    7.92e+00
18     ?    N    ? P      ? 20180313 0000 14.2798 GAU 8.37e-03  0.00e+00  8.02e+00  8.00e-03    8.02e+00
20     ?    N    ? P      ? 20180313 0000 14.2822 GAU 1.01e-02  0.00e+00  8.22e+00  8.00e-03    8.22e+00
23     ?    N    ? P      ? 20180313 0000 14.2965 GAU 2.07e-02  0.00e+00  7.29e+00  8.00e-03    7.29e+00
25     ?    N    ? P      ? 20180313 0000 14.2910 GAU 1.05e-02  0.00e+00  7.00e+00  8.00e-03    7.00e+00
103    ?    N    ? P      ? 20180313 0000 14.3154 GAU 1.36e-02  0.00e+00  7.16e+00  1.20e-02    7.16e+00
16     ?    N    ? P      ? 20180313 0000 14.3159 GAU 3.86e-03  0.00e+00  8.75e+00  8.00e-03    8.75e+00
#
# EQEVENT:
33     ?    N    ? P      ? 20180313 0000 17.2700 GAU 1.00e-02  0.00e+00  7.24e+00  1.20e-02    7.24e+00
35     ?    N    ? P      ? 20180313 0000 17.2380 GAU 7.76e-03  0.00e+00  7.45e+00  1.20e-02    7.45e+00
28     ?    N    ? P      ? 20180313 0000 17.3040 GAU 1.42e-02  0.00e+00  7.30e+00  2.40e-02    7.30e+00
105    ?    N    ? P      ? 20180313 0000 17.3230 GAU 7.72e-03  0.00e+00  7.73e+00  8.00e-03    7.73e+00
30     ?    N    ? P      ? 20180313 0000 17.3110 GAU 6.08e-03  0.00e+00  7.56e+00  4.40e-02    7.56e+00
26     ?    N    ? P      ? 20180313 0000 17.4010 GAU 4.13e-03  0.00e+00  6.88e+00  1.20e-02    6.88e+00
27     ?    N    ? P      ? 20180313 0000 17.9900 GAU 1.45e-02  0.00e+00  5.98e+00  2.00e-02    5.98e+00
#
# EQEVENT:
30     ?    N    ? P      ? 20180313 0000 25.1830 GAU 1.12e-02  0.00e+00  8.88e+00  1.20e-02    8.88e+00
35     ?    N    ? P      ? 20180313 0000 25.1797 GAU 6.64e-03  0.00e+00  8.82e+00  1.20e-02    8.82e+00
32     ?    N    ? P      ? 20180313 0000 25.1790 GAU 3.98e-03  0.00e+00  9.29e+00  1.20e-02    9.29e+00
33     ?    N    ? P      ? 20180313 0000 25.1828 GAU 4.71e-03  0.00e+00  8.34e+00  1.20e-02    8.34e+00
26     ?    N    ? P      ? 20180313 0000 25.1975 GAU 1.06e-02  0.00e+00  7.90e+00  1.20e-02    7.90e+00
105    ?    N    ? P      ? 20180313 0000 25.1962 GAU 8.36e-03  0.00e+00  9.40e+00  8.00e-03    9.40e+00
28     ?    N    ? P      ? 20180313 0000 25.1946 GAU 6.39e-03  0.00e+00  8.57e+00  8.00e-03    8.57e+00
25     ?    N    ? P      ? 20180313 0000 25.2202 GAU 7.05e-03  0.00e+00  7.40e+00  8.00e-03    7.40e+00
23     ?    N    ? P      ? 20180313 0000 25.2382 GAU 1.00e-02  0.00e+00  7.62e+00  8.00e-03    7.62e+00
27     ?    N    ? P      ? 20180313 0000 25.2370 GAU 7.87e-03  0.00e+00  6.77e+00  2.40e-02    6.77e+00
31     ?    N    ? P      ? 20180313 0000 25.2519 GAU 6.77e-03  0.00e+00  7.59e+00  1.60e-02    7.59e+00
#
# EQEVENT:
32     ?    N    ? P      ? 20180313 0000 29.6350 GAU 2.98e-02  0.00e+00  7.29e+00  1.20e-02    7.29e+00
30     ?    N    ? P      ? 20180313 0000 29.6549 GAU 1.43e-02  0.00e+00  7.15e+00  1.20e-02    7.15e+00
33     ?    N    ? P      ? 20180313 0000 29.6568 GAU 8.73e-03  0.00e+00  7.40e+00  1.20e-02    7.40e+00
105    ?    N    ? P      ? 20180313 0000 29.6584 GAU 6.74e-03  0.00e+00  7.73e+00  1.20e-02    7.73e+00
23     ?    N    ? P      ? 20180313 0000 29.6725 GAU 1.73e-02  0.00e+00  7.15e+00  1.20e-02    7.15e+00
26     ?    N    ? P      ? 20180313 0000 29.6680 GAU 6.35e-03  0.00e+00  6.89e+00  1.20e-02    6.89e+00
28     ?    N    ? P      ? 20180313 0000 29.6753 GAU 8.93e-03  0.00e+00  8.15e+00  8.00e-03    8.15e+00
#
# EQEVENT:
15     ?    N    ? P      ? 20180313 0000 42.3117 GAU 5.26e-03  0.00e+00  1.11e+01  1.20e-02    1.11e+01
2      ?    N    ? P      ? 20180313 0000 42.3160 GAU 9.03e-03  0.00e+00  7.56e+00  1.20e-02    7.56e+00
17     ?    N    ? P      ? 20180313 0000 42.3189 GAU 9.55e-03  0.00e+00  6.85e+00  1.20e-02    6.85e+00
8      ?    N    ? P      ? 20180313 0000 42.3169 GAU 5.41e-03  0.00e+00  7.69e+00  1.20e-02    7.69e+00
10     ?    N    ? P      ? 20180313 0000 42.3238 GAU 8.44e-03  0.00e+00  8.67e+00  5.60e-02    8.67e+00
12     ?    N    ? P      ? 20180313 0000 42.3265 GAU 6.05e-03  0.00e+00  8.96e+00  8.00e-03    8.96e+00
4      ?    N    ? P      ? 20180313 0000 42.3403 GAU 1.19e-02  0.00e+00  7.41e+00  1.20e-02    7.41e+00
18     ?    N    ? P      ? 20180313 0000 42.3362 GAU 5.58e-03  0.00e+00  6.32e+00  1.20e-02    6.32e+00
16     ?    N    ? P      ? 20180313 0000 42.3391 GAU 4.62e-03  0.00e+00  8.12e+00  5.20e-02    8.12e+00
13     ?    N    ? P      ? 20180313 0000 42.3507 GAU 1.05e-02  0.00e+00  8.69e+00  1.20e-02    8.69e+00
6      ?    N    ? P      ? 20180313 0000 42.3648 GAU 1.55e-02  0.00e+00  7.40e+00  8.00e-03    7.40e+00
5      ?    N    ? P      ? 20180313 0000 42.3634 GAU 9.79e-03  0.00e+00  8.47e+00  1.20e-02    8.47e+00
103    ?    N    ? P      ? 20180313 0000 42.3786 GAU 1.07e-02  0.00e+00  7.38e+00  1.20e-02    7.38e+00
#
# EQEVENT:
38     ?    N    ? P      ? 20180313 0000 42.6273 GAU 1.40e-02  0.00e+00  6.18e+00  1.60e-02    6.18e+00
39     ?    N    ? P      ? 20180313 0000 42.6324 GAU 1.30e-02  0.00e+00  6.03e+00  2.40e-02    6.03e+00
36     ?    N    ? P      ? 20180313 0000 42.6819 GAU 1.43e-02  0.00e+00  7.15e+00  3.20e-02    7.15e+00
105    ?    N    ? P      ? 20180313 0000 42.8127 GAU 9.83e-03  0.00e+00  8.43e+00  8.00e-03    8.43e+00
28     ?    N    ? P      ? 20180313 0000 42.8153 GAU 8.46e-03  0.00e+00  8.15e+00  1.20e-02    8.15e+00
26     ?    N    ? P      ? 20180313 0000 42.8235 GAU 8.46e-03  0.00e+00  7.34e+00  1.20e-02    7.34e+00
30     ?    N    ? P      ? 20180313 0000 42.8471 GAU 2.10e-02  0.00e+00  7.32e+00  1.20e-02    7.32e+00
27     ?    N    ? P      ? 20180313 0000 42.8430 GAU 1.14e-02  0.00e+00  5.92e+00  1.20e-02    5.92e+00
#
# EQEVENT:
17     ?    N    ? P      ? 20180313 0000 48.3790 GAU 1.30e-02  0.00e+00  8.55e+00  1.20e-02    8.55e+00
16     ?    N    ? P      ? 20180313 0000 48.3832 GAU 1.03e-02  0.00e+00  9.50e+00  1.20e-02    9.50e+00
18     ?    N    ? P      ? 20180313 0000 48.3852 GAU 9.80e-03  0.00e+00  7.73e+00  8.00e-03    7.73e+00
20     ?    N    ? P      ? 20180313 0000 48.3898 GAU 1.05e-02  0.00e+00  7.35e+00  1.20e-02    7.35e+00
12     ?    N    ? P      ? 20180313 0000 48.3925 GAU 8.82e-03  0.00e+00  8.96e+00  8.00e-03    8.96e+00
8      ?    N    ? P      ? 20180313 0000 48.3999 GAU 1.27e-02  0.00e+00  6.62e+00  1.20e-02    6.62e+00
15     ?    N    ? P      ? 20180313 0000 48.3940 GAU 6.86e-03  0.00e+00  8.87e+00  8.00e-03    8.87e+00
10     ?    N    ? P      ? 20180313 0000 48.4026 GAU 7.11e-03  0.00e+00  7.55e+00  7.60e-02    7.55e+00
25     ?    N    ? P      ? 20180313 0000 48.4106 GAU 1.32e-02  0.00e+00  6.51e+00  8.00e-03    6.51e+00
23     ?    N    ? P      ? 20180313 0000 48.4148 GAU 1.64e-02  0.00e+00  7.15e+00  1.20e-02    7.15e+00
103    ?    N    ? P      ? 20180313 0000 48.4192 GAU 1.00e-02  0.00e+00  7.30e+00  2.00e-02    7.30e+00
5      ?    N    ? P      ? 20180313 0000 48.4464 GAU 2.21e-02  0.00e+00  7.72e+00  1.60e-02    7.72e+00
6      ?    N    ? P      ? 20180313 0000 48.4401 GAU 1.27e-02  0.00e+00  7.59e+00  1.20e-02    7.59e+00
13     ?    N    ? P      ? 20180313 0000 48.4506 GAU 1.89e-02  0.00e+00  7.93e+00  1.20e-02    7.93e+00
22     ?    N    ? P      ? 20180313 0000 48.4535 GAU 1.74e-02  0.00e+00  6.86e+00  1.20e-02    6.86e+00
#
# EQEVENT:
32     ?    N    ? P      ? 20180313 0000 50.3485 GAU 1.24e-02  0.00e+00  8.24e+00  1.20e-02    8.24e+00
33     ?    N    ? P      ? 20180313 0000 50.3586 GAU 1.06e-02  0.00e+00  8.70e+00  1.20e-02    8.70e+00
36     ?    N    ? P      ? 20180313 0000 50.3645 GAU 1.23e-02  0.00e+00  7.41e+00  1.20e-02    7.41e+00
38     ?    N    ? P      ? 20180313 0000 50.3735 GAU 1.88e-02  0.00e+00  6.48e+00  1.20e-02    6.48e+00
35     ?    N    ? P      ? 20180313 0000 50.3666 GAU 1.04e-02  0.00e+00  9.20e+00  1.20e-02    9.20e+00
30     ?    N    ? P      ? 20180313 0000 50.3643 GAU 7.62e-03  0.00e+00  8.20e+00  1.20e-02    8.20e+00
37     ?    N    ? P      ? 20180313 0000 50.3823 GAU 2.22e-02  0.00e+00  6.80e+00  1.20e-02    6.80e+00
26     ?    N    ? P      ? 20180313 0000 50.3753 GAU 1.41e-02  0.00e+00  7.79e+00  1.20e-02    7.79e+00
28     ?    N    ? P      ? 20180313 0000 50.3724 GAU 8.65e-03  0.00e+00  7.93e+00  8.00e-03    7.93e+00
105    ?    N    ? P      ? 20180313 0000 50.3768 GAU 1.18e-02  0.00e+00  8.27e+00  8.00e-03    8.27e+00
31     ?    N    ? P      ? 20180313 0000 50.3885 GAU 8.61e-03  0.00e+00  6.47e+00  1.20e-02    6.47e+00
23     ?    N    ? P      ? 20180313 0000 50.3911 GAU 7.33e-03  0.00e+00  7.76e+00  3.20e-02    7.76e+00
18     ?    N    ? P      ? 20180313 0000 50.4076 GAU 2.27e-02  0.00e+00  5.77e+00  2.40e-02    5.77e+00
27     ?    N    ? P      ? 20180313 0000 50.3982 GAU 1.15e-02  0.00e+00  7.26e+00  8.00e-03    7.26e+00
20     ?    N    ? P      ? 20180313 0000 50.4067 GAU 1.47e-02  0.00e+00  6.46e+00  8.00e-03    6.46e+00
25     ?    N    ? P      ? 20180313 0000 50.4031 GAU 1.11e-02  0.00e+00  7.53e+00  2.40e-02    7.53e+00
106    ?    N    ? P      ? 20180313 0000 50.4003 GAU 8.27e-03  0.00e+00  7.71e+00  8.00e-03    7.71e+00
40     ?    N    ? P      ? 20180313 0000 50.4081 GAU 1.21e-02  0.00e+00  6.70e+00  1.20e-02    6.70e+00
22     ?    N    ? P      ? 20180313 0000 50.4586 GAU 1.05e-02  0.00e+00  6.87e+00  8.00e-03    6.87e+00
#
# EQEVENT:
35     ?    N    ? P      ? 20180313 0000 56.3260 GAU 1.01e-02  0.00e+00  8.72e+00  2.80e-02    8.72e+00
33     ?    N    ? P      ? 20180313 0000 56.3280 GAU 8.16e-03  0.00e+00  8.33e+00  1.20e-02    8.33e+00
30     ?    N    ? P      ? 20180313 0000 56.3559 GAU 1.83e-02  0.00e+00  7.55e+00  1.20e-02    7.55e+00
36     ?    N    ? P      ? 20180313 0000 56.3559 GAU 1.29e-02  0.00e+00  7.45e+00  8.00e-03    7.45e+00
32     ?    N    ? P      ? 20180313 0000 56.3618 GAU 1.04e-02  0.00e+00  7.55e+00  1.20e-02    7.55e+00
37     ?    N    ? P      ? 20180313 0000 56.4132 GAU 1.63e-02  0.00e+00  6.29e+00  2.40e-02    6.29e+00
28     ?    N    ? P      ? 20180313 0000 56.4310 GAU 1.34e-02  0.00e+00  7.15e+00  2.80e-02    7.15e+00
31     ?    N    ? P      ? 20180313 0000 56.4340 GAU 1.04e-02  0.00e+00  6.23e+00  1.20e-02    6.23e+00
#
# EQEVENT:
20     ?    N    ? P      ? 20180313 0001 06.9030 GAU 1.37e-02  0.00e+00  6.23e+00  8.00e-03    6.23e+00
17     ?    N    ? P      ? 20180313 0001 06.9120 GAU 1.06e-02  0.00e+00  7.59e+00  8.00e-03    7.59e+00
8      ?    N    ? P      ? 20180313 0001 06.1303 GAU 1.82e-02  0.00e+00  7.12e+00  8.00e-03    7.12e+00
16     ?    N    ? P      ? 20180313 0001 06.1285 GAU 1.28e-02  0.00e+00  7.97e+00  1.20e-02    7.97e+00
15     ?    N    ? P      ? 20180313 0001 06.1272 GAU 9.21e-03  0.00e+00  9.97e+00  1.60e-02    9.97e+00
12     ?    N    ? P      ? 20180313 0001 06.1384 GAU 1.06e-02  0.00e+00  8.10e+00  1.20e-02    8.10e+00
10     ?    N    ? P      ? 20180313 0001 06.1474 GAU 7.87e-03  0.00e+00  7.28e+00  8.00e-03    7.28e+00
103    ?    N    ? P      ? 20180313 0001 06.1705 GAU 1.44e-02  0.00e+00  6.27e+00  1.20e-02    6.27e+00
6      ?    N    ? P      ? 20180313 0001 06.1995 GAU 1.10e-02  0.00e+00  7.00e+00  2.80e-02    7.00e+00
13     ?    N    ? P      ? 20180313 0001 06.2092 GAU 9.44e-03  0.00e+00  7.70e+00  1.60e-02    7.70e+00
#
# EQEVENT:
36     ?    N    ? P      ? 20180313 0001 18.1227 GAU 1.44e-02  0.00e+00  7.82e+00  1.60e-02    7.82e+00
39     ?    N    ? P      ? 20180313 0001 18.1193 GAU 5.52e-03  0.00e+00  8.11e+00  4.00e-02    8.11e+00
38     ?    N    ? P      ? 20180313 0001 18.1224 GAU 6.75e-03  0.00e+00  7.31e+00  1.20e-02    7.31e+00
41     ?    N    ? P      ? 20180313 0001 18.1224 GAU 6.75e-03  0.00e+00  7.73e+00  1.20e-02    7.73e+00
42     ?    N    ? P      ? 20180313 0001 18.1282 GAU 1.26e-02  0.00e+00  6.66e+00  5.60e-02    6.66e+00
35     ?    N    ? P      ? 20180313 0001 18.1536 GAU 1.41e-02  0.00e+00  7.61e+00  6.00e-02    7.61e+00
40     ?    N    ? P      ? 20180313 0001 18.1641 GAU 8.59e-03  0.00e+00  6.96e+00  1.20e-02    6.96e+00
37     ?    N    ? P      ? 20180313 0001 18.1978 GAU 1.35e-02  0.00e+00  7.44e+00  1.20e-02    7.44e+00
15     ?    N    ? P      ? 20180313 0001 25.5479 GAU 2.89e-03  0.00e+00  1.08e+01  8.00e-03    1.08e+01
12     ?    N    ? P      ? 20180313 0001 25.5763 GAU 8.18e-03  0.00e+00  8.43e+00  1.20e-02    8.43e+00
17     ?    N    ? P      ? 20180313 0001 25.5827 GAU 1.18e-02  0.00e+00  7.78e+00  1.20e-02    7.78e+00
8      ?    N    ? P      ? 20180313 0001 25.5886 GAU 1.68e-02  0.00e+00  7.26e+00  1.20e-02    7.26e+00
18     ?    N    ? P      ? 20180313 0001 25.5861 GAU 1.42e-02  0.00e+00  6.86e+00  8.00e-03    6.86e+00
16     ?    N    ? P      ? 20180313 0001 25.5840 GAU 1.10e-02  0.00e+00  8.05e+00  2.40e-02    8.05e+00
10     ?    N    ? P      ? 20180313 0001 25.5886 GAU 9.55e-03  0.00e+00  8.11e+00  1.20e-02    8.11e+00
20     ?    N    ? P      ? 20180313 0001 25.6032 GAU 9.74e-03  0.00e+00  6.78e+00  8.00e-03    6.78e+00
103    ?    N    ? P      ? 20180313 0001 25.5998 GAU 5.79e-03  0.00e+00  7.22e+00  1.20e-02    7.22e+00
5      ?    N    ? P      ? 20180313 0001 25.6264 GAU 3.18e-02  0.00e+00  8.22e+00  1.20e-02    8.22e+00
13     ?    N    ? P      ? 20180313 0001 25.6182 GAU 1.82e-02  0.00e+00  8.32e+00  1.20e-02    8.32e+00
9      ?    N    ? P      ? 20180313 0001 25.6314 GAU 2.41e-02  0.00e+00  8.94e+00  8.00e-03    8.94e+00
7      ?    N    ? P      ? 20180313 0001 25.6286 GAU 1.96e-02  0.00e+00  8.26e+00  1.60e-02    8.26e+00
4      ?    N    ? P      ? 20180313 0001 25.6423 GAU 1.50e-02  0.00e+00  7.40e+00  3.60e-02    7.40e+00
6      ?    N    ? P      ? 20180313 0001 25.6546 GAU 2.27e-02  0.00e+00  7.19e+00  2.80e-02    7.19e+00
21     ?    N    ? P      ? 20180313 0001 25.6479 GAU 1.24e-02  0.00e+00  7.57e+00  8.00e-03    7.57e+00
#
# EQEVENT:
105    ?    N    ? P      ? 20180313 0001 29.8844 GAU 1.19e-02  0.00e+00  7.05e+00  1.20e-02    7.05e+00
26     ?    N    ? P      ? 20180313 0001 29.8988 GAU 1.42e-02  0.00e+00  6.89e+00  1.20e-02    6.89e+00
25     ?    N    ? P      ? 20180313 0001 29.9257 GAU 1.77e-02  0.00e+00  7.49e+00  8.00e-03    7.49e+00
23     ?    N    ? P      ? 20180313 0001 29.9290 GAU 1.65e-02  0.00e+00  7.08e+00  1.20e-02    7.08e+00
27     ?    N    ? P      ? 20180313 0001 29.9482 GAU 1.24e-02  0.00e+00  6.45e+00  1.20e-02    6.45e+00
#
# EQEVENT:
42     ?    N    ? P      ? 20180313 0001 35.3707 GAU 1.09e-02  0.00e+00  6.80e+00  8.00e-03    6.80e+00
35     ?    N    ? P      ? 20180313 0001 35.3848 GAU 2.44e-02  0.00e+00  7.97e+00  8.00e-03    7.97e+00
39     ?    N    ? P      ? 20180313 0001 35.3722 GAU 9.47e-03  0.00e+00  8.26e+00  1.60e-02    8.26e+00
41     ?    N    ? P      ? 20180313 0001 35.3742 GAU 1.03e-02  0.00e+00  7.95e+00  4.40e-02    7.95e+00
33     ?    N    ? P      ? 20180313 0001 35.3769 GAU 1.17e-02  0.00e+00  6.61e+00  4.40e-02    6.61e+00
38     ?    N    ? P      ? 20180313 0001 35.3733 GAU 6.02e-03  0.00e+00  7.51e+00  1.60e-02    7.51e+00
36     ?    N    ? P      ? 20180313 0001 35.3860 GAU 1.35e-02  0.00e+00  9.02e+00  8.00e-03    9.02e+00
30     ?    N    ? P      ? 20180313 0001 35.4397 GAU 3.53e-02  0.00e+00  7.07e+00  8.00e-03    7.07e+00
40     ?    N    ? P      ? 20180313 0001 35.4158 GAU 8.90e-03  0.00e+00  7.67e+00  1.20e-02    7.67e+00
32     ?    N    ? P      ? 20180313 0001 35.4361 GAU 2.79e-02  0.00e+00  7.79e+00  1.20e-02    7.79e+00
34     ?    N    ? P      ? 20180313 0001 35.4468 GAU 3.07e-02  0.00e+00  7.15e+00  1.20e-02    7.15e+00
37     ?    N    ? P      ? 20180313 0001 35.4543 GAU 3.01e-02  0.00e+00  7.38e+00  8.00e-03    7.38e+00
#
# EQEVENT:
13     ?    N    ? P      ? 20180313 0001 47.4463 GAU 1.08e-02  0.00e+00  7.51e+00  2.80e-02    7.51e+00
17     ?    N    ? P      ? 20180313 0001 47.5812 GAU 9.71e-03  0.00e+00  7.95e+00  1.20e-02    7.95e+00
18     ?    N    ? P      ? 20180313 0001 47.5784 GAU 6.94e-03  0.00e+00  7.12e+00  5.60e-02    7.12e+00
10     ?    N    ? P      ? 20180313 0001 47.5829 GAU 1.08e-02  0.00e+00  7.55e+00  8.00e-03    7.55e+00
12     ?    N    ? P      ? 20180313 0001 47.5809 GAU 8.33e-03  0.00e+00  8.25e+00  8.00e-03    8.25e+00
15     ?    N    ? P      ? 20180313 0001 47.5820 GAU 9.44e-03  0.00e+00  8.77e+00  8.00e-03    8.77e+00
16     ?    N    ? P      ? 20180313 0001 47.5948 GAU 6.66e-03  0.00e+00  8.66e+00  1.20e-02    8.66e+00
103    ?    N    ? P      ? 20180313 0001 47.5981 GAU 9.44e-03  0.00e+00  7.13e+00  1.20e-02    7.13e+00
6      ?    N    ? P      ? 20180313 0001 47.6127 GAU 1.27e-02  0.00e+00  7.24e+00  2.80e-02    7.24e+00
20     ?    N    ? P      ? 20180313 0001 47.6117 GAU 7.50e-03  0.00e+00  6.49e+00  4.80e-02    6.49e+00
#
# EQEVENT:
12     ?    N    ? P      ? 20180313 0001 49.5864 GAU 1.85e-02  0.00e+00  8.65e+00  8.00e-03    8.65e+00
20     ?    N    ? P      ? 20180313 0001 49.5985 GAU 3.00e-02  0.00e+00  7.35e+00  8.00e-03    7.35e+00
8      ?    N    ? P      ? 20180313 0001 49.5867 GAU 1.58e-02  0.00e+00  6.88e+00  8.00e-03    6.88e+00
15     ?    N    ? P      ? 20180313 0001 49.5805 GAU 8.61e-03  0.00e+00  8.79e+00  8.00e-03    8.79e+00
21     ?    N    ? P      ? 20180313 0001 49.6044 GAU 2.85e-02  0.00e+00  7.77e+00  8.00e-03    7.77e+00
18     ?    N    ? P      ? 20180313 0001 49.5913 GAU 8.13e-03  0.00e+00  7.62e+00  8.00e-03    7.62e+00
16     ?    N    ? P      ? 20180313 0001 49.5940 GAU 9.36e-03  0.00e+00  9.38e+00  8.00e-03    9.38e+00
10     ?    N    ? P      ? 20180313 0001 49.5982 GAU 9.60e-03  0.00e+00  7.92e+00  1.20e-02    7.92e+00
17     ?    N    ? P      ? 20180313 0001 49.6002 GAU 8.61e-03  0.00e+00  8.35e+00  4.80e-02    8.35e+00
103    ?    N    ? P      ? 20180313 0001 49.6186 GAU 1.38e-02  0.00e+00  7.43e+00  8.00e-03    7.43e+00
23     ?    N    ? P      ? 20180313 0001 49.6305 GAU 1.92e-02  0.00e+00  6.45e+00  8.00e-03    6.45e+00
6      ?    N    ? P      ? 20180313 0001 49.6565 GAU 2.46e-02  0.00e+00  7.47e+00  2.80e-02    7.47e+00
13     ?    N    ? P      ? 20180313 0001 49.6565 GAU 1.23e-02  0.00e+00  7.96e+00  1.20e-02    7.96e+00
22     ?    N    ? P      ? 20180313 0001 49.6745 GAU 2.63e-02  0.00e+00  6.17e+00  8.00e-03    6.17e+00
26     ?    N    ? P      ? 20180313 0001 49.6991 GAU 1.50e-02  0.00e+00  6.48e+00  1.20e-02    6.48e+00
#
# EQEVENT:
30     ?    N    ? P      ? 20180313 0001 53.8440 GAU 1.75e-02  0.00e+00  7.20e+00  8.00e-03    7.20e+00
33     ?    N    ? P      ? 20180313 0001 53.1094 GAU 2.50e-02  0.00e+00  7.28e+00  1.20e-02    7.28e+00
28     ?    N    ? P      ? 20180313 0001 53.1022 GAU 1.44e-02  0.00e+00  8.27e+00  1.20e-02    8.27e+00
105    ?    N    ? P      ? 20180313 0001 53.1054 GAU 1.72e-02  0.00e+00  7.88e+00  5.20e-02    7.88e+00
26     ?    N    ? P      ? 20180313 0001 53.1190 GAU 1.51e-02  0.00e+00  7.55e+00  1.20e-02    7.55e+00
25     ?    N    ? P      ? 20180313 0001 53.1218 GAU 1.37e-02  0.00e+00  7.11e+00  1.20e-02    7.11e+00
23     ?    N    ? P      ? 20180313 0001 53.1341 GAU 1.09e-02  0.00e+00  7.22e+00  8.00e-03    7.22e+00
27     ?    N    ? P      ? 20180313 0001 53.1761 GAU 8.40e-03  0.00e+00  5.40e+00  2.80e-02    5.40e+00
#
