# EQEVENT:
18     ?    N    ? P      ? 20180313 0009 33.1377 GAU 3.76e-02  0.00e+00  6.39e+00  8.00e-03    6.39e+00
103    ?    N    ? P      ? 20180313 0009 33.1657 GAU 5.98e-02  0.00e+00  6.67e+00  8.00e-03    6.67e+00
12     ?    N    ? P      ? 20180313 0009 33.1379 GAU 1.36e-02  0.00e+00  8.24e+00  2.40e-02    8.24e+00
15     ?    N    ? P      ? 20180313 0009 33.1357 GAU 6.81e-03  0.00e+00  1.09e+01  2.80e-02    1.09e+01
2      ?    N    ? P      ? 20180313 0009 33.1454 GAU 1.39e-02  0.00e+00  7.27e+00  8.00e-03    7.27e+00
8      ?    N    ? P      ? 20180313 0009 33.1454 GAU 7.45e-03  0.00e+00  7.67e+00  8.00e-03    7.67e+00
10     ?    N    ? P      ? 20180313 0009 33.1502 GAU 9.72e-03  0.00e+00  8.60e+00  1.20e-02    8.60e+00
17     ?    N    ? P      ? 20180313 0009 33.1527 GAU 9.17e-03  0.00e+00  7.05e+00  2.40e-02    7.05e+00
16     ?    N    ? P      ? 20180313 0009 33.1681 GAU 1.11e-02  0.00e+00  9.04e+00  1.20e-02    9.04e+00
4      ?    N    ? P      ? 20180313 0009 33.1839 GAU 1.49e-02  0.00e+00  7.21e+00  1.20e-02    7.21e+00
5      ?    N    ? P      ? 20180313 0009 33.2160 GAU 3.66e-02  0.00e+00  8.04e+00  1.20e-02    8.04e+00
6      ?    N    ? P      ? 20180313 0009 33.2021 GAU 1.75e-02  0.00e+00  7.25e+00  2.80e-02    7.25e+00
13     ?    N    ? P      ? 20180313 0009 33.2076 GAU 2.11e-02  0.00e+00  8.35e+00  2.80e-02    8.35e+00
7      ?    N    ? P      ? 20180313 0009 33.2753 GAU 2.72e-02  0.00e+00  6.95e+00  1.20e-02    6.95e+00
#
# EQEVENT:
12     ?    N    ? P      ? 20180313 0009 44.5789 GAU 1.08e-02  0.00e+00  7.18e+00  8.00e-03    7.18e+00
17     ?    N    ? P      ? 20180313 0009 44.5932 GAU 2.11e-02  0.00e+00  8.38e+00  1.20e-02    8.38e+00
16     ?    N    ? P      ? 20180313 0009 44.5881 GAU 6.68e-03  0.00e+00  9.04e+00  1.20e-02    9.04e+00
18     ?    N    ? P      ? 20180313 0009 44.6297 GAU 3.80e-02  0.00e+00  6.84e+00  1.20e-02    6.84e+00
20     ?    N    ? P      ? 20180313 0009 44.6621 GAU 3.75e-02  0.00e+00  6.39e+00  3.60e-02    6.39e+00
103    ?    N    ? P      ? 20180313 0009 44.6539 GAU 2.72e-02  0.00e+00  6.84e+00  1.60e-02    6.84e+00
15     ?    N    ? P      ? 20180313 0009 44.8932 GAU 2.21e-02  0.00e+00  7.54e+00  2.40e-02    7.54e+00
#
# EQEVENT:
36     ?    N    ? P      ? 20180313 0009 50.6123 GAU 1.22e-02  0.00e+00  7.67e+00  1.20e-02    7.67e+00
35     ?    N    ? P      ? 20180313 0009 50.6132 GAU 1.22e-02  0.00e+00  7.73e+00  1.20e-02    7.73e+00
40     ?    N    ? P      ? 20180313 0009 50.6447 GAU 3.58e-02  0.00e+00  6.79e+00  4.40e-02    6.79e+00
38     ?    N    ? P      ? 20180313 0009 50.6246 GAU 1.40e-02  0.00e+00  6.85e+00  1.20e-02    6.85e+00
33     ?    N    ? P      ? 20180313 0009 50.6250 GAU 9.17e-03  0.00e+00  7.30e+00  8.00e-03    7.30e+00
32     ?    N    ? P      ? 20180313 0009 50.6307 GAU 1.05e-02  0.00e+00  7.18e+00  8.00e-03    7.18e+00
39     ?    N    ? P      ? 20180313 0009 50.6630 GAU 2.97e-02  0.00e+00  8.28e+00  8.00e-03    8.28e+00
31     ?    N    ? P      ? 20180313 0009 50.6635 GAU 1.88e-02  0.00e+00  5.96e+00  1.20e-02    5.96e+00
27     ?    N    ? P      ? 20180313 0009 50.6770 GAU 2.01e-02  0.00e+00  5.00e+00  1.20e-02    5.00e+00
41     ?    N    ? P      ? 20180313 0009 50.6818 GAU 2.40e-02  0.00e+00  7.65e+00  1.20e-02    7.65e+00
37     ?    N    ? P      ? 20180313 0009 50.6770 GAU 1.66e-02  0.00e+00  7.01e+00  8.00e-03    7.01e+00
105    ?    N    ? P      ? 20180313 0009 50.6779 GAU 1.75e-02  0.00e+00  6.98e+00  1.20e-02    6.98e+00
42     ?    N    ? P      ? 20180313 0009 50.6739 GAU 9.18e-03  0.00e+00  7.74e+00  2.80e-02    7.74e+00
28     ?    N    ? P      ? 20180313 0009 50.6835 GAU 1.44e-02  0.00e+00  6.71e+00  2.80e-02    6.71e+00
34     ?    N    ? P      ? 20180313 0009 50.6888 GAU 1.27e-02  0.00e+00  6.68e+00  8.00e-03    6.68e+00
30     ?    N    ? P      ? 20180313 0009 50.7216 GAU 1.75e-02  0.00e+00  7.49e+00  1.20e-02    7.49e+00
#
# EQEVENT:
25     ?    N    ? P      ? 20180313 0009 52.9931 GAU 6.45e-02  0.00e+00  6.90e+00  8.80e-02    6.90e+00
23     ?    N    ? P      ? 20180313 0009 52.9860 GAU 4.06e-02  0.00e+00  8.13e+00  1.20e-02    8.13e+00
105    ?    N    ? P      ? 20180313 0009 52.9938 GAU 4.58e-02  0.00e+00  8.32e+00  1.60e-02    8.32e+00
36     ?    N    ? P      ? 20180313 0009 52.9641 GAU 1.35e-02  0.00e+00  8.51e+00  1.20e-02    8.51e+00
32     ?    N    ? P      ? 20180313 0009 52.9641 GAU 8.39e-03  0.00e+00  8.56e+00  8.00e-03    8.56e+00
33     ?    N    ? P      ? 20180313 0009 52.9628 GAU 7.10e-03  0.00e+00  8.92e+00  1.20e-02    8.92e+00
35     ?    N    ? P      ? 20180313 0009 52.9705 GAU 1.36e-02  0.00e+00  8.76e+00  3.60e-02    8.76e+00
38     ?    N    ? P      ? 20180313 0009 52.9776 GAU 1.03e-02  0.00e+00  7.80e+00  8.00e-03    7.80e+00
42     ?    N    ? P      ? 20180313 0009 52.9957 GAU 2.71e-02  0.00e+00  6.04e+00  2.40e-02    6.04e+00
30     ?    N    ? P      ? 20180313 0009 52.9847 GAU 8.39e-03  0.00e+00  8.31e+00  1.20e-02    8.31e+00
39     ?    N    ? P      ? 20180313 0009 52.9912 GAU 1.23e-02  0.00e+00  8.23e+00  1.20e-02    8.23e+00
40     ?    N    ? P      ? 20180313 0009 53.8000 GAU 2.65e-02  0.00e+00  7.63e+00  1.20e-02    7.63e+00
37     ?    N    ? P      ? 20180313 0009 53.2100 GAU 1.81e-02  0.00e+00  7.80e+00  8.00e-03    7.80e+00
34     ?    N    ? P      ? 20180313 0009 53.1500 GAU 1.61e-02  0.00e+00  7.70e+00  5.60e-02    7.70e+00
31     ?    N    ? P      ? 20180313 0009 53.6700 GAU 1.74e-02  0.00e+00  7.01e+00  8.00e-03    7.01e+00
26     ?    N    ? P      ? 20180313 0009 53.1050 GAU 2.00e-02  0.00e+00  7.33e+00  1.20e-02    7.33e+00
41     ?    N    ? P      ? 20180313 0009 53.1500 GAU 1.10e-02  0.00e+00  7.47e+00  1.20e-02    7.47e+00
28     ?    N    ? P      ? 20180313 0009 53.3400 GAU 1.03e-02  0.00e+00  8.06e+00  7.60e-02    8.06e+00
27     ?    N    ? P      ? 20180313 0009 53.4340 GAU 1.68e-02  0.00e+00  6.75e+00  1.20e-02    6.75e+00
106    ?    N    ? P      ? 20180313 0009 53.5890 GAU 3.23e-02  0.00e+00  7.15e+00  1.60e-02    7.15e+00
#
# EQEVENT:
42     ?    N    ? P      ? 20180313 0010 00.2157 GAU 4.18e-02  0.00e+00  6.79e+00  8.00e-03    6.79e+00
37     ?    N    ? P      ? 20180313 0010 00.2709 GAU 7.03e-02  0.00e+00  5.76e+00  5.60e-02    5.76e+00
38     ?    N    ? P      ? 20180313 0010 00.2236 GAU 1.66e-02  0.00e+00  6.84e+00  8.00e-03    6.84e+00
39     ?    N    ? P      ? 20180313 0010 00.2180 GAU 9.47e-03  0.00e+00  8.62e+00  8.00e-03    8.62e+00
41     ?    N    ? P      ? 20180313 0010 00.2188 GAU 8.68e-03  0.00e+00  7.81e+00  8.00e-03    7.81e+00
36     ?    N    ? P      ? 20180313 0010 00.2267 GAU 1.03e-02  0.00e+00  7.25e+00  1.20e-02    7.25e+00
40     ?    N    ? P      ? 20180313 0010 00.2749 GAU 1.90e-02  0.00e+00  7.30e+00  1.20e-02    7.30e+00
#
# EQEVENT:
31     ?    N    ? P      ? 20180313 0010 02.2760 GAU 3.63e-02  0.00e+00  5.66e+00  4.80e-02    5.66e+00
36     ?    N    ? P      ? 20180313 0010 02.1103 GAU 3.77e-02  0.00e+00  5.56e+00  1.20e-02    5.56e+00
33     ?    N    ? P      ? 20180313 0010 02.1074 GAU 2.63e-02  0.00e+00  7.37e+00  1.20e-02    7.37e+00
32     ?    N    ? P      ? 20180313 0010 02.9880 GAU 1.48e-02  0.00e+00  7.50e+00  1.20e-02    7.50e+00
105    ?    N    ? P      ? 20180313 0010 02.9740 GAU 1.34e-02  0.00e+00  9.27e+00  8.00e-03    9.27e+00
26     ?    N    ? P      ? 20180313 0010 02.9780 GAU 1.19e-02  0.00e+00  8.66e+00  1.20e-02    8.66e+00
30     ?    N    ? P      ? 20180313 0010 02.1065 GAU 1.77e-02  0.00e+00  7.76e+00  1.20e-02    7.76e+00
28     ?    N    ? P      ? 20180313 0010 02.1002 GAU 8.60e-03  0.00e+00  8.96e+00  1.20e-02    8.96e+00
23     ?    N    ? P      ? 20180313 0010 02.1084 GAU 1.29e-02  0.00e+00  8.22e+00  8.00e-03    8.22e+00
25     ?    N    ? P      ? 20180313 0010 02.1170 GAU 1.48e-02  0.00e+00  8.30e+00  8.00e-03    8.30e+00
27     ?    N    ? P      ? 20180313 0010 02.1222 GAU 1.34e-02  0.00e+00  6.95e+00  2.40e-02    6.95e+00
18     ?    N    ? P      ? 20180313 0010 02.1236 GAU 1.48e-02  0.00e+00  6.10e+00  2.00e-02    6.10e+00
21     ?    N    ? P      ? 20180313 0010 02.1323 GAU 1.77e-02  0.00e+00  6.84e+00  8.00e-03    6.84e+00
20     ?    N    ? P      ? 20180313 0010 02.1289 GAU 1.15e-02  0.00e+00  6.39e+00  8.00e-03    6.39e+00
106    ?    N    ? P      ? 20180313 0010 02.1485 GAU 2.82e-02  0.00e+00  6.84e+00  8.00e-03    6.84e+00
34     ?    N    ? P      ? 20180313 0010 02.1418 GAU 1.39e-02  0.00e+00  6.36e+00  8.00e-03    6.36e+00
22     ?    N    ? P      ? 20180313 0010 02.1485 GAU 2.05e-02  0.00e+00  6.16e+00  5.20e-02    6.16e+00
#
# EQEVENT:
36     ?    N    ? P      ? 20180313 0010 03.5140 GAU 3.77e-02  0.00e+00  6.29e+00  1.20e-02    6.29e+00
30     ?    N    ? P      ? 20180313 0010 03.5247 GAU 4.73e-02  0.00e+00  7.19e+00  8.00e-03    7.19e+00
39     ?    N    ? P      ? 20180313 0010 03.5500 GAU 5.62e-02  0.00e+00  5.90e+00  1.20e-02    5.90e+00
32     ?    N    ? P      ? 20180313 0010 03.5115 GAU 1.77e-02  0.00e+00  7.94e+00  8.00e-03    7.94e+00
18     ?    N    ? P      ? 20180313 0010 03.5159 GAU 1.83e-02  0.00e+00  6.45e+00  8.00e-03    6.45e+00
21     ?    N    ? P      ? 20180313 0010 03.5209 GAU 2.08e-02  0.00e+00  7.02e+00  8.00e-03    7.02e+00
20     ?    N    ? P      ? 20180313 0010 03.5178 GAU 1.77e-02  0.00e+00  6.37e+00  2.00e-02    6.37e+00
28     ?    N    ? P      ? 20180313 0010 03.5071 GAU 5.68e-03  0.00e+00  8.21e+00  8.00e-03    8.21e+00
38     ?    N    ? P      ? 20180313 0010 03.5449 GAU 4.23e-02  0.00e+00  5.99e+00  4.00e-02    5.99e+00
105    ?    N    ? P      ? 20180313 0010 03.5146 GAU 1.07e-02  0.00e+00  8.73e+00  1.20e-02    8.73e+00
17     ?    N    ? P      ? 20180313 0010 03.5329 GAU 2.78e-02  0.00e+00  6.40e+00  5.60e-02    6.40e+00
35     ?    N    ? P      ? 20180313 0010 03.5190 GAU 1.26e-02  0.00e+00  7.60e+00  1.20e-02    7.60e+00
26     ?    N    ? P      ? 20180313 0010 03.5153 GAU 8.83e-03  0.00e+00  8.09e+00  8.00e-03    8.09e+00
106    ?    N    ? P      ? 20180313 0010 03.5153 GAU 7.57e-03  0.00e+00  8.20e+00  2.80e-02    8.20e+00
34     ?    N    ? P      ? 20180313 0010 03.5353 GAU 2.39e-02  0.00e+00  6.89e+00  4.00e-02    6.89e+00
23     ?    N    ? P      ? 20180313 0010 03.5197 GAU 8.20e-03  0.00e+00  7.47e+00  8.00e-03    7.47e+00
31     ?    N    ? P      ? 20180313 0010 03.5298 GAU 1.70e-02  0.00e+00  6.70e+00  1.20e-02    6.70e+00
33     ?    N    ? P      ? 20180313 0010 03.5246 GAU 9.42e-03  0.00e+00  7.35e+00  1.20e-02    7.35e+00
25     ?    N    ? P      ? 20180313 0010 03.5361 GAU 1.20e-02  0.00e+00  8.64e+00  8.00e-03    8.64e+00
40     ?    N    ? P      ? 20180313 0010 03.5771 GAU 4.80e-02  0.00e+00  6.17e+00  1.20e-02    6.17e+00
27     ?    N    ? P      ? 20180313 0010 03.5386 GAU 9.46e-03  0.00e+00  6.93e+00  8.00e-03    6.93e+00
37     ?    N    ? P      ? 20180313 0010 03.5686 GAU 3.21e-02  0.00e+00  6.41e+00  8.00e-03    6.41e+00
22     ?    N    ? P      ? 20180313 0010 03.5512 GAU 1.32e-02  0.00e+00  7.17e+00  8.00e-03    7.17e+00
#
# EQEVENT:
42     ?    N    ? P      ? 20180313 0010 05.4214 GAU 1.03e-02  0.00e+00  8.91e+00  8.00e-03    8.91e+00
35     ?    N    ? P      ? 20180313 0010 05.4495 GAU 3.75e-02  0.00e+00  8.14e+00  8.00e-03    8.14e+00
41     ?    N    ? P      ? 20180313 0010 05.4305 GAU 7.50e-03  0.00e+00  8.77e+00  1.60e-02    8.77e+00
39     ?    N    ? P      ? 20180313 0010 05.4400 GAU 7.50e-03  0.00e+00  1.07e+01  8.00e-03    1.07e+01
36     ?    N    ? P      ? 20180313 0010 05.4447 GAU 1.15e-02  0.00e+00  7.71e+00  6.00e-02    7.71e+00
38     ?    N    ? P      ? 20180313 0010 05.4408 GAU 6.71e-03  0.00e+00  8.49e+00  1.20e-02    8.49e+00
33     ?    N    ? P      ? 20180313 0010 05.4716 GAU 2.65e-02  0.00e+00  7.42e+00  1.20e-02    7.42e+00
40     ?    N    ? P      ? 20180313 0010 05.4747 GAU 2.41e-02  0.00e+00  7.72e+00  2.00e-02    7.72e+00
32     ?    N    ? P      ? 20180313 0010 05.5051 GAU 2.45e-02  0.00e+00  7.73e+00  8.00e-03    7.73e+00
31     ?    N    ? P      ? 20180313 0010 05.5099 GAU 2.76e-02  0.00e+00  6.42e+00  8.00e-03    6.42e+00
34     ?    N    ? P      ? 20180313 0010 05.5000 GAU 1.70e-02  0.00e+00  7.37e+00  1.20e-02    7.37e+00
37     ?    N    ? P      ? 20180313 0010 05.4988 GAU 1.18e-02  0.00e+00  6.71e+00  1.20e-02    6.71e+00
30     ?    N    ? P      ? 20180313 0010 05.5300 GAU 3.43e-02  0.00e+00  7.50e+00  2.80e-02    7.50e+00
28     ?    N    ? P      ? 20180313 0010 05.5395 GAU 2.80e-02  0.00e+00  7.17e+00  1.20e-02    7.17e+00
#
# EQEVENT:
105    ?    N    ? P      ? 20180313 0010 12.2775 GAU 1.61e-02  0.00e+00  8.11e+00  8.00e-03    8.11e+00
28     ?    N    ? P      ? 20180313 0010 12.2825 GAU 1.82e-02  0.00e+00  7.34e+00  8.00e-03    7.34e+00
22     ?    N    ? P      ? 20180313 0010 12.2901 GAU 2.57e-02  0.00e+00  6.28e+00  1.20e-02    6.28e+00
30     ?    N    ? P      ? 20180313 0010 12.3002 GAU 3.08e-02  0.00e+00  7.18e+00  1.20e-02    7.18e+00
25     ?    N    ? P      ? 20180313 0010 12.2785 GAU 9.07e-03  0.00e+00  7.81e+00  1.20e-02    7.81e+00
26     ?    N    ? P      ? 20180313 0010 12.2840 GAU 1.46e-02  0.00e+00  7.64e+00  2.80e-02    7.64e+00
23     ?    N    ? P      ? 20180313 0010 12.2977 GAU 1.92e-02  0.00e+00  8.84e+00  8.00e-03    8.84e+00
31     ?    N    ? P      ? 20180313 0010 12.3108 GAU 2.12e-02  0.00e+00  6.02e+00  8.00e-03    6.02e+00
27     ?    N    ? P      ? 20180313 0010 12.3083 GAU 1.66e-02  0.00e+00  5.88e+00  8.00e-03    5.88e+00
20     ?    N    ? P      ? 20180313 0010 12.3027 GAU 9.08e-03  0.00e+00  8.26e+00  8.00e-03    8.26e+00
21     ?    N    ? P      ? 20180313 0010 12.3108 GAU 1.61e-02  0.00e+00  8.38e+00  1.20e-02    8.38e+00
18     ?    N    ? P      ? 20180313 0010 12.3304 GAU 2.37e-02  0.00e+00  7.83e+00  8.00e-03    7.83e+00
17     ?    N    ? P      ? 20180313 0010 12.3562 GAU 3.43e-02  0.00e+00  6.92e+00  2.40e-02    6.92e+00
#
# EQEVENT:
32     ?    N    ? P      ? 20180313 0010 15.8187 GAU 2.84e-02  0.00e+00  7.82e+00  1.20e-02    7.82e+00
33     ?    N    ? P      ? 20180313 0010 15.8230 GAU 2.07e-02  0.00e+00  8.21e+00  1.20e-02    8.21e+00
26     ?    N    ? P      ? 20180313 0010 15.8372 GAU 2.07e-02  0.00e+00  7.32e+00  1.20e-02    7.32e+00
105    ?    N    ? P      ? 20180313 0010 15.8372 GAU 1.31e-02  0.00e+00  7.60e+00  3.20e-02    7.60e+00
30     ?    N    ? P      ? 20180313 0010 15.8345 GAU 1.04e-02  0.00e+00  7.85e+00  8.00e-03    7.85e+00
28     ?    N    ? P      ? 20180313 0010 15.8476 GAU 2.02e-02  0.00e+00  7.36e+00  8.00e-03    7.36e+00
106    ?    N    ? P      ? 20180313 0010 15.8552 GAU 2.02e-02  0.00e+00  7.74e+00  1.20e-02    7.74e+00
25     ?    N    ? P      ? 20180313 0010 15.8623 GAU 1.64e-02  0.00e+00  7.00e+00  5.20e-02    7.00e+00
23     ?    N    ? P      ? 20180313 0010 15.8634 GAU 1.42e-02  0.00e+00  7.17e+00  8.00e-03    7.17e+00
27     ?    N    ? P      ? 20180313 0010 15.8874 GAU 3.06e-02  0.00e+00  7.17e+00  1.20e-02    7.17e+00
22     ?    N    ? P      ? 20180313 0010 15.8836 GAU 1.36e-02  0.00e+00  7.04e+00  1.20e-02    7.04e+00
#
# EQEVENT:
32     ?    N    ? P      ? 20180313 0010 20.3974 GAU 1.01e-02  0.00e+00  9.51e+00  1.20e-02    9.51e+00
33     ?    N    ? P      ? 20180313 0010 20.3983 GAU 6.82e-03  0.00e+00  1.04e+01  1.20e-02    1.04e+01
36     ?    N    ? P      ? 20180313 0010 20.4028 GAU 8.90e-03  0.00e+00  7.48e+00  1.20e-02    7.48e+00
30     ?    N    ? P      ? 20180313 0010 20.4123 GAU 1.72e-02  0.00e+00  7.97e+00  8.00e-03    7.97e+00
38     ?    N    ? P      ? 20180313 0010 20.4099 GAU 1.42e-02  0.00e+00  6.78e+00  2.80e-02    6.78e+00
35     ?    N    ? P      ? 20180313 0010 20.4034 GAU 7.71e-03  0.00e+00  1.01e+01  8.00e-03    1.01e+01
39     ?    N    ? P      ? 20180313 0010 20.4304 GAU 1.87e-02  0.00e+00  7.01e+00  8.00e-03    7.01e+00
105    ?    N    ? P      ? 20180313 0010 20.4532 GAU 3.32e-02  0.00e+00  8.30e+00  1.20e-02    8.30e+00
28     ?    N    ? P      ? 20180313 0010 20.4366 GAU 1.60e-02  0.00e+00  8.66e+00  8.00e-03    8.66e+00
34     ?    N    ? P      ? 20180313 0010 20.5042 GAU 3.79e-02  0.00e+00  7.68e+00  1.20e-02    7.68e+00
37     ?    N    ? P      ? 20180313 0010 20.5054 GAU 2.37e-02  0.00e+00  7.24e+00  2.40e-02    7.24e+00
#
# EQEVENT:
42     ?    N    ? P      ? 20180313 0010 28.2118 GAU 1.33e-02  0.00e+00  8.53e+00  2.40e-02    8.53e+00
36     ?    N    ? P      ? 20180313 0010 28.2344 GAU 2.17e-02  0.00e+00  7.54e+00  1.20e-02    7.54e+00
41     ?    N    ? P      ? 20180313 0010 28.2318 GAU 1.11e-02  0.00e+00  8.15e+00  8.00e-03    8.15e+00
39     ?    N    ? P      ? 20180313 0010 28.2309 GAU 1.02e-02  0.00e+00  9.08e+00  8.00e-03    9.08e+00
38     ?    N    ? P      ? 20180313 0010 28.2389 GAU 1.55e-02  0.00e+00  6.91e+00  6.40e-02    6.91e+00
35     ?    N    ? P      ? 20180313 0010 28.2664 GAU 4.30e-02  0.00e+00  7.55e+00  6.40e-02    7.55e+00
37     ?    N    ? P      ? 20180313 0010 28.2735 GAU 4.66e-02  0.00e+00  6.47e+00  1.20e-02    6.47e+00
33     ?    N    ? P      ? 20180313 0010 28.2894 GAU 5.10e-02  0.00e+00  6.42e+00  1.20e-02    6.42e+00
34     ?    N    ? P      ? 20180313 0010 28.3032 GAU 5.23e-02  0.00e+00  6.75e+00  1.20e-02    6.75e+00
40     ?    N    ? P      ? 20180313 0010 28.2806 GAU 1.55e-02  0.00e+00  7.64e+00  4.00e-02    7.64e+00
#
# EQEVENT:
39     ?    N    ? P      ? 20180313 0010 36.3338 GAU 4.68e-03  0.00e+00  9.33e+00  8.00e-03    9.33e+00
36     ?    N    ? P      ? 20180313 0010 36.3447 GAU 1.01e-02  0.00e+00  9.40e+00  1.20e-02    9.40e+00
42     ?    N    ? P      ? 20180313 0010 36.3576 GAU 2.14e-02  0.00e+00  7.41e+00  1.20e-02    7.41e+00
38     ?    N    ? P      ? 20180313 0010 36.3443 GAU 6.62e-03  0.00e+00  9.67e+00  1.20e-02    9.67e+00
41     ?    N    ? P      ? 20180313 0010 36.3521 GAU 1.36e-02  0.00e+00  8.94e+00  1.20e-02    8.94e+00
40     ?    N    ? P      ? 20180313 0010 36.3950 GAU 1.36e-02  0.00e+00  8.39e+00  6.80e-02    8.39e+00
34     ?    N    ? P      ? 20180313 0010 36.4243 GAU 3.43e-02  0.00e+00  7.13e+00  6.00e-02    7.13e+00
37     ?    N    ? P      ? 20180313 0010 36.4403 GAU 3.31e-02  0.00e+00  8.12e+00  1.20e-02    8.12e+00
#
# EQEVENT:
26     ?    N    ? P      ? 20180313 0010 41.1272 GAU 3.10e-02  0.00e+00  6.69e+00  1.20e-02    6.69e+00
106    ?    N    ? P      ? 20180313 0010 41.1326 GAU 3.37e-02  0.00e+00  7.55e+00  1.20e-02    7.55e+00
32     ?    N    ? P      ? 20180313 0010 41.1136 GAU 1.25e-02  0.00e+00  7.87e+00  4.40e-02    7.87e+00
35     ?    N    ? P      ? 20180313 0010 41.1172 GAU 1.44e-02  0.00e+00  8.43e+00  8.00e-03    8.43e+00
33     ?    N    ? P      ? 20180313 0010 41.1163 GAU 1.20e-02  0.00e+00  8.11e+00  1.20e-02    8.11e+00
30     ?    N    ? P      ? 20180313 0010 41.1324 GAU 2.20e-02  0.00e+00  8.46e+00  8.00e-03    8.46e+00
28     ?    N    ? P      ? 20180313 0010 41.1321 GAU 1.63e-02  0.00e+00  7.39e+00  4.80e-02    7.39e+00
23     ?    N    ? P      ? 20180313 0010 41.1329 GAU 1.55e-02  0.00e+00  6.78e+00  8.00e-03    6.78e+00
105    ?    N    ? P      ? 20180313 0010 41.1356 GAU 1.44e-02  0.00e+00  7.37e+00  1.20e-02    7.37e+00
27     ?    N    ? P      ? 20180313 0010 41.1506 GAU 2.39e-02  0.00e+00  6.52e+00  1.20e-02    6.52e+00
25     ?    N    ? P      ? 20180313 0010 41.1566 GAU 2.45e-02  0.00e+00  6.95e+00  8.00e-03    6.95e+00
34     ?    N    ? P      ? 20180313 0010 41.2213 GAU 1.74e-02  0.00e+00  6.93e+00  1.20e-02    6.93e+00
#
