# EQEVENT:
18     ?    N    ? P      ? 20180313 0005 35.1100 GAU 5.56e-02  0.00e+00  6.71e+00  8.00e-03    6.71e+00
20     ?    N    ? P      ? 20180313 0005 35.1700 GAU 5.99e-02  0.00e+00  6.37e+00  8.00e-03    6.37e+00
103    ?    N    ? P      ? 20180313 0005 35.2040 GAU 6.16e-02  0.00e+00  6.50e+00  8.00e-03    6.50e+00
106    ?    N    ? P      ? 20180313 0005 35.1870 GAU 5.30e-02  0.00e+00  7.45e+00  8.00e-03    7.45e+00
28     ?    N    ? P      ? 20180313 0005 35.1440 GAU 4.19e-02  0.00e+00  7.47e+00  8.00e-03    7.47e+00
21     ?    N    ? P      ? 20180313 0005 35.2380 GAU 4.79e-02  0.00e+00  6.71e+00  1.20e-02    6.71e+00
17     ?    N    ? P      ? 20180313 0005 35.3330 GAU 5.56e-02  0.00e+00  6.50e+00  8.00e-03    6.50e+00
23     ?    N    ? P      ? 20180313 0005 35.2470 GAU 4.19e-02  0.00e+00  7.19e+00  8.00e-03    7.19e+00
26     ?    N    ? P      ? 20180313 0005 35.2130 GAU 3.68e-02  0.00e+00  7.06e+00  8.00e-03    7.06e+00
22     ?    N    ? P      ? 20180313 0005 35.4610 GAU 5.13e-02  0.00e+00  6.53e+00  8.00e-03    6.53e+00
16     ?    N    ? P      ? 20180313 0005 35.4350 GAU 3.51e-02  0.00e+00  6.84e+00  8.00e-03    6.84e+00
105    ?    N    ? P      ? 20180313 0005 35.2210 GAU 1.37e-02  0.00e+00  7.91e+00  8.00e-03    7.91e+00
31     ?    N    ? P      ? 20180313 0005 35.6400 GAU 4.87e-02  0.00e+00  6.13e+00  5.20e-02    6.13e+00
25     ?    N    ? P      ? 20180313 0005 35.3500 GAU 1.80e-02  0.00e+00  7.36e+00  6.40e-02    7.36e+00
12     ?    N    ? P      ? 20180313 0005 35.4780 GAU 2.39e-02  0.00e+00  6.35e+00  8.00e-03    6.35e+00
8      ?    N    ? P      ? 20180313 0005 35.9570 GAU 6.67e-02  0.00e+00  4.63e+00  7.60e-02    4.63e+00
7      ?    N    ? P      ? 20180313 0005 35.1111 GAU 8.04e-02  0.00e+00  6.03e+00  5.60e-02    6.03e+00
6      ?    N    ? P      ? 20180313 0005 35.1051 GAU 6.58e-02  0.00e+00  6.09e+00  8.00e-03    6.09e+00
10     ?    N    ? P      ? 20180313 0005 35.6150 GAU 2.22e-02  0.00e+00  5.57e+00  4.40e-02    5.57e+00
27     ?    N    ? P      ? 20180313 0005 35.7340 GAU 3.42e-02  0.00e+00  6.19e+00  2.40e-02    6.19e+00
15     ?    N    ? P      ? 20180313 0005 35.1418 GAU 1.20e-02  0.00e+00  8.24e+00  1.20e-02    8.24e+00
13     ?    N    ? P      ? 20180313 0005 35.2590 GAU 5.73e-02  0.00e+00  6.93e+00  1.20e-02    6.93e+00
#
# EQEVENT:
21     ?    N    ? P      ? 20180313 0005 53.8141 GAU 4.75e-02  0.00e+00  6.72e+00  4.40e-02    6.72e+00
37     ?    N    ? P      ? 20180313 0005 53.8595 GAU 5.73e-02  0.00e+00  7.18e+00  4.80e-02    7.18e+00
38     ?    N    ? P      ? 20180313 0005 53.8516 GAU 3.56e-02  0.00e+00  6.84e+00  2.00e-02    6.84e+00
32     ?    N    ? P      ? 20180313 0005 53.8477 GAU 1.58e-02  0.00e+00  9.18e+00  1.20e-02    9.18e+00
33     ?    N    ? P      ? 20180313 0005 53.8457 GAU 1.19e-02  0.00e+00  9.37e+00  2.40e-02    9.37e+00
36     ?    N    ? P      ? 20180313 0005 53.8516 GAU 1.78e-02  0.00e+00  8.26e+00  1.20e-02    8.26e+00
35     ?    N    ? P      ? 20180313 0005 53.8526 GAU 1.68e-02  0.00e+00  1.05e+01  8.00e-03    1.05e+01
103    ?    N    ? P      ? 20180313 0005 53.9218 GAU 7.61e-02  0.00e+00  6.26e+00  1.60e-02    6.26e+00
28     ?    N    ? P      ? 20180313 0005 53.8783 GAU 2.87e-02  0.00e+00  8.32e+00  8.00e-03    8.32e+00
39     ?    N    ? P      ? 20180313 0005 53.8773 GAU 2.18e-02  0.00e+00  7.58e+00  1.20e-02    7.58e+00
30     ?    N    ? P      ? 20180313 0005 53.8852 GAU 2.57e-02  0.00e+00  8.96e+00  2.80e-02    8.96e+00
41     ?    N    ? P      ? 20180313 0005 53.8951 GAU 3.16e-02  0.00e+00  6.78e+00  1.20e-02    6.78e+00
105    ?    N    ? P      ? 20180313 0005 53.9001 GAU 3.26e-02  0.00e+00  8.53e+00  1.20e-02    8.53e+00
25     ?    N    ? P      ? 20180313 0005 53.9030 GAU 2.77e-02  0.00e+00  7.55e+00  8.00e-03    7.55e+00
31     ?    N    ? P      ? 20180313 0005 53.9021 GAU 2.67e-02  0.00e+00  7.05e+00  8.00e-03    7.05e+00
26     ?    N    ? P      ? 20180313 0005 53.9011 GAU 2.37e-02  0.00e+00  7.64e+00  4.80e-02    7.64e+00
34     ?    N    ? P      ? 20180313 0005 53.9119 GAU 2.27e-02  0.00e+00  8.47e+00  1.20e-02    8.47e+00
40     ?    N    ? P      ? 20180313 0005 53.9208 GAU 2.77e-02  0.00e+00  7.15e+00  1.60e-02    7.15e+00
23     ?    N    ? P      ? 20180313 0005 53.9367 GAU 3.96e-02  0.00e+00  7.90e+00  8.00e-03    7.90e+00
27     ?    N    ? P      ? 20180313 0005 53.9396 GAU 3.66e-02  0.00e+00  6.59e+00  2.40e-02    6.59e+00
16     ?    N    ? P      ? 20180313 0005 53.9772 GAU 5.44e-02  0.00e+00  7.58e+00  8.00e-03    7.58e+00
20     ?    N    ? P      ? 20180313 0005 53.9653 GAU 3.86e-02  0.00e+00  6.67e+00  2.00e-02    6.67e+00
17     ?    N    ? P      ? 20180313 0005 53.9792 GAU 4.85e-02  0.00e+00  7.08e+00  1.20e-02    7.08e+00
18     ?    N    ? P      ? 20180313 0005 53.9584 GAU 2.37e-02  0.00e+00  6.55e+00  2.80e-02    6.55e+00
106    ?    N    ? P      ? 20180313 0005 53.9792 GAU 4.45e-02  0.00e+00  7.77e+00  1.60e-02    7.77e+00
22     ?    N    ? P      ? 20180313 0005 54.1900 GAU 6.13e-02  0.00e+00  7.19e+00  8.00e-03    7.19e+00
12     ?    N    ? P      ? 20180313 0005 54.1749 GAU 4.84e-02  0.00e+00  7.18e+00  6.00e-02    7.18e+00
15     ?    N    ? P      ? 20180313 0005 54.1739 GAU 3.96e-02  0.00e+00  7.14e+00  2.40e-02    7.14e+00
10     ?    N    ? P      ? 20180313 0005 54.1868 GAU 3.86e-02  0.00e+00  6.69e+00  1.20e-02    6.69e+00
#
# EQEVENT:
8      ?    N    ? P      ? 20180313 0005 57.3708 GAU 7.31e-02  0.00e+00  5.49e+00  1.20e-02    5.49e+00
31     ?    N    ? P      ? 20180313 0005 57.3864 GAU 8.09e-02  0.00e+00  6.55e+00  1.20e-02    6.55e+00
5      ?    N    ? P      ? 20180313 0005 57.3838 GAU 5.74e-02  0.00e+00  7.63e+00  1.20e-02    7.63e+00
13     ?    N    ? P      ? 20180313 0005 57.3786 GAU 4.96e-02  0.00e+00  7.62e+00  1.20e-02    7.62e+00
30     ?    N    ? P      ? 20180313 0005 57.3838 GAU 4.70e-02  0.00e+00  8.06e+00  2.80e-02    8.06e+00
7      ?    N    ? P      ? 20180313 0005 57.3799 GAU 3.52e-02  0.00e+00  7.94e+00  8.00e-03    7.94e+00
17     ?    N    ? P      ? 20180313 0005 57.3877 GAU 4.05e-02  0.00e+00  7.54e+00  2.80e-02    7.54e+00
27     ?    N    ? P      ? 20180313 0005 57.3903 GAU 3.52e-02  0.00e+00  6.30e+00  3.20e-02    6.30e+00
18     ?    N    ? P      ? 20180313 0005 57.4034 GAU 4.57e-02  0.00e+00  6.78e+00  2.40e-02    6.78e+00
23     ?    N    ? P      ? 20180313 0005 57.3982 GAU 3.79e-02  0.00e+00  8.60e+00  2.80e-02    8.60e+00
33     ?    N    ? P      ? 20180313 0005 57.3917 GAU 3.13e-02  0.00e+00  8.37e+00  1.20e-02    8.37e+00
35     ?    N    ? P      ? 20180313 0005 57.3982 GAU 3.79e-02  0.00e+00  8.11e+00  8.00e-03    8.11e+00
32     ?    N    ? P      ? 20180313 0005 57.3877 GAU 2.48e-02  0.00e+00  8.44e+00  1.60e-02    8.44e+00
28     ?    N    ? P      ? 20180313 0005 57.3838 GAU 1.83e-02  0.00e+00  8.46e+00  4.40e-02    8.46e+00
20     ?    N    ? P      ? 20180313 0005 57.3956 GAU 2.74e-02  0.00e+00  7.02e+00  5.60e-02    7.02e+00
105    ?    N    ? P      ? 20180313 0005 57.3917 GAU 2.35e-02  0.00e+00  8.70e+00  8.00e-03    8.70e+00
15     ?    N    ? P      ? 20180313 0005 57.4086 GAU 3.79e-02  0.00e+00  7.12e+00  1.60e-02    7.12e+00
103    ?    N    ? P      ? 20180313 0005 57.4243 GAU 5.35e-02  0.00e+00  6.85e+00  2.80e-02    6.85e+00
25     ?    N    ? P      ? 20180313 0005 57.3969 GAU 2.35e-02  0.00e+00  8.43e+00  2.40e-02    8.43e+00
26     ?    N    ? P      ? 20180313 0005 57.3877 GAU 1.44e-02  0.00e+00  8.62e+00  1.20e-02    8.62e+00
16     ?    N    ? P      ? 20180313 0005 57.4308 GAU 4.70e-02  0.00e+00  7.63e+00  8.00e-03    7.63e+00
106    ?    N    ? P      ? 20180313 0005 57.4269 GAU 4.05e-02  0.00e+00  7.80e+00  1.20e-02    7.80e+00
34     ?    N    ? P      ? 20180313 0005 57.4230 GAU 2.87e-02  0.00e+00  7.44e+00  1.20e-02    7.44e+00
22     ?    N    ? P      ? 20180313 0005 57.4635 GAU 3.52e-02  0.00e+00  6.70e+00  1.20e-02    6.70e+00
21     ?    N    ? P      ? 20180313 0005 57.5157 GAU 3.79e-02  0.00e+00  7.52e+00  8.00e-03    7.52e+00
#
# EQEVENT:
42     ?    N    ? P      ? 20180313 0006 02.8685 GAU 1.30e-02  0.00e+00  7.50e+00  1.60e-02    7.50e+00
36     ?    N    ? P      ? 20180313 0006 02.8825 GAU 1.12e-02  0.00e+00  8.07e+00  1.20e-02    8.07e+00
39     ?    N    ? P      ? 20180313 0006 02.8800 GAU 8.33e-03  0.00e+00  8.30e+00  2.40e-02    8.30e+00
41     ?    N    ? P      ? 20180313 0006 02.8837 GAU 7.51e-03  0.00e+00  8.42e+00  1.20e-02    8.42e+00
38     ?    N    ? P      ? 20180313 0006 02.8825 GAU 5.88e-03  0.00e+00  8.35e+00  8.00e-03    8.35e+00
40     ?    N    ? P      ? 20180313 0006 02.9326 GAU 1.83e-02  0.00e+00  7.31e+00  1.20e-02    7.31e+00
35     ?    N    ? P      ? 20180313 0006 02.9300 GAU 1.04e-02  0.00e+00  8.42e+00  1.20e-02    8.42e+00
37     ?    N    ? P      ? 20180313 0006 02.9755 GAU 4.04e-02  0.00e+00  6.85e+00  8.00e-03    6.85e+00
33     ?    N    ? P      ? 20180313 0006 03.7750 GAU 1.48e-02  0.00e+00  9.14e+00  1.20e-02    9.14e+00
32     ?    N    ? P      ? 20180313 0006 03.7880 GAU 1.27e-02  0.00e+00  9.56e+00  1.20e-02    9.56e+00
30     ?    N    ? P      ? 20180313 0006 03.8460 GAU 1.19e-02  0.00e+00  9.76e+00  1.20e-02    9.76e+00
26     ?    N    ? P      ? 20180313 0006 03.9950 GAU 1.30e-02  0.00e+00  7.70e+00  1.20e-02    7.70e+00
28     ?    N    ? P      ? 20180313 0006 03.9820 GAU 1.05e-02  0.00e+00  9.39e+00  1.20e-02    9.39e+00
105    ?    N    ? P      ? 20180313 0006 03.1012 GAU 1.18e-02  0.00e+00  9.80e+00  8.00e-03    9.80e+00
34     ?    N    ? P      ? 20180313 0006 03.1108 GAU 1.67e-02  0.00e+00  6.94e+00  4.40e-02    6.94e+00
27     ?    N    ? P      ? 20180313 0006 03.1144 GAU 1.84e-02  0.00e+00  7.35e+00  1.20e-02    7.35e+00
25     ?    N    ? P      ? 20180313 0006 03.1270 GAU 1.45e-02  0.00e+00  7.82e+00  1.20e-02    7.82e+00
31     ?    N    ? P      ? 20180313 0006 03.1442 GAU 2.47e-02  0.00e+00  8.16e+00  1.60e-02    8.16e+00
22     ?    N    ? P      ? 20180313 0006 03.1423 GAU 1.45e-02  0.00e+00  6.58e+00  8.00e-03    6.58e+00
106    ?    N    ? P      ? 20180313 0006 03.1580 GAU 2.52e-02  0.00e+00  8.01e+00  1.60e-02    8.01e+00
23     ?    N    ? P      ? 20180313 0006 03.1483 GAU 7.64e-03  0.00e+00  8.43e+00  8.00e-03    8.43e+00
21     ?    N    ? P      ? 20180313 0006 03.2084 GAU 2.93e-02  0.00e+00  7.20e+00  1.20e-02    7.20e+00
20     ?    N    ? P      ? 20180313 0006 03.2167 GAU 2.95e-02  0.00e+00  6.52e+00  2.40e-02    6.52e+00
18     ?    N    ? P      ? 20180313 0006 03.2100 GAU 1.87e-02  0.00e+00  5.68e+00  3.60e-02    5.68e+00
17     ?    N    ? P      ? 20180313 0006 03.2437 GAU 1.38e-02  0.00e+00  5.85e+00  3.60e-02    5.85e+00
#
# EQEVENT:
38     ?    N    ? P      ? 20180313 0006 19.5107 GAU 2.00e-02  0.00e+00  6.73e+00  1.20e-02    6.73e+00
36     ?    N    ? P      ? 20180313 0006 19.5112 GAU 1.46e-02  0.00e+00  8.29e+00  1.20e-02    8.29e+00
35     ?    N    ? P      ? 20180313 0006 19.5141 GAU 1.75e-02  0.00e+00  9.42e+00  1.20e-02    9.42e+00
33     ?    N    ? P      ? 20180313 0006 19.5078 GAU 1.12e-02  0.00e+00  8.45e+00  1.20e-02    8.45e+00
32     ?    N    ? P      ? 20180313 0006 19.5132 GAU 1.66e-02  0.00e+00  8.19e+00  1.20e-02    8.19e+00
39     ?    N    ? P      ? 20180313 0006 19.5224 GAU 2.29e-02  0.00e+00  7.86e+00  8.00e-03    7.86e+00
30     ?    N    ? P      ? 20180313 0006 19.5351 GAU 2.10e-02  0.00e+00  7.25e+00  1.20e-02    7.25e+00
40     ?    N    ? P      ? 20180313 0006 19.5517 GAU 3.56e-02  0.00e+00  7.03e+00  2.40e-02    7.03e+00
41     ?    N    ? P      ? 20180313 0006 19.5439 GAU 2.39e-02  0.00e+00  6.47e+00  1.20e-02    6.47e+00
37     ?    N    ? P      ? 20180313 0006 19.5453 GAU 1.75e-02  0.00e+00  7.22e+00  1.20e-02    7.22e+00
34     ?    N    ? P      ? 20180313 0006 19.5600 GAU 1.85e-02  0.00e+00  7.45e+00  1.20e-02    7.45e+00
28     ?    N    ? P      ? 20180313 0006 19.5604 GAU 1.90e-02  0.00e+00  6.99e+00  1.20e-02    6.99e+00
31     ?    N    ? P      ? 20180313 0006 19.5682 GAU 1.61e-02  0.00e+00  6.63e+00  1.20e-02    6.63e+00
#
# EQEVENT:
6      ?    N    ? P      ? 20180313 0006 25.9268 GAU 5.25e-02  0.00e+00  6.14e+00  5.60e-02    6.14e+00
12     ?    N    ? P      ? 20180313 0006 25.9111 GAU 2.63e-02  0.00e+00  7.92e+00  8.00e-03    7.92e+00
17     ?    N    ? P      ? 20180313 0006 25.9088 GAU 1.95e-02  0.00e+00  8.09e+00  8.00e-03    8.09e+00
10     ?    N    ? P      ? 20180313 0006 25.9163 GAU 2.55e-02  0.00e+00  7.06e+00  8.00e-03    7.06e+00
103    ?    N    ? P      ? 20180313 0006 25.9223 GAU 3.00e-02  0.00e+00  5.72e+00  1.20e-02    5.72e+00
16     ?    N    ? P      ? 20180313 0006 25.9298 GAU 1.95e-02  0.00e+00  8.80e+00  1.20e-02    8.80e+00
15     ?    N    ? P      ? 20180313 0006 25.9403 GAU 2.55e-02  0.00e+00  7.42e+00  1.20e-02    7.42e+00
#
# EQEVENT:
26     ?    N    ? P      ? 20180313 0006 28.2484 GAU 3.21e-02  0.00e+00  6.52e+00  1.20e-02    6.52e+00
27     ?    N    ? P      ? 20180313 0006 28.2941 GAU 5.85e-02  0.00e+00  5.21e+00  4.80e-02    5.21e+00
105    ?    N    ? P      ? 20180313 0006 28.2692 GAU 3.21e-02  0.00e+00  7.45e+00  1.20e-02    7.45e+00
28     ?    N    ? P      ? 20180313 0006 28.2708 GAU 2.73e-02  0.00e+00  7.44e+00  8.00e-03    7.44e+00
30     ?    N    ? P      ? 20180313 0006 28.2925 GAU 3.45e-02  0.00e+00  6.42e+00  8.00e-03    6.42e+00
31     ?    N    ? P      ? 20180313 0006 28.3334 GAU 4.65e-02  0.00e+00  5.47e+00  6.80e-02    5.47e+00
32     ?    N    ? P      ? 20180313 0006 28.3542 GAU 4.17e-02  0.00e+00  8.23e+00  1.20e-02    8.23e+00
33     ?    N    ? P      ? 20180313 0006 28.3574 GAU 3.21e-02  0.00e+00  8.26e+00  1.20e-02    8.26e+00
35     ?    N    ? P      ? 20180313 0006 28.3679 GAU 4.09e-02  0.00e+00  8.86e+00  8.00e-03    8.86e+00
36     ?    N    ? P      ? 20180313 0006 28.3855 GAU 2.33e-02  0.00e+00  7.07e+00  3.20e-02    7.07e+00
38     ?    N    ? P      ? 20180313 0006 28.4023 GAU 2.73e-02  0.00e+00  6.03e+00  5.60e-02    6.03e+00
39     ?    N    ? P      ? 20180313 0006 28.4120 GAU 2.41e-02  0.00e+00  6.31e+00  3.60e-02    6.31e+00
37     ?    N    ? P      ? 20180313 0006 28.4280 GAU 2.73e-02  0.00e+00  5.94e+00  8.00e-03    5.94e+00
34     ?    N    ? P      ? 20180313 0006 28.4473 GAU 4.33e-02  0.00e+00  7.05e+00  1.60e-02    7.05e+00
#
# EQEVENT:
15     ?    N    ? P      ? 20180313 0006 33.1400 GAU 2.41e-02  0.00e+00  8.63e+00  5.20e-02    8.63e+00
12     ?    N    ? P      ? 20180313 0006 33.1461 GAU 2.21e-02  0.00e+00  8.12e+00  5.60e-02    8.12e+00
105    ?    N    ? P      ? 20180313 0006 33.1752 GAU 4.52e-02  0.00e+00  6.88e+00  2.80e-02    6.88e+00
18     ?    N    ? P      ? 20180313 0006 33.1496 GAU 1.86e-02  0.00e+00  7.09e+00  5.60e-02    7.09e+00
10     ?    N    ? P      ? 20180313 0006 33.1516 GAU 1.96e-02  0.00e+00  6.77e+00  1.20e-02    6.77e+00
23     ?    N    ? P      ? 20180313 0006 33.1641 GAU 3.01e-02  0.00e+00  6.76e+00  1.20e-02    6.76e+00
17     ?    N    ? P      ? 20180313 0006 33.1546 GAU 1.76e-02  0.00e+00  7.94e+00  1.20e-02    7.94e+00
16     ?    N    ? P      ? 20180313 0006 33.1546 GAU 1.76e-02  0.00e+00  8.48e+00  1.20e-02    8.48e+00
21     ?    N    ? P      ? 20180313 0006 33.1626 GAU 2.26e-02  0.00e+00  6.63e+00  1.20e-02    6.63e+00
20     ?    N    ? P      ? 20180313 0006 33.1646 GAU 2.46e-02  0.00e+00  6.53e+00  2.80e-02    6.53e+00
103    ?    N    ? P      ? 20180313 0006 33.1982 GAU 3.01e-02  0.00e+00  6.33e+00  1.20e-02    6.33e+00
#
# EQEVENT:
42     ?    N    ? P      ? 20180313 0006 54.5653 GAU 1.56e-02  0.00e+00  8.91e+00  1.20e-02    8.91e+00
41     ?    N    ? P      ? 20180313 0006 54.5698 GAU 1.56e-02  0.00e+00  8.58e+00  1.20e-02    8.58e+00
36     ?    N    ? P      ? 20180313 0006 54.5926 GAU 3.28e-02  0.00e+00  6.45e+00  1.20e-02    6.45e+00
39     ?    N    ? P      ? 20180313 0006 54.5809 GAU 1.22e-02  0.00e+00  8.80e+00  1.20e-02    8.80e+00
38     ?    N    ? P      ? 20180313 0006 54.5909 GAU 1.78e-02  0.00e+00  7.61e+00  1.60e-02    7.61e+00
35     ?    N    ? P      ? 20180313 0006 54.6154 GAU 2.56e-02  0.00e+00  6.66e+00  1.20e-02    6.66e+00
40     ?    N    ? P      ? 20180313 0006 54.6410 GAU 3.23e-02  0.00e+00  7.37e+00  1.60e-02    7.37e+00
37     ?    N    ? P      ? 20180313 0006 54.6883 GAU 2.62e-02  0.00e+00  6.76e+00  1.20e-02    6.76e+00
#
# EQEVENT:
35     ?    N    ? P      ? 20180313 0006 56.1600 GAU 1.38e-02  0.00e+00  9.06e+00  4.40e-02    9.06e+00
36     ?    N    ? P      ? 20180313 0006 56.1720 GAU 1.26e-02  0.00e+00  9.13e+00  8.00e-03    9.13e+00
39     ?    N    ? P      ? 20180313 0006 56.2450 GAU 1.99e-02  0.00e+00  7.12e+00  5.60e-02    7.12e+00
38     ?    N    ? P      ? 20180313 0006 56.2290 GAU 1.50e-02  0.00e+00  8.54e+00  1.20e-02    8.54e+00
41     ?    N    ? P      ? 20180313 0006 56.4080 GAU 1.99e-02  0.00e+00  6.62e+00  1.20e-02    6.62e+00
33     ?    N    ? P      ? 20180313 0006 56.3910 GAU 1.42e-02  0.00e+00  8.20e+00  1.60e-02    8.20e+00
37     ?    N    ? P      ? 20180313 0006 56.1005 GAU 6.98e-02  0.00e+00  7.67e+00  1.60e-02    7.67e+00
40     ?    N    ? P      ? 20180313 0006 56.7160 GAU 3.86e-02  0.00e+00  7.00e+00  8.00e-03    7.00e+00
32     ?    N    ? P      ? 20180313 0006 56.7610 GAU 2.84e-02  0.00e+00  8.02e+00  1.20e-02    8.02e+00
34     ?    N    ? P      ? 20180313 0006 56.8540 GAU 2.72e-02  0.00e+00  6.66e+00  3.60e-02    6.66e+00
28     ?    N    ? P      ? 20180313 0006 56.9880 GAU 2.19e-02  0.00e+00  7.14e+00  1.20e-02    7.14e+00
30     ?    N    ? P      ? 20180313 0006 56.1407 GAU 6.21e-02  0.00e+00  8.04e+00  1.20e-02    8.04e+00
31     ?    N    ? P      ? 20180313 0006 56.1346 GAU 3.41e-02  0.00e+00  6.33e+00  1.20e-02    6.33e+00
#
