# EQEVENT:
15     ?    N    ? P      ? 20180313 0003 52.1457 GAU 5.93e-03  0.00e+00  8.89e+00  6.40e-02    8.89e+00
8      ?    N    ? P      ? 20180313 0003 52.1635 GAU 1.24e-02  0.00e+00  7.19e+00  1.20e-02    7.19e+00
10     ?    N    ? P      ? 20180313 0003 52.1649 GAU 1.33e-02  0.00e+00  7.28e+00  1.20e-02    7.28e+00
18     ?    N    ? P      ? 20180313 0003 52.1610 GAU 9.32e-03  0.00e+00  7.76e+00  2.40e-02    7.76e+00
16     ?    N    ? P      ? 20180313 0003 52.1598 GAU 7.06e-03  0.00e+00  7.60e+00  8.00e-03    7.60e+00
12     ?    N    ? P      ? 20180313 0003 52.1627 GAU 9.32e-03  0.00e+00  7.95e+00  1.20e-02    7.95e+00
20     ?    N    ? P      ? 20180313 0003 52.1677 GAU 8.76e-03  0.00e+00  7.60e+00  2.40e-02    7.60e+00
17     ?    N    ? P      ? 20180313 0003 52.1807 GAU 9.88e-03  0.00e+00  8.49e+00  1.20e-02    8.49e+00
103    ?    N    ? P      ? 20180313 0003 52.1821 GAU 7.34e-03  0.00e+00  6.89e+00  2.80e-02    6.89e+00
22     ?    N    ? P      ? 20180313 0003 52.2143 GAU 3.90e-02  0.00e+00  6.69e+00  2.40e-02    6.69e+00
2      ?    N    ? P      ? 20180313 0003 52.1867 GAU 1.02e-02  0.00e+00  6.94e+00  2.80e-02    6.94e+00
21     ?    N    ? P      ? 20180313 0003 52.1988 GAU 1.10e-02  0.00e+00  7.35e+00  2.40e-02    7.35e+00
26     ?    N    ? P      ? 20180313 0003 52.2025 GAU 1.42e-02  0.00e+00  6.72e+00  1.20e-02    6.72e+00
13     ?    N    ? P      ? 20180313 0003 52.2081 GAU 1.75e-02  0.00e+00  7.63e+00  3.20e-02    7.63e+00
6      ?    N    ? P      ? 20180313 0003 52.2047 GAU 1.36e-02  0.00e+00  7.43e+00  1.20e-02    7.43e+00
5      ?    N    ? P      ? 20180313 0003 52.2115 GAU 1.58e-02  0.00e+00  7.80e+00  8.00e-03    7.80e+00
105    ?    N    ? P      ? 20180313 0003 52.2244 GAU 2.81e-02  0.00e+00  7.21e+00  3.60e-02    7.21e+00
25     ?    N    ? P      ? 20180313 0003 52.2174 GAU 1.67e-02  0.00e+00  7.07e+00  4.80e-02    7.07e+00
23     ?    N    ? P      ? 20180313 0003 52.2149 GAU 1.13e-02  0.00e+00  7.12e+00  1.20e-02    7.12e+00
#
# EQEVENT:
42     ?    N    ? P      ? 20180313 0003 57.9449 GAU 2.07e-02  0.00e+00  6.96e+00  4.00e-02    6.96e+00
36     ?    N    ? P      ? 20180313 0003 57.9872 GAU 1.83e-02  0.00e+00  7.50e+00  1.20e-02    7.50e+00
41     ?    N    ? P      ? 20180313 0003 57.9840 GAU 7.17e-03  0.00e+00  7.35e+00  1.20e-02    7.35e+00
39     ?    N    ? P      ? 20180313 0003 58.8700 GAU 1.43e-02  0.00e+00  8.96e+00  2.40e-02    8.96e+00
38     ?    N    ? P      ? 20180313 0003 58.1230 GAU 1.47e-02  0.00e+00  7.66e+00  1.20e-02    7.66e+00
40     ?    N    ? P      ? 20180313 0003 58.7090 GAU 1.43e-02  0.00e+00  7.09e+00  8.00e-03    7.09e+00
37     ?    N    ? P      ? 20180313 0003 58.1051 GAU 2.55e-02  0.00e+00  6.95e+00  8.00e-03    6.95e+00
#
# EQEVENT:
26     ?    N    ? P      ? 20180313 0004 01.6788 GAU 1.90e-02  0.00e+00  7.24e+00  1.20e-02    7.24e+00
105    ?    N    ? P      ? 20180313 0004 01.6805 GAU 2.07e-02  0.00e+00  7.80e+00  8.00e-03    7.80e+00
25     ?    N    ? P      ? 20180313 0004 01.6832 GAU 2.23e-02  0.00e+00  7.81e+00  8.00e-03    7.81e+00
23     ?    N    ? P      ? 20180313 0004 01.6870 GAU 1.96e-02  0.00e+00  7.84e+00  8.00e-03    7.84e+00
28     ?    N    ? P      ? 20180313 0004 01.6875 GAU 2.01e-02  0.00e+00  6.78e+00  8.00e-03    6.78e+00
20     ?    N    ? P      ? 20180313 0004 01.6979 GAU 1.63e-02  0.00e+00  6.44e+00  4.40e-02    6.44e+00
17     ?    N    ? P      ? 20180313 0004 01.7202 GAU 2.99e-02  0.00e+00  6.06e+00  1.20e-02    6.06e+00
27     ?    N    ? P      ? 20180313 0004 01.7240 GAU 2.72e-02  0.00e+00  5.66e+00  1.20e-02    5.66e+00
16     ?    N    ? P      ? 20180313 0004 01.7490 GAU 2.72e-02  0.00e+00  6.04e+00  1.20e-02    6.04e+00
15     ?    N    ? P      ? 20180313 0004 01.8208 GAU 2.39e-02  0.00e+00  6.81e+00  8.00e-03    6.81e+00
#
# EQEVENT:
32     ?    N    ? P      ? 20180313 0004 05.5931 GAU 2.82e-02  0.00e+00  7.27e+00  1.20e-02    7.27e+00
33     ?    N    ? P      ? 20180313 0004 05.5795 GAU 8.63e-03  0.00e+00  8.43e+00  1.20e-02    8.43e+00
105    ?    N    ? P      ? 20180313 0004 05.6250 GAU 4.92e-02  0.00e+00  6.30e+00  3.20e-02    6.30e+00
36     ?    N    ? P      ? 20180313 0004 05.5901 GAU 1.06e-02  0.00e+00  7.02e+00  2.00e-02    7.02e+00
38     ?    N    ? P      ? 20180313 0004 05.5951 GAU 1.23e-02  0.00e+00  6.29e+00  1.20e-02    6.29e+00
30     ?    N    ? P      ? 20180313 0004 05.6177 GAU 3.35e-02  0.00e+00  6.79e+00  1.20e-02    6.79e+00
35     ?    N    ? P      ? 20180313 0004 05.5921 GAU 7.97e-03  0.00e+00  9.46e+00  8.00e-03    9.46e+00
28     ?    N    ? P      ? 20180313 0004 05.6409 GAU 4.95e-02  0.00e+00  6.72e+00  8.00e-03    6.72e+00
39     ?    N    ? P      ? 20180313 0004 05.6217 GAU 1.16e-02  0.00e+00  6.28e+00  8.00e-03    6.28e+00
34     ?    N    ? P      ? 20180313 0004 05.6871 GAU 2.85e-02  0.00e+00  6.63e+00  1.20e-02    6.63e+00
#
# EQEVENT:
33     ?    N    ? P      ? 20180313 0004 23.6740 GAU 1.69e-02  0.00e+00  7.67e+00  1.20e-02    7.67e+00
32     ?    N    ? P      ? 20180313 0004 23.6809 GAU 2.33e-02  0.00e+00  7.41e+00  5.20e-02    7.41e+00
26     ?    N    ? P      ? 20180313 0004 23.6791 GAU 1.93e-02  0.00e+00  6.90e+00  6.80e-02    6.90e+00
30     ?    N    ? P      ? 20180313 0004 23.6822 GAU 2.19e-02  0.00e+00  6.93e+00  6.40e-02    6.93e+00
106    ?    N    ? P      ? 20180313 0004 23.6735 GAU 1.00e-02  0.00e+00  7.31e+00  2.40e-02    7.31e+00
35     ?    N    ? P      ? 20180313 0004 23.6835 GAU 1.74e-02  0.00e+00  7.71e+00  1.20e-02    7.71e+00
20     ?    N    ? P      ? 20180313 0004 23.6896 GAU 1.93e-02  0.00e+00  6.15e+00  2.40e-02    6.15e+00
105    ?    N    ? P      ? 20180313 0004 23.6838 GAU 1.24e-02  0.00e+00  7.64e+00  8.00e-03    7.64e+00
28     ?    N    ? P      ? 20180313 0004 23.6873 GAU 1.53e-02  0.00e+00  7.74e+00  8.00e-03    7.74e+00
25     ?    N    ? P      ? 20180313 0004 23.6991 GAU 1.93e-02  0.00e+00  7.12e+00  3.60e-02    7.12e+00
23     ?    N    ? P      ? 20180313 0004 23.6952 GAU 1.37e-02  0.00e+00  7.44e+00  2.80e-02    7.44e+00
34     ?    N    ? P      ? 20180313 0004 23.7063 GAU 1.96e-02  0.00e+00  6.64e+00  3.20e-02    6.64e+00
18     ?    N    ? P      ? 20180313 0004 23.7018 GAU 1.35e-02  0.00e+00  5.80e+00  8.00e-03    5.80e+00
22     ?    N    ? P      ? 20180313 0004 23.7340 GAU 1.72e-02  0.00e+00  6.62e+00  8.00e-03    6.62e+00
21     ?    N    ? P      ? 20180313 0004 23.7369 GAU 1.37e-02  0.00e+00  6.80e+00  8.00e-03    6.80e+00
27     ?    N    ? P      ? 20180313 0004 23.7454 GAU 2.06e-02  0.00e+00  6.70e+00  8.00e-03    6.70e+00
#
# EQEVENT:
106    ?    N    ? P      ? 20180313 0004 31.4297 GAU 1.80e-02  0.00e+00  7.47e+00  8.00e-03    7.47e+00
32     ?    N    ? P      ? 20180313 0004 31.4318 GAU 1.63e-02  0.00e+00  7.28e+00  1.20e-02    7.28e+00
33     ?    N    ? P      ? 20180313 0004 31.4412 GAU 1.57e-02  0.00e+00  7.87e+00  1.20e-02    7.87e+00
35     ?    N    ? P      ? 20180313 0004 31.4448 GAU 1.55e-02  0.00e+00  8.10e+00  8.00e-03    8.10e+00
38     ?    N    ? P      ? 20180313 0004 31.4573 GAU 2.47e-02  0.00e+00  6.40e+00  1.60e-02    6.40e+00
30     ?    N    ? P      ? 20180313 0004 31.4636 GAU 2.35e-02  0.00e+00  7.66e+00  2.00e-02    7.66e+00
39     ?    N    ? P      ? 20180313 0004 31.4751 GAU 3.50e-02  0.00e+00  6.69e+00  1.20e-02    6.69e+00
40     ?    N    ? P      ? 20180313 0004 31.4735 GAU 2.49e-02  0.00e+00  5.75e+00  1.60e-02    5.75e+00
28     ?    N    ? P      ? 20180313 0004 31.4695 GAU 2.05e-02  0.00e+00  7.82e+00  1.20e-02    7.82e+00
105    ?    N    ? P      ? 20180313 0004 31.4760 GAU 1.91e-02  0.00e+00  7.39e+00  2.40e-02    7.39e+00
26     ?    N    ? P      ? 20180313 0004 31.4842 GAU 1.84e-02  0.00e+00  6.84e+00  1.20e-02    6.84e+00
13     ?    N    ? P      ? 20180313 0004 31.4860 GAU 1.78e-02  0.00e+00  6.36e+00  1.20e-02    6.36e+00
27     ?    N    ? P      ? 20180313 0004 31.4911 GAU 2.28e-02  0.00e+00  6.19e+00  1.20e-02    6.19e+00
41     ?    N    ? P      ? 20180313 0004 31.5049 GAU 3.33e-02  0.00e+00  6.19e+00  4.80e-02    6.19e+00
18     ?    N    ? P      ? 20180313 0004 31.4923 GAU 1.61e-02  0.00e+00  5.89e+00  8.00e-03    5.89e+00
36     ?    N    ? P      ? 20180313 0004 31.5122 GAU 2.43e-02  0.00e+00  6.93e+00  1.20e-02    6.93e+00
25     ?    N    ? P      ? 20180313 0004 31.5281 GAU 2.97e-02  0.00e+00  7.00e+00  1.20e-02    7.00e+00
34     ?    N    ? P      ? 20180313 0004 31.5629 GAU 5.24e-02  0.00e+00  6.55e+00  8.00e-03    6.55e+00
23     ?    N    ? P      ? 20180313 0004 31.5495 GAU 3.39e-02  0.00e+00  6.44e+00  8.00e-03    6.44e+00
17     ?    N    ? P      ? 20180313 0004 31.5351 GAU 1.49e-02  0.00e+00  6.48e+00  1.20e-02    6.48e+00
15     ?    N    ? P      ? 20180313 0004 31.5405 GAU 1.57e-02  0.00e+00  6.78e+00  2.40e-02    6.78e+00
16     ?    N    ? P      ? 20180313 0004 31.5432 GAU 1.80e-02  0.00e+00  6.47e+00  5.60e-02    6.47e+00
37     ?    N    ? P      ? 20180313 0004 31.5847 GAU 5.24e-02  0.00e+00  6.60e+00  8.00e-03    6.60e+00
#
# EQEVENT:
42     ?    N    ? P      ? 20180313 0004 56.9430 GAU 1.43e-02  0.00e+00  9.02e+00  1.20e-02    9.02e+00
41     ?    N    ? P      ? 20180313 0004 56.1101 GAU 1.68e-02  0.00e+00  7.88e+00  1.20e-02    7.88e+00
39     ?    N    ? P      ? 20180313 0004 56.1194 GAU 1.38e-02  0.00e+00  7.78e+00  3.60e-02    7.78e+00
33     ?    N    ? P      ? 20180313 0004 56.1417 GAU 1.07e-02  0.00e+00  8.90e+00  1.20e-02    8.90e+00
32     ?    N    ? P      ? 20180313 0004 56.1472 GAU 1.49e-02  0.00e+00  8.76e+00  1.20e-02    8.76e+00
38     ?    N    ? P      ? 20180313 0004 56.1497 GAU 1.34e-02  0.00e+00  7.31e+00  1.20e-02    7.31e+00
35     ?    N    ? P      ? 20180313 0004 56.1531 GAU 1.13e-02  0.00e+00  9.03e+00  2.80e-02    9.03e+00
30     ?    N    ? P      ? 20180313 0004 56.1583 GAU 1.63e-02  0.00e+00  8.08e+00  2.40e-02    8.08e+00
36     ?    N    ? P      ? 20180313 0004 56.1573 GAU 1.09e-02  0.00e+00  7.94e+00  1.20e-02    7.94e+00
105    ?    N    ? P      ? 20180313 0004 56.1759 GAU 2.08e-02  0.00e+00  8.50e+00  1.20e-02    8.50e+00
40     ?    N    ? P      ? 20180313 0004 56.1837 GAU 2.79e-02  0.00e+00  6.90e+00  8.00e-03    6.90e+00
28     ?    N    ? P      ? 20180313 0004 56.1770 GAU 1.70e-02  0.00e+00  8.50e+00  1.20e-02    8.50e+00
37     ?    N    ? P      ? 20180313 0004 56.1784 GAU 1.83e-02  0.00e+00  6.72e+00  1.20e-02    6.72e+00
27     ?    N    ? P      ? 20180313 0004 56.1953 GAU 2.91e-02  0.00e+00  6.26e+00  8.00e-03    6.26e+00
26     ?    N    ? P      ? 20180313 0004 56.1995 GAU 3.11e-02  0.00e+00  7.14e+00  2.00e-02    7.14e+00
31     ?    N    ? P      ? 20180313 0004 56.1891 GAU 1.94e-02  0.00e+00  6.64e+00  8.00e-03    6.64e+00
25     ?    N    ? P      ? 20180313 0004 56.2091 GAU 3.11e-02  0.00e+00  6.91e+00  1.20e-02    6.91e+00
21     ?    N    ? P      ? 20180313 0004 56.2213 GAU 3.84e-02  0.00e+00  6.67e+00  1.20e-02    6.67e+00
23     ?    N    ? P      ? 20180313 0004 56.2057 GAU 2.28e-02  0.00e+00  7.55e+00  1.20e-02    7.55e+00
106    ?    N    ? P      ? 20180313 0004 56.2206 GAU 3.43e-02  0.00e+00  7.05e+00  2.40e-02    7.05e+00
34     ?    N    ? P      ? 20180313 0004 56.2074 GAU 2.04e-02  0.00e+00  7.48e+00  6.80e-02    7.48e+00
22     ?    N    ? P      ? 20180313 0004 56.2448 GAU 3.50e-02  0.00e+00  5.98e+00  8.00e-03    5.98e+00
#
# EQEVENT:
42     ?    N    ? P      ? 20180313 0005 01.1787 GAU 2.09e-02  0.00e+00  9.29e+00  1.20e-02    9.29e+00
36     ?    N    ? P      ? 20180313 0005 01.2228 GAU 4.54e-02  0.00e+00  7.45e+00  1.20e-02    7.45e+00
41     ?    N    ? P      ? 20180313 0005 01.1928 GAU 1.27e-02  0.00e+00  8.55e+00  1.20e-02    8.55e+00
39     ?    N    ? P      ? 20180313 0005 01.2013 GAU 1.86e-02  0.00e+00  8.53e+00  4.00e-02    8.53e+00
38     ?    N    ? P      ? 20180313 0005 01.2179 GAU 2.35e-02  0.00e+00  7.60e+00  1.20e-02    7.60e+00
40     ?    N    ? P      ? 20180313 0005 01.2404 GAU 2.25e-02  0.00e+00  7.38e+00  2.80e-02    7.38e+00
34     ?    N    ? P      ? 20180313 0005 01.2591 GAU 2.22e-02  0.00e+00  6.64e+00  1.20e-02    6.64e+00
33     ?    N    ? P      ? 20180313 0005 01.3035 GAU 3.98e-02  0.00e+00  6.78e+00  1.20e-02    6.78e+00
32     ?    N    ? P      ? 20180313 0005 01.2973 GAU 2.78e-02  0.00e+00  6.67e+00  1.20e-02    6.67e+00
37     ?    N    ? P      ? 20180313 0005 01.3077 GAU 2.51e-02  0.00e+00  6.62e+00  2.80e-02    6.62e+00
35     ?    N    ? P      ? 20180313 0005 01.3103 GAU 2.58e-02  0.00e+00  7.82e+00  1.20e-02    7.82e+00
31     ?    N    ? P      ? 20180313 0005 01.3204 GAU 2.81e-02  0.00e+00  6.53e+00  1.20e-02    6.53e+00
#
# EQEVENT:
8      ?    N    ? P      ? 20180313 0005 06.2532 GAU 2.50e-02  0.00e+00  6.52e+00  1.20e-02    6.52e+00
2      ?    N    ? P      ? 20180313 0005 06.2615 GAU 2.84e-02  0.00e+00  7.23e+00  1.20e-02    7.23e+00
12     ?    N    ? P      ? 20180313 0005 06.2494 GAU 1.63e-02  0.00e+00  8.62e+00  6.00e-02    8.62e+00
17     ?    N    ? P      ? 20180313 0005 06.2490 GAU 1.58e-02  0.00e+00  8.46e+00  1.20e-02    8.46e+00
18     ?    N    ? P      ? 20180313 0005 06.2507 GAU 1.50e-02  0.00e+00  7.79e+00  5.60e-02    7.79e+00
21     ?    N    ? P      ? 20180313 0005 06.2615 GAU 2.25e-02  0.00e+00  7.43e+00  4.00e-02    7.43e+00
16     ?    N    ? P      ? 20180313 0005 06.2619 GAU 1.63e-02  0.00e+00  8.50e+00  1.20e-02    8.50e+00
10     ?    N    ? P      ? 20180313 0005 06.2594 GAU 1.21e-02  0.00e+00  7.61e+00  1.20e-02    7.61e+00
20     ?    N    ? P      ? 20180313 0005 06.2623 GAU 1.50e-02  0.00e+00  7.41e+00  1.20e-02    7.41e+00
15     ?    N    ? P      ? 20180313 0005 06.2586 GAU 8.76e-03  0.00e+00  9.27e+00  8.00e-03    9.27e+00
6      ?    N    ? P      ? 20180313 0005 06.2895 GAU 2.63e-02  0.00e+00  7.26e+00  1.20e-02    7.26e+00
25     ?    N    ? P      ? 20180313 0005 06.2815 GAU 1.75e-02  0.00e+00  6.85e+00  1.20e-02    6.85e+00
4      ?    N    ? P      ? 20180313 0005 06.3028 GAU 3.38e-02  0.00e+00  6.78e+00  8.00e-03    6.78e+00
13     ?    N    ? P      ? 20180313 0005 06.2949 GAU 2.42e-02  0.00e+00  7.72e+00  4.80e-02    7.72e+00
103    ?    N    ? P      ? 20180313 0005 06.2874 GAU 1.50e-02  0.00e+00  6.90e+00  1.20e-02    6.90e+00
23     ?    N    ? P      ? 20180313 0005 06.3091 GAU 2.84e-02  0.00e+00  6.99e+00  2.80e-02    6.99e+00
22     ?    N    ? P      ? 20180313 0005 06.3170 GAU 1.71e-02  0.00e+00  6.61e+00  1.60e-02    6.61e+00
5      ?    N    ? P      ? 20180313 0005 06.3357 GAU 2.75e-02  0.00e+00  7.90e+00  1.20e-02    7.90e+00
105    ?    N    ? P      ? 20180313 0005 06.3445 GAU 3.63e-02  0.00e+00  7.07e+00  1.24e-01    7.07e+00
28     ?    N    ? P      ? 20180313 0005 06.3649 GAU 5.34e-02  0.00e+00  6.63e+00  8.00e-03    6.63e+00
27     ?    N    ? P      ? 20180313 0005 06.3370 GAU 2.21e-02  0.00e+00  5.82e+00  1.20e-02    5.82e+00
26     ?    N    ? P      ? 20180313 0005 06.3491 GAU 2.17e-02  0.00e+00  6.92e+00  1.20e-02    6.92e+00
9      ?    N    ? P      ? 20180313 0005 06.3674 GAU 2.92e-02  0.00e+00  8.41e+00  1.20e-02    8.41e+00
7      ?    N    ? P      ? 20180313 0005 06.4000 GAU 5.59e-02  0.00e+00  7.69e+00  8.00e-03    7.69e+00
#
# EQEVENT:
33     ?    N    ? P      ? 20180313 0005 11.7010 GAU 1.93e-02  0.00e+00  7.92e+00  1.20e-02    7.92e+00
26     ?    N    ? P      ? 20180313 0005 11.1050 GAU 5.27e-02  0.00e+00  6.33e+00  5.60e-02    6.33e+00
34     ?    N    ? P      ? 20180313 0005 11.1091 GAU 4.32e-02  0.00e+00  6.49e+00  5.60e-02    6.49e+00
38     ?    N    ? P      ? 20180313 0005 11.9090 GAU 2.35e-02  0.00e+00  6.69e+00  8.00e-03    6.69e+00
36     ?    N    ? P      ? 20180313 0005 11.8260 GAU 1.14e-02  0.00e+00  7.41e+00  3.20e-02    7.41e+00
35     ?    N    ? P      ? 20180313 0005 11.8600 GAU 1.40e-02  0.00e+00  8.59e+00  8.00e-03    8.59e+00
28     ?    N    ? P      ? 20180313 0005 11.1012 GAU 2.77e-02  0.00e+00  7.75e+00  8.00e-03    7.75e+00
32     ?    N    ? P      ? 20180313 0005 11.8830 GAU 1.33e-02  0.00e+00  8.63e+00  8.00e-03    8.63e+00
30     ?    N    ? P      ? 20180313 0005 11.9850 GAU 1.97e-02  0.00e+00  7.74e+00  1.20e-02    7.74e+00
25     ?    N    ? P      ? 20180313 0005 11.1315 GAU 3.68e-02  0.00e+00  6.43e+00  8.00e-03    6.43e+00
37     ?    N    ? P      ? 20180313 0005 11.1110 GAU 1.63e-02  0.00e+00  6.54e+00  8.00e-03    6.54e+00
105    ?    N    ? P      ? 20180313 0005 11.1133 GAU 1.71e-02  0.00e+00  7.81e+00  8.00e-03    7.81e+00
31     ?    N    ? P      ? 20180313 0005 11.1190 GAU 1.74e-02  0.00e+00  6.18e+00  5.20e-02    6.18e+00
39     ?    N    ? P      ? 20180313 0005 11.1209 GAU 1.78e-02  0.00e+00  6.77e+00  5.60e-02    6.77e+00
23     ?    N    ? P      ? 20180313 0005 11.1353 GAU 2.84e-02  0.00e+00  7.39e+00  8.00e-03    7.39e+00
106    ?    N    ? P      ? 20180313 0005 11.1486 GAU 2.58e-02  0.00e+00  6.65e+00  2.40e-02    6.65e+00
27     ?    N    ? P      ? 20180313 0005 11.1618 GAU 2.69e-02  0.00e+00  5.76e+00  8.00e-03    5.76e+00
40     ?    N    ? P      ? 20180313 0005 11.1702 GAU 2.09e-02  0.00e+00  6.51e+00  1.20e-02    6.51e+00
#
# EQEVENT:
2      ?    N    ? P      ? 20180313 0005 29.6109 GAU 5.17e-02  0.00e+00  6.55e+00  8.00e-03    6.55e+00
15     ?    N    ? P      ? 20180313 0005 29.5865 GAU 2.48e-02  0.00e+00  9.21e+00  8.00e-03    9.21e+00
17     ?    N    ? P      ? 20180313 0005 29.6520 GAU 6.97e-02  0.00e+00  6.05e+00  1.20e-02    6.05e+00
103    ?    N    ? P      ? 20180313 0005 29.6130 GAU 2.65e-02  0.00e+00  5.28e+00  1.20e-02    5.28e+00
16     ?    N    ? P      ? 20180313 0005 29.6182 GAU 3.08e-02  0.00e+00  6.88e+00  8.00e-03    6.88e+00
8      ?    N    ? P      ? 20180313 0005 29.6122 GAU 1.80e-02  0.00e+00  7.12e+00  8.00e-03    7.12e+00
12     ?    N    ? P      ? 20180313 0005 29.6169 GAU 1.67e-02  0.00e+00  7.82e+00  8.00e-03    7.82e+00
13     ?    N    ? P      ? 20180313 0005 29.6233 GAU 1.71e-02  0.00e+00  7.34e+00  1.20e-02    7.34e+00
10     ?    N    ? P      ? 20180313 0005 29.6353 GAU 1.37e-02  0.00e+00  8.08e+00  8.00e-03    8.08e+00
5      ?    N    ? P      ? 20180313 0005 29.6712 GAU 3.68e-02  0.00e+00  7.19e+00  1.20e-02    7.19e+00
4      ?    N    ? P      ? 20180313 0005 29.6635 GAU 2.91e-02  0.00e+00  7.02e+00  1.20e-02    7.02e+00
6      ?    N    ? P      ? 20180313 0005 29.6691 GAU 2.35e-02  0.00e+00  5.85e+00  5.20e-02    5.85e+00
#
