# EQEVENT:
31     ?    N    ? P      ? 20180313 0002 17.7050 GAU 4.79e-02  0.00e+00  6.20e+00  1.20e-02    6.20e+00
33     ?    N    ? P      ? 20180313 0002 17.7120 GAU 2.42e-02  0.00e+00  7.39e+00  8.00e-03    7.39e+00
32     ?    N    ? P      ? 20180313 0002 17.7263 GAU 1.40e-02  0.00e+00  8.79e+00  1.20e-02    8.79e+00
30     ?    N    ? P      ? 20180313 0002 17.7324 GAU 8.47e-03  0.00e+00  8.39e+00  1.20e-02    8.39e+00
35     ?    N    ? P      ? 20180313 0002 17.7388 GAU 1.47e-02  0.00e+00  7.81e+00  1.20e-02    7.81e+00
26     ?    N    ? P      ? 20180313 0002 17.7403 GAU 8.03e-03  0.00e+00  7.97e+00  8.00e-03    7.97e+00
28     ?    N    ? P      ? 20180313 0002 17.7428 GAU 9.67e-03  0.00e+00  8.98e+00  1.20e-02    8.98e+00
105    ?    N    ? P      ? 20180313 0002 17.7581 GAU 9.92e-03  0.00e+00  9.32e+00  1.20e-02    9.32e+00
25     ?    N    ? P      ? 20180313 0002 17.7686 GAU 8.03e-03  0.00e+00  7.48e+00  1.20e-02    7.48e+00
23     ?    N    ? P      ? 20180313 0002 17.7841 GAU 8.08e-03  0.00e+00  7.32e+00  4.80e-02    7.32e+00
27     ?    N    ? P      ? 20180313 0002 17.7921 GAU 8.67e-03  0.00e+00  7.27e+00  1.60e-02    7.27e+00
34     ?    N    ? P      ? 20180313 0002 17.8145 GAU 2.24e-02  0.00e+00  6.81e+00  1.20e-02    6.81e+00
#
# EQEVENT:
17     ?    N    ? P      ? 20180313 0002 20.1991 GAU 5.05e-02  0.00e+00  7.96e+00  1.20e-02    7.96e+00
18     ?    N    ? P      ? 20180313 0002 20.1815 GAU 2.90e-02  0.00e+00  7.22e+00  2.40e-02    7.22e+00
10     ?    N    ? P      ? 20180313 0002 20.1808 GAU 1.80e-02  0.00e+00  6.73e+00  2.40e-02    6.73e+00
12     ?    N    ? P      ? 20180313 0002 20.1823 GAU 1.88e-02  0.00e+00  7.71e+00  1.20e-02    7.71e+00
16     ?    N    ? P      ? 20180313 0002 20.1937 GAU 2.94e-02  0.00e+00  7.89e+00  2.80e-02    7.89e+00
15     ?    N    ? P      ? 20180313 0002 20.1819 GAU 1.45e-02  0.00e+00  8.60e+00  8.00e-03    8.60e+00
8      ?    N    ? P      ? 20180313 0002 20.1901 GAU 1.72e-02  0.00e+00  6.13e+00  3.20e-02    6.13e+00
20     ?    N    ? P      ? 20180313 0002 20.2058 GAU 1.88e-02  0.00e+00  6.94e+00  8.00e-03    6.94e+00
6      ?    N    ? P      ? 20180313 0002 20.2297 GAU 3.95e-02  0.00e+00  7.13e+00  1.20e-02    7.13e+00
13     ?    N    ? P      ? 20180313 0002 20.2336 GAU 2.47e-02  0.00e+00  7.09e+00  2.80e-02    7.09e+00
#
# EQEVENT:
36     ?    N    ? P      ? 20180313 0002 26.8310 GAU 3.12e-02  0.00e+00  7.04e+00  1.20e-02    7.04e+00
42     ?    N    ? P      ? 20180313 0002 26.6660 GAU 1.42e-02  0.00e+00  6.45e+00  8.00e-03    6.45e+00
41     ?    N    ? P      ? 20180313 0002 26.7620 GAU 1.23e-02  0.00e+00  7.55e+00  1.20e-02    7.55e+00
38     ?    N    ? P      ? 20180313 0002 26.8230 GAU 1.43e-02  0.00e+00  6.89e+00  1.20e-02    6.89e+00
39     ?    N    ? P      ? 20180313 0002 26.7790 GAU 6.24e-03  0.00e+00  8.44e+00  1.20e-02    8.44e+00
40     ?    N    ? P      ? 20180313 0002 26.1043 GAU 1.59e-02  0.00e+00  6.63e+00  1.60e-02    6.63e+00
33     ?    N    ? P      ? 20180313 0002 26.2766 GAU 1.96e-02  0.00e+00  7.53e+00  1.20e-02    7.53e+00
35     ?    N    ? P      ? 20180313 0002 26.2862 GAU 1.03e-02  0.00e+00  7.94e+00  8.00e-03    7.94e+00
32     ?    N    ? P      ? 20180313 0002 26.3042 GAU 2.01e-02  0.00e+00  7.99e+00  8.00e-03    7.99e+00
30     ?    N    ? P      ? 20180313 0002 26.3240 GAU 1.15e-02  0.00e+00  8.69e+00  8.00e-03    8.69e+00
105    ?    N    ? P      ? 20180313 0002 26.3383 GAU 1.79e-02  0.00e+00  8.02e+00  8.00e-03    8.02e+00
26     ?    N    ? P      ? 20180313 0002 26.3642 GAU 2.79e-02  0.00e+00  7.00e+00  1.20e-02    7.00e+00
28     ?    N    ? P      ? 20180313 0002 26.3541 GAU 1.44e-02  0.00e+00  7.99e+00  2.80e-02    7.99e+00
31     ?    N    ? P      ? 20180313 0002 26.3949 GAU 2.64e-02  0.00e+00  6.06e+00  2.40e-02    6.06e+00
#
# EQEVENT:
4      ?    N    ? P      ? 20180313 0002 49.8478 GAU 4.46e-02  0.00e+00  8.50e+00  1.60e-02    8.50e+00
15     ?    N    ? P      ? 20180313 0002 49.8357 GAU 7.68e-03  0.00e+00  1.17e+01  1.20e-02    1.17e+01
8      ?    N    ? P      ? 20180313 0002 49.8454 GAU 1.12e-02  0.00e+00  8.34e+00  8.00e-03    8.34e+00
2      ?    N    ? P      ? 20180313 0002 49.8518 GAU 1.30e-02  0.00e+00  7.78e+00  1.20e-02    7.78e+00
10     ?    N    ? P      ? 20180313 0002 49.8556 GAU 8.26e-03  0.00e+00  9.29e+00  8.00e-03    9.29e+00
12     ?    N    ? P      ? 20180313 0002 49.8593 GAU 7.41e-03  0.00e+00  9.52e+00  8.00e-03    9.52e+00
18     ?    N    ? P      ? 20180313 0002 49.8621 GAU 1.03e-02  0.00e+00  7.55e+00  1.20e-02    7.55e+00
13     ?    N    ? P      ? 20180313 0002 49.8637 GAU 1.04e-02  0.00e+00  1.03e+01  1.20e-02    1.03e+01
16     ?    N    ? P      ? 20180313 0002 49.8684 GAU 1.03e-02  0.00e+00  9.37e+00  1.20e-02    9.37e+00
17     ?    N    ? P      ? 20180313 0002 49.8673 GAU 8.54e-03  0.00e+00  8.95e+00  1.20e-02    8.95e+00
21     ?    N    ? P      ? 20180313 0002 49.8852 GAU 2.48e-02  0.00e+00  7.33e+00  8.00e-03    7.33e+00
23     ?    N    ? P      ? 20180313 0002 49.8903 GAU 2.65e-02  0.00e+00  7.13e+00  1.60e-02    7.13e+00
5      ?    N    ? P      ? 20180313 0002 49.8783 GAU 1.25e-02  0.00e+00  1.05e+01  1.20e-02    1.05e+01
103    ?    N    ? P      ? 20180313 0002 49.8821 GAU 9.68e-03  0.00e+00  8.34e+00  1.20e-02    8.34e+00
20     ?    N    ? P      ? 20180313 0002 49.8918 GAU 1.94e-02  0.00e+00  7.66e+00  8.00e-03    7.66e+00
6      ?    N    ? P      ? 20180313 0002 49.8940 GAU 1.83e-02  0.00e+00  8.04e+00  8.00e-03    8.04e+00
9      ?    N    ? P      ? 20180313 0002 49.8924 GAU 1.20e-02  0.00e+00  9.18e+00  3.60e-02    9.18e+00
7      ?    N    ? P      ? 20180313 0002 49.8912 GAU 9.96e-03  0.00e+00  9.76e+00  1.20e-02    9.76e+00
1      ?    N    ? P      ? 20180313 0002 49.9132 GAU 3.17e-02  0.00e+00  8.62e+00  2.40e-02    8.62e+00
26     ?    N    ? P      ? 20180313 0002 49.9066 GAU 1.82e-02  0.00e+00  7.32e+00  1.20e-02    7.32e+00
27     ?    N    ? P      ? 20180313 0002 49.9191 GAU 2.45e-02  0.00e+00  5.83e+00  8.00e-03    5.83e+00
25     ?    N    ? P      ? 20180313 0002 49.9199 GAU 2.42e-02  0.00e+00  7.29e+00  8.00e-03    7.29e+00
3      ?    N    ? P      ? 20180313 0002 49.9230 GAU 2.18e-02  0.00e+00  7.49e+00  2.40e-02    7.49e+00
105    ?    N    ? P      ? 20180313 0002 49.9214 GAU 1.88e-02  0.00e+00  7.74e+00  5.20e-02    7.74e+00
28     ?    N    ? P      ? 20180313 0002 49.9425 GAU 1.99e-02  0.00e+00  6.90e+00  8.00e-03    6.90e+00
22     ?    N    ? P      ? 20180313 0002 49.9444 GAU 1.34e-02  0.00e+00  7.39e+00  1.20e-02    7.39e+00
30     ?    N    ? P      ? 20180313 0002 49.9691 GAU 3.68e-02  0.00e+00  6.23e+00  8.00e-03    6.23e+00
#
# EQEVENT:
8      ?    N    ? P      ? 20180313 0003 02.6106 GAU 1.00e-02  0.00e+00  7.05e+00  1.20e-02    7.05e+00
15     ?    N    ? P      ? 20180313 0003 02.6109 GAU 9.12e-03  0.00e+00  8.95e+00  1.60e-02    8.95e+00
12     ?    N    ? P      ? 20180313 0003 02.6233 GAU 1.68e-02  0.00e+00  7.18e+00  1.20e-02    7.18e+00
4      ?    N    ? P      ? 20180313 0003 02.6236 GAU 1.24e-02  0.00e+00  8.32e+00  1.20e-02    8.32e+00
7      ?    N    ? P      ? 20180313 0003 02.6227 GAU 1.15e-02  0.00e+00  8.62e+00  8.00e-03    8.62e+00
5      ?    N    ? P      ? 20180313 0003 02.6268 GAU 1.50e-02  0.00e+00  9.05e+00  1.20e-02    9.05e+00
6      ?    N    ? P      ? 20180313 0003 02.6283 GAU 1.65e-02  0.00e+00  6.25e+00  2.00e-02    6.25e+00
13     ?    N    ? P      ? 20180313 0003 02.6227 GAU 1.09e-02  0.00e+00  9.50e+00  1.20e-02    9.50e+00
10     ?    N    ? P      ? 20180313 0003 02.6289 GAU 1.65e-02  0.00e+00  7.29e+00  8.00e-03    7.29e+00
3      ?    N    ? P      ? 20180313 0003 02.6439 GAU 2.32e-02  0.00e+00  7.35e+00  4.00e-02    7.35e+00
2      ?    N    ? P      ? 20180313 0003 02.6539 GAU 2.56e-02  0.00e+00  7.15e+00  1.60e-02    7.15e+00
16     ?    N    ? P      ? 20180313 0003 02.6548 GAU 1.65e-02  0.00e+00  6.96e+00  2.80e-02    6.96e+00
9      ?    N    ? P      ? 20180313 0003 02.6606 GAU 1.00e-02  0.00e+00  8.66e+00  8.00e-03    8.66e+00
1      ?    N    ? P      ? 20180313 0003 02.7127 GAU 1.62e-02  0.00e+00  8.07e+00  1.20e-02    8.07e+00
#
# EQEVENT:
32     ?    N    ? P      ? 20180313 0003 03.4645 GAU 1.19e-02  0.00e+00  8.20e+00  8.00e-03    8.20e+00
30     ?    N    ? P      ? 20180313 0003 03.4765 GAU 1.64e-02  0.00e+00  7.85e+00  1.20e-02    7.85e+00
33     ?    N    ? P      ? 20180313 0003 03.4780 GAU 1.57e-02  0.00e+00  8.12e+00  8.00e-03    8.12e+00
35     ?    N    ? P      ? 20180313 0003 03.4854 GAU 2.09e-02  0.00e+00  8.03e+00  8.00e-03    8.03e+00
26     ?    N    ? P      ? 20180313 0003 03.4929 GAU 1.94e-02  0.00e+00  6.63e+00  1.20e-02    6.63e+00
27     ?    N    ? P      ? 20180313 0003 03.5208 GAU 3.84e-02  0.00e+00  5.87e+00  2.80e-02    5.87e+00
105    ?    N    ? P      ? 20180313 0003 03.4966 GAU 1.27e-02  0.00e+00  8.00e+00  1.20e-02    8.00e+00
28     ?    N    ? P      ? 20180313 0003 03.4962 GAU 1.23e-02  0.00e+00  7.40e+00  1.20e-02    7.40e+00
36     ?    N    ? P      ? 20180313 0003 03.4985 GAU 1.45e-02  0.00e+00  6.37e+00  1.20e-02    6.37e+00
34     ?    N    ? P      ? 20180313 0003 03.5440 GAU 1.98e-02  0.00e+00  5.76e+00  8.00e-03    5.76e+00
106    ?    N    ? P      ? 20180313 0003 03.5600 GAU 2.98e-02  0.00e+00  6.54e+00  1.60e-02    6.54e+00
31     ?    N    ? P      ? 20180313 0003 03.5719 GAU 1.72e-02  0.00e+00  6.69e+00  1.20e-02    6.69e+00
#
# EQEVENT:
16     ?    N    ? P      ? 20180313 0003 08.6585 GAU 1.00e-02  0.00e+00  8.63e+00  8.00e-03    8.63e+00
17     ?    N    ? P      ? 20180313 0003 08.6549 GAU 5.17e-03  0.00e+00  7.97e+00  1.20e-02    7.97e+00
18     ?    N    ? P      ? 20180313 0003 08.6613 GAU 1.10e-02  0.00e+00  7.65e+00  2.40e-02    7.65e+00
8      ?    N    ? P      ? 20180313 0003 08.6619 GAU 9.74e-03  0.00e+00  6.51e+00  1.20e-02    6.51e+00
12     ?    N    ? P      ? 20180313 0003 08.6637 GAU 5.47e-03  0.00e+00  8.38e+00  1.20e-02    8.38e+00
15     ?    N    ? P      ? 20180313 0003 08.6674 GAU 9.13e-03  0.00e+00  7.82e+00  8.00e-03    7.82e+00
10     ?    N    ? P      ? 20180313 0003 08.6695 GAU 1.00e-02  0.00e+00  7.31e+00  1.20e-02    7.31e+00
20     ?    N    ? P      ? 20180313 0003 08.6664 GAU 7.00e-03  0.00e+00  7.64e+00  8.00e-03    7.64e+00
21     ?    N    ? P      ? 20180313 0003 08.6707 GAU 7.00e-03  0.00e+00  7.21e+00  1.20e-02    7.21e+00
103    ?    N    ? P      ? 20180313 0003 08.6838 GAU 1.28e-02  0.00e+00  7.65e+00  1.20e-02    7.65e+00
23     ?    N    ? P      ? 20180313 0003 08.6829 GAU 1.06e-02  0.00e+00  6.78e+00  8.00e-03    6.78e+00
4      ?    N    ? P      ? 20180313 0003 08.6881 GAU 1.52e-02  0.00e+00  6.72e+00  1.20e-02    6.72e+00
6      ?    N    ? P      ? 20180313 0003 08.6917 GAU 1.76e-02  0.00e+00  6.99e+00  6.00e-02    6.99e+00
13     ?    N    ? P      ? 20180313 0003 08.7048 GAU 1.31e-02  0.00e+00  7.25e+00  1.20e-02    7.25e+00
25     ?    N    ? P      ? 20180313 0003 08.7045 GAU 9.74e-03  0.00e+00  6.81e+00  4.80e-02    6.81e+00
5      ?    N    ? P      ? 20180313 0003 08.7419 GAU 1.73e-02  0.00e+00  7.83e+00  1.20e-02    7.83e+00
#
# EQEVENT:
32     ?    N    ? P      ? 20180313 0003 09.6934 GAU 1.07e-02  0.00e+00  7.48e+00  2.80e-02    7.48e+00
33     ?    N    ? P      ? 20180313 0003 09.7094 GAU 1.29e-02  0.00e+00  7.55e+00  1.20e-02    7.55e+00
30     ?    N    ? P      ? 20180313 0003 09.7086 GAU 1.07e-02  0.00e+00  8.26e+00  1.20e-02    8.26e+00
105    ?    N    ? P      ? 20180313 0003 09.7109 GAU 8.38e-03  0.00e+00  9.34e+00  3.60e-02    9.34e+00
28     ?    N    ? P      ? 20180313 0003 09.7116 GAU 8.38e-03  0.00e+00  9.60e+00  1.20e-02    9.60e+00
26     ?    N    ? P      ? 20180313 0003 09.7147 GAU 9.90e-03  0.00e+00  8.36e+00  1.20e-02    8.36e+00
22     ?    N    ? P      ? 20180313 0003 09.7398 GAU 3.20e-02  0.00e+00  6.10e+00  8.00e-03    6.10e+00
35     ?    N    ? P      ? 20180313 0003 09.7227 GAU 1.18e-02  0.00e+00  7.99e+00  8.00e-03    7.99e+00
34     ?    N    ? P      ? 20180313 0003 09.7337 GAU 1.83e-02  0.00e+00  6.86e+00  1.20e-02    6.86e+00
27     ?    N    ? P      ? 20180313 0003 09.7303 GAU 1.33e-02  0.00e+00  6.87e+00  1.20e-02    6.87e+00
25     ?    N    ? P      ? 20180313 0003 09.7272 GAU 9.52e-03  0.00e+00  7.85e+00  2.40e-02    7.85e+00
20     ?    N    ? P      ? 20180313 0003 09.7482 GAU 2.67e-02  0.00e+00  6.20e+00  2.40e-02    6.20e+00
31     ?    N    ? P      ? 20180313 0003 09.7330 GAU 9.14e-03  0.00e+00  6.29e+00  4.00e-02    6.29e+00
21     ?    N    ? P      ? 20180313 0003 09.7417 GAU 1.71e-02  0.00e+00  6.42e+00  8.00e-03    6.42e+00
23     ?    N    ? P      ? 20180313 0003 09.7432 GAU 8.76e-03  0.00e+00  7.86e+00  6.00e-02    7.86e+00
18     ?    N    ? P      ? 20180313 0003 09.7501 GAU 1.48e-02  0.00e+00  6.01e+00  2.00e-02    6.01e+00
#
# EQEVENT:
34     ?    N    ? P      ? 20180313 0003 14.4330 GAU 2.12e-02  0.00e+00  6.85e+00  2.80e-02    6.85e+00
36     ?    N    ? P      ? 20180313 0003 14.5026 GAU 9.33e-03  0.00e+00  8.36e+00  1.20e-02    8.36e+00
38     ?    N    ? P      ? 20180313 0003 14.5030 GAU 9.75e-03  0.00e+00  8.62e+00  2.00e-02    8.62e+00
39     ?    N    ? P      ? 20180313 0003 14.4996 GAU 6.36e-03  0.00e+00  8.96e+00  1.20e-02    8.96e+00
41     ?    N    ? P      ? 20180313 0003 14.5064 GAU 6.36e-03  0.00e+00  7.89e+00  2.40e-02    7.89e+00
35     ?    N    ? P      ? 20180313 0003 14.5149 GAU 1.06e-02  0.00e+00  8.03e+00  1.20e-02    8.03e+00
42     ?    N    ? P      ? 20180313 0003 14.5217 GAU 1.65e-02  0.00e+00  6.34e+00  4.80e-02    6.34e+00
32     ?    N    ? P      ? 20180313 0003 14.5301 GAU 1.65e-02  0.00e+00  6.51e+00  1.60e-02    6.51e+00
33     ?    N    ? P      ? 20180313 0003 14.5276 GAU 1.32e-02  0.00e+00  6.52e+00  2.40e-02    6.52e+00
40     ?    N    ? P      ? 20180313 0003 14.5450 GAU 2.54e-02  0.00e+00  7.39e+00  1.20e-02    7.39e+00
31     ?    N    ? P      ? 20180313 0003 14.5772 GAU 2.29e-02  0.00e+00  5.68e+00  6.00e-02    5.68e+00
30     ?    N    ? P      ? 20180313 0003 14.5942 GAU 1.70e-02  0.00e+00  6.80e+00  1.60e-02    6.80e+00
28     ?    N    ? P      ? 20180313 0003 14.5988 GAU 1.82e-02  0.00e+00  6.91e+00  2.80e-02    6.91e+00
105    ?    N    ? P      ? 20180313 0003 14.6116 GAU 2.50e-02  0.00e+00  6.85e+00  2.40e-02    6.85e+00
37     ?    N    ? P      ? 20180313 0003 14.6260 GAU 1.40e-02  0.00e+00  6.83e+00  1.20e-02    6.83e+00
#
# EQEVENT:
31     ?    N    ? P      ? 20180313 0003 16.2681 GAU 1.12e-02  0.00e+00  5.79e+00  1.20e-02    5.79e+00
32     ?    N    ? P      ? 20180313 0003 16.2711 GAU 1.22e-02  0.00e+00  8.46e+00  1.20e-02    8.46e+00
33     ?    N    ? P      ? 20180313 0003 16.2789 GAU 9.28e-03  0.00e+00  7.67e+00  2.80e-02    7.67e+00
30     ?    N    ? P      ? 20180313 0003 16.2823 GAU 8.79e-03  0.00e+00  8.39e+00  6.40e-02    8.39e+00
105    ?    N    ? P      ? 20180313 0003 16.2877 GAU 1.32e-02  0.00e+00  9.68e+00  8.00e-03    9.68e+00
35     ?    N    ? P      ? 20180313 0003 16.2896 GAU 1.51e-02  0.00e+00  8.00e+00  1.20e-02    8.00e+00
26     ?    N    ? P      ? 20180313 0003 16.2940 GAU 1.86e-02  0.00e+00  8.12e+00  8.00e-03    8.12e+00
28     ?    N    ? P      ? 20180313 0003 16.3033 GAU 1.12e-02  0.00e+00  9.80e+00  8.00e-03    9.80e+00
27     ?    N    ? P      ? 20180313 0003 16.3175 GAU 1.56e-02  0.00e+00  6.94e+00  1.20e-02    6.94e+00
25     ?    N    ? P      ? 20180313 0003 16.3189 GAU 1.61e-02  0.00e+00  6.87e+00  1.20e-02    6.87e+00
22     ?    N    ? P      ? 20180313 0003 16.3521 GAU 3.08e-02  0.00e+00  6.15e+00  8.00e-03    6.15e+00
106    ?    N    ? P      ? 20180313 0003 16.3477 GAU 1.95e-02  0.00e+00  6.34e+00  3.60e-02    6.34e+00
#
# EQEVENT:
10     ?    N    ? P      ? 20180313 0003 41.1112 GAU 3.60e-02  0.00e+00  6.43e+00  2.40e-02    6.43e+00
12     ?    N    ? P      ? 20180313 0003 41.1152 GAU 2.79e-02  0.00e+00  6.85e+00  1.60e-02    6.85e+00
16     ?    N    ? P      ? 20180313 0003 41.1024 GAU 1.41e-02  0.00e+00  8.00e+00  1.60e-02    8.00e+00
17     ?    N    ? P      ? 20180313 0003 41.9980 GAU 8.55e-03  0.00e+00  8.77e+00  8.00e-03    8.77e+00
18     ?    N    ? P      ? 20180313 0003 41.1041 GAU 1.13e-02  0.00e+00  7.34e+00  2.40e-02    7.34e+00
23     ?    N    ? P      ? 20180313 0003 41.1305 GAU 2.97e-02  0.00e+00  7.46e+00  8.00e-03    7.46e+00
15     ?    N    ? P      ? 20180313 0003 41.1227 GAU 2.09e-02  0.00e+00  7.06e+00  1.20e-02    7.06e+00
20     ?    N    ? P      ? 20180313 0003 41.1139 GAU 1.06e-02  0.00e+00  7.45e+00  2.40e-02    7.45e+00
21     ?    N    ? P      ? 20180313 0003 41.1180 GAU 1.11e-02  0.00e+00  7.03e+00  8.00e-03    7.03e+00
103    ?    N    ? P      ? 20180313 0003 41.1383 GAU 2.59e-02  0.00e+00  7.04e+00  1.20e-02    7.04e+00
25     ?    N    ? P      ? 20180313 0003 41.1411 GAU 1.76e-02  0.00e+00  6.61e+00  5.20e-02    6.61e+00
6      ?    N    ? P      ? 20180313 0003 41.1678 GAU 3.55e-02  0.00e+00  6.32e+00  8.00e-03    6.32e+00
105    ?    N    ? P      ? 20180313 0003 41.1584 GAU 1.79e-02  0.00e+00  7.30e+00  1.20e-02    7.30e+00
26     ?    N    ? P      ? 20180313 0003 41.1871 GAU 3.39e-02  0.00e+00  6.60e+00  2.80e-02    6.60e+00
27     ?    N    ? P      ? 20180313 0003 41.1846 GAU 2.74e-02  0.00e+00  5.53e+00  8.00e-03    5.53e+00
#
# EQEVENT:
33     ?    N    ? P      ? 20180313 0003 50.2630 GAU 1.50e-02  0.00e+00  8.52e+00  1.20e-02    8.52e+00
30     ?    N    ? P      ? 20180313 0003 50.2980 GAU 1.78e-02  0.00e+00  7.94e+00  4.40e-02    7.94e+00
32     ?    N    ? P      ? 20180313 0003 50.3620 GAU 1.59e-02  0.00e+00  8.35e+00  5.60e-02    8.35e+00
25     ?    N    ? P      ? 20180313 0003 50.4630 GAU 1.78e-02  0.00e+00  7.54e+00  1.20e-02    7.54e+00
28     ?    N    ? P      ? 20180313 0003 50.4510 GAU 1.02e-02  0.00e+00  8.73e+00  1.20e-02    8.73e+00
26     ?    N    ? P      ? 20180313 0003 50.4830 GAU 8.92e-03  0.00e+00  7.80e+00  1.20e-02    7.80e+00
105    ?    N    ? P      ? 20180313 0003 50.5050 GAU 7.96e-03  0.00e+00  8.12e+00  1.20e-02    8.12e+00
20     ?    N    ? P      ? 20180313 0003 50.5970 GAU 1.27e-02  0.00e+00  6.47e+00  2.40e-02    6.47e+00
23     ?    N    ? P      ? 20180313 0003 50.6040 GAU 1.21e-02  0.00e+00  7.47e+00  8.00e-03    7.47e+00
36     ?    N    ? P      ? 20180313 0003 50.6290 GAU 1.46e-02  0.00e+00  6.81e+00  1.20e-02    6.81e+00
27     ?    N    ? P      ? 20180313 0003 50.1225 GAU 1.18e-02  0.00e+00  7.27e+00  8.00e-03    7.27e+00
#
