# EQEVENT:
8      ?    N    ? P      ? 20180313 0006 56.4438 GAU 1.54e-02  0.00e+00  8.62e+00  1.60e-02    8.62e+00
2      ?    N    ? P      ? 20180313 0006 56.4548 GAU 2.42e-02  0.00e+00  8.33e+00  1.20e-02    8.33e+00
15     ?    N    ? P      ? 20180313 0006 56.4390 GAU 6.22e-03  0.00e+00  1.14e+01  8.00e-03    1.14e+01
17     ?    N    ? P      ? 20180313 0006 56.4486 GAU 1.21e-02  0.00e+00  8.14e+00  1.20e-02    8.14e+00
18     ?    N    ? P      ? 20180313 0006 56.4540 GAU 1.54e-02  0.00e+00  7.87e+00  1.20e-02    7.87e+00
10     ?    N    ? P      ? 20180313 0006 56.4533 GAU 1.17e-02  0.00e+00  9.28e+00  1.20e-02    9.28e+00
16     ?    N    ? P      ? 20180313 0006 56.4599 GAU 1.68e-02  0.00e+00  9.04e+00  6.00e-02    9.04e+00
7      ?    N    ? P      ? 20180313 0006 56.5016 GAU 5.78e-02  0.00e+00  7.37e+00  1.20e-02    7.37e+00
20     ?    N    ? P      ? 20180313 0006 56.4610 GAU 1.57e-02  0.00e+00  7.75e+00  1.20e-02    7.75e+00
12     ?    N    ? P      ? 20180313 0006 56.4507 GAU 5.49e-03  0.00e+00  9.64e+00  1.20e-02    9.64e+00
21     ?    N    ? P      ? 20180313 0006 56.4672 GAU 1.90e-02  0.00e+00  7.79e+00  1.20e-02    7.79e+00
4      ?    N    ? P      ? 20180313 0006 56.4778 GAU 2.45e-02  0.00e+00  8.64e+00  1.60e-02    8.64e+00
103    ?    N    ? P      ? 20180313 0006 56.4723 GAU 1.32e-02  0.00e+00  7.59e+00  8.00e-03    7.59e+00
13     ?    N    ? P      ? 20180313 0006 56.4760 GAU 1.54e-02  0.00e+00  9.76e+00  2.40e-02    9.76e+00
5      ?    N    ? P      ? 20180313 0006 56.4947 GAU 3.11e-02  0.00e+00  9.08e+00  1.20e-02    9.08e+00
23     ?    N    ? P      ? 20180313 0006 56.4895 GAU 1.94e-02  0.00e+00  7.52e+00  8.00e-03    7.52e+00
6      ?    N    ? P      ? 20180313 0006 56.4958 GAU 2.42e-02  0.00e+00  8.41e+00  2.00e-02    8.41e+00
25     ?    N    ? P      ? 20180313 0006 56.5170 GAU 1.83e-02  0.00e+00  8.09e+00  1.20e-02    8.09e+00
22     ?    N    ? P      ? 20180313 0006 56.5203 GAU 1.57e-02  0.00e+00  7.64e+00  2.80e-02    7.64e+00
9      ?    N    ? P      ? 20180313 0006 56.5448 GAU 3.95e-02  0.00e+00  9.18e+00  3.20e-02    9.18e+00
26     ?    N    ? P      ? 20180313 0006 56.5298 GAU 2.38e-02  0.00e+00  7.38e+00  1.20e-02    7.38e+00
1      ?    N    ? P      ? 20180313 0006 56.5342 GAU 2.45e-02  0.00e+00  7.92e+00  1.20e-02    7.92e+00
31     ?    N    ? P      ? 20180313 0006 56.5419 GAU 3.00e-02  0.00e+00  6.78e+00  1.20e-02    6.78e+00
3      ?    N    ? P      ? 20180313 0006 56.5598 GAU 4.58e-02  0.00e+00  8.23e+00  8.00e-03    8.23e+00
27     ?    N    ? P      ? 20180313 0006 56.5434 GAU 2.20e-02  0.00e+00  6.91e+00  1.20e-02    6.91e+00
105    ?    N    ? P      ? 20180313 0006 56.5584 GAU 2.67e-02  0.00e+00  7.32e+00  2.00e-02    7.32e+00
28     ?    N    ? P      ? 20180313 0006 56.5668 GAU 3.44e-02  0.00e+00  6.75e+00  1.20e-02    6.75e+00
39     ?    N    ? P      ? 20180313 0006 56.5672 GAU 2.75e-02  0.00e+00  7.02e+00  8.00e-03    7.02e+00
30     ?    N    ? P      ? 20180313 0006 56.5686 GAU 2.75e-02  0.00e+00  6.85e+00  4.40e-02    6.85e+00
#
# EQEVENT:
17     ?    N    ? P      ? 20180313 0007 05.7440 GAU 2.93e-02  0.00e+00  5.84e+00  2.40e-02    5.84e+00
30     ?    N    ? P      ? 20180313 0007 05.1234 GAU 2.71e-02  0.00e+00  7.90e+00  2.80e-02    7.90e+00
105    ?    N    ? P      ? 20180313 0007 05.1202 GAU 1.75e-02  0.00e+00  8.21e+00  4.40e-02    8.21e+00
32     ?    N    ? P      ? 20180313 0007 05.1430 GAU 3.40e-02  0.00e+00  7.05e+00  1.20e-02    7.05e+00
103    ?    N    ? P      ? 20180313 0007 05.1420 GAU 3.19e-02  0.00e+00  6.58e+00  2.40e-02    6.58e+00
25     ?    N    ? P      ? 20180313 0007 05.1367 GAU 2.13e-02  0.00e+00  8.41e+00  8.00e-03    8.41e+00
28     ?    N    ? P      ? 20180313 0007 05.1345 GAU 1.49e-02  0.00e+00  7.47e+00  8.00e-03    7.47e+00
26     ?    N    ? P      ? 20180313 0007 05.1372 GAU 1.54e-02  0.00e+00  7.90e+00  1.20e-02    7.90e+00
31     ?    N    ? P      ? 20180313 0007 05.1516 GAU 2.87e-02  0.00e+00  7.18e+00  1.20e-02    7.18e+00
23     ?    N    ? P      ? 20180313 0007 05.1409 GAU 1.70e-02  0.00e+00  7.90e+00  8.00e-03    7.90e+00
21     ?    N    ? P      ? 20180313 0007 05.1643 GAU 3.30e-02  0.00e+00  7.44e+00  1.20e-02    7.44e+00
35     ?    N    ? P      ? 20180313 0007 05.1547 GAU 2.23e-02  0.00e+00  6.79e+00  1.20e-02    6.79e+00
20     ?    N    ? P      ? 20180313 0007 05.1505 GAU 1.70e-02  0.00e+00  7.32e+00  8.00e-03    7.32e+00
106    ?    N    ? P      ? 20180313 0007 05.1686 GAU 3.19e-02  0.00e+00  7.27e+00  8.00e-03    7.27e+00
34     ?    N    ? P      ? 20180313 0007 05.1739 GAU 3.19e-02  0.00e+00  6.53e+00  1.20e-02    6.53e+00
18     ?    N    ? P      ? 20180313 0007 05.1638 GAU 2.07e-02  0.00e+00  6.43e+00  8.00e-03    6.43e+00
33     ?    N    ? P      ? 20180313 0007 05.1606 GAU 1.54e-02  0.00e+00  7.15e+00  1.20e-02    7.15e+00
22     ?    N    ? P      ? 20180313 0007 05.1734 GAU 2.39e-02  0.00e+00  7.24e+00  1.20e-02    7.24e+00
27     ?    N    ? P      ? 20180313 0007 05.1983 GAU 2.13e-02  0.00e+00  7.67e+00  8.00e-03    7.67e+00
40     ?    N    ? P      ? 20180313 0007 05.2818 GAU 4.63e-02  0.00e+00  6.11e+00  1.20e-02    6.11e+00
42     ?    N    ? P      ? 20180313 0007 05.2670 GAU 1.86e-02  0.00e+00  7.50e+00  2.40e-02    7.50e+00
41     ?    N    ? P      ? 20180313 0007 05.2824 GAU 2.77e-02  0.00e+00  6.17e+00  1.20e-02    6.17e+00
#
# EQEVENT:
28     ?    N    ? P      ? 20180313 0007 11.4501 GAU 2.90e-02  0.00e+00  7.00e+00  1.20e-02    7.00e+00
21     ?    N    ? P      ? 20180313 0007 11.4607 GAU 3.60e-02  0.00e+00  6.84e+00  1.20e-02    6.84e+00
105    ?    N    ? P      ? 20180313 0007 11.4444 GAU 1.54e-02  0.00e+00  8.11e+00  5.20e-02    8.11e+00
26     ?    N    ? P      ? 20180313 0007 11.4471 GAU 1.45e-02  0.00e+00  7.10e+00  1.20e-02    7.10e+00
30     ?    N    ? P      ? 20180313 0007 11.4576 GAU 2.42e-02  0.00e+00  6.87e+00  8.00e-03    6.87e+00
23     ?    N    ? P      ? 20180313 0007 11.4528 GAU 9.67e-03  0.00e+00  8.35e+00  1.20e-02    8.35e+00
20     ?    N    ? P      ? 20180313 0007 11.4655 GAU 1.89e-02  0.00e+00  6.45e+00  1.20e-02    6.45e+00
18     ?    N    ? P      ? 20180313 0007 11.4721 GAU 2.11e-02  0.00e+00  6.09e+00  1.20e-02    6.09e+00
31     ?    N    ? P      ? 20180313 0007 11.4748 GAU 2.28e-02  0.00e+00  6.24e+00  2.40e-02    6.24e+00
27     ?    N    ? P      ? 20180313 0007 11.4857 GAU 2.42e-02  0.00e+00  5.85e+00  8.00e-03    5.85e+00
25     ?    N    ? P      ? 20180313 0007 11.4791 GAU 1.41e-02  0.00e+00  7.18e+00  8.00e-03    7.18e+00
22     ?    N    ? P      ? 20180313 0007 11.4998 GAU 1.80e-02  0.00e+00  6.12e+00  2.00e-02    6.12e+00
#
# EQEVENT:
27     ?    N    ? P      ? 20180313 0007 16.2126 GAU 7.45e-02  0.00e+00  5.49e+00  1.56e-01    5.49e+00
105    ?    N    ? P      ? 20180313 0007 16.1819 GAU 3.82e-02  0.00e+00  7.85e+00  4.80e-02    7.85e+00
35     ?    N    ? P      ? 20180313 0007 16.1800 GAU 3.26e-02  0.00e+00  8.07e+00  8.00e-03    8.07e+00
33     ?    N    ? P      ? 20180313 0007 16.1656 GAU 1.07e-02  0.00e+00  7.74e+00  8.00e-03    7.74e+00
32     ?    N    ? P      ? 20180313 0007 16.1921 GAU 2.61e-02  0.00e+00  8.00e+00  8.00e-03    8.00e+00
30     ?    N    ? P      ? 20180313 0007 16.2024 GAU 2.42e-02  0.00e+00  8.19e+00  1.20e-02    8.19e+00
26     ?    N    ? P      ? 20180313 0007 16.2271 GAU 4.70e-02  0.00e+00  7.40e+00  1.20e-02    7.40e+00
38     ?    N    ? P      ? 20180313 0007 16.2014 GAU 2.14e-02  0.00e+00  6.69e+00  8.00e-03    6.69e+00
34     ?    N    ? P      ? 20180313 0007 16.2201 GAU 3.91e-02  0.00e+00  6.17e+00  1.20e-02    6.17e+00
28     ?    N    ? P      ? 20180313 0007 16.1959 GAU 1.40e-02  0.00e+00  7.81e+00  1.20e-02    7.81e+00
31     ?    N    ? P      ? 20180313 0007 16.2122 GAU 2.84e-02  0.00e+00  6.34e+00  2.00e-02    6.34e+00
36     ?    N    ? P      ? 20180313 0007 16.2145 GAU 2.14e-02  0.00e+00  7.40e+00  1.60e-02    7.40e+00
39     ?    N    ? P      ? 20180313 0007 16.2191 GAU 1.58e-02  0.00e+00  6.97e+00  8.00e-03    6.97e+00
41     ?    N    ? P      ? 20180313 0007 16.2280 GAU 1.82e-02  0.00e+00  6.56e+00  1.20e-02    6.56e+00
37     ?    N    ? P      ? 20180313 0007 16.2508 GAU 3.73e-02  0.00e+00  6.12e+00  1.20e-02    6.12e+00
40     ?    N    ? P      ? 20180313 0007 16.2564 GAU 2.14e-02  0.00e+00  6.70e+00  2.40e-02    6.70e+00
106    ?    N    ? P      ? 20180313 0007 16.3276 GAU 4.80e-02  0.00e+00  6.93e+00  1.60e-02    6.93e+00
#
# EQEVENT:
42     ?    N    ? P      ? 20180313 0007 17.8884 GAU 9.92e-03  0.00e+00  8.65e+00  8.00e-03    8.65e+00
41     ?    N    ? P      ? 20180313 0007 17.8948 GAU 7.79e-03  0.00e+00  8.63e+00  1.60e-02    8.63e+00
39     ?    N    ? P      ? 20180313 0007 17.9040 GAU 9.20e-03  0.00e+00  9.24e+00  8.00e-03    9.24e+00
35     ?    N    ? P      ? 20180313 0007 17.9270 GAU 2.73e-02  0.00e+00  7.31e+00  8.00e-03    7.31e+00
36     ?    N    ? P      ? 20180313 0007 17.9171 GAU 1.52e-02  0.00e+00  7.65e+00  1.20e-02    7.65e+00
38     ?    N    ? P      ? 20180313 0007 17.9273 GAU 2.41e-02  0.00e+00  7.26e+00  1.60e-02    7.26e+00
40     ?    N    ? P      ? 20180313 0007 17.9316 GAU 1.77e-02  0.00e+00  7.44e+00  1.20e-02    7.44e+00
37     ?    N    ? P      ? 20180313 0007 17.9588 GAU 3.01e-02  0.00e+00  6.60e+00  1.20e-02    6.60e+00
34     ?    N    ? P      ? 20180313 0007 17.9663 GAU 2.76e-02  0.00e+00  6.82e+00  1.20e-02    6.82e+00
32     ?    N    ? P      ? 20180313 0007 17.9840 GAU 2.48e-02  0.00e+00  7.05e+00  8.00e-03    7.05e+00
33     ?    N    ? P      ? 20180313 0007 17.9822 GAU 1.74e-02  0.00e+00  6.75e+00  1.60e-02    6.75e+00
#
# EQEVENT:
8      ?    N    ? P      ? 20180313 0007 18.4974 GAU 1.78e-02  0.00e+00  7.25e+00  1.20e-02    7.25e+00
18     ?    N    ? P      ? 20180313 0007 18.4995 GAU 1.98e-02  0.00e+00  6.85e+00  6.80e-02    6.85e+00
15     ?    N    ? P      ? 20180313 0007 18.4943 GAU 6.96e-03  0.00e+00  9.00e+00  1.20e-02    9.00e+00
12     ?    N    ? P      ? 20180313 0007 18.5002 GAU 1.22e-02  0.00e+00  8.16e+00  8.00e-03    8.16e+00
10     ?    N    ? P      ? 20180313 0007 18.5054 GAU 1.39e-02  0.00e+00  7.81e+00  6.40e-02    7.81e+00
16     ?    N    ? P      ? 20180313 0007 18.5093 GAU 1.08e-02  0.00e+00  7.98e+00  5.60e-02    7.98e+00
17     ?    N    ? P      ? 20180313 0007 18.5134 GAU 1.29e-02  0.00e+00  7.53e+00  1.20e-02    7.53e+00
20     ?    N    ? P      ? 20180313 0007 18.5169 GAU 1.36e-02  0.00e+00  6.85e+00  2.00e-02    6.85e+00
21     ?    N    ? P      ? 20180313 0007 18.5211 GAU 1.71e-02  0.00e+00  6.42e+00  6.00e-02    6.42e+00
13     ?    N    ? P      ? 20180313 0007 18.5267 GAU 2.19e-02  0.00e+00  7.37e+00  1.20e-02    7.37e+00
23     ?    N    ? P      ? 20180313 0007 18.5253 GAU 1.98e-02  0.00e+00  6.55e+00  8.00e-03    6.55e+00
5      ?    N    ? P      ? 20180313 0007 18.5622 GAU 4.21e-02  0.00e+00  7.73e+00  1.20e-02    7.73e+00
6      ?    N    ? P      ? 20180313 0007 18.5580 GAU 2.96e-02  0.00e+00  7.21e+00  1.20e-02    7.21e+00
7      ?    N    ? P      ? 20180313 0007 18.5727 GAU 2.40e-02  0.00e+00  7.06e+00  6.00e-02    7.06e+00
103    ?    N    ? P      ? 20180313 0007 18.5640 GAU 1.32e-02  0.00e+00  7.17e+00  8.00e-03    7.17e+00
26     ?    N    ? P      ? 20180313 0007 18.6197 GAU 3.76e-02  0.00e+00  6.51e+00  1.20e-02    6.51e+00
#
# EQEVENT:
33     ?    N    ? P      ? 20180313 0007 19.9360 GAU 1.02e-02  0.00e+00  9.29e+00  1.20e-02    9.29e+00
32     ?    N    ? P      ? 20180313 0007 19.9377 GAU 8.43e-03  0.00e+00  8.34e+00  1.20e-02    8.34e+00
36     ?    N    ? P      ? 20180313 0007 19.9462 GAU 1.55e-02  0.00e+00  8.10e+00  1.20e-02    8.10e+00
42     ?    N    ? P      ? 20180313 0007 19.9736 GAU 4.00e-02  0.00e+00  6.16e+00  8.00e-03    6.16e+00
38     ?    N    ? P      ? 20180313 0007 19.9486 GAU 1.44e-02  0.00e+00  7.51e+00  1.20e-02    7.51e+00
30     ?    N    ? P      ? 20180313 0007 19.9528 GAU 1.51e-02  0.00e+00  8.60e+00  1.20e-02    8.60e+00
41     ?    N    ? P      ? 20180313 0007 19.9802 GAU 3.69e-02  0.00e+00  7.50e+00  8.00e-03    7.50e+00
35     ?    N    ? P      ? 20180313 0007 19.9567 GAU 1.26e-02  0.00e+00  8.99e+00  5.60e-02    8.99e+00
34     ?    N    ? P      ? 20180313 0007 19.9753 GAU 2.21e-02  0.00e+00  7.38e+00  5.60e-02    7.38e+00
23     ?    N    ? P      ? 20180313 0007 19.9725 GAU 1.65e-02  0.00e+00  7.75e+00  3.20e-02    7.75e+00
37     ?    N    ? P      ? 20180313 0007 19.9806 GAU 2.39e-02  0.00e+00  7.14e+00  2.80e-02    7.14e+00
28     ?    N    ? P      ? 20180313 0007 19.9830 GAU 2.49e-02  0.00e+00  8.28e+00  6.80e-02    8.28e+00
39     ?    N    ? P      ? 20180313 0007 19.9806 GAU 2.11e-02  0.00e+00  8.16e+00  4.00e-02    8.16e+00
40     ?    N    ? P      ? 20180313 0007 19.9950 GAU 3.34e-02  0.00e+00  6.70e+00  1.20e-02    6.70e+00
105    ?    N    ? P      ? 20180313 0007 19.9879 GAU 2.35e-02  0.00e+00  8.92e+00  1.20e-02    8.92e+00
31     ?    N    ? P      ? 20180313 0007 19.9834 GAU 1.69e-02  0.00e+00  7.28e+00  1.20e-02    7.28e+00
26     ?    N    ? P      ? 20180313 0007 19.9844 GAU 1.65e-02  0.00e+00  7.95e+00  8.00e-03    7.95e+00
106    ?    N    ? P      ? 20180313 0007 19.9855 GAU 1.47e-02  0.00e+00  8.41e+00  8.00e-03    8.41e+00
9      ?    N    ? P      ? 20180313 0007 19.9911 GAU 2.04e-02  0.00e+00  8.07e+00  8.00e-03    8.07e+00
18     ?    N    ? P      ? 20180313 0007 20.1150 GAU 3.09e-02  0.00e+00  6.04e+00  8.00e-03    6.04e+00
27     ?    N    ? P      ? 20180313 0007 20.3400 GAU 1.44e-02  0.00e+00  7.51e+00  1.20e-02    7.51e+00
20     ?    N    ? P      ? 20180313 0007 20.1460 GAU 1.86e-02  0.00e+00  6.53e+00  5.20e-02    6.53e+00
25     ?    N    ? P      ? 20180313 0007 20.2410 GAU 2.74e-02  0.00e+00  8.66e+00  1.20e-02    8.66e+00
21     ?    N    ? P      ? 20180313 0007 20.3710 GAU 3.83e-02  0.00e+00  7.45e+00  1.20e-02    7.45e+00
103    ?    N    ? P      ? 20180313 0007 20.2970 GAU 2.88e-02  0.00e+00  6.89e+00  1.20e-02    6.89e+00
16     ?    N    ? P      ? 20180313 0007 20.5360 GAU 3.86e-02  0.00e+00  6.47e+00  1.20e-02    6.47e+00
22     ?    N    ? P      ? 20180313 0007 20.5680 GAU 3.13e-02  0.00e+00  6.88e+00  2.00e-02    6.88e+00
6      ?    N    ? P      ? 20180313 0007 20.5640 GAU 2.88e-02  0.00e+00  6.40e+00  2.40e-02    6.40e+00
13     ?    N    ? P      ? 20180313 0007 20.6840 GAU 2.46e-02  0.00e+00  7.01e+00  1.20e-02    7.01e+00
12     ?    N    ? P      ? 20180313 0007 20.9650 GAU 2.11e-02  0.00e+00  6.18e+00  1.20e-02    6.18e+00
15     ?    N    ? P      ? 20180313 0007 20.1042 GAU 2.74e-02  0.00e+00  5.42e+00  7.60e-02    5.42e+00
#
# EQEVENT:
39     ?    N    ? P      ? 20180313 0007 21.4117 GAU 1.00e-02  0.00e+00  8.90e+00  5.20e-02    8.90e+00
38     ?    N    ? P      ? 20180313 0007 21.4212 GAU 1.41e-02  0.00e+00  8.20e+00  8.00e-03    8.20e+00
36     ?    N    ? P      ? 20180313 0007 21.4220 GAU 1.17e-02  0.00e+00  8.75e+00  1.60e-02    8.75e+00
41     ?    N    ? P      ? 20180313 0007 21.4223 GAU 1.09e-02  0.00e+00  8.54e+00  1.20e-02    8.54e+00
42     ?    N    ? P      ? 20180313 0007 21.4269 GAU 1.49e-02  0.00e+00  7.06e+00  1.20e-02    7.06e+00
35     ?    N    ? P      ? 20180313 0007 21.4525 GAU 2.36e-02  0.00e+00  8.69e+00  1.60e-02    8.69e+00
40     ?    N    ? P      ? 20180313 0007 21.4568 GAU 1.28e-02  0.00e+00  7.96e+00  1.60e-02    7.96e+00
37     ?    N    ? P      ? 20180313 0007 21.4975 GAU 3.99e-02  0.00e+00  7.27e+00  8.00e-03    7.27e+00
32     ?    N    ? P      ? 20180313 0007 21.5101 GAU 1.80e-02  0.00e+00  7.41e+00  8.00e-03    7.41e+00
33     ?    N    ? P      ? 20180313 0007 21.5529 GAU 3.30e-02  0.00e+00  7.83e+00  1.20e-02    7.83e+00
34     ?    N    ? P      ? 20180313 0007 21.5613 GAU 1.74e-02  0.00e+00  7.26e+00  1.20e-02    7.26e+00
#
# EQEVENT:
32     ?    N    ? P      ? 20180313 0007 21.6782 GAU 3.45e-02  0.00e+00  8.07e+00  1.20e-02    8.07e+00
26     ?    N    ? P      ? 20180313 0007 21.6910 GAU 1.95e-02  0.00e+00  8.90e+00  1.20e-02    8.90e+00
33     ?    N    ? P      ? 20180313 0007 21.7012 GAU 2.18e-02  0.00e+00  8.20e+00  1.20e-02    8.20e+00
105    ?    N    ? P      ? 20180313 0007 21.6949 GAU 1.22e-02  0.00e+00  9.75e+00  1.20e-02    9.75e+00
17     ?    N    ? P      ? 20180313 0007 21.7230 GAU 3.74e-02  0.00e+00  7.00e+00  1.20e-02    7.00e+00
27     ?    N    ? P      ? 20180313 0007 21.7114 GAU 2.41e-02  0.00e+00  6.74e+00  2.80e-02    6.74e+00
28     ?    N    ? P      ? 20180313 0007 21.7006 GAU 1.16e-02  0.00e+00  9.18e+00  6.00e-02    9.18e+00
23     ?    N    ? P      ? 20180313 0007 21.7162 GAU 1.64e-02  0.00e+00  8.96e+00  8.00e-03    8.96e+00
25     ?    N    ? P      ? 20180313 0007 21.7139 GAU 1.36e-02  0.00e+00  9.22e+00  1.20e-02    9.22e+00
21     ?    N    ? P      ? 20180313 0007 21.7235 GAU 1.92e-02  0.00e+00  7.80e+00  1.20e-02    7.80e+00
20     ?    N    ? P      ? 20180313 0007 21.7167 GAU 1.02e-02  0.00e+00  7.66e+00  8.00e-03    7.66e+00
18     ?    N    ? P      ? 20180313 0007 21.7266 GAU 1.78e-02  0.00e+00  6.81e+00  1.20e-02    6.81e+00
30     ?    N    ? P      ? 20180313 0007 21.7298 GAU 1.58e-02  0.00e+00  8.98e+00  8.00e-03    8.98e+00
31     ?    N    ? P      ? 20180313 0007 21.7419 GAU 1.39e-02  0.00e+00  7.29e+00  1.60e-02    7.29e+00
22     ?    N    ? P      ? 20180313 0007 21.7654 GAU 3.51e-02  0.00e+00  7.69e+00  1.20e-02    7.69e+00
16     ?    N    ? P      ? 20180313 0007 21.7643 GAU 2.77e-02  0.00e+00  6.93e+00  8.00e-03    6.93e+00
106    ?    N    ? P      ? 20180313 0007 21.7796 GAU 2.09e-02  0.00e+00  7.15e+00  5.60e-02    7.15e+00
#
# EQEVENT:
38     ?    N    ? P      ? 20180313 0007 28.4522 GAU 3.25e-02  0.00e+00  5.51e+00  4.00e-02    5.51e+00
32     ?    N    ? P      ? 20180313 0007 28.4465 GAU 1.16e-02  0.00e+00  7.76e+00  1.20e-02    7.76e+00
36     ?    N    ? P      ? 20180313 0007 28.4600 GAU 1.51e-02  0.00e+00  6.50e+00  5.60e-02    6.50e+00
35     ?    N    ? P      ? 20180313 0007 28.4572 GAU 8.48e-03  0.00e+00  9.18e+00  8.00e-03    9.18e+00
33     ?    N    ? P      ? 20180313 0007 28.4603 GAU 8.48e-03  0.00e+00  9.08e+00  1.20e-02    9.08e+00
105    ?    N    ? P      ? 20180313 0007 28.5470 GAU 4.49e-02  0.00e+00  7.41e+00  1.20e-02    7.41e+00
28     ?    N    ? P      ? 20180313 0007 28.5228 GAU 2.01e-02  0.00e+00  7.16e+00  8.00e-03    7.16e+00
30     ?    N    ? P      ? 20180313 0007 28.5162 GAU 9.74e-03  0.00e+00  7.87e+00  1.20e-02    7.87e+00
34     ?    N    ? P      ? 20180313 0007 28.5373 GAU 1.38e-02  0.00e+00  6.84e+00  1.60e-02    6.84e+00
31     ?    N    ? P      ? 20180313 0007 28.5674 GAU 2.07e-02  0.00e+00  6.17e+00  1.20e-02    6.17e+00
#
# EQEVENT:
15     ?    N    ? P      ? 20180313 0007 31.9710 GAU 7.29e-03  0.00e+00  9.37e+00  2.00e-02    9.37e+00
12     ?    N    ? P      ? 20180313 0007 31.9935 GAU 2.32e-02  0.00e+00  6.85e+00  8.00e-03    6.85e+00
13     ?    N    ? P      ? 20180313 0007 31.9988 GAU 1.92e-02  0.00e+00  7.97e+00  8.00e-03    7.97e+00
10     ?    N    ? P      ? 20180313 0007 31.9955 GAU 1.59e-02  0.00e+00  7.08e+00  1.60e-02    7.08e+00
8      ?    N    ? P      ? 20180313 0007 32.2470 GAU 2.65e-02  0.00e+00  6.24e+00  1.20e-02    6.24e+00
16     ?    N    ? P      ? 20180313 0007 32.2770 GAU 2.15e-02  0.00e+00  6.99e+00  3.60e-02    6.99e+00
5      ?    N    ? P      ? 20180313 0007 32.3130 GAU 1.72e-02  0.00e+00  8.26e+00  1.20e-02    8.26e+00
7      ?    N    ? P      ? 20180313 0007 32.6380 GAU 1.46e-02  0.00e+00  7.27e+00  1.20e-02    7.27e+00
9      ?    N    ? P      ? 20180313 0007 32.1065 GAU 2.22e-02  0.00e+00  8.34e+00  8.00e-03    8.34e+00
6      ?    N    ? P      ? 20180313 0007 32.1102 GAU 1.86e-02  0.00e+00  6.24e+00  2.00e-02    6.24e+00
#
