# EQEVENT:
8      ?    N    ? P      ? 20180313 0007 41.8720 GAU 1.86e-02  0.00e+00  6.60e+00  1.20e-02    6.60e+00
15     ?    N    ? P      ? 20180313 0007 41.7900 GAU 7.83e-03  0.00e+00  8.94e+00  6.40e-02    8.94e+00
12     ?    N    ? P      ? 20180313 0007 41.8420 GAU 9.78e-03  0.00e+00  8.30e+00  1.20e-02    8.30e+00
18     ?    N    ? P      ? 20180313 0007 41.8940 GAU 1.30e-02  0.00e+00  7.30e+00  5.60e-02    7.30e+00
17     ?    N    ? P      ? 20180313 0007 41.8940 GAU 1.24e-02  0.00e+00  8.03e+00  8.00e-03    8.03e+00
20     ?    N    ? P      ? 20180313 0007 41.9730 GAU 1.63e-02  0.00e+00  6.89e+00  1.20e-02    6.89e+00
10     ?    N    ? P      ? 20180313 0007 41.9040 GAU 8.15e-03  0.00e+00  7.06e+00  2.80e-02    7.06e+00
16     ?    N    ? P      ? 20180313 0007 41.9500 GAU 1.01e-02  0.00e+00  7.96e+00  1.20e-02    7.96e+00
2      ?    N    ? P      ? 20180313 0007 41.1084 GAU 2.15e-02  0.00e+00  6.40e+00  8.00e-03    6.40e+00
21     ?    N    ? P      ? 20180313 0007 41.1035 GAU 1.34e-02  0.00e+00  6.68e+00  1.20e-02    6.68e+00
103    ?    N    ? P      ? 20180313 0007 41.1116 GAU 1.56e-02  0.00e+00  6.64e+00  2.80e-02    6.64e+00
13     ?    N    ? P      ? 20180313 0007 41.1289 GAU 1.92e-02  0.00e+00  7.82e+00  2.00e-02    7.82e+00
6      ?    N    ? P      ? 20180313 0007 41.1393 GAU 2.31e-02  0.00e+00  7.20e+00  1.60e-02    7.20e+00
5      ?    N    ? P      ? 20180313 0007 41.1742 GAU 3.06e-02  0.00e+00  7.24e+00  1.20e-02    7.24e+00
4      ?    N    ? P      ? 20180313 0007 41.1787 GAU 2.80e-02  0.00e+00  6.64e+00  3.20e-02    6.64e+00
7      ?    N    ? P      ? 20180313 0007 41.2064 GAU 1.92e-02  0.00e+00  7.29e+00  1.20e-02    7.29e+00
#
# EQEVENT:
18     ?    N    ? P      ? 20180313 0007 44.1480 GAU 4.61e-02  0.00e+00  5.51e+00  8.00e-03    5.51e+00
17     ?    N    ? P      ? 20180313 0007 44.1800 GAU 2.52e-02  0.00e+00  6.78e+00  1.20e-02    6.78e+00
15     ?    N    ? P      ? 20180313 0007 43.9876 GAU 4.73e-03  0.00e+00  9.66e+00  3.60e-02    9.66e+00
8      ?    N    ? P      ? 20180313 0007 43.9974 GAU 1.14e-02  0.00e+00  6.85e+00  1.20e-02    6.85e+00
16     ?    N    ? P      ? 20180313 0007 44.1320 GAU 2.41e-02  0.00e+00  7.36e+00  8.00e-03    7.36e+00
12     ?    N    ? P      ? 20180313 0007 44.6500 GAU 1.10e-02  0.00e+00  7.76e+00  4.40e-02    7.76e+00
13     ?    N    ? P      ? 20180313 0007 44.7080 GAU 2.25e-02  0.00e+00  7.40e+00  1.20e-02    7.40e+00
6      ?    N    ? P      ? 20180313 0007 44.7320 GAU 2.25e-02  0.00e+00  7.02e+00  1.20e-02    7.02e+00
4      ?    N    ? P      ? 20180313 0007 44.9600 GAU 3.27e-02  0.00e+00  7.22e+00  1.60e-02    7.22e+00
5      ?    N    ? P      ? 20180313 0007 44.1430 GAU 2.05e-02  0.00e+00  7.37e+00  1.60e-02    7.37e+00
#
# EQEVENT:
17     ?    N    ? P      ? 20180313 0007 49.9487 GAU 8.28e-03  0.00e+00  8.07e+00  8.00e-03    8.07e+00
23     ?    N    ? P      ? 20180313 0007 49.9635 GAU 2.22e-02  0.00e+00  6.76e+00  1.20e-02    6.76e+00
10     ?    N    ? P      ? 20180313 0007 49.9687 GAU 2.57e-02  0.00e+00  5.76e+00  3.60e-02    5.76e+00
21     ?    N    ? P      ? 20180313 0007 49.9583 GAU 1.26e-02  0.00e+00  6.59e+00  8.00e-03    6.59e+00
18     ?    N    ? P      ? 20180313 0007 49.9604 GAU 1.05e-02  0.00e+00  7.07e+00  1.20e-02    7.07e+00
16     ?    N    ? P      ? 20180313 0007 49.9626 GAU 1.18e-02  0.00e+00  8.21e+00  1.20e-02    8.21e+00
15     ?    N    ? P      ? 20180313 0007 49.9709 GAU 1.57e-02  0.00e+00  6.95e+00  1.20e-02    6.95e+00
12     ?    N    ? P      ? 20180313 0007 49.9661 GAU 1.00e-02  0.00e+00  6.77e+00  1.20e-02    6.77e+00
103    ?    N    ? P      ? 20180313 0007 49.9905 GAU 2.40e-02  0.00e+00  6.43e+00  2.00e-02    6.43e+00
20     ?    N    ? P      ? 20180313 0007 50.1620 GAU 1.13e-02  0.00e+00  7.38e+00  8.00e-03    7.38e+00
#
# EQEVENT:
39     ?    N    ? P      ? 20180313 0007 51.1184 GAU 1.47e-02  0.00e+00  7.78e+00  5.60e-02    7.78e+00
42     ?    N    ? P      ? 20180313 0007 51.1358 GAU 2.81e-02  0.00e+00  6.07e+00  2.80e-02    6.07e+00
38     ?    N    ? P      ? 20180313 0007 51.1208 GAU 1.23e-02  0.00e+00  7.78e+00  1.20e-02    7.78e+00
36     ?    N    ? P      ? 20180313 0007 51.1446 GAU 2.02e-02  0.00e+00  8.14e+00  1.20e-02    8.14e+00
40     ?    N    ? P      ? 20180313 0007 51.1557 GAU 1.78e-02  0.00e+00  6.35e+00  1.20e-02    6.35e+00
41     ?    N    ? P      ? 20180313 0007 51.1628 GAU 2.26e-02  0.00e+00  6.99e+00  1.60e-02    6.99e+00
33     ?    N    ? P      ? 20180313 0007 51.1723 GAU 3.13e-02  0.00e+00  6.26e+00  1.20e-02    6.26e+00
35     ?    N    ? P      ? 20180313 0007 51.1965 GAU 2.61e-02  0.00e+00  8.22e+00  1.20e-02    8.22e+00
#
# EQEVENT:
32     ?    N    ? P      ? 20180313 0007 53.3270 GAU 1.44e-02  0.00e+00  7.33e+00  8.00e-03    7.33e+00
38     ?    N    ? P      ? 20180313 0007 53.3270 GAU 1.44e-02  0.00e+00  6.97e+00  1.20e-02    6.97e+00
36     ?    N    ? P      ? 20180313 0007 53.3279 GAU 1.26e-02  0.00e+00  7.58e+00  1.20e-02    7.58e+00
35     ?    N    ? P      ? 20180313 0007 53.3315 GAU 1.26e-02  0.00e+00  9.09e+00  1.20e-02    9.09e+00
39     ?    N    ? P      ? 20180313 0007 53.3445 GAU 1.30e-02  0.00e+00  7.16e+00  8.00e-03    7.16e+00
33     ?    N    ? P      ? 20180313 0007 53.3436 GAU 1.12e-02  0.00e+00  7.98e+00  8.00e-03    7.98e+00
30     ?    N    ? P      ? 20180313 0007 53.3566 GAU 2.24e-02  0.00e+00  7.15e+00  7.20e-02    7.15e+00
37     ?    N    ? P      ? 20180313 0007 53.3566 GAU 1.79e-02  0.00e+00  7.12e+00  8.00e-03    7.12e+00
41     ?    N    ? P      ? 20180313 0007 53.3598 GAU 1.57e-02  0.00e+00  5.88e+00  1.60e-02    5.88e+00
28     ?    N    ? P      ? 20180313 0007 53.3755 GAU 2.60e-02  0.00e+00  6.78e+00  1.20e-02    6.78e+00
40     ?    N    ? P      ? 20180313 0007 53.3768 GAU 2.20e-02  0.00e+00  6.76e+00  2.00e-02    6.76e+00
106    ?    N    ? P      ? 20180313 0007 53.4230 GAU 6.28e-02  0.00e+00  6.37e+00  1.20e-02    6.37e+00
34     ?    N    ? P      ? 20180313 0007 53.3781 GAU 1.70e-02  0.00e+00  7.28e+00  1.20e-02    7.28e+00
31     ?    N    ? P      ? 20180313 0007 53.3947 GAU 1.84e-02  0.00e+00  6.73e+00  1.20e-02    6.73e+00
105    ?    N    ? P      ? 20180313 0007 53.4100 GAU 1.93e-02  0.00e+00  7.16e+00  1.20e-02    7.16e+00
27     ?    N    ? P      ? 20180313 0007 53.4378 GAU 2.92e-02  0.00e+00  6.35e+00  1.20e-02    6.35e+00
#
# EQEVENT:
35     ?    N    ? P      ? 20180313 0008 00.1557 GAU 4.95e-03  0.00e+00  8.97e+00  1.20e-02    8.97e+00
36     ?    N    ? P      ? 20180313 0008 00.1677 GAU 3.53e-03  0.00e+00  9.25e+00  1.20e-02    9.25e+00
33     ?    N    ? P      ? 20180313 0008 00.1755 GAU 7.43e-03  0.00e+00  8.19e+00  2.00e-02    8.19e+00
38     ?    N    ? P      ? 20180313 0008 00.1744 GAU 6.01e-03  0.00e+00  8.40e+00  8.00e-03    8.40e+00
41     ?    N    ? P      ? 20180313 0008 00.1943 GAU 1.44e-02  0.00e+00  6.77e+00  1.20e-02    6.77e+00
39     ?    N    ? P      ? 20180313 0008 00.1867 GAU 6.24e-03  0.00e+00  7.81e+00  5.20e-02    7.81e+00
32     ?    N    ? P      ? 20180313 0008 00.2204 GAU 1.20e-02  0.00e+00  7.92e+00  1.60e-02    7.92e+00
40     ?    N    ? P      ? 20180313 0008 00.2266 GAU 7.05e-03  0.00e+00  7.33e+00  1.20e-02    7.33e+00
37     ?    N    ? P      ? 20180313 0008 00.2319 GAU 7.60e-03  0.00e+00  7.47e+00  1.20e-02    7.47e+00
34     ?    N    ? P      ? 20180313 0008 00.2360 GAU 8.13e-03  0.00e+00  6.60e+00  6.40e-02    6.60e+00
105    ?    N    ? P      ? 20180313 0008 00.2602 GAU 9.02e-03  0.00e+00  7.18e+00  1.20e-02    7.18e+00
31     ?    N    ? P      ? 20180313 0008 00.3095 GAU 1.34e-02  0.00e+00  6.09e+00  5.20e-02    6.09e+00
30     ?    N    ? P      ? 20180313 0008 00.3074 GAU 8.48e-03  0.00e+00  8.01e+00  1.60e-02    8.01e+00
27     ?    N    ? P      ? 20180313 0008 00.3217 GAU 7.60e-03  0.00e+00  5.07e+00  1.60e-02    5.07e+00
#
# EQEVENT:
15     ?    N    ? P      ? 20180313 0008 01.9363 GAU 3.14e-03  0.00e+00  9.45e+00  5.20e-02    9.45e+00
16     ?    N    ? P      ? 20180313 0008 01.9841 GAU 3.22e-02  0.00e+00  7.97e+00  1.20e-02    7.97e+00
10     ?    N    ? P      ? 20180313 0008 01.9620 GAU 6.86e-03  0.00e+00  6.75e+00  8.00e-03    6.75e+00
8      ?    N    ? P      ? 20180313 0008 01.9677 GAU 7.45e-03  0.00e+00  6.21e+00  8.00e-03    6.21e+00
12     ?    N    ? P      ? 20180313 0008 01.9667 GAU 6.47e-03  0.00e+00  7.40e+00  1.20e-02    7.40e+00
20     ?    N    ? P      ? 20180313 0008 01.9928 GAU 3.26e-02  0.00e+00  6.80e+00  8.00e-03    6.80e+00
17     ?    N    ? P      ? 20180313 0008 01.9926 GAU 2.41e-02  0.00e+00  7.12e+00  8.00e-03    7.12e+00
18     ?    N    ? P      ? 20180313 0008 01.9786 GAU 1.02e-02  0.00e+00  6.46e+00  2.80e-02    6.46e+00
9      ?    N    ? P      ? 20180313 0008 01.9857 GAU 1.37e-02  0.00e+00  7.05e+00  8.00e-03    7.05e+00
103    ?    N    ? P      ? 20180313 0008 02.2400 GAU 1.08e-02  0.00e+00  6.60e+00  3.20e-02    6.60e+00
6      ?    N    ? P      ? 20180313 0008 02.4000 GAU 8.14e-03  0.00e+00  6.74e+00  1.20e-02    6.74e+00
13     ?    N    ? P      ? 20180313 0008 02.2730 GAU 1.41e-02  0.00e+00  8.23e+00  1.20e-02    8.23e+00
5      ?    N    ? P      ? 20180313 0008 02.3640 GAU 4.26e-03  0.00e+00  8.02e+00  1.20e-02    8.02e+00
4      ?    N    ? P      ? 20180313 0008 02.4030 GAU 4.44e-03  0.00e+00  6.96e+00  1.20e-02    6.96e+00
#
# EQEVENT:
32     ?    N    ? P      ? 20180313 0008 10.5390 GAU 1.01e-02  0.00e+00  8.64e+00  1.20e-02    8.64e+00
33     ?    N    ? P      ? 20180313 0008 10.5388 GAU 7.03e-03  0.00e+00  7.50e+00  8.00e-03    7.50e+00
35     ?    N    ? P      ? 20180313 0008 10.5514 GAU 1.61e-02  0.00e+00  7.95e+00  8.00e-03    7.95e+00
28     ?    N    ? P      ? 20180313 0008 10.5532 GAU 6.64e-03  0.00e+00  8.02e+00  1.20e-02    8.02e+00
105    ?    N    ? P      ? 20180313 0008 10.5597 GAU 8.24e-03  0.00e+00  9.10e+00  8.00e-03    9.10e+00
26     ?    N    ? P      ? 20180313 0008 10.5639 GAU 4.43e-03  0.00e+00  7.80e+00  1.20e-02    7.80e+00
25     ?    N    ? P      ? 20180313 0008 10.5860 GAU 1.81e-02  0.00e+00  6.89e+00  1.20e-02    6.89e+00
27     ?    N    ? P      ? 20180313 0008 10.5796 GAU 7.64e-03  0.00e+00  6.29e+00  1.20e-02    6.29e+00
37     ?    N    ? P      ? 20180313 0008 10.5959 GAU 1.51e-02  0.00e+00  5.83e+00  1.20e-02    5.83e+00
31     ?    N    ? P      ? 20180313 0008 10.6218 GAU 3.10e-02  0.00e+00  7.09e+00  1.20e-02    7.09e+00
36     ?    N    ? P      ? 20180313 0008 10.6045 GAU 1.21e-02  0.00e+00  6.39e+00  1.20e-02    6.39e+00
39     ?    N    ? P      ? 20180313 0008 10.6329 GAU 2.88e-02  0.00e+00  6.05e+00  8.00e-03    6.05e+00
23     ?    N    ? P      ? 20180313 0008 10.6186 GAU 1.41e-02  0.00e+00  6.64e+00  8.00e-03    6.64e+00
106    ?    N    ? P      ? 20180313 0008 10.6498 GAU 2.23e-02  0.00e+00  6.93e+00  1.20e-02    6.93e+00
34     ?    N    ? P      ? 20180313 0008 10.6351 GAU 6.43e-03  0.00e+00  6.63e+00  2.80e-02    6.63e+00
#
# EQEVENT:
42     ?    N    ? P      ? 20180313 0008 15.7055 GAU 2.84e-02  0.00e+00  6.69e+00  1.20e-02    6.69e+00
39     ?    N    ? P      ? 20180313 0008 15.6951 GAU 9.45e-03  0.00e+00  8.26e+00  8.00e-03    8.26e+00
41     ?    N    ? P      ? 20180313 0008 15.7008 GAU 1.42e-02  0.00e+00  7.45e+00  4.00e-02    7.45e+00
36     ?    N    ? P      ? 20180313 0008 15.6965 GAU 8.04e-03  0.00e+00  8.27e+00  1.20e-02    8.27e+00
38     ?    N    ? P      ? 20180313 0008 15.6975 GAU 8.98e-03  0.00e+00  7.52e+00  2.80e-02    7.52e+00
35     ?    N    ? P      ? 20180313 0008 15.7192 GAU 1.56e-02  0.00e+00  7.81e+00  8.00e-03    7.81e+00
32     ?    N    ? P      ? 20180313 0008 15.7433 GAU 3.50e-02  0.00e+00  6.75e+00  8.00e-03    6.75e+00
33     ?    N    ? P      ? 20180313 0008 15.7551 GAU 4.30e-02  0.00e+00  6.41e+00  2.40e-02    6.41e+00
40     ?    N    ? P      ? 20180313 0008 15.7372 GAU 8.98e-03  0.00e+00  7.40e+00  1.20e-02    7.40e+00
31     ?    N    ? P      ? 20180313 0008 15.7485 GAU 1.75e-02  0.00e+00  6.25e+00  1.20e-02    6.25e+00
37     ?    N    ? P      ? 20180313 0008 15.7712 GAU 3.55e-02  0.00e+00  7.34e+00  2.80e-02    7.34e+00
30     ?    N    ? P      ? 20180313 0008 15.7736 GAU 1.89e-02  0.00e+00  6.91e+00  1.20e-02    6.91e+00
34     ?    N    ? P      ? 20180313 0008 15.7986 GAU 2.60e-02  0.00e+00  6.60e+00  1.20e-02    6.60e+00
28     ?    N    ? P      ? 20180313 0008 15.8034 GAU 1.09e-02  0.00e+00  6.73e+00  1.20e-02    6.73e+00
#
# EQEVENT:
38     ?    N    ? P      ? 20180313 0008 39.1142 GAU 7.07e-03  0.00e+00  8.20e+00  1.20e-02    8.20e+00
39     ?    N    ? P      ? 20180313 0008 39.1262 GAU 9.25e-03  0.00e+00  7.26e+00  6.00e-02    7.26e+00
36     ?    N    ? P      ? 20180313 0008 39.1208 GAU 3.81e-03  0.00e+00  8.98e+00  1.60e-02    8.98e+00
33     ?    N    ? P      ? 20180313 0008 39.1415 GAU 1.47e-02  0.00e+00  6.84e+00  6.00e-02    6.84e+00
41     ?    N    ? P      ? 20180313 0008 39.1442 GAU 1.20e-02  0.00e+00  6.91e+00  1.20e-02    6.91e+00
32     ?    N    ? P      ? 20180313 0008 39.1513 GAU 1.25e-02  0.00e+00  6.90e+00  1.20e-02    6.90e+00
35     ?    N    ? P      ? 20180313 0008 39.1725 GAU 2.39e-02  0.00e+00  8.15e+00  1.20e-02    8.15e+00
40     ?    N    ? P      ? 20180313 0008 39.1785 GAU 8.17e-03  0.00e+00  7.20e+00  8.00e-03    7.20e+00
34     ?    N    ? P      ? 20180313 0008 39.2242 GAU 3.54e-02  0.00e+00  6.88e+00  5.20e-02    6.88e+00
#
# EQEVENT:
15     ?    N    ? P      ? 20180313 0008 46.3162 GAU 1.82e-02  0.00e+00  8.40e+00  4.40e-02    8.40e+00
5      ?    N    ? P      ? 20180313 0008 46.3306 GAU 1.74e-02  0.00e+00  8.39e+00  1.20e-02    8.39e+00
2      ?    N    ? P      ? 20180313 0008 46.3526 GAU 2.28e-02  0.00e+00  6.23e+00  1.60e-02    6.23e+00
10     ?    N    ? P      ? 20180313 0008 46.3587 GAU 2.73e-02  0.00e+00  6.49e+00  8.00e-03    6.49e+00
12     ?    N    ? P      ? 20180313 0008 46.3579 GAU 2.35e-02  0.00e+00  6.98e+00  8.00e-03    6.98e+00
7      ?    N    ? P      ? 20180313 0008 46.3701 GAU 3.26e-02  0.00e+00  8.84e+00  8.00e-03    8.84e+00
13     ?    N    ? P      ? 20180313 0008 46.3496 GAU 1.06e-02  0.00e+00  9.42e+00  8.00e-03    9.42e+00
4      ?    N    ? P      ? 20180313 0008 46.3572 GAU 1.67e-02  0.00e+00  7.61e+00  1.60e-02    7.61e+00
8      ?    N    ? P      ? 20180313 0008 46.3784 GAU 3.64e-02  0.00e+00  6.10e+00  8.00e-03    6.10e+00
6      ?    N    ? P      ? 20180313 0008 46.4012 GAU 3.34e-02  0.00e+00  6.29e+00  1.20e-02    6.29e+00
9      ?    N    ? P      ? 20180313 0008 46.4232 GAU 1.90e-02  0.00e+00  9.31e+00  1.20e-02    9.31e+00
#
# EQEVENT:
33     ?    N    ? P      ? 20180313 0008 56.3392 GAU 7.84e-03  0.00e+00  8.24e+00  1.60e-02    8.24e+00
35     ?    N    ? P      ? 20180313 0008 56.3513 GAU 1.43e-02  0.00e+00  8.92e+00  1.20e-02    8.92e+00
32     ?    N    ? P      ? 20180313 0008 56.3549 GAU 7.84e-03  0.00e+00  8.33e+00  1.20e-02    8.33e+00
38     ?    N    ? P      ? 20180313 0008 56.3806 GAU 2.49e-02  0.00e+00  6.70e+00  6.00e-02    6.70e+00
30     ?    N    ? P      ? 20180313 0008 56.3741 GAU 1.71e-02  0.00e+00  8.09e+00  1.20e-02    8.09e+00
36     ?    N    ? P      ? 20180313 0008 56.3749 GAU 1.64e-02  0.00e+00  7.02e+00  1.20e-02    7.02e+00
31     ?    N    ? P      ? 20180313 0008 56.3870 GAU 2.00e-02  0.00e+00  6.51e+00  1.20e-02    6.51e+00
26     ?    N    ? P      ? 20180313 0008 56.3777 GAU 1.07e-02  0.00e+00  7.17e+00  1.20e-02    7.17e+00
105    ?    N    ? P      ? 20180313 0008 56.3806 GAU 9.27e-03  0.00e+00  8.14e+00  7.20e-02    8.14e+00
23     ?    N    ? P      ? 20180313 0008 56.3977 GAU 1.78e-02  0.00e+00  7.96e+00  1.20e-02    7.96e+00
40     ?    N    ? P      ? 20180313 0008 56.4062 GAU 2.49e-02  0.00e+00  6.85e+00  5.20e-02    6.85e+00
106    ?    N    ? P      ? 20180313 0008 56.3998 GAU 1.71e-02  0.00e+00  7.40e+00  2.40e-02    7.40e+00
27     ?    N    ? P      ? 20180313 0008 56.3998 GAU 1.43e-02  0.00e+00  6.35e+00  1.20e-02    6.35e+00
37     ?    N    ? P      ? 20180313 0008 56.4141 GAU 1.57e-02  0.00e+00  6.19e+00  8.00e-03    6.19e+00
25     ?    N    ? P      ? 20180313 0008 56.4176 GAU 1.78e-02  0.00e+00  7.17e+00  2.00e-02    7.17e+00
39     ?    N    ? P      ? 20180313 0008 56.4141 GAU 1.28e-02  0.00e+00  6.81e+00  8.00e-03    6.81e+00
21     ?    N    ? P      ? 20180313 0008 56.4248 GAU 2.21e-02  0.00e+00  6.44e+00  2.80e-02    6.44e+00
#
# EQEVENT:
33     ?    N    ? P      ? 20180313 0009 08.9000 GAU 1.29e-02  0.00e+00  8.42e+00  8.00e-03    8.42e+00
32     ?    N    ? P      ? 20180313 0009 08.8780 GAU 7.88e-03  0.00e+00  7.42e+00  1.20e-02    7.42e+00
36     ?    N    ? P      ? 20180313 0009 08.9850 GAU 1.43e-02  0.00e+00  6.45e+00  1.60e-02    6.45e+00
35     ?    N    ? P      ? 20180313 0009 08.9850 GAU 8.59e-03  0.00e+00  8.65e+00  1.20e-02    8.65e+00
38     ?    N    ? P      ? 20180313 0009 08.1093 GAU 1.79e-02  0.00e+00  6.59e+00  6.40e-02    6.59e+00
37     ?    N    ? P      ? 20180313 0009 08.1250 GAU 3.22e-02  0.00e+00  6.41e+00  1.20e-02    6.41e+00
40     ?    N    ? P      ? 20180313 0009 08.1580 GAU 4.94e-02  0.00e+00  6.60e+00  1.20e-02    6.60e+00
39     ?    N    ? P      ? 20180313 0009 08.1293 GAU 1.22e-02  0.00e+00  6.76e+00  4.80e-02    6.76e+00
34     ?    N    ? P      ? 20180313 0009 08.1601 GAU 3.44e-02  0.00e+00  6.40e+00  4.80e-02    6.40e+00
106    ?    N    ? P      ? 20180313 0009 08.1673 GAU 3.29e-02  0.00e+00  7.16e+00  1.20e-02    7.16e+00
23     ?    N    ? P      ? 20180313 0009 08.1802 GAU 4.58e-02  0.00e+00  6.80e+00  8.00e-03    6.80e+00
105    ?    N    ? P      ? 20180313 0009 08.1766 GAU 3.51e-02  0.00e+00  7.49e+00  1.20e-02    7.49e+00
27     ?    N    ? P      ? 20180313 0009 08.1844 GAU 4.01e-02  0.00e+00  5.94e+00  5.20e-02    5.94e+00
26     ?    N    ? P      ? 20180313 0009 08.1694 GAU 2.50e-02  0.00e+00  6.30e+00  3.20e-02    6.30e+00
30     ?    N    ? P      ? 20180313 0009 08.1823 GAU 3.51e-02  0.00e+00  7.38e+00  1.20e-02    7.38e+00
28     ?    N    ? P      ? 20180313 0009 08.1780 GAU 2.79e-02  0.00e+00  7.35e+00  1.20e-02    7.35e+00
25     ?    N    ? P      ? 20180313 0009 08.2002 GAU 2.43e-02  0.00e+00  6.76e+00  4.80e-02    6.76e+00
#
# EQEVENT:
105    ?    N    ? P      ? 20180313 0009 32.5842 GAU 2.37e-02  0.00e+00  7.64e+00  8.00e-03    7.64e+00
25     ?    N    ? P      ? 20180313 0009 32.6107 GAU 1.45e-02  0.00e+00  6.95e+00  8.00e-03    6.95e+00
23     ?    N    ? P      ? 20180313 0009 32.6286 GAU 3.14e-02  0.00e+00  6.94e+00  1.20e-02    6.94e+00
26     ?    N    ? P      ? 20180313 0009 32.6102 GAU 1.11e-02  0.00e+00  6.26e+00  4.80e-02    6.26e+00
30     ?    N    ? P      ? 20180313 0009 32.6981 GAU 5.74e-02  0.00e+00  6.72e+00  1.28e-01    6.72e+00
22     ?    N    ? P      ? 20180313 0009 32.6773 GAU 2.03e-02  0.00e+00  5.71e+00  4.80e-02    5.71e+00
106    ?    N    ? P      ? 20180313 0009 32.7043 GAU 4.15e-02  0.00e+00  6.27e+00  8.00e-03    6.27e+00
28     ?    N    ? P      ? 20180313 0009 32.7270 GAU 5.94e-02  0.00e+00  7.61e+00  8.00e-03    7.61e+00
20     ?    N    ? P      ? 20180313 0009 32.7545 GAU 5.12e-02  0.00e+00  6.42e+00  8.00e-03    6.42e+00
32     ?    N    ? P      ? 20180313 0009 32.7333 GAU 2.41e-02  0.00e+00  7.99e+00  8.00e-03    7.99e+00
33     ?    N    ? P      ? 20180313 0009 32.7502 GAU 1.50e-02  0.00e+00  7.66e+00  1.20e-02    7.66e+00
27     ?    N    ? P      ? 20180313 0009 32.7661 GAU 2.22e-02  0.00e+00  6.70e+00  1.20e-02    6.70e+00
#
