# EQEVENT:
39     ?    N    ? P      ? 20180313 0010 46.4485 GAU 1.29e-02  0.00e+00  7.81e+00  8.00e-03    7.81e+00
41     ?    N    ? P      ? 20180313 0010 46.4597 GAU 1.54e-02  0.00e+00  7.34e+00  1.20e-02    7.34e+00
36     ?    N    ? P      ? 20180313 0010 46.4579 GAU 1.26e-02  0.00e+00  7.70e+00  1.20e-02    7.70e+00
38     ?    N    ? P      ? 20180313 0010 46.4551 GAU 8.57e-03  0.00e+00  7.66e+00  1.20e-02    7.66e+00
40     ?    N    ? P      ? 20180313 0010 46.4828 GAU 2.71e-02  0.00e+00  6.69e+00  8.00e-03    6.69e+00
42     ?    N    ? P      ? 20180313 0010 46.4865 GAU 2.69e-02  0.00e+00  6.32e+00  8.00e-03    6.32e+00
35     ?    N    ? P      ? 20180313 0010 46.5128 GAU 3.31e-02  0.00e+00  7.80e+00  8.00e-03    7.80e+00
#
# EQEVENT:
28     ?    N    ? P      ? 20180313 0011 02.1203 GAU 2.24e-02  0.00e+00  8.39e+00  1.20e-02    8.39e+00
25     ?    N    ? P      ? 20180313 0011 02.1366 GAU 2.75e-02  0.00e+00  7.85e+00  2.80e-02    7.85e+00
106    ?    N    ? P      ? 20180313 0011 02.1264 GAU 1.54e-02  0.00e+00  8.25e+00  1.20e-02    8.25e+00
26     ?    N    ? P      ? 20180313 0011 02.1283 GAU 1.73e-02  0.00e+00  8.36e+00  1.20e-02    8.36e+00
32     ?    N    ? P      ? 20180313 0011 02.1287 GAU 1.49e-02  0.00e+00  8.28e+00  8.00e-03    8.28e+00
30     ?    N    ? P      ? 20180313 0011 02.1432 GAU 2.75e-02  0.00e+00  7.95e+00  1.20e-02    7.95e+00
105    ?    N    ? P      ? 20180313 0011 02.1283 GAU 8.87e-03  0.00e+00  8.93e+00  4.80e-02    8.93e+00
33     ?    N    ? P      ? 20180313 0011 02.1362 GAU 1.21e-02  0.00e+00  8.43e+00  1.20e-02    8.43e+00
31     ?    N    ? P      ? 20180313 0011 02.1544 GAU 3.03e-02  0.00e+00  6.79e+00  8.00e-03    6.79e+00
23     ?    N    ? P      ? 20180313 0011 02.1399 GAU 1.59e-02  0.00e+00  8.70e+00  8.00e-03    8.70e+00
18     ?    N    ? P      ? 20180313 0011 02.1437 GAU 1.68e-02  0.00e+00  6.92e+00  2.40e-02    6.92e+00
20     ?    N    ? P      ? 20180313 0011 02.1460 GAU 1.45e-02  0.00e+00  7.80e+00  8.00e-03    7.80e+00
27     ?    N    ? P      ? 20180313 0011 02.1422 GAU 8.87e-03  0.00e+00  7.82e+00  8.00e-03    7.82e+00
22     ?    N    ? P      ? 20180313 0011 02.1647 GAU 1.91e-02  0.00e+00  7.40e+00  1.60e-02    7.40e+00
#
# EQEVENT:
105    ?    N    ? P      ? 20180313 0011 04.1532 GAU 1.54e-02  0.00e+00  9.29e+00  1.20e-02    9.29e+00
25     ?    N    ? P      ? 20180313 0011 04.1607 GAU 1.58e-02  0.00e+00  8.99e+00  8.00e-03    8.99e+00
28     ?    N    ? P      ? 20180313 0011 04.1572 GAU 1.23e-02  0.00e+00  8.50e+00  8.00e-03    8.50e+00
23     ?    N    ? P      ? 20180313 0011 04.1594 GAU 9.21e-03  0.00e+00  8.78e+00  2.80e-02    8.78e+00
30     ?    N    ? P      ? 20180313 0011 04.1738 GAU 1.93e-02  0.00e+00  8.51e+00  4.40e-02    8.51e+00
32     ?    N    ? P      ? 20180313 0011 04.1804 GAU 2.50e-02  0.00e+00  7.43e+00  8.00e-03    7.43e+00
26     ?    N    ? P      ? 20180313 0011 04.1655 GAU 7.45e-03  0.00e+00  9.61e+00  8.00e-03    9.61e+00
20     ?    N    ? P      ? 20180313 0011 04.1695 GAU 1.05e-02  0.00e+00  7.98e+00  1.60e-02    7.98e+00
17     ?    N    ? P      ? 20180313 0011 04.1861 GAU 2.46e-02  0.00e+00  7.84e+00  8.00e-03    7.84e+00
18     ?    N    ? P      ? 20180313 0011 04.1804 GAU 1.27e-02  0.00e+00  7.38e+00  2.00e-02    7.38e+00
33     ?    N    ? P      ? 20180313 0011 04.1927 GAU 2.15e-02  0.00e+00  7.57e+00  1.20e-02    7.57e+00
27     ?    N    ? P      ? 20180313 0011 04.1883 GAU 1.62e-02  0.00e+00  7.24e+00  1.20e-02    7.24e+00
103    ?    N    ? P      ? 20180313 0011 04.1940 GAU 1.75e-02  0.00e+00  7.16e+00  8.00e-03    7.16e+00
34     ?    N    ? P      ? 20180313 0011 04.2045 GAU 2.19e-02  0.00e+00  7.50e+00  1.20e-02    7.50e+00
31     ?    N    ? P      ? 20180313 0011 04.1966 GAU 1.23e-02  0.00e+00  7.64e+00  5.20e-02    7.64e+00
16     ?    N    ? P      ? 20180313 0011 04.2116 GAU 2.28e-02  0.00e+00  7.61e+00  8.00e-03    7.61e+00
22     ?    N    ? P      ? 20180313 0011 04.2081 GAU 1.84e-02  0.00e+00  7.96e+00  1.20e-02    7.96e+00
#
# EQEVENT:
17     ?    N    ? P      ? 20180313 0011 07.7259 GAU 2.69e-02  0.00e+00  7.99e+00  2.40e-02    7.99e+00
18     ?    N    ? P      ? 20180313 0011 07.7367 GAU 2.04e-02  0.00e+00  7.09e+00  8.00e-03    7.09e+00
25     ?    N    ? P      ? 20180313 0011 07.7469 GAU 2.74e-02  0.00e+00  6.89e+00  1.20e-02    6.89e+00
15     ?    N    ? P      ? 20180313 0011 07.7453 GAU 1.61e-02  0.00e+00  6.66e+00  4.40e-02    6.66e+00
105    ?    N    ? P      ? 20180313 0011 07.7732 GAU 3.66e-02  0.00e+00  7.11e+00  1.20e-02    7.11e+00
20     ?    N    ? P      ? 20180313 0011 07.7598 GAU 1.88e-02  0.00e+00  7.55e+00  1.20e-02    7.55e+00
16     ?    N    ? P      ? 20180313 0011 07.7533 GAU 1.13e-02  0.00e+00  8.41e+00  1.20e-02    8.41e+00
23     ?    N    ? P      ? 20180313 0011 07.7705 GAU 2.63e-02  0.00e+00  7.07e+00  8.00e-03    7.07e+00
#
# EQEVENT:
30     ?    N    ? P      ? 20180313 0011 12.8133 GAU 2.58e-02  0.00e+00  8.27e+00  8.00e-03    8.27e+00
28     ?    N    ? P      ? 20180313 0011 12.8169 GAU 1.91e-02  0.00e+00  9.01e+00  1.20e-02    9.01e+00
26     ?    N    ? P      ? 20180313 0011 12.8148 GAU 1.60e-02  0.00e+00  7.90e+00  1.20e-02    7.90e+00
105    ?    N    ? P      ? 20180313 0011 12.8174 GAU 1.14e-02  0.00e+00  9.10e+00  8.00e-03    9.10e+00
25     ?    N    ? P      ? 20180313 0011 12.8246 GAU 1.75e-02  0.00e+00  7.67e+00  8.00e-03    7.67e+00
33     ?    N    ? P      ? 20180313 0011 12.8251 GAU 1.08e-02  0.00e+00  7.12e+00  8.00e-03    7.12e+00
31     ?    N    ? P      ? 20180313 0011 12.8432 GAU 2.68e-02  0.00e+00  6.08e+00  3.60e-02    6.08e+00
27     ?    N    ? P      ? 20180313 0011 12.8354 GAU 1.50e-02  0.00e+00  6.40e+00  1.20e-02    6.40e+00
20     ?    N    ? P      ? 20180313 0011 12.8437 GAU 2.01e-02  0.00e+00  6.59e+00  8.00e-03    6.59e+00
23     ?    N    ? P      ? 20180313 0011 12.8370 GAU 1.14e-02  0.00e+00  7.94e+00  8.00e-03    7.94e+00
18     ?    N    ? P      ? 20180313 0011 12.8556 GAU 2.68e-02  0.00e+00  6.41e+00  8.00e-03    6.41e+00
35     ?    N    ? P      ? 20180313 0011 12.8669 GAU 2.58e-02  0.00e+00  7.42e+00  5.20e-02    7.42e+00
34     ?    N    ? P      ? 20180313 0011 12.8906 GAU 2.17e-02  0.00e+00  7.02e+00  1.20e-02    7.02e+00
#
# EQEVENT:
36     ?    N    ? P      ? 20180313 0011 19.6132 GAU 1.32e-02  0.00e+00  7.79e+00  1.20e-02    7.79e+00
35     ?    N    ? P      ? 20180313 0011 19.6348 GAU 2.33e-02  0.00e+00  9.23e+00  1.20e-02    9.23e+00
32     ?    N    ? P      ? 20180313 0011 19.6380 GAU 2.22e-02  0.00e+00  9.30e+00  1.20e-02    9.30e+00
33     ?    N    ? P      ? 20180313 0011 19.6375 GAU 1.32e-02  0.00e+00  9.11e+00  8.00e-03    9.11e+00
30     ?    N    ? P      ? 20180313 0011 19.6645 GAU 2.64e-02  0.00e+00  8.58e+00  8.00e-03    8.58e+00
105    ?    N    ? P      ? 20180313 0011 19.6655 GAU 2.12e-02  0.00e+00  8.41e+00  1.20e-02    8.41e+00
28     ?    N    ? P      ? 20180313 0011 19.6666 GAU 2.01e-02  0.00e+00  8.26e+00  8.00e-03    8.26e+00
106    ?    N    ? P      ? 20180313 0011 19.7575 GAU 4.86e-02  0.00e+00  7.15e+00  1.20e-02    7.15e+00
26     ?    N    ? P      ? 20180313 0011 19.7448 GAU 2.64e-02  0.00e+00  7.92e+00  4.80e-02    7.92e+00
#
# EQEVENT:
15     ?    N    ? P      ? 20180313 0011 28.1315 GAU 8.47e-03  0.00e+00  9.98e+00  6.40e-02    9.98e+00
16     ?    N    ? P      ? 20180313 0011 28.1478 GAU 2.06e-02  0.00e+00  8.13e+00  8.00e-03    8.13e+00
17     ?    N    ? P      ? 20180313 0011 28.1484 GAU 2.12e-02  0.00e+00  7.15e+00  8.00e-03    7.15e+00
10     ?    N    ? P      ? 20180313 0011 28.1399 GAU 1.16e-02  0.00e+00  7.12e+00  8.00e-03    7.12e+00
12     ?    N    ? P      ? 20180313 0011 28.1394 GAU 1.11e-02  0.00e+00  8.23e+00  8.00e-03    8.23e+00
#
# EQEVENT:
42     ?    N    ? P      ? 20180313 0011 28.6393 GAU 1.05e-02  0.00e+00  8.51e+00  1.20e-02    8.51e+00
35     ?    N    ? P      ? 20180313 0011 28.6652 GAU 3.06e-02  0.00e+00  7.56e+00  8.00e-03    7.56e+00
39     ?    N    ? P      ? 20180313 0011 28.6555 GAU 9.42e-03  0.00e+00  8.93e+00  8.00e-03    8.93e+00
41     ?    N    ? P      ? 20180313 0011 28.6587 GAU 1.05e-02  0.00e+00  8.71e+00  1.20e-02    8.71e+00
36     ?    N    ? P      ? 20180313 0011 28.6749 GAU 2.51e-02  0.00e+00  6.76e+00  1.20e-02    6.76e+00
38     ?    N    ? P      ? 20180313 0011 28.6864 GAU 3.56e-02  0.00e+00  6.88e+00  1.20e-02    6.88e+00
40     ?    N    ? P      ? 20180313 0011 28.7542 GAU 3.06e-02  0.00e+00  8.27e+00  1.20e-02    8.27e+00
#
# EQEVENT:
105    ?    N    ? P      ? 20180313 0011 30.7576 GAU 1.60e-02  0.00e+00  8.30e+00  8.00e-03    8.30e+00
28     ?    N    ? P      ? 20180313 0011 30.7616 GAU 1.68e-02  0.00e+00  7.30e+00  8.00e-03    7.30e+00
26     ?    N    ? P      ? 20180313 0011 30.7632 GAU 1.52e-02  0.00e+00  7.93e+00  1.20e-02    7.93e+00
30     ?    N    ? P      ? 20180313 0011 30.7788 GAU 2.28e-02  0.00e+00  7.06e+00  4.00e-02    7.06e+00
27     ?    N    ? P      ? 20180313 0011 30.7984 GAU 3.44e-02  0.00e+00  5.59e+00  8.00e-03    5.59e+00
25     ?    N    ? P      ? 20180313 0011 30.7864 GAU 1.60e-02  0.00e+00  8.19e+00  2.40e-02    8.19e+00
23     ?    N    ? P      ? 20180313 0011 30.7944 GAU 2.00e-02  0.00e+00  7.63e+00  8.00e-03    7.63e+00
#
# EQEVENT:
8      ?    N    ? P      ? 20180313 0011 35.1940 GAU 1.68e-02  0.00e+00  7.10e+00  1.20e-02    7.10e+00
15     ?    N    ? P      ? 20180313 0011 35.1940 GAU 7.71e-03  0.00e+00  9.46e+00  1.20e-02    9.46e+00
10     ?    N    ? P      ? 20180313 0011 35.2081 GAU 1.36e-02  0.00e+00  7.87e+00  8.00e-03    7.87e+00
12     ?    N    ? P      ? 20180313 0011 35.2239 GAU 1.68e-02  0.00e+00  8.07e+00  1.20e-02    8.07e+00
13     ?    N    ? P      ? 20180313 0011 35.2670 GAU 2.09e-02  0.00e+00  7.99e+00  1.20e-02    7.99e+00
#
# EQEVENT:
30     ?    N    ? P      ? 20180313 0011 37.2915 GAU 2.76e-02  0.00e+00  7.64e+00  1.20e-02    7.64e+00
32     ?    N    ? P      ? 20180313 0011 37.2837 GAU 1.77e-02  0.00e+00  7.96e+00  1.20e-02    7.96e+00
33     ?    N    ? P      ? 20180313 0011 37.2920 GAU 1.87e-02  0.00e+00  7.99e+00  1.20e-02    7.99e+00
28     ?    N    ? P      ? 20180313 0011 37.3180 GAU 4.06e-02  0.00e+00  8.22e+00  1.20e-02    8.22e+00
105    ?    N    ? P      ? 20180313 0011 37.3035 GAU 2.50e-02  0.00e+00  8.05e+00  1.20e-02    8.05e+00
26     ?    N    ? P      ? 20180313 0011 37.3040 GAU 2.34e-02  0.00e+00  7.29e+00  1.20e-02    7.29e+00
35     ?    N    ? P      ? 20180313 0011 37.3019 GAU 1.61e-02  0.00e+00  7.79e+00  8.00e-03    7.79e+00
27     ?    N    ? P      ? 20180313 0011 37.3331 GAU 3.69e-02  0.00e+00  6.18e+00  8.00e-03    6.18e+00
36     ?    N    ? P      ? 20180313 0011 37.3175 GAU 1.40e-02  0.00e+00  6.22e+00  8.00e-03    6.22e+00
#
# EQEVENT:
18     ?    N    ? P      ? 20180313 0011 47.1307 GAU 2.88e-02  0.00e+00  7.05e+00  4.00e-02    7.05e+00
21     ?    N    ? P      ? 20180313 0011 47.1416 GAU 3.56e-02  0.00e+00  7.93e+00  8.00e-03    7.93e+00
17     ?    N    ? P      ? 20180313 0011 47.1307 GAU 1.51e-02  0.00e+00  8.82e+00  8.00e-03    8.82e+00
16     ?    N    ? P      ? 20180313 0011 47.1416 GAU 1.37e-02  0.00e+00  8.81e+00  1.20e-02    8.81e+00
12     ?    N    ? P      ? 20180313 0011 47.1546 GAU 2.67e-02  0.00e+00  7.20e+00  5.60e-02    7.20e+00
15     ?    N    ? P      ? 20180313 0011 47.1519 GAU 1.85e-02  0.00e+00  7.77e+00  8.00e-03    7.77e+00
105    ?    N    ? P      ? 20180313 0011 47.1669 GAU 3.08e-02  0.00e+00  7.57e+00  8.00e-03    7.57e+00
20     ?    N    ? P      ? 20180313 0011 47.1601 GAU 1.71e-02  0.00e+00  7.52e+00  1.20e-02    7.52e+00
10     ?    N    ? P      ? 20180313 0011 47.1710 GAU 2.26e-02  0.00e+00  6.87e+00  1.60e-02    6.87e+00
#
# EQEVENT:
15     ?    N    ? P      ? 20180313 0012 13.2367 GAU 7.32e-03  0.00e+00  9.22e+00  8.00e-03    9.22e+00
17     ?    N    ? P      ? 20180313 0012 13.2574 GAU 1.26e-02  0.00e+00  7.37e+00  1.20e-02    7.37e+00
12     ?    N    ? P      ? 20180313 0012 13.2574 GAU 1.18e-02  0.00e+00  7.11e+00  1.20e-02    7.11e+00
10     ?    N    ? P      ? 20180313 0012 13.2859 GAU 2.65e-02  0.00e+00  6.91e+00  1.20e-02    6.91e+00
16     ?    N    ? P      ? 20180313 0012 13.2753 GAU 1.02e-02  0.00e+00  7.41e+00  1.20e-02    7.41e+00
#
# EQEVENT:
7      ?    N    ? P      ? 20180313 0012 24.2401 GAU 1.31e-02  0.00e+00  9.28e+00  8.00e-03    9.28e+00
9      ?    N    ? P      ? 20180313 0012 24.2401 GAU 1.19e-02  0.00e+00  9.65e+00  8.00e-03    9.65e+00
5      ?    N    ? P      ? 20180313 0012 24.2650 GAU 1.90e-02  0.00e+00  8.38e+00  1.20e-02    8.38e+00
13     ?    N    ? P      ? 20180313 0012 24.2775 GAU 1.84e-02  0.00e+00  8.16e+00  1.20e-02    8.16e+00
4      ?    N    ? P      ? 20180313 0012 24.3030 GAU 3.33e-02  0.00e+00  6.68e+00  8.00e-03    6.68e+00
1      ?    N    ? P      ? 20180313 0012 24.2947 GAU 2.02e-02  0.00e+00  8.23e+00  1.20e-02    8.23e+00
15     ?    N    ? P      ? 20180313 0012 24.2971 GAU 2.02e-02  0.00e+00  7.91e+00  1.60e-02    7.91e+00
#
# EQEVENT:
33     ?    N    ? P      ? 20180313 0012 26.8435 GAU 2.94e-02  0.00e+00  7.36e+00  1.20e-02    7.36e+00
30     ?    N    ? P      ? 20180313 0012 26.9526 GAU 2.31e-02  0.00e+00  8.39e+00  4.40e-02    8.39e+00
27     ?    N    ? P      ? 20180313 0012 26.9670 GAU 2.71e-02  0.00e+00  5.81e+00  8.00e-03    5.81e+00
105    ?    N    ? P      ? 20180313 0012 26.9670 GAU 2.14e-02  0.00e+00  8.13e+00  1.20e-02    8.13e+00
28     ?    N    ? P      ? 20180313 0012 26.9694 GAU 2.37e-02  0.00e+00  7.78e+00  4.80e-02    7.78e+00
32     ?    N    ? P      ? 20180313 0012 26.9815 GAU 1.96e-02  0.00e+00  8.43e+00  1.20e-02    8.43e+00
26     ?    N    ? P      ? 20180313 0012 26.9786 GAU 1.33e-02  0.00e+00  7.33e+00  1.20e-02    7.33e+00
23     ?    N    ? P      ? 20180313 0012 27.1100 GAU 2.31e-02  0.00e+00  7.10e+00  1.20e-02    7.10e+00
25     ?    N    ? P      ? 20180313 0012 26.9913 GAU 1.33e-02  0.00e+00  6.91e+00  1.20e-02    6.91e+00
106    ?    N    ? P      ? 20180313 0012 27.6000 GAU 5.89e-02  0.00e+00  7.31e+00  2.00e-02    7.31e+00
#
# EQEVENT:
33     ?    N    ? P      ? 20180313 0012 31.6549 GAU 1.68e-02  0.00e+00  7.27e+00  1.60e-02    7.27e+00
35     ?    N    ? P      ? 20180313 0012 31.6618 GAU 2.17e-02  0.00e+00  8.07e+00  1.20e-02    8.07e+00
36     ?    N    ? P      ? 20180313 0012 31.6618 GAU 1.38e-02  0.00e+00  7.50e+00  3.20e-02    7.50e+00
32     ?    N    ? P      ? 20180313 0012 31.6653 GAU 1.53e-02  0.00e+00  8.46e+00  1.20e-02    8.46e+00
38     ?    N    ? P      ? 20180313 0012 31.6687 GAU 1.77e-02  0.00e+00  6.78e+00  3.20e-02    6.78e+00
30     ?    N    ? P      ? 20180313 0012 31.6776 GAU 1.68e-02  0.00e+00  8.17e+00  4.40e-02    8.17e+00
105    ?    N    ? P      ? 20180313 0012 31.6875 GAU 1.48e-02  0.00e+00  8.33e+00  1.20e-02    8.33e+00
106    ?    N    ? P      ? 20180313 0012 31.6924 GAU 1.97e-02  0.00e+00  6.76e+00  8.00e-03    6.76e+00
26     ?    N    ? P      ? 20180313 0012 31.6923 GAU 1.86e-02  0.00e+00  7.45e+00  1.20e-02    7.45e+00
28     ?    N    ? P      ? 20180313 0012 31.6934 GAU 1.68e-02  0.00e+00  8.26e+00  1.20e-02    8.26e+00
39     ?    N    ? P      ? 20180313 0012 31.7022 GAU 2.17e-02  0.00e+00  7.13e+00  8.00e-03    7.13e+00
23     ?    N    ? P      ? 20180313 0012 31.7080 GAU 1.86e-02  0.00e+00  8.12e+00  8.00e-03    8.12e+00
27     ?    N    ? P      ? 20180313 0012 31.7095 GAU 1.32e-02  0.00e+00  6.95e+00  1.20e-02    6.95e+00
25     ?    N    ? P      ? 20180313 0012 31.7291 GAU 1.82e-02  0.00e+00  7.21e+00  1.20e-02    7.21e+00
#
# EQEVENT:
42     ?    N    ? P      ? 20180313 0012 35.3519 GAU 9.21e-03  0.00e+00  8.97e+00  1.20e-02    8.97e+00
36     ?    N    ? P      ? 20180313 0012 35.3726 GAU 2.14e-02  0.00e+00  7.35e+00  1.20e-02    7.35e+00
39     ?    N    ? P      ? 20180313 0012 35.3624 GAU 1.05e-02  0.00e+00  9.44e+00  8.00e-03    9.44e+00
41     ?    N    ? P      ? 20180313 0012 35.3634 GAU 9.54e-03  0.00e+00  9.11e+00  1.20e-02    9.11e+00
38     ?    N    ? P      ? 20180313 0012 35.3763 GAU 1.05e-02  0.00e+00  7.05e+00  2.00e-02    7.05e+00
35     ?    N    ? P      ? 20180313 0012 35.4006 GAU 2.90e-02  0.00e+00  7.63e+00  8.00e-03    7.63e+00
40     ?    N    ? P      ? 20180313 0012 35.4371 GAU 4.31e-02  0.00e+00  8.72e+00  8.00e-03    8.72e+00
32     ?    N    ? P      ? 20180313 0012 35.4589 GAU 1.94e-02  0.00e+00  7.10e+00  8.00e-03    7.10e+00
37     ?    N    ? P      ? 20180313 0012 35.4770 GAU 1.71e-02  0.00e+00  7.14e+00  8.00e-03    7.14e+00
#
# EQEVENT:
21     ?    N    ? P      ? 20180313 0012 54.7581 GAU 2.61e-02  0.00e+00  7.29e+00  8.00e-03    7.29e+00
25     ?    N    ? P      ? 20180313 0012 54.8060 GAU 3.16e-02  0.00e+00  6.97e+00  2.40e-02    6.97e+00
16     ?    N    ? P      ? 20180313 0012 54.8235 GAU 3.38e-02  0.00e+00  6.86e+00  4.80e-02    6.86e+00
23     ?    N    ? P      ? 20180313 0012 54.8109 GAU 2.12e-02  0.00e+00  7.42e+00  1.20e-02    7.42e+00
26     ?    N    ? P      ? 20180313 0012 54.8158 GAU 2.61e-02  0.00e+00  7.14e+00  1.20e-02    7.14e+00
105    ?    N    ? P      ? 20180313 0012 54.8099 GAU 2.01e-02  0.00e+00  7.62e+00  6.80e-02    7.62e+00
106    ?    N    ? P      ? 20180313 0012 54.8191 GAU 2.40e-02  0.00e+00  7.23e+00  1.20e-02    7.23e+00
103    ?    N    ? P      ? 20180313 0012 54.8240 GAU 2.34e-02  0.00e+00  6.67e+00  1.20e-02    6.67e+00
18     ?    N    ? P      ? 20180313 0012 54.8207 GAU 1.91e-02  0.00e+00  6.62e+00  2.40e-02    6.62e+00
28     ?    N    ? P      ? 20180313 0012 54.8289 GAU 2.72e-02  0.00e+00  6.66e+00  8.00e-03    6.66e+00
17     ?    N    ? P      ? 20180313 0012 54.8387 GAU 3.59e-02  0.00e+00  6.49e+00  4.80e-02    6.49e+00
20     ?    N    ? P      ? 20180313 0012 54.8240 GAU 2.01e-02  0.00e+00  7.13e+00  5.60e-02    7.13e+00
31     ?    N    ? P      ? 20180313 0012 54.8371 GAU 2.56e-02  0.00e+00  6.34e+00  1.20e-02    6.34e+00
27     ?    N    ? P      ? 20180313 0012 54.8376 GAU 2.18e-02  0.00e+00  5.60e+00  8.00e-03    5.60e+00
30     ?    N    ? P      ? 20180313 0012 54.8469 GAU 3.10e-02  0.00e+00  6.72e+00  1.20e-02    6.72e+00
22     ?    N    ? P      ? 20180313 0012 54.8790 GAU 3.92e-02  0.00e+00  6.55e+00  1.60e-02    6.55e+00
#
